<?xml version="1.0" encoding="utf-8"?>
<kml xmlns="http://www.opengis.net/kml/2.2">
<Document>
  <name>Somerville (polygon: official_shp)</name>
  <open>1</open>

  <Placemark>
    <name>Somerville (polygon: official_shp)</name>
    <Style>
      <LineStyle><color>ffff0000</color><width>2</width></LineStyle>
      <PolyStyle><color>66ff0000</color><fill>1</fill><outline>1</outline></PolyStyle>
    </Style>
    <Polygon>
      <tessellate>1</tessellate>
      <altitudeMode>relativeToGround</altitudeMode>
      <outerBoundaryIs><LinearRing><coordinates>174.94263899310522,-36.91164199278507,100 174.94246700217985,-36.911742994881635,100 174.94242699101923,-36.91175599457322,100 174.94218200247022,-36.91183100396771,100 174.94193700601667,-36.911907004432685,100 174.94174400470752,-36.911966999621264,100 174.94139900443363,-36.912072997408266,100 174.94137099630237,-36.912087996119446,100 174.9411329970088,-36.91221599885974,100 174.94088500257206,-36.912348996412334,100 174.94067900622323,-36.912459000601544,100 174.94046199925995,-36.912576000063886,100 174.94044499444894,-36.912584993594756,100 174.94022599794408,-36.91270199810137,100 174.9400409955912,-36.912800999298746,100 174.93979799466499,-36.9125089953578,100 174.93962700040115,-36.91230299956841,100 174.9395029962633,-36.91215399211781,100 174.93931499376643,-36.91192700717999,100 174.93917699808256,-36.911760996577165,100 174.93904100543372,-36.91159800133207,100 174.9389019970804,-36.91143100195843,100 174.93875899470913,-36.91125899413152,100 174.93864800027058,-36.91112500639876,100 174.93851899683762,-36.9111939931295,100 174.93830600558988,-36.91130800557176,100 174.93808199275657,-36.91142800735927,100 174.9378490072099,-36.91155300059461,100 174.9376530016786,-36.91165800371138,100 174.93763400044355,-36.911667992917714,100 174.93744099172318,-36.911771996812035,100 174.93728299441838,-36.911855998791246,100 174.93713300743494,-36.91199000355403,100 174.93694100525505,-36.912161993285395,100 174.9367979977432,-36.91228899687625,100 174.93654599324768,-36.91251499680681,100 174.93676300131148,-36.91267099905602,100 174.9369550084433,-36.91280900388836,100 174.93722699718188,-36.913003992426965,100 174.9374159946142,-36.91314000591358,100 174.9375289915401,-36.91322099201244,100 174.93766699163615,-36.91332000636386,100 174.9378879951344,-36.91347900123888,100 174.9381099959009,-36.91363900059673,100 174.93833100123302,-36.913797994585536,100 174.938547999713,-36.9139539936036,100 174.938699991903,-36.914062993761696,100 174.93873999642562,-36.914091995608715,100 174.93881500134518,-36.91406700171628,100 174.93908999760382,-36.913976996282244,100 174.94069900543343,-36.91517600043353,100 174.94073954517722,-36.91520861700748,100 174.940751373065,-36.91523910071515,100 174.9407563475623,-36.91524635157989,100 174.94075816326267,-36.915250717597985,100 174.9407649973176,-36.915281911130144,100 174.94076185926676,-36.91529463574224,100 174.94075375777476,-36.91531604538088,100 174.94074754867069,-36.91540356766772,100 174.94072003740945,-36.91547183367913,100 174.94070334479977,-36.9155001651741,100 174.94068666402706,-36.915544464090665,100 174.94065505680436,-36.91559169644309,100 174.94064060268124,-36.91560914587864,100 174.9406022264331,-36.9156759805765,100 174.94060178423885,-36.91567996889118,100 174.94057835392013,-36.91574388785743,100 174.9405760955969,-36.91574787790925,100 174.94056482507432,-36.915780928371355,100 174.9405368274313,-36.91582306157954,100 174.94051337285507,-36.91586374965087,100 174.9404808407444,-36.91589828138237,100 174.94047722276778,-36.91590372042428,100 174.9403990103982,-36.915966965325644,100 174.9403954065026,-36.915971675876136,100 174.94038998170507,-36.915976775802505,100 174.9403316704501,-36.91601821364489,100 174.94029685480578,-36.9160396685702,100 174.94028419929984,-36.91605093893405,100 174.940209150688,-36.91609238159495,100 174.94018879120995,-36.916098943188224,100 174.94016933473836,-36.91610441836659,100 174.94014491857496,-36.916116782170285,100 174.94010513854448,-36.91614441280864,100 174.9400920190323,-36.916152035918806,100 174.9400770996532,-36.91616331530582,100 174.94007485650695,-36.91616657684148,100 174.94006944069156,-36.9161720326244,100 174.94006038823449,-36.91617855999066,100 174.94000253333593,-36.91623018043567,100 174.9399853663272,-36.91625269711585,100 174.93997634177924,-36.916265775646195,100 174.93992074932245,-36.91631919776573,100 174.9399157909174,-36.91632246129285,100 174.9399094450717,-36.91632864700067,100 174.93984982595344,-36.91640204211198,100 174.93984396664783,-36.91641329875348,100 174.9397942893132,-36.91647796628192,100 174.93978841357446,-36.916489239412755,100 174.9397708035295,-36.9165113757359,100 174.93973645703417,-36.91654409733013,100 174.93971793174205,-36.91656807915725,100 174.9396596270984,-36.91662221603343,100 174.93964970346968,-36.91663348316961,100 174.9396429190301,-36.916638220410796,100 174.9395945485795,-36.91667964965324,100 174.93957466388812,-36.91669454862269,100 174.93956155810605,-36.916707637899606,100 174.9395050503275,-36.916748701587274,100 174.9394838001508,-36.91676615101952,100 174.93947297106064,-36.916777789848446,100 174.9394639130633,-36.91678286254542,100 174.93940154915032,-36.91683775329355,100 174.93939295888157,-36.916847199617045,100 174.93935951684043,-36.91687518076217,100 174.93931022658967,-36.916907163855676,100 174.93930435174187,-36.916912271984415,100 174.93929937791538,-36.91691807563129,100 174.93929124510075,-36.91692533060156,100 174.93928629100466,-36.91692752597956,100 174.9392365560545,-36.916962783555974,100 174.93915880776694,-36.91701912775599,100 174.93911132315603,-36.9170464016787,100 174.9391018105082,-36.917050056800576,100 174.93909278721384,-36.91705512800176,100 174.93907831398536,-36.917065687043895,100 174.93897068228455,-36.917123139182976,100 174.938907872067,-36.91717075888114,100 174.93882062952295,-36.9172463530461,100 174.9387948657465,-36.91726815727485,100 174.9387230163417,-36.91734700615046,100 174.93871804901528,-36.917354266185264,100 174.9386615713602,-36.91740950029342,100 174.93865387946371,-36.91741457856816,100 174.93858473126855,-36.917479270542565,100 174.93856214142502,-36.91749454338629,100 174.93854676672242,-36.91751126672315,100 174.9385164749632,-36.91753561259787,100 174.93849974165656,-36.917547622621086,100 174.9384726253865,-36.917570503392874,100 174.938463592438,-36.91757958643812,100 174.93841298927092,-36.917622835348574,100 174.93839717003866,-36.9176384519028,100 174.9383917433018,-36.91764791862114,100 174.938380003593,-36.91765663214149,100 174.9383741130072,-36.91766245341868,100 174.93835695098474,-36.91767770522382,100 174.93832077525727,-36.91771368116438,100 174.93831627786093,-36.9177198636566,100 174.93830995088987,-36.917726760106646,100 174.93829051106144,-36.917740939568496,100 174.93827605147547,-36.917755106238324,100 174.9382525507439,-36.91778490679511,100 174.9382475759119,-36.91779253827314,100 174.9382340270036,-36.917809600405796,100 174.93822636080571,-36.917823056817156,100 174.9382114421947,-36.91783940042599,100 174.93820784192084,-36.91784483911137,100 174.93820333678033,-36.917848854073846,100 174.93816358532092,-36.917905522032484,100 174.93815228021765,-36.917923690395995,100 174.9381057681971,-36.91798724743285,100 174.93808273920584,-36.91801595598088,100 174.9380759568552,-36.918021405135505,100 174.93805472336857,-36.91804322089444,100 174.9380425246832,-36.91805846195357,100 174.93801042522426,-36.91809371331886,100 174.93796752823962,-36.91814856413137,100 174.93796302282553,-36.918156915294595,100 174.9379286818353,-36.91819798422529,100 174.93789569628947,-36.918243023832524,100 174.93786953616984,-36.91828914988943,100 174.9378604932146,-36.918306580090324,100 174.93777780991988,-36.918405043766775,100 174.93777377177997,-36.91841159008462,100 174.93776562633923,-36.918422127731674,100 174.93772952793958,-36.91849076482799,100 174.93770608443745,-36.918552514002016,100 174.93769298319665,-36.91857139572585,100 174.93765141754662,-36.91861318273851,100 174.93762564522507,-36.918632817403804,100 174.93762430502548,-36.91863499430525,100 174.9376184230396,-36.91863863243122,100 174.93761300685424,-36.91864408720915,100 174.93760667088875,-36.91864881521603,100 174.9375903935372,-36.91866479605904,100 174.93754428980972,-36.91870260659111,100 174.93753752018077,-36.91870913888339,100 174.93752110583088,-36.918720816391776,100 174.93750993123243,-36.9187287608028,100 174.93748914510178,-36.91874799682331,100 174.9374407787816,-36.91878214615455,100 174.93742542203543,-36.91879702587615,100 174.9374096100703,-36.918814809834934,100 174.9373626170571,-36.918855500974246,100 174.93734544572072,-36.91887475010063,100 174.93734003054627,-36.918882730322096,100 174.93733459869597,-36.91888889827982,100 174.93732873458413,-36.918892534297484,100 174.93732239463515,-36.91889834843372,100 174.93729031271909,-36.9189230521858,100 174.93726546974935,-36.91895063108661,100 174.93725778081156,-36.918960804333224,100 174.93724717280205,-36.91897171199906,100 174.93723022630672,-36.91898911335967,100 174.93722661614905,-36.91899421058045,100 174.9372225424977,-36.91899820314507,100 174.93721965404674,-36.91900316421119,100 174.93721892722468,-36.91900438472569,100 174.9372062766305,-36.91902143118751,100 174.93719996029978,-36.91903124044186,100 174.93717421370337,-36.9190660977271,100 174.93714982558382,-36.91910819560675,100 174.93711447943465,-36.91914918967158,100 174.93710287006596,-36.919162669776405,100 174.9371019853105,-36.91916443635677,100 174.93709835038072,-36.919171749399204,100 174.9370951816898,-36.91917597235385,100 174.9370647150347,-36.9192164749084,100 174.93705904611164,-36.919224011305175,100 174.93705059466424,-36.91923040336065,100 174.93704368435735,-36.91923563823026,100 174.93703690322803,-36.91924362720008,100 174.93702741057453,-36.919252346297114,100 174.93701250539374,-36.91926977381599,100 174.9369890352986,-36.9193013546178,100 174.93697547861683,-36.91932749203276,100 174.93697519749284,-36.91932858179623,100 174.93696783290193,-36.919357256343815,100 174.93695357531558,-36.919383066296255,100 174.9369335215237,-36.91941932504585,100 174.936931798072,-36.919423259437345,100 174.9369127714953,-36.91946724278482,100 174.93689018512174,-36.919505715895866,100 174.93688161757177,-36.91952349338571,100 174.93688080702185,-36.91952606362444,100 174.93687800506527,-36.91953475559861,100 174.93686312361297,-36.91956488217786,100 174.93683555928703,-36.91960590606287,100 174.93681930051358,-36.91962441016894,100 174.93678858890237,-36.919669796344614,100 174.93678633845326,-36.91968032160031,100 174.936772341962,-36.91971117641451,100 174.93676060908896,-36.919732603553385,100 174.936748442234,-36.919749655597315,100 174.93672602454023,-36.91979484699922,100 174.93671998230232,-36.919807020402246,100 174.93671637168637,-36.91981210229299,100 174.9367155100017,-36.91981345028616,100 174.93671315796078,-36.91981720925645,100 174.93668295850037,-36.91986545141727,100 174.93666808227624,-36.9198851848752,100 174.9366662474849,-36.91988760327177,100 174.93666157530043,-36.919896204966754,100 174.93664976538275,-36.919918005592585,100 174.93664785779626,-36.919921540097214,100 174.93664685300007,-36.919923354598815,100 174.9366400597309,-36.919935881842974,100 174.93663351989318,-36.9199525699096,100 174.9366102980887,-36.92001172939492,100 174.9365792136876,-36.920124616235874,100 174.93657244330504,-36.920139868665935,100 174.93656972537568,-36.9201478463258,100 174.9365598249409,-36.92018922020748,100 174.9365329268223,-36.9202523792593,100 174.9365314019108,-36.920255998553785,100 174.93652434050264,-36.92027878437379,100 174.93652103834881,-36.92028940518926,100 174.9365169141558,-36.920321446436176,100 174.9365129612017,-36.920352180693996,100 174.93650982410927,-36.920361250365865,100 174.93650849244963,-36.92036935864007,100 174.93650442260986,-36.92039462925675,100 174.9365044523068,-36.92043427742117,100 174.93650448825832,-36.920446171429454,100 174.93650448126354,-36.92045587955882,100 174.93650450339507,-36.920469756675516,100 174.93650633814784,-36.92048970159786,100 174.93650230200802,-36.92053179192074,100 174.93650052247983,-36.920543052170665,100 174.9365001059672,-36.920551082428915,100 174.93649649815686,-36.920622264574774,100 174.9364940756438,-36.92067072157728,100 174.93649403341732,-36.92067109360581,100 174.93649386662696,-36.92067439602337,100 174.9364937528415,-36.92067531180776,100 174.93649146294266,-36.92069430911753,100 174.93648670057257,-36.92073391735591,100 174.9364862954951,-36.9207909030059,100 174.93649265715342,-36.920841231186735,100 174.93649499010363,-36.92085983584679,100 174.9364949373131,-36.92086045590795,100 174.9364931194943,-36.920887731265566,100 174.93649275318754,-36.92089321991056,100 174.93649004611595,-36.92090846195315,100 174.93648914579381,-36.92091897780315,100 174.93648689810277,-36.92092770669553,100 174.93647480348733,-36.92102639192245,100 174.93646991609018,-36.92110876306726,100 174.93646450834595,-36.92113635023466,100 174.93645144945495,-36.92117046958793,100 174.93644014187143,-36.92119478657066,100 174.93643928398222,-36.92119752792579,100 174.93643475394376,-36.9212118416014,100 174.93643068058947,-36.921220200983576,100 174.93641716552594,-36.921270280965906,100 174.93640817831061,-36.92131962915417,100 174.93638294380096,-36.92141218431675,100 174.93638259132302,-36.92143184403867,100 174.93638208751761,-36.92145790282794,100 174.93638485834293,-36.92151596242002,100 174.93638487079158,-36.92151641016828,100 174.93638490011116,-36.921533012728375,100 174.93636556428598,-36.92164370610582,100 174.9363452637044,-36.92170285935797,100 174.93634346821327,-36.921712292007136,100 174.9363398721089,-36.921721014042284,100 174.93627305665018,-36.92184189671096,100 174.93626492055057,-36.92186147965505,100 174.93624054084293,-36.9218983261766,100 174.9362238107136,-36.92192356076229,100 174.93621845877936,-36.92193383193414,100 174.9362179672892,-36.92193481606726,100 174.93621180351943,-36.92194325909922,100 174.9362102880733,-36.92194534600738,100 174.93619030552443,-36.92199417945179,100 174.93618726146838,-36.92200160540983,100 174.93617551605664,-36.922018295407376,100 174.93615849506799,-36.922036781208234,100 174.93612886568772,-36.922068906615436,100 174.936124552062,-36.92207358354536,100 174.93610697667708,-36.922092653414296,100 174.93606438844284,-36.922138855852644,100 174.93605941541674,-36.92214719924601,100 174.93605308278242,-36.9221551808483,100 174.93602688332635,-36.92218315565553,100 174.9360223682753,-36.92218932302791,100 174.93602189828954,-36.922190447414025,100 174.9360200992063,-36.92219476878594,100 174.93601922372588,-36.922207468101256,100 174.936018458049,-36.92222597367005,100 174.9360183382565,-36.92222851641694,100 174.93601607593928,-36.92223795757347,100 174.93601574078298,-36.92223895357788,100 174.93601036420384,-36.92225393358742,100 174.93600901559168,-36.92225769060497,100 174.935998956094,-36.92228587184438,100 174.93599173492598,-36.92230728032873,100 174.93598270887674,-36.92232288315579,100 174.9359772872151,-36.92232942312771,100 174.93595998904388,-36.9223572383763,100 174.93286400437606,-36.92137599318059,100 174.93277800364635,-36.92134900441005,100 174.93276499484105,-36.92138499638783,100 174.93258900795206,-36.92124900742172,100 174.93272399451132,-36.92108199313076,100 174.9325049955231,-36.92096699799788,100 174.9324100054961,-36.92091700056333,100 174.93228500194985,-36.920850998350375,100 174.93217599145655,-36.920759992983484,100 174.932074003686,-36.92067400441365,100 174.9319920032111,-36.920626002598844,100 174.9318579971927,-36.920548995368,100 174.93182399275383,-36.92052999642383,100 174.9316419929507,-36.92042400300605,100 174.93141299850393,-36.9202919939081,100 174.93146899722575,-36.92022300344209,100 174.9315269971411,-36.92012699874501,100 174.93162899476687,-36.91995699902546,100 174.93172599808813,-36.91979399622534,100 174.93160399225985,-36.919682004649985,100 174.93137900485735,-36.91947299883016,100 174.93130100153985,-36.919571003428516,100 174.93115199840517,-36.919762006262175,100 174.93096300595096,-36.92000199831539,100 174.93079600849052,-36.91990999942627,100 174.93061899168228,-36.91981399642807,100 174.93051099993156,-36.91975399244642,100 174.9304430032183,-36.91971700032107,100 174.9302580043041,-36.919615006625754,100 174.93008199235663,-36.919519001793155,100 174.92997799234263,-36.91946199238639,100 174.9299060040879,-36.919422003963525,100 174.92983699443275,-36.919383992336755,100 174.92972100128992,-36.919321001815405,100 174.92954499709026,-36.91922400369467,100 174.9293689933533,-36.919127006199524,100 174.92919300042013,-36.91903099880232,100 174.92921699442002,-36.919001996854185,100 174.92903499894675,-36.91877600310108,100 174.9289830055805,-36.91877799957268,100 174.92906499236696,-36.91888000675072,100 174.9287940081283,-36.91911100642628,100 174.92866600325698,-36.91895200573012,100 174.92855599736646,-36.91881599255976,100 174.92836399619722,-36.91857699837865,100 174.92835699887195,-36.918575992577274,100 174.92842199484457,-36.91875200704586,100 174.92798299980655,-36.91874300624319,100 174.92806499377775,-36.918686006357575,100 174.92807700712586,-36.91865899907552,100 174.92808699780102,-36.9186319966927,100 174.9280969960505,-36.918604002742846,100 174.92810600839454,-36.91857599595793,100 174.92811400043595,-36.91854799221898,100 174.92812100732283,-36.9185200053765,100 174.92812699959651,-36.91849099940011,100 174.92813200025924,-36.91846300186853,100 174.92785699427228,-36.91833499734115,100 174.92784300206654,-36.918327998678016,100 174.92771200582143,-36.918266993745284,100 174.92766299836077,-36.9182449933009,100 174.92747900314555,-36.91815899157606,100 174.9275979983219,-36.91798999375456,100 174.927659991841,-36.9179020036105,100 174.9277190009958,-36.91781800241742,100 174.92772400538087,-36.91780200671113,100 174.9277419949239,-36.917631000748344,100 174.92774699929535,-36.917550006011766,100 174.92775199558773,-36.91745999738201,100 174.92775799922362,-36.91734700335788,100 174.92776199622392,-36.917288994011464,100 174.9277690030812,-36.917170995836535,100 174.92777199724082,-36.91711800685372,100 174.92777900044788,-36.9169880059595,100 174.92778199784445,-36.91694700437571,100 174.9278420030291,-36.916949000081395,100 174.92789899898094,-36.91695100315016,100 174.92790400237502,-36.916760002354366,100 174.92790999754604,-36.91657299358781,100 174.92786500254448,-36.91657099398313,100 174.92787500330883,-36.91640000680651,100 174.92788500363721,-36.91622900340868,100 174.9278929982168,-36.91605800643037,100 174.92789499288205,-36.916042002792956,100 174.92790800210477,-36.915826002088494,100 174.9279140042194,-36.91571799501962,100 174.92791899447488,-36.91563399641135,100 174.9279240044396,-36.915546991605034,100 174.92793400504047,-36.915376004403235,100 174.92793499423803,-36.91535800625919,100 174.92794299808082,-36.91522300031706,100 174.92794500340807,-36.91518299184899,100 174.92790799746962,-36.915070997964754,100 174.9278559953964,-36.914917006600476,100 174.92781999139189,-36.91486499228506,100 174.92779199364585,-36.91482299496596,100 174.92776500251102,-36.914782993028744,100 174.92764299351862,-36.91465600564043,100 174.927505004918,-36.91451200472868,100 174.92754599455162,-36.91448799632649,100 174.92753299595628,-36.91447500217799,100 174.92752099965557,-36.91446200527937,100 174.92746699667046,-36.91449499556136,100 174.92731099440476,-36.91436299393377,100 174.92733700348614,-36.91434499892952,100 174.9271130022351,-36.91413000541661,100 174.92686800730542,-36.91388800355715,100 174.92678399582002,-36.91371500678224,100 174.9268009999774,-36.913639001686555,100 174.92670800560438,-36.91353000410285,100 174.92669499545954,-36.9135160032777,100 174.92668199679156,-36.91350299370901,100 174.92666899736872,-36.91348999857206,100 174.92665399300972,-36.913476993599154,100 174.9266389921737,-36.91346600210012,100 174.92662299513714,-36.9134540055733,100 174.92660700735536,-36.91344300123959,100 174.92658999435284,-36.91343300588136,100 174.9265729977766,-36.91342299403051,100 174.92655500856227,-36.9134139924286,100 174.92653599185985,-36.91340599893663,100 174.9265169931131,-36.91339800515027,100 174.92649826271875,-36.91339095158348,100 174.92641936190736,-36.91353525995437,100 174.92625566639038,-36.91362763373936,100 174.92613000003348,-36.913587066948516,100 174.92592631348214,-36.91352133162983,100 174.92572172039604,-36.91345528618378,100 174.92562461430057,-36.9134239195996,100 174.92541456132295,-36.91335614510045,100 174.9253632711749,-36.913308382366104,100 174.92522764561224,-36.91318207011137,100 174.92519813233037,-36.91315457991404,100 174.9251286519509,-36.913089888764915,100 174.925073866177,-36.91306388618697,100 174.92492895491253,-36.91299510259823,100 174.92491928439682,-36.91299052114326,100 174.92490426323903,-36.912984422978624,100 174.92471912398852,-36.91290898512188,100 174.92452216435316,-36.91282875516545,100 174.92448995252417,-36.91281562227352,100 174.9242599959988,-36.91272199499145,100 174.92438100575112,-36.91254899915093,100 174.9245090063533,-36.912365006541705,100 174.92459400092233,-36.912330999800794,100 174.9246259910999,-36.91231799366609,100 174.9248770024305,-36.91234200224688,100 174.92504999599967,-36.91235900633066,100 174.92504100076857,-36.91234699342568,100 174.9253740066873,-36.91237299314656,100 174.92541899605231,-36.912367994222116,100 174.9254899941078,-36.91235999222826,100 174.9255609997408,-36.912350997723394,100 174.9256320011737,-36.912340006835585,100 174.92570300217662,-36.912328999688846,100 174.9258709997944,-36.912326004129866,100 174.92610600127796,-36.91228500114154,100 174.92609900517135,-36.912243991296044,100 174.9260939985347,-36.91221299792362,100 174.9260899952855,-36.91218200179694,100 174.9260860088697,-36.91215100539692,100 174.9260840005664,-36.91211899808838,100 174.9260830041296,-36.912087994655145,100 174.9260829946538,-36.91205700495802,100 174.92608299210582,-36.912010002418455,100 174.92619999947263,-36.91201700604232,100 174.92640500152652,-36.91195600129721,100 174.9265859994309,-36.91190299720642,100 174.92654799404548,-36.911810999321276,100 174.92653600609412,-36.91169199242638,100 174.9265500080508,-36.91165999309162,100 174.92659699702898,-36.91155599439881,100 174.92664099808806,-36.91145900319985,100 174.9266579985128,-36.911421003836836,100 174.9267529948776,-36.91128799440352,100 174.92677000173197,-36.91126399411667,100 174.92684799233587,-36.911154996594995,100 174.92694599939384,-36.91106899842739,100 174.92699099896907,-36.911030004823374,100 174.9271270033032,-36.910909999009476,100 174.92713200775165,-36.91091399804618,100 174.9271439933084,-36.91090099228825,100 174.92714200134043,-36.91089899755915,100 174.92730000094542,-36.91077599918597,100 174.92745699126266,-36.91065399220796,100 174.92760800530178,-36.910535994628646,100 174.92764499586625,-36.91056999563551,100 174.9278119927043,-36.910431006371184,100 174.92774699926105,-36.91038099658385,100 174.92790300175037,-36.91026399383058,100 174.9279480005678,-36.910230001269916,100 174.92806799215748,-36.9101400003861,100 174.92817600834556,-36.91005899423609,100 174.92819600619302,-36.91004000696269,100 174.92821900400105,-36.910016999792404,100 174.92835699620554,-36.90988399493245,100 174.92851200203114,-36.909736003307195,100 174.92821999597808,-36.90953300555647,100 174.92835199434884,-36.90939400514294,100 174.9285459964776,-36.909514997296554,100 174.92866499260185,-36.90958899329397,100 174.92880200252137,-36.90945800209078,100 174.92890899825954,-36.909289000436516,100 174.92901899177312,-36.90911399682196,100 174.9290480030059,-36.90908899275267,100 174.9291940007373,-36.908962998911065,100 174.9292279916786,-36.90893299724382,100 174.92934800032003,-36.90883000058427,100 174.92940299695695,-36.908785004068775,100 174.92949899677544,-36.908705991879,100 174.9295539943566,-36.908660995279575,100 174.92960000415914,-36.908623003678265,100 174.9296419956183,-36.90858099530234,100 174.9297970053323,-36.90842400416204,100 174.92982000332623,-36.90840099758633,100 174.92992600511724,-36.90829300124208,100 174.9300549972671,-36.90816300417437,100 174.93018399615553,-36.90803200009317,100 174.9300529943632,-36.907939000926255,100 174.93032399961538,-36.907690993120035,100 174.93049500403382,-36.90757099328849,100 174.93055699465447,-36.90761499989641,100 174.9307650086535,-36.90742800644218,100 174.93079499328834,-36.9074019937841,100 174.930954000168,-36.90725900657942,100 174.93099600419717,-36.907220003409336,100 174.93109199714925,-36.9071340048928,100 174.93113900064523,-36.90709200012756,100 174.93131160150838,-36.90693673634757,100 174.93138798726085,-36.90699110967911,100 174.93153433078808,-36.90709493771435,100 174.93154248221285,-36.9071008475446,100 174.9316969790912,-36.90721059959114,100 174.9317894788292,-36.90727617706255,100 174.9318514749478,-36.90732033792599,100 174.93200597081346,-36.90743005892716,100 174.93201272241262,-36.90743475489448,100 174.93216926826008,-36.90754608091343,100 174.93223584497866,-36.90759330361512,100 174.93249101433713,-36.907774587920386,100 174.93255244455932,-36.90781826279145,100 174.93271375038734,-36.90793281842712,100 174.9328798458346,-36.907783073355496,100 174.9330359891933,-36.90764228775446,100 174.9331783317671,-36.9075138762921,100 174.93323004671822,-36.907467231576106,100 174.93337758651774,-36.9073342052813,100 174.93339121395522,-36.90732188060897,100 174.93353903973377,-36.907188600699705,100 174.93360505980613,-36.907129109055724,100 174.93368688219215,-36.907055334759534,100 174.93383472566936,-36.90692208484604,100 174.93388713173698,-36.90687483913764,100 174.93398292125997,-36.90678848742075,100 174.93406135257982,-36.906717746029834,100 174.9342195321687,-36.9065751420461,100 174.93434890106343,-36.90646281982725,100 174.93445034353743,-36.90637463072814,100 174.93447708478087,-36.90635140186389,100 174.93452421784923,-36.90631039863527,100 174.93461500486558,-36.90623200267206,100 174.9346649937188,-36.90618800557689,100 174.9347989964928,-36.9060719922267,100 174.93497499719922,-36.90591810271935,100 174.93499137130803,-36.90590385568268,100 174.93523899955233,-36.90608000322496,100 174.93545500348606,-36.90623300524708,100 174.93564700699048,-36.90636899818968,100 174.9358370045422,-36.906504995566145,100 174.93608000171656,-36.90667800269341,100 174.93628300734122,-36.906820999573995,100 174.93687499941663,-36.907242006083706,100 174.9366220056725,-36.90738199201368,100 174.93676300336668,-36.90752399282309,100 174.93683200377245,-36.907593006771044,100 174.9370559914985,-36.90781899358979,100 174.9372070030176,-36.907971005424464,100 174.93722099944094,-36.907985003429076,100 174.9373640023525,-36.90813000278822,100 174.93750400655017,-36.9082709976865,100 174.93763700570753,-36.90840499444707,100 174.9377770004518,-36.90854499861706,100 174.9379440070833,-36.9087149973361,100 174.93809499445132,-36.90886600160403,100 174.93822799569375,-36.90899999762983,100 174.93847799257728,-36.90925199890998,100 174.93860599769818,-36.9093810043558,100 174.93888300462478,-36.909661002013735,100 174.93925700253203,-36.90942300429324,100 174.93944100275968,-36.90930500395231,100 174.9396289910075,-36.909184994970296,100 174.9398189932238,-36.90906400642289,100 174.94025600593594,-36.90878499324099,100 174.9404639979208,-36.90865200263592,100 174.94065099867814,-36.908531994678526,100 174.94082700077533,-36.90842000488017,100 174.94086300070444,-36.90845799899668,100 174.94099200532224,-36.90859299275536,100 174.94113799547205,-36.908744996793864,100 174.94127599965458,-36.908888997747674,100 174.94131399266965,-36.90892900061009,100 174.94142200887123,-36.90904100020261,100 174.94145699554224,-36.90907800663115,100 174.94154699582865,-36.90917199318383,100 174.94164400274695,-36.90927299358192,100 174.94166599832133,-36.909324000597415,100 174.94170800746468,-36.90942499789299,100 174.94174799556444,-36.90951799302594,100 174.94177499403062,-36.9095810066049,100 174.94183400244364,-36.90971999827762,100 174.94184099507754,-36.90973700164277,100 174.94190799865336,-36.90989299466495,100 174.9419149975824,-36.909909005578456,100 174.94197399953205,-36.91004900493973,100 174.94198700038888,-36.91007999393409,100 174.94204000142597,-36.91020499983184,100 174.94206000140065,-36.910252002421736,100 174.94210700585484,-36.9103609927064,100 174.9421320016937,-36.910421006026645,100 174.94217300872538,-36.91051700371799,100 174.9422049983185,-36.910591000049756,100 174.9422359927551,-36.91066399236253,100 174.94223999574976,-36.910672995886564,100 174.94227299744392,-36.91075100180018,100 174.9422780062209,-36.91076200059938,100 174.94230599918566,-36.91082900680077,100 174.9423399958123,-36.910907999579074,100 174.9423429915686,-36.91091499342581,100 174.9423689993531,-36.91097900006789,100 174.94240800028555,-36.91107500343406,100 174.94241400267455,-36.91108999410442,100 174.94243300712253,-36.911136006137966,100 174.94248300733892,-36.91125999823597,100 174.94255499752322,-36.91143600308241,100 174.94263899310522,-36.91164199278507,100</coordinates></LinearRing></outerBoundaryIs>
    </Polygon>
  </Placemark>

  <Placemark>
    <name>Somerville</name>
    <Point>
      <altitudeMode>relativeToGround</altitudeMode>
      <coordinates>174.9336983709233,-36.91378366263105,100</coordinates>
    </Point>
  </Placemark>

</Document>
</kml>