<?xml version="1.0" encoding="UTF-8"?>
<kml xmlns="http://www.opengis.net/kml/2.2">
  <Document>
    <name>Somerville (polygon: official_shp)</name>
    <Style id="icon-1899-0288D1-nodesc-normal">
      <IconStyle>
        <color>ffd18802</color>
        <scale>1</scale>
        <Icon>
          <href>https://www.gstatic.com/mapspro/images/stock/503-wht-blank_maps.png</href>
        </Icon>
        <hotSpot x="32" xunits="pixels" y="64" yunits="insetPixels"/>
      </IconStyle>
      <LabelStyle>
        <scale>0</scale>
      </LabelStyle>
      <BalloonStyle>
        <text><![CDATA[<h3>$[name]</h3>]]></text>
      </BalloonStyle>
    </Style>
    <Style id="icon-1899-0288D1-nodesc-highlight">
      <IconStyle>
        <color>ffd18802</color>
        <scale>1</scale>
        <Icon>
          <href>https://www.gstatic.com/mapspro/images/stock/503-wht-blank_maps.png</href>
        </Icon>
        <hotSpot x="32" xunits="pixels" y="64" yunits="insetPixels"/>
      </IconStyle>
      <LabelStyle>
        <scale>1</scale>
      </LabelStyle>
      <BalloonStyle>
        <text><![CDATA[<h3>$[name]</h3>]]></text>
      </BalloonStyle>
    </Style>
    <StyleMap id="icon-1899-0288D1-nodesc">
      <Pair>
        <key>normal</key>
        <styleUrl>#icon-1899-0288D1-nodesc-normal</styleUrl>
      </Pair>
      <Pair>
        <key>highlight</key>
        <styleUrl>#icon-1899-0288D1-nodesc-highlight</styleUrl>
      </Pair>
    </StyleMap>
    <Style id="line-000000-1200-nodesc-normal">
      <LineStyle>
        <color>ff000000</color>
        <width>1.2</width>
      </LineStyle>
      <BalloonStyle>
        <text><![CDATA[<h3>$[name]</h3>]]></text>
      </BalloonStyle>
    </Style>
    <Style id="line-000000-1200-nodesc-highlight">
      <LineStyle>
        <color>ff000000</color>
        <width>1.8</width>
      </LineStyle>
      <BalloonStyle>
        <text><![CDATA[<h3>$[name]</h3>]]></text>
      </BalloonStyle>
    </Style>
    <StyleMap id="line-000000-1200-nodesc">
      <Pair>
        <key>normal</key>
        <styleUrl>#line-000000-1200-nodesc-normal</styleUrl>
      </Pair>
      <Pair>
        <key>highlight</key>
        <styleUrl>#line-000000-1200-nodesc-highlight</styleUrl>
      </Pair>
    </StyleMap>
    <Style id="poly-0000FF-2000-102-nodesc-normal">
      <LineStyle>
        <color>ffff0000</color>
        <width>2</width>
      </LineStyle>
      <PolyStyle>
        <color>66ff0000</color>
        <fill>1</fill>
        <outline>1</outline>
      </PolyStyle>
      <BalloonStyle>
        <text><![CDATA[<h3>$[name]</h3>]]></text>
      </BalloonStyle>
    </Style>
    <Style id="poly-0000FF-2000-102-nodesc-highlight">
      <LineStyle>
        <color>ffff0000</color>
        <width>3</width>
      </LineStyle>
      <PolyStyle>
        <color>66ff0000</color>
        <fill>1</fill>
        <outline>1</outline>
      </PolyStyle>
      <BalloonStyle>
        <text><![CDATA[<h3>$[name]</h3>]]></text>
      </BalloonStyle>
    </Style>
    <StyleMap id="poly-0000FF-2000-102-nodesc">
      <Pair>
        <key>normal</key>
        <styleUrl>#poly-0000FF-2000-102-nodesc-normal</styleUrl>
      </Pair>
      <Pair>
        <key>highlight</key>
        <styleUrl>#poly-0000FF-2000-102-nodesc-highlight</styleUrl>
      </Pair>
    </StyleMap>
    <Placemark>
      <name>Somerville (polygon: official_shp)</name>
      <styleUrl>#poly-0000FF-2000-102-nodesc</styleUrl>
      <Polygon>
        <outerBoundaryIs>
          <LinearRing>
            <tessellate>1</tessellate>
            <coordinates>
              174.942639,-36.911642,0
              174.942555,-36.911436,0
              174.942483,-36.91126,0
              174.942433,-36.911136,0
              174.942414,-36.91109,0
              174.942408,-36.911075,0
              174.942369,-36.910979,0
              174.942343,-36.910915,0
              174.94234,-36.910908,0
              174.942306,-36.910829,0
              174.942278,-36.910762,0
              174.942273,-36.910751,0
              174.94224,-36.910673,0
              174.942236,-36.910664,0
              174.942205,-36.910591,0
              174.942173,-36.910517,0
              174.942132,-36.910421,0
              174.942107,-36.910361,0
              174.94206,-36.910252,0
              174.94204,-36.910205,0
              174.941987,-36.91008,0
              174.941974,-36.910049,0
              174.941915,-36.909909,0
              174.941908,-36.909893,0
              174.941841,-36.909737,0
              174.941834,-36.90972,0
              174.941775,-36.909581,0
              174.941748,-36.909518,0
              174.941708,-36.909425,0
              174.941666,-36.909324,0
              174.941644,-36.909273,0
              174.941547,-36.909172,0
              174.941457,-36.909078,0
              174.941422,-36.909041,0
              174.941314,-36.908929,0
              174.941276,-36.908889,0
              174.941138,-36.908745,0
              174.940992,-36.908593,0
              174.940863,-36.908458,0
              174.940827,-36.90842,0
              174.940651,-36.908532,0
              174.940464,-36.908652,0
              174.940256,-36.908785,0
              174.939819,-36.909064,0
              174.939629,-36.909185,0
              174.939441,-36.909305,0
              174.939257,-36.909423,0
              174.938883,-36.909661,0
              174.938606,-36.909381,0
              174.938478,-36.909252,0
              174.938228,-36.909,0
              174.938095,-36.908866,0
              174.937944,-36.908715,0
              174.937777,-36.908545,0
              174.937637,-36.908405,0
              174.937504,-36.908271,0
              174.937364,-36.90813,0
              174.937221,-36.907985,0
              174.937207,-36.907971,0
              174.937056,-36.907819,0
              174.936832,-36.907593,0
              174.936763,-36.907524,0
              174.936622,-36.907382,0
              174.936875,-36.907242,0
              174.936283,-36.906821,0
              174.93608,-36.906678,0
              174.935837,-36.906505,0
              174.935647,-36.906369,0
              174.935455,-36.906233,0
              174.935239,-36.90608,0
              174.934991,-36.905904,0
              174.934975,-36.905918,0
              174.934799,-36.906072,0
              174.934665,-36.906188,0
              174.934615,-36.906232,0
              174.934524,-36.90631,0
              174.934477,-36.906351,0
              174.93445,-36.906375,0
              174.934349,-36.906463,0
              174.93422,-36.906575,0
              174.934061,-36.906718,0
              174.933983,-36.906788,0
              174.933887,-36.906875,0
              174.933835,-36.906922,0
              174.933687,-36.907055,0
              174.933605,-36.907129,0
              174.933539,-36.907189,0
              174.933391,-36.907322,0
              174.933378,-36.907334,0
              174.93323,-36.907467,0
              174.933178,-36.907514,0
              174.933036,-36.907642,0
              174.93288,-36.907783,0
              174.932714,-36.907933,0
              174.932552,-36.907818,0
              174.932491,-36.907775,0
              174.932236,-36.907593,0
              174.932169,-36.907546,0
              174.932013,-36.907435,0
              174.932006,-36.90743,0
              174.931851,-36.90732,0
              174.931789,-36.907276,0
              174.931697,-36.907211,0
              174.931542,-36.907101,0
              174.931534,-36.907095,0
              174.931388,-36.906991,0
              174.931312,-36.906937,0
              174.931139,-36.907092,0
              174.931092,-36.907134,0
              174.930996,-36.90722,0
              174.930954,-36.907259,0
              174.930795,-36.907402,0
              174.930765,-36.907428,0
              174.930557,-36.907615,0
              174.930495,-36.907571,0
              174.930324,-36.907691,0
              174.930053,-36.907939,0
              174.930184,-36.908032,0
              174.930055,-36.908163,0
              174.929926,-36.908293,0
              174.92982,-36.908401,0
              174.929797,-36.908424,0
              174.929642,-36.908581,0
              174.9296,-36.908623,0
              174.929554,-36.908661,0
              174.929499,-36.908706,0
              174.929403,-36.908785,0
              174.929348,-36.90883,0
              174.929228,-36.908933,0
              174.929194,-36.908963,0
              174.929048,-36.909089,0
              174.929019,-36.909114,0
              174.928909,-36.909289,0
              174.928802,-36.909458,0
              174.928665,-36.909589,0
              174.928546,-36.909515,0
              174.928352,-36.909394,0
              174.92822,-36.909533,0
              174.928512,-36.909736,0
              174.928357,-36.909884,0
              174.928219,-36.910017,0
              174.928196,-36.91004,0
              174.928176,-36.910059,0
              174.928068,-36.91014,0
              174.927948,-36.91023,0
              174.927903,-36.910264,0
              174.927747,-36.910381,0
              174.927812,-36.910431,0
              174.927645,-36.91057,0
              174.927608,-36.910536,0
              174.927457,-36.910654,0
              174.9273,-36.910776,0
              174.927142,-36.910899,0
              174.927144,-36.910901,0
              174.927132,-36.910914,0
              174.927127,-36.91091,0
              174.926991,-36.91103,0
              174.926946,-36.911069,0
              174.926848,-36.911155,0
              174.92677,-36.911264,0
              174.926753,-36.911288,0
              174.926658,-36.911421,0
              174.926641,-36.911459,0
              174.926597,-36.911556,0
              174.92655,-36.91166,0
              174.926536,-36.911692,0
              174.926548,-36.911811,0
              174.926586,-36.911903,0
              174.926405,-36.911956,0
              174.9262,-36.912017,0
              174.926083,-36.91201,0
              174.926083,-36.912057,0
              174.926083,-36.912088,0
              174.926084,-36.912119,0
              174.926086,-36.912151,0
              174.92609,-36.912182,0
              174.926094,-36.912213,0
              174.926099,-36.912244,0
              174.926106,-36.912285,0
              174.925871,-36.912326,0
              174.925703,-36.912329,0
              174.925632,-36.91234,0
              174.925561,-36.912351,0
              174.92549,-36.91236,0
              174.925419,-36.912368,0
              174.925374,-36.912373,0
              174.925041,-36.912347,0
              174.92505,-36.912359,0
              174.924877,-36.912342,0
              174.924626,-36.912318,0
              174.924594,-36.912331,0
              174.924509,-36.912365,0
              174.924381,-36.912549,0
              174.92426,-36.912722,0
              174.92449,-36.912816,0
              174.924522,-36.912829,0
              174.924719,-36.912909,0
              174.924904,-36.912984,0
              174.924919,-36.912991,0
              174.924929,-36.912995,0
              174.925074,-36.913064,0
              174.925129,-36.91309,0
              174.925198,-36.913155,0
              174.925228,-36.913182,0
              174.925363,-36.913308,0
              174.925415,-36.913356,0
              174.925625,-36.913424,0
              174.925722,-36.913455,0
              174.925926,-36.913521,0
              174.92613,-36.913587,0
              174.926256,-36.913628,0
              174.926419,-36.913535,0
              174.926498,-36.913391,0
              174.926517,-36.913398,0
              174.926536,-36.913406,0
              174.926555,-36.913414,0
              174.926573,-36.913423,0
              174.92659,-36.913433,0
              174.926607,-36.913443,0
              174.926623,-36.913454,0
              174.926639,-36.913466,0
              174.926654,-36.913477,0
              174.926669,-36.91349,0
              174.926682,-36.913503,0
              174.926695,-36.913516,0
              174.926708,-36.91353,0
              174.926801,-36.913639,0
              174.926784,-36.913715,0
              174.926868,-36.913888,0
              174.927113,-36.91413,0
              174.927337,-36.914345,0
              174.927311,-36.914363,0
              174.927467,-36.914495,0
              174.927521,-36.914462,0
              174.927533,-36.914475,0
              174.927546,-36.914488,0
              174.927505,-36.914512,0
              174.927643,-36.914656,0
              174.927765,-36.914783,0
              174.927792,-36.914823,0
              174.92782,-36.914865,0
              174.927856,-36.914917,0
              174.927908,-36.915071,0
              174.927945,-36.915183,0
              174.927943,-36.915223,0
              174.927935,-36.915358,0
              174.927934,-36.915376,0
              174.927924,-36.915547,0
              174.927919,-36.915634,0
              174.927914,-36.915718,0
              174.927908,-36.915826,0
              174.927895,-36.916042,0
              174.927893,-36.916058,0
              174.927885,-36.916229,0
              174.927875,-36.9164,0
              174.927865,-36.916571,0
              174.92791,-36.916573,0
              174.927904,-36.91676,0
              174.927899,-36.916951,0
              174.927842,-36.916949,0
              174.927782,-36.916947,0
              174.927779,-36.916988,0
              174.927772,-36.917118,0
              174.927769,-36.917171,0
              174.927762,-36.917289,0
              174.927758,-36.917347,0
              174.927752,-36.91746,0
              174.927747,-36.91755,0
              174.927742,-36.917631,0
              174.927724,-36.917802,0
              174.927719,-36.917818,0
              174.92766,-36.917902,0
              174.927598,-36.91799,0
              174.927479,-36.918159,0
              174.927663,-36.918245,0
              174.927712,-36.918267,0
              174.927843,-36.918328,0
              174.927857,-36.918335,0
              174.928132,-36.918463,0
              174.928127,-36.918491,0
              174.928121,-36.91852,0
              174.928114,-36.918548,0
              174.928106,-36.918576,0
              174.928097,-36.918604,0
              174.928087,-36.918632,0
              174.928077,-36.918659,0
              174.928065,-36.918686,0
              174.927983,-36.918743,0
              174.928422,-36.918752,0
              174.928357,-36.918576,0
              174.928364,-36.918577,0
              174.928556,-36.918816,0
              174.928666,-36.918952,0
              174.928794,-36.919111,0
              174.929065,-36.91888,0
              174.928983,-36.918778,0
              174.929035,-36.918776,0
              174.929217,-36.919002,0
              174.929193,-36.919031,0
              174.929369,-36.919127,0
              174.929545,-36.919224,0
              174.929721,-36.919321,0
              174.929837,-36.919384,0
              174.929906,-36.919422,0
              174.929978,-36.919462,0
              174.930082,-36.919519,0
              174.930258,-36.919615,0
              174.930443,-36.919717,0
              174.930511,-36.919754,0
              174.930619,-36.919814,0
              174.930796,-36.91991,0
              174.930963,-36.920002,0
              174.931152,-36.919762,0
              174.931301,-36.919571,0
              174.931379,-36.919473,0
              174.931604,-36.919682,0
              174.931726,-36.919794,0
              174.931629,-36.919957,0
              174.931527,-36.920127,0
              174.931469,-36.920223,0
              174.931413,-36.920292,0
              174.931642,-36.920424,0
              174.931824,-36.92053,0
              174.931858,-36.920549,0
              174.931992,-36.920626,0
              174.932074,-36.920674,0
              174.932176,-36.92076,0
              174.932285,-36.920851,0
              174.93241,-36.920917,0
              174.932505,-36.920967,0
              174.932724,-36.921082,0
              174.932589,-36.921249,0
              174.932765,-36.921385,0
              174.932778,-36.921349,0
              174.932864,-36.921376,0
              174.93596,-36.922357,0
              174.935977,-36.922329,0
              174.935983,-36.922323,0
              174.935992,-36.922307,0
              174.935999,-36.922286,0
              174.936009,-36.922258,0
              174.93601,-36.922254,0
              174.936016,-36.922239,0
              174.936016,-36.922238,0
              174.936018,-36.922229,0
              174.936018,-36.922226,0
              174.936019,-36.922207,0
              174.93602,-36.922195,0
              174.936022,-36.92219,0
              174.936022,-36.922189,0
              174.936027,-36.922183,0
              174.936053,-36.922155,0
              174.936059,-36.922147,0
              174.936064,-36.922139,0
              174.936107,-36.922093,0
              174.936125,-36.922074,0
              174.936129,-36.922069,0
              174.936158,-36.922037,0
              174.936176,-36.922018,0
              174.936187,-36.922002,0
              174.93619,-36.921994,0
              174.93621,-36.921945,0
              174.936212,-36.921943,0
              174.936218,-36.921935,0
              174.936218,-36.921934,0
              174.936224,-36.921924,0
              174.936241,-36.921898,0
              174.936265,-36.921861,0
              174.936273,-36.921842,0
              174.93634,-36.921721,0
              174.936343,-36.921712,0
              174.936345,-36.921703,0
              174.936366,-36.921644,0
              174.936385,-36.921533,0
              174.936385,-36.921516,0
              174.936382,-36.921458,0
              174.936383,-36.921432,0
              174.936383,-36.921412,0
              174.936408,-36.92132,0
              174.936417,-36.92127,0
              174.936431,-36.92122,0
              174.936435,-36.921212,0
              174.936439,-36.921198,0
              174.93644,-36.921195,0
              174.936451,-36.92117,0
              174.936465,-36.921136,0
              174.93647,-36.921109,0
              174.936475,-36.921026,0
              174.936487,-36.920928,0
              174.936489,-36.920919,0
              174.93649,-36.920908,0
              174.936493,-36.920893,0
              174.936493,-36.920888,0
              174.936495,-36.92086,0
              174.936493,-36.920841,0
              174.936486,-36.920791,0
              174.936487,-36.920734,0
              174.936491,-36.920694,0
              174.936494,-36.920675,0
              174.936494,-36.920674,0
              174.936494,-36.920671,0
              174.936496,-36.920622,0
              174.9365,-36.920551,0
              174.936501,-36.920543,0
              174.936502,-36.920532,0
              174.936506,-36.92049,0
              174.936505,-36.92047,0
              174.936504,-36.920456,0
              174.936504,-36.920446,0
              174.936504,-36.920434,0
              174.936504,-36.920395,0
              174.936508,-36.920369,0
              174.93651,-36.920361,0
              174.936513,-36.920352,0
              174.936517,-36.920321,0
              174.936521,-36.920289,0
              174.936524,-36.920279,0
              174.936531,-36.920256,0
              174.936533,-36.920252,0
              174.93656,-36.920189,0
              174.93657,-36.920148,0
              174.936572,-36.92014,0
              174.936579,-36.920125,0
              174.93661,-36.920012,0
              174.936634,-36.919953,0
              174.93664,-36.919936,0
              174.936647,-36.919923,0
              174.936648,-36.919922,0
              174.93665,-36.919918,0
              174.936662,-36.919896,0
              174.936666,-36.919888,0
              174.936668,-36.919885,0
              174.936683,-36.919865,0
              174.936713,-36.919817,0
              174.936716,-36.919813,0
              174.936716,-36.919812,0
              174.93672,-36.919807,0
              174.936726,-36.919795,0
              174.936748,-36.91975,0
              174.936761,-36.919733,0
              174.936772,-36.919711,0
              174.936786,-36.91968,0
              174.936789,-36.91967,0
              174.936819,-36.919624,0
              174.936836,-36.919606,0
              174.936863,-36.919565,0
              174.936878,-36.919535,0
              174.936881,-36.919526,0
              174.936882,-36.919523,0
              174.93689,-36.919506,0
              174.936913,-36.919467,0
              174.936932,-36.919423,0
              174.936934,-36.919419,0
              174.936954,-36.919383,0
              174.936968,-36.919357,0
              174.936975,-36.919329,0
              174.936975,-36.919327,0
              174.936989,-36.919301,0
              174.937013,-36.91927,0
              174.937027,-36.919252,0
              174.937037,-36.919244,0
              174.937044,-36.919236,0
              174.937051,-36.91923,0
              174.937059,-36.919224,0
              174.937065,-36.919216,0
              174.937095,-36.919176,0
              174.937098,-36.919172,0
              174.937102,-36.919164,0
              174.937103,-36.919163,0
              174.937114,-36.919149,0
              174.93715,-36.919108,0
              174.937174,-36.919066,0
              174.9372,-36.919031,0
              174.937206,-36.919021,0
              174.937219,-36.919004,0
              174.93722,-36.919003,0
              174.937223,-36.918998,0
              174.937227,-36.918994,0
              174.93723,-36.918989,0
              174.937247,-36.918972,0
              174.937258,-36.918961,0
              174.937265,-36.918951,0
              174.93729,-36.918923,0
              174.937322,-36.918898,0
              174.937329,-36.918893,0
              174.937335,-36.918889,0
              174.93734,-36.918883,0
              174.937345,-36.918875,0
              174.937363,-36.918856,0
              174.93741,-36.918815,0
              174.937425,-36.918797,0
              174.937441,-36.918782,0
              174.937489,-36.918748,0
              174.93751,-36.918729,0
              174.937521,-36.918721,0
              174.937538,-36.918709,0
              174.937544,-36.918703,0
              174.93759,-36.918665,0
              174.937607,-36.918649,0
              174.937613,-36.918644,0
              174.937618,-36.918639,0
              174.937624,-36.918635,0
              174.937626,-36.918633,0
              174.937651,-36.918613,0
              174.937693,-36.918571,0
              174.937706,-36.918553,0
              174.93773,-36.918491,0
              174.937766,-36.918422,0
              174.937774,-36.918412,0
              174.937778,-36.918405,0
              174.93786,-36.918307,0
              174.93787,-36.918289,0
              174.937896,-36.918243,0
              174.937929,-36.918198,0
              174.937963,-36.918157,0
              174.937968,-36.918149,0
              174.93801,-36.918094,0
              174.938043,-36.918058,0
              174.938055,-36.918043,0
              174.938076,-36.918021,0
              174.938083,-36.918016,0
              174.938106,-36.917987,0
              174.938152,-36.917924,0
              174.938164,-36.917906,0
              174.938203,-36.917849,0
              174.938208,-36.917845,0
              174.938211,-36.917839,0
              174.938226,-36.917823,0
              174.938234,-36.91781,0
              174.938248,-36.917793,0
              174.938253,-36.917785,0
              174.938276,-36.917755,0
              174.938291,-36.917741,0
              174.93831,-36.917727,0
              174.938316,-36.91772,0
              174.938321,-36.917714,0
              174.938357,-36.917678,0
              174.938374,-36.917662,0
              174.93838,-36.917657,0
              174.938392,-36.917648,0
              174.938397,-36.917638,0
              174.938413,-36.917623,0
              174.938464,-36.91758,0
              174.938473,-36.917571,0
              174.9385,-36.917548,0
              174.938516,-36.917536,0
              174.938547,-36.917511,0
              174.938562,-36.917495,0
              174.938585,-36.917479,0
              174.938654,-36.917415,0
              174.938662,-36.91741,0
              174.938718,-36.917354,0
              174.938723,-36.917347,0
              174.938795,-36.917268,0
              174.938821,-36.917246,0
              174.938908,-36.917171,0
              174.938971,-36.917123,0
              174.939078,-36.917066,0
              174.939093,-36.917055,0
              174.939102,-36.91705,0
              174.939111,-36.917046,0
              174.939159,-36.917019,0
              174.939237,-36.916963,0
              174.939286,-36.916928,0
              174.939291,-36.916925,0
              174.939299,-36.916918,0
              174.939304,-36.916912,0
              174.93931,-36.916907,0
              174.93936,-36.916875,0
              174.939393,-36.916847,0
              174.939402,-36.916838,0
              174.939464,-36.916783,0
              174.939473,-36.916778,0
              174.939484,-36.916766,0
              174.939505,-36.916749,0
              174.939562,-36.916708,0
              174.939575,-36.916695,0
              174.939595,-36.91668,0
              174.939643,-36.916638,0
              174.93965,-36.916633,0
              174.93966,-36.916622,0
              174.939718,-36.916568,0
              174.939736,-36.916544,0
              174.939771,-36.916511,0
              174.939788,-36.916489,0
              174.939794,-36.916478,0
              174.939844,-36.916413,0
              174.93985,-36.916402,0
              174.939909,-36.916329,0
              174.939916,-36.916322,0
              174.939921,-36.916319,0
              174.939976,-36.916266,0
              174.939985,-36.916253,0
              174.940003,-36.91623,0
              174.94006,-36.916179,0
              174.940069,-36.916172,0
              174.940075,-36.916167,0
              174.940077,-36.916163,0
              174.940092,-36.916152,0
              174.940105,-36.916144,0
              174.940145,-36.916117,0
              174.940169,-36.916104,0
              174.940189,-36.916099,0
              174.940209,-36.916092,0
              174.940284,-36.916051,0
              174.940297,-36.91604,0
              174.940332,-36.916018,0
              174.94039,-36.915977,0
              174.940395,-36.915972,0
              174.940399,-36.915967,0
              174.940477,-36.915904,0
              174.940481,-36.915898,0
              174.940513,-36.915864,0
              174.940537,-36.915823,0
              174.940565,-36.915781,0
              174.940576,-36.915748,0
              174.940578,-36.915744,0
              174.940602,-36.91568,0
              174.940602,-36.915676,0
              174.940641,-36.915609,0
              174.940655,-36.915592,0
              174.940687,-36.915544,0
              174.940703,-36.9155,0
              174.94072,-36.915472,0
              174.940748,-36.915404,0
              174.940754,-36.915316,0
              174.940762,-36.915295,0
              174.940765,-36.915282,0
              174.940758,-36.915251,0
              174.940756,-36.915246,0
              174.940751,-36.915239,0
              174.94074,-36.915209,0
              174.940699,-36.915176,0
              174.93909,-36.913977,0
              174.938815,-36.914067,0
              174.93874,-36.914092,0
              174.9387,-36.914063,0
              174.938548,-36.913954,0
              174.938331,-36.913798,0
              174.93811,-36.913639,0
              174.937888,-36.913479,0
              174.937667,-36.91332,0
              174.937529,-36.913221,0
              174.937416,-36.91314,0
              174.937227,-36.913004,0
              174.936955,-36.912809,0
              174.936763,-36.912671,0
              174.936546,-36.912515,0
              174.936798,-36.912289,0
              174.936941,-36.912162,0
              174.937133,-36.91199,0
              174.937283,-36.911856,0
              174.937441,-36.911772,0
              174.937634,-36.911668,0
              174.937653,-36.911658,0
              174.937849,-36.911553,0
              174.938082,-36.911428,0
              174.938306,-36.911308,0
              174.938519,-36.911194,0
              174.938648,-36.911125,0
              174.938759,-36.911259,0
              174.938902,-36.911431,0
              174.939041,-36.911598,0
              174.939177,-36.911761,0
              174.939315,-36.911927,0
              174.939503,-36.912154,0
              174.939627,-36.912303,0
              174.939798,-36.912509,0
              174.940041,-36.912801,0
              174.940226,-36.912702,0
              174.940445,-36.912585,0
              174.940462,-36.912576,0
              174.940679,-36.912459,0
              174.940885,-36.912349,0
              174.941133,-36.912216,0
              174.941371,-36.912088,0
              174.941399,-36.912073,0
              174.941744,-36.911967,0
              174.941937,-36.911907,0
              174.942182,-36.911831,0
              174.942427,-36.911756,0
              174.942467,-36.911743,0
              174.942639,-36.911642,0
            </coordinates>
          </LinearRing>
        </outerBoundaryIs>
      </Polygon>
    </Placemark>
    <Placemark>
      <name>Somerville</name>
      <styleUrl>#icon-1899-0288D1-nodesc</styleUrl>
      <Point>
        <coordinates>
          174.933698,-36.913784,100
        </coordinates>
      </Point>
    </Placemark>
    <Placemark>
      <name>Line 4</name>
      <styleUrl>#line-000000-1200-nodesc</styleUrl>
      <LineString>
        <tessellate>1</tessellate>
        <coordinates>
          174.9261211,-36.9140909,0
          174.9275158,-36.913439,0
          174.9291466,-36.9129414,0
          174.9310563,-36.9128899,0
          174.9325584,-36.9127527,0
          174.9346183,-36.9124439,0
          174.9357126,-36.9118091,0
          174.9364053,-36.9116246,0
          174.936872,-36.9114895,0
          174.9373878,-36.911333,0
          174.9378008,-36.9118477,0
        </coordinates>
      </LineString>
    </Placemark>
  </Document>
</kml>
