<?xml version="1.0" encoding="UTF-8"?>
<kml xmlns="http://www.opengis.net/kml/2.2">
<Document>
  <name>Somerville (Polygon: Official_Shp) Section 1</name>
  <Placemark>
    <name>Somerville (Polygon: Official_Shp) Section 1</name>
    <Style>
      <LineStyle><color>ffff0000</color><width>2</width></LineStyle>
      <PolyStyle><color>66ff0000</color></PolyStyle>
    </Style>
    <Polygon>
      <tessellate>1</tessellate>
      <outerBoundaryIs>
        <LinearRing>
          <coordinates>174.94075933896227,-36.91530198522539,100 174.940754,-36.915316,100 174.940748,-36.915404,100 174.94072,-36.915472,100 174.9407055020777,-36.915495878932255,100 174.94025455715362,-36.91606709543342,100 174.940209,-36.916092,100 174.940189,-36.916099,100 174.940169,-36.916104,100 174.940145,-36.916117,100 174.940105,-36.916144,100 174.940092,-36.916152,100 174.940077,-36.916163,100 174.940075,-36.916167,100 174.940069,-36.916172,100 174.94006,-36.916179,100 174.940003,-36.91623,100 174.939985,-36.916253,100 174.939976,-36.916266,100 174.939921,-36.916319,100 174.939916,-36.916322,100 174.939909,-36.916329,100 174.93985,-36.916402,100 174.939844,-36.916413,100 174.939794,-36.916478,100 174.939788,-36.916489,100 174.939771,-36.916511,100 174.939736,-36.916544,100 174.939718,-36.916568,100 174.93966,-36.916622,100 174.93965,-36.916633,100 174.939643,-36.916638,100 174.939595,-36.91668,100 174.939575,-36.916695,100 174.939562,-36.916708,100 174.939505,-36.916749,100 174.939484,-36.916766,100 174.939473,-36.916778,100 174.939464,-36.916783,100 174.939402,-36.916838,100 174.939393,-36.916847,100 174.93936,-36.916875,100 174.93931,-36.916907,100 174.939304,-36.916912,100 174.939299,-36.916918,100 174.939291,-36.916925,100 174.939286,-36.916928,100 174.939237,-36.916963,100 174.939159,-36.917019,100 174.939111,-36.917046,100 174.939102,-36.91705,100 174.939093,-36.917055,100 174.939078,-36.917066,100 174.938971,-36.917123,100 174.938908,-36.917171,100 174.938821,-36.917246,100 174.938795,-36.917268,100 174.938723,-36.917347,100 174.938718,-36.917354,100 174.938662,-36.91741,100 174.938654,-36.917415,100 174.938585,-36.917479,100 174.938562,-36.917495,100 174.938547,-36.917511,100 174.938516,-36.917536,100 174.9385,-36.917548,100 174.938473,-36.917571,100 174.938464,-36.91758,100 174.938413,-36.917623,100 174.938397,-36.917638,100 174.938392,-36.917648,100 174.93838,-36.917657,100 174.938374,-36.917662,100 174.938357,-36.917678,100 174.938321,-36.917714,100 174.938316,-36.91772,100 174.93831,-36.917727,100 174.938291,-36.917741,100 174.938276,-36.917755,100 174.938253,-36.917785,100 174.938248,-36.917793,100 174.938234,-36.91781,100 174.938226,-36.917823,100 174.938211,-36.917839,100 174.938208,-36.917845,100 174.938203,-36.917849,100 174.938164,-36.917906,100 174.938152,-36.917924,100 174.938106,-36.917987,100 174.938083,-36.918016,100 174.938076,-36.918021,100 174.938055,-36.918043,100 174.938043,-36.918058,100 174.93801,-36.918094,100 174.937968,-36.918149,100 174.937963,-36.918157,100 174.937929,-36.918198,100 174.937896,-36.918243,100 174.93787,-36.918289,100 174.93786,-36.918307,100 174.937778,-36.918405,100 174.937774,-36.918412,100 174.937766,-36.918422,100 174.93773,-36.918491,100 174.937706,-36.918553,100 174.937693,-36.918571,100 174.937651,-36.918613,100 174.937626,-36.918633,100 174.937624,-36.918635,100 174.937618,-36.918639,100 174.937613,-36.918644,100 174.937607,-36.918649,100 174.93759,-36.918665,100 174.937544,-36.918703,100 174.937538,-36.918709,100 174.937521,-36.918721,100 174.93751,-36.918729,100 174.937489,-36.918748,100 174.937441,-36.918782,100 174.937425,-36.918797,100 174.93741,-36.918815,100 174.937363,-36.918856,100 174.937345,-36.918875,100 174.93734,-36.918883,100 174.937335,-36.918889,100 174.937329,-36.918893,100 174.937322,-36.918898,100 174.93729,-36.918923,100 174.937265,-36.918951,100 174.937258,-36.918961,100 174.937247,-36.918972,100 174.93723,-36.918989,100 174.937227,-36.918994,100 174.937223,-36.918998,100 174.93722,-36.919003,100 174.937219,-36.919004,100 174.937206,-36.919021,100 174.9372,-36.919031,100 174.937174,-36.919066,100 174.93715,-36.919108,100 174.937114,-36.919149,100 174.937103,-36.919163,100 174.937102,-36.919164,100 174.937098,-36.919172,100 174.937095,-36.919176,100 174.937065,-36.919216,100 174.937059,-36.919224,100 174.937051,-36.91923,100 174.937044,-36.919236,100 174.937037,-36.919244,100 174.937027,-36.919252,100 174.937013,-36.91927,100 174.936989,-36.919301,100 174.936975,-36.919327,100 174.936975,-36.919329,100 174.936968,-36.919357,100 174.936954,-36.919383,100 174.936934,-36.919419,100 174.936932,-36.919423,100 174.936913,-36.919467,100 174.93689,-36.919506,100 174.936882,-36.919523,100 174.936881,-36.919526,100 174.936878,-36.919535,100 174.936863,-36.919565,100 174.936836,-36.919606,100 174.936819,-36.919624,100 174.936789,-36.91967,100 174.936786,-36.91968,100 174.936772,-36.919711,100 174.936761,-36.919733,100 174.936748,-36.91975,100 174.936726,-36.919795,100 174.93672,-36.919807,100 174.936716,-36.919812,100 174.936716,-36.919813,100 174.936713,-36.919817,100 174.936683,-36.919865,100 174.936668,-36.919885,100 174.936666,-36.919888,100 174.936662,-36.919896,100 174.93665,-36.919918,100 174.936648,-36.919922,100 174.936647,-36.919923,100 174.93664,-36.919936,100 174.936634,-36.919953,100 174.93661,-36.920012,100 174.936579,-36.920125,100 174.936572,-36.92014,100 174.93657,-36.920148,100 174.93656,-36.920189,100 174.936533,-36.920252,100 174.936531,-36.920256,100 174.936524,-36.920279,100 174.936521,-36.920289,100 174.936517,-36.920321,100 174.936513,-36.920352,100 174.93651,-36.920361,100 174.936508,-36.920369,100 174.936504,-36.920395,100 174.936504,-36.920434,100 174.936504,-36.920446,100 174.936504,-36.920456,100 174.936505,-36.92047,100 174.936506,-36.92049,100 174.936502,-36.920532,100 174.936501,-36.920543,100 174.9365,-36.920551,100 174.936496,-36.920622,100 174.93649405456168,-36.92066966323938,100 174.93645016300002,-36.92077082999998,100 174.9362638460001,-36.92143376299999,100 174.93609358700007,-36.922040023999955,100 174.93604676131784,-36.9221617185831,100 174.936027,-36.922183,100 174.936022,-36.922189,100 174.936022,-36.92219,100 174.93602,-36.922195,100 174.936019,-36.922207,100 174.93601897626257,-36.92220745101122,100 174.93592144891002,-36.922344785343924,100 174.932864,-36.921376,100 174.932778,-36.921349,100 174.932765,-36.921385,100 174.932589,-36.921249,100 174.932724,-36.921082,100 174.932505,-36.920967,100 174.93241,-36.920917,100 174.932285,-36.920851,100 174.932176,-36.92076,100 174.932074,-36.920674,100 174.931992,-36.920626,100 174.931858,-36.920549,100 174.931824,-36.92053,100 174.931642,-36.920424,100 174.931413,-36.920292,100 174.931469,-36.920223,100 174.931527,-36.920127,100 174.931629,-36.919957,100 174.931726,-36.919794,100 174.931604,-36.919682,100 174.931379,-36.919473,100 174.931301,-36.919571,100 174.931152,-36.919762,100 174.930963,-36.920002,100 174.930796,-36.91991,100 174.930619,-36.919814,100 174.930511,-36.919754,100 174.930443,-36.919717,100 174.930258,-36.919615,100 174.930082,-36.919519,100 174.929978,-36.919462,100 174.929906,-36.919422,100 174.929837,-36.919384,100 174.929721,-36.919321,100 174.929545,-36.919224,100 174.929369,-36.919127,100 174.929193,-36.919031,100 174.929217,-36.919002,100 174.929035,-36.918776,100 174.928983,-36.918778,100 174.929065,-36.91888,100 174.928794,-36.919111,100 174.928666,-36.918952,100 174.928556,-36.918816,100 174.928364,-36.918577,100 174.928357,-36.918576,100 174.928422,-36.918752,100 174.927983,-36.918743,100 174.928065,-36.918686,100 174.928077,-36.918659,100 174.928087,-36.918632,100 174.928097,-36.918604,100 174.928106,-36.918576,100 174.928114,-36.918548,100 174.928121,-36.91852,100 174.928127,-36.918491,100 174.928132,-36.918463,100 174.927857,-36.918335,100 174.927843,-36.918328,100 174.927712,-36.918267,100 174.927663,-36.918245,100 174.927479,-36.918159,100 174.927598,-36.91799,100 174.92766,-36.917902,100 174.927719,-36.917818,100 174.927724,-36.917802,100 174.927742,-36.917631,100 174.927747,-36.91755,100 174.927752,-36.91746,100 174.927758,-36.917347,100 174.927762,-36.917289,100 174.927769,-36.917171,100 174.927772,-36.917118,100 174.927779,-36.916988,100 174.927782,-36.916947,100 174.927842,-36.916949,100 174.927899,-36.916951,100 174.927904,-36.91676,100 174.92791,-36.916573,100 174.927865,-36.916571,100 174.927875,-36.9164,100 174.927885,-36.916229,100 174.927893,-36.916058,100 174.927895,-36.916042,100 174.927908,-36.915826,100 174.927914,-36.915718,100 174.927919,-36.915634,100 174.927924,-36.915547,100 174.927934,-36.915376,100 174.927935,-36.915358,100 174.927943,-36.915223,100 174.927945,-36.915183,100 174.927908,-36.915071,100 174.927856,-36.914917,100 174.92782,-36.914865,100 174.927792,-36.914823,100 174.927765,-36.914783,100 174.927643,-36.914656,100 174.927505,-36.914512,100 174.927546,-36.914488,100 174.927533,-36.914475,100 174.927521,-36.914462,100 174.927467,-36.914495,100 174.927311,-36.914363,100 174.927337,-36.914345,100 174.927113,-36.91413,100 174.926868,-36.913888,100 174.92681013930516,-36.91376883452137,100 174.9275158,-36.913439,100 174.9291466,-36.9129414,100 174.9310563,-36.9128899,100 174.9325584,-36.9127527,100 174.9346183,-36.9124439,100 174.9357126,-36.9118091,100 174.9364053,-36.9116246,100 174.936872,-36.9114895,100 174.9373878,-36.911333,100 174.93764989449792,-36.91165963447478,100 174.937634,-36.911668,100 174.937441,-36.911772,100 174.937283,-36.911856,100 174.937133,-36.91199,100 174.936941,-36.912162,100 174.936798,-36.912289,100 174.936546,-36.912515,100 174.936763,-36.912671,100 174.936955,-36.912809,100 174.937227,-36.913004,100 174.937416,-36.91314,100 174.937529,-36.913221,100 174.937667,-36.91332,100 174.937888,-36.913479,100 174.93811,-36.913639,100 174.938331,-36.913798,100 174.938548,-36.913954,100 174.9387,-36.914063,100 174.93874,-36.914092,100 174.938815,-36.914067,100 174.93909,-36.913977,100 174.940699,-36.915176,100 174.94073160891026,-36.915202246199605,100 174.94075933896227,-36.91530198522539,100</coordinates>
        </LinearRing>
      </outerBoundaryIs>
    </Polygon>
  </Placemark>
</Document>
</kml>