<?xml version="1.0" encoding="UTF-8"?>
<kml xmlns="http://www.opengis.net/kml/2.2">
<Document>
  <name>Somerville (Polygon: Official_Shp) Section 2</name>
  <Placemark>
    <name>Somerville (Polygon: Official_Shp) Section 2</name>
    <Style>
      <LineStyle><color>ffff0000</color><width>2</width></LineStyle>
      <PolyStyle><color>66ff0000</color></PolyStyle>
    </Style>
    <Polygon>
      <tessellate>1</tessellate>
      <outerBoundaryIs>
        <LinearRing>
          <coordinates>174.92681013930516,-36.91376883452137,100 174.926784,-36.913715,100 174.926801,-36.913639,100 174.926708,-36.91353,100 174.926695,-36.913516,100 174.926682,-36.913503,100 174.926669,-36.91349,100 174.926654,-36.913477,100 174.926639,-36.913466,100 174.926623,-36.913454,100 174.926607,-36.913443,100 174.92659,-36.913433,100 174.926573,-36.913423,100 174.926555,-36.913414,100 174.926536,-36.913406,100 174.926517,-36.913398,100 174.926498,-36.913391,100 174.926419,-36.913535,100 174.926256,-36.913628,100 174.92613,-36.913587,100 174.925926,-36.913521,100 174.925722,-36.913455,100 174.925625,-36.913424,100 174.925415,-36.913356,100 174.925363,-36.913308,100 174.925228,-36.913182,100 174.925198,-36.913155,100 174.925129,-36.91309,100 174.925074,-36.913064,100 174.924929,-36.912995,100 174.924919,-36.912991,100 174.924904,-36.912984,100 174.924719,-36.912909,100 174.924522,-36.912829,100 174.92449,-36.912816,100 174.92426,-36.912722,100 174.924381,-36.912549,100 174.924509,-36.912365,100 174.924594,-36.912331,100 174.924626,-36.912318,100 174.924877,-36.912342,100 174.92505,-36.912359,100 174.925041,-36.912347,100 174.925374,-36.912373,100 174.925419,-36.912368,100 174.92549,-36.91236,100 174.925561,-36.912351,100 174.925632,-36.91234,100 174.925703,-36.912329,100 174.925871,-36.912326,100 174.926106,-36.912285,100 174.926099,-36.912244,100 174.926094,-36.912213,100 174.92609,-36.912182,100 174.926086,-36.912151,100 174.926084,-36.912119,100 174.926083,-36.912088,100 174.926083,-36.912057,100 174.926083,-36.91201,100 174.9262,-36.912017,100 174.926405,-36.911956,100 174.926586,-36.911903,100 174.926548,-36.911811,100 174.926536,-36.911692,100 174.92655,-36.91166,100 174.926597,-36.911556,100 174.926641,-36.911459,100 174.926658,-36.911421,100 174.926753,-36.911288,100 174.92677,-36.911264,100 174.926848,-36.911155,100 174.926946,-36.911069,100 174.926991,-36.91103,100 174.927127,-36.91091,100 174.927132,-36.910914,100 174.927144,-36.910901,100 174.927142,-36.910899,100 174.9273,-36.910776,100 174.927457,-36.910654,100 174.927608,-36.910536,100 174.927645,-36.91057,100 174.927812,-36.910431,100 174.927747,-36.910381,100 174.927903,-36.910264,100 174.927948,-36.91023,100 174.928068,-36.91014,100 174.928176,-36.910059,100 174.928196,-36.91004,100 174.928219,-36.910017,100 174.928357,-36.909884,100 174.928512,-36.909736,100 174.92822,-36.909533,100 174.928352,-36.909394,100 174.928546,-36.909515,100 174.928665,-36.909589,100 174.928802,-36.909458,100 174.928909,-36.909289,100 174.929019,-36.909114,100 174.929048,-36.909089,100 174.929194,-36.908963,100 174.929228,-36.908933,100 174.929348,-36.90883,100 174.929403,-36.908785,100 174.929499,-36.908706,100 174.929554,-36.908661,100 174.9296,-36.908623,100 174.929642,-36.908581,100 174.929797,-36.908424,100 174.92982,-36.908401,100 174.929926,-36.908293,100 174.930055,-36.908163,100 174.930184,-36.908032,100 174.930053,-36.907939,100 174.930324,-36.907691,100 174.930495,-36.907571,100 174.930557,-36.907615,100 174.930765,-36.907428,100 174.930795,-36.907402,100 174.930954,-36.907259,100 174.930996,-36.90722,100 174.931092,-36.907134,100 174.931139,-36.907092,100 174.931312,-36.906937,100 174.931388,-36.906991,100 174.931534,-36.907095,100 174.931542,-36.907101,100 174.931697,-36.907211,100 174.931789,-36.907276,100 174.931851,-36.90732,100 174.932006,-36.90743,100 174.932013,-36.907435,100 174.932169,-36.907546,100 174.932236,-36.907593,100 174.932491,-36.907775,100 174.932552,-36.907818,100 174.932714,-36.907933,100 174.93288,-36.907783,100 174.933036,-36.907642,100 174.933178,-36.907514,100 174.93323,-36.907467,100 174.933378,-36.907334,100 174.933391,-36.907322,100 174.933539,-36.907189,100 174.933605,-36.907129,100 174.933687,-36.907055,100 174.933835,-36.906922,100 174.933887,-36.906875,100 174.933983,-36.906788,100 174.934061,-36.906718,100 174.93422,-36.906575,100 174.934349,-36.906463,100 174.93445,-36.906375,100 174.934477,-36.906351,100 174.934524,-36.90631,100 174.934615,-36.906232,100 174.934665,-36.906188,100 174.934799,-36.906072,100 174.934975,-36.905918,100 174.934991,-36.905904,100 174.935239,-36.90608,100 174.935455,-36.906233,100 174.935647,-36.906369,100 174.935837,-36.906505,100 174.93608,-36.906678,100 174.936283,-36.906821,100 174.936875,-36.907242,100 174.936622,-36.907382,100 174.936763,-36.907524,100 174.936832,-36.907593,100 174.937056,-36.907819,100 174.937207,-36.907971,100 174.937221,-36.907985,100 174.937364,-36.90813,100 174.937504,-36.908271,100 174.937637,-36.908405,100 174.937777,-36.908545,100 174.937944,-36.908715,100 174.938095,-36.908866,100 174.938228,-36.909,100 174.938478,-36.909252,100 174.938606,-36.909381,100 174.938883,-36.909661,100 174.939257,-36.909423,100 174.939441,-36.909305,100 174.939629,-36.909185,100 174.939819,-36.909064,100 174.940256,-36.908785,100 174.940464,-36.908652,100 174.940651,-36.908532,100 174.940827,-36.90842,100 174.940863,-36.908458,100 174.940992,-36.908593,100 174.941138,-36.908745,100 174.941276,-36.908889,100 174.941314,-36.908929,100 174.941422,-36.909041,100 174.941457,-36.909078,100 174.941547,-36.909172,100 174.941644,-36.909273,100 174.941666,-36.909324,100 174.941708,-36.909425,100 174.941748,-36.909518,100 174.941775,-36.909581,100 174.941834,-36.90972,100 174.941841,-36.909737,100 174.941908,-36.909893,100 174.941915,-36.909909,100 174.941974,-36.910049,100 174.941987,-36.91008,100 174.94204,-36.910205,100 174.94206,-36.910252,100 174.942107,-36.910361,100 174.942132,-36.910421,100 174.942173,-36.910517,100 174.942205,-36.910591,100 174.942236,-36.910664,100 174.94224,-36.910673,100 174.942273,-36.910751,100 174.942278,-36.910762,100 174.942306,-36.910829,100 174.94234,-36.910908,100 174.942343,-36.910915,100 174.942369,-36.910979,100 174.942408,-36.911075,100 174.942414,-36.91109,100 174.942433,-36.911136,100 174.942483,-36.91126,100 174.942555,-36.911436,100 174.942639,-36.911642,100 174.942467,-36.911743,100 174.942427,-36.911756,100 174.942182,-36.911831,100 174.941937,-36.911907,100 174.941744,-36.911967,100 174.941399,-36.912073,100 174.941371,-36.912088,100 174.941133,-36.912216,100 174.940885,-36.912349,100 174.940679,-36.912459,100 174.940462,-36.912576,100 174.940445,-36.912585,100 174.940226,-36.912702,100 174.940041,-36.912801,100 174.939798,-36.912509,100 174.939627,-36.912303,100 174.939503,-36.912154,100 174.939315,-36.911927,100 174.939177,-36.911761,100 174.939041,-36.911598,100 174.938902,-36.911431,100 174.938759,-36.911259,100 174.938648,-36.911125,100 174.938519,-36.911194,100 174.938306,-36.911308,100 174.938082,-36.911428,100 174.937849,-36.911553,100 174.937653,-36.911658,100 174.93764989449792,-36.91165963447478,100 174.9373878,-36.911333,100 174.936872,-36.9114895,100 174.9364053,-36.9116246,100 174.9357126,-36.9118091,100 174.9346183,-36.9124439,100 174.9325584,-36.9127527,100 174.9310563,-36.9128899,100 174.9291466,-36.9129414,100 174.9275158,-36.913439,100 174.92681013930516,-36.91376883452137,100</coordinates>
        </LinearRing>
      </outerBoundaryIs>
    </Polygon>
  </Placemark>
</Document>
</kml>