<?xml version="1.0" encoding="UTF-8"?>
<kml xmlns="http://www.opengis.net/kml/2.2">
<Document>
  <name>Dannemora (Polygon: Official_Shp) Section 2</name>
  <Placemark>
    <name>Dannemora (Polygon: Official_Shp) Section 2</name>
    <Style>
      <LineStyle><color>ffff0000</color><width>2</width></LineStyle>
      <PolyStyle><color>66ff0000</color></PolyStyle>
    </Style>
    <Polygon>
      <tessellate>1</tessellate>
      <outerBoundaryIs>
        <LinearRing>
          <coordinates>174.92608444237877,-36.926676310279795,100 174.926078,-36.926685,100 174.926253,-36.926718,100 174.926461,-36.926757,100 174.926509,-36.926766,100 174.926668,-36.926797,100 174.926847,-36.926831,100 174.926994,-36.926859,100 174.92712,-36.926882,100 174.92738,-36.926932,100 174.927393,-36.926934,100 174.927686,-36.92699,100 174.927699,-36.926992,100 174.928085,-36.927065,100 174.930019,-36.927432,100 174.930303,-36.927395,100 174.930438,-36.927455,100 174.93061,-36.927449,100 174.93095,-36.927438,100 174.930973,-36.927437,100 174.931849,-36.927409,100 174.932018,-36.927403,100 174.932488,-36.927388,100 174.932287,-36.928091,100 174.931605,-36.927925,100 174.931303,-36.928382,100 174.93127,-36.928431,100 174.931093,-36.928698,100 174.931043,-36.929043,100 174.930994,-36.929387,100 174.930975,-36.929517,100 174.931722,-36.929587,100 174.931945,-36.929607,100 174.931793,-36.930655,100 174.931758,-36.931591,100 174.931723,-36.932511,100 174.931602,-36.932576,100 174.931529,-36.9326,100 174.931197,-36.93271,100 174.93072,-36.932868,100 174.930468,-36.932952,100 174.930346,-36.932992,100 174.930393,-36.933263,100 174.930416,-36.933398,100 174.930465,-36.93368,100 174.930503,-36.933903,100 174.930537,-36.934096,100 174.930978,-36.934354,100 174.930928,-36.934495,100 174.929362,-36.93483,100 174.929017,-36.934831,100 174.928545,-36.935412,100 174.928219,-36.935815,100 174.927419,-36.935674,100 174.92712,-36.935621,100 174.92666,-36.93554,100 174.926194,-36.935458,100 174.925131,-36.935271,100 174.925043,-36.935256,100 174.924999,-36.935248,100 174.924133,-36.935093,100 174.923745,-36.934959,100 174.923189,-36.934924,100 174.922437,-36.934789,100 174.922412,-36.934876,100 174.922171,-36.93483,100 174.922045,-36.934806,100 174.921917,-36.934854,100 174.921868,-36.935022,100 174.921761,-36.935046,100 174.921657,-36.935104,100 174.921493,-36.935033,100 174.921292,-36.935106,100 174.921169,-36.93511,100 174.920964,-36.935117,100 174.920765,-36.935077,100 174.920541,-36.935032,100 174.920413,-36.935,100 174.920274,-36.934971,100 174.92018,-36.934964,100 174.919947,-36.934946,100 174.919574,-36.934916,100 174.9195168342219,-36.93488996915461,100 174.9197168,-36.9340544,100 174.9204035,-36.9323392,100 174.9208755,-36.9313101,100 174.9219484,-36.9302123,100 174.9223431,-36.9290046,100 174.9224634,-36.927262,100 174.9235363,-36.9271934,100 174.9242743,-36.9274094,100 174.9245233,-36.9275022,100 174.9251004,-36.9269892,100 174.9255188,-36.9266718,100 174.9255725,-36.9266032,100 174.92608444237877,-36.926676310279795,100</coordinates>
        </LinearRing>
      </outerBoundaryIs>
    </Polygon>
  </Placemark>
</Document>
</kml>