<?xml version="1.0" encoding="UTF-8"?>
<kml xmlns="http://www.opengis.net/kml/2.2">
<Document>
  <name>Dannemora (Polygon: Official_Shp) Section 1</name>
  <Placemark>
    <name>Dannemora (Polygon: Official_Shp) Section 1</name>
    <Style>
      <LineStyle><color>ffff0000</color><width>2</width></LineStyle>
      <PolyStyle><color>66ff0000</color></PolyStyle>
    </Style>
    <Polygon>
      <tessellate>1</tessellate>
      <outerBoundaryIs>
        <LinearRing>
          <coordinates>174.9195168342219,-36.93488996915461,100 174.91935,-36.934814,100 174.918701,-36.934699,100 174.918295,-36.934243,100 174.916727,-36.933301,100 174.915439,-36.933075,100 174.915147,-36.933021,100 174.915187,-36.932879,100 174.91529,-36.931834,100 174.915331,-36.931604,100 174.915354,-36.931395,100 174.915445,-36.930606,100 174.915454,-36.930606,100 174.915547,-36.929794,100 174.915489,-36.92965,100 174.915758,-36.929268,100 174.915949,-36.929213,100 174.916871,-36.928581,100 174.917206,-36.928344,100 174.917386,-36.92822,100 174.917419,-36.928192,100 174.917589,-36.928048,100 174.917744,-36.927916,100 174.917785,-36.927882,100 174.917881,-36.927779,100 174.918028,-36.92762,100 174.918156,-36.927483,100 174.918287,-36.927342,100 174.918441,-36.927176,100 174.918576,-36.927032,100 174.918589,-36.927017,100 174.91872,-36.926877,100 174.918854,-36.926732,100 174.918983,-36.926593,100 174.918673,-36.926407,100 174.918796,-36.926274,100 174.918809,-36.926254,100 174.9189,-36.926112,100 174.918918,-36.926084,100 174.918976,-36.925994,100 174.919005,-36.925856,100 174.919321,-36.925882,100 174.919325,-36.925705,100 174.919369,-36.925727,100 174.919455,-36.925778,100 174.919466,-36.925784,100 174.919544,-36.925702,100 174.91957,-36.92568,100 174.919579,-36.925665,100 174.919606,-36.925637,100 174.919777,-36.925739,100 174.919944,-36.92556,100 174.92002,-36.925478,100 174.920078,-36.925414,100 174.919808,-36.925254,100 174.919862,-36.925136,100 174.919921,-36.925071,100 174.919995,-36.92499,100 174.920084,-36.924894,100 174.920128,-36.924845,100 174.92021,-36.924756,100 174.920261,-36.9247,100 174.920338,-36.924616,100 174.920394,-36.924555,100 174.920411,-36.924537,100 174.920502,-36.924439,100 174.920554,-36.924383,100 174.92063,-36.924302,100 174.920686,-36.924243,100 174.920757,-36.924165,100 174.920847,-36.924069,100 174.920922,-36.923989,100 174.921071,-36.923829,100 174.921089,-36.923837,100 174.921245,-36.923611,100 174.921352,-36.923675,100 174.921601,-36.923408,100 174.921753,-36.923261,100 174.921785,-36.923226,100 174.921982,-36.923014,100 174.922189,-36.923138,100 174.92233,-36.922986,100 174.922502,-36.922802,100 174.922621,-36.922674,100 174.922729,-36.922558,100 174.92291,-36.922363,100 174.923092,-36.922169,100 174.923273,-36.921974,100 174.923297,-36.921948,100 174.923738,-36.922073,100 174.923833,-36.922136,100 174.923928,-36.922199,100 174.924134,-36.922236,100 174.924734,-36.922344,100 174.924991,-36.92239,100 174.925197,-36.922427,100 174.925401,-36.922463,100 174.925627,-36.922504,100 174.925939,-36.92256,100 174.926234,-36.922613,100 174.926315,-36.922627,100 174.926725,-36.922701,100 174.926973,-36.922689,100 174.927194,-36.922729,100 174.927447,-36.922774,100 174.927353,-36.922906,100 174.927342,-36.922944,100 174.927336,-36.922964,100 174.927292,-36.923118,100 174.927268,-36.923201,100 174.927241,-36.923294,100 174.927199,-36.923438,100 174.92719,-36.923469,100 174.92714,-36.923645,100 174.927136,-36.923658,100 174.927089,-36.92382,100 174.927075,-36.923869,100 174.927038,-36.923996,100 174.927014,-36.924079,100 174.926988,-36.924171,100 174.926953,-36.924293,100 174.926937,-36.924347,100 174.926894,-36.924496,100 174.926886,-36.924523,100 174.926836,-36.924698,100 174.926825,-36.924733,100 174.92682,-36.924751,100 174.926761,-36.924882,100 174.926741,-36.924927,100 174.926679,-36.925064,100 174.926648,-36.925132,100 174.92659,-36.925261,100 174.926566,-36.925314,100 174.926568,-36.925362,100 174.926574,-36.925478,100 174.926583,-36.925647,100 174.926584,-36.925664,100 174.926589,-36.925751,100 174.926564,-36.92584,100 174.926542,-36.925914,100 174.926511,-36.926021,100 174.926473,-36.926152,100 174.926446,-36.92619,100 174.926316,-36.926365,100 174.926281,-36.926412,100 174.926207,-36.926511,100 174.92608444237877,-36.926676310279795,100 174.9255725,-36.9266032,100 174.9255188,-36.9266718,100 174.9251004,-36.9269892,100 174.9245233,-36.9275022,100 174.9242743,-36.9274094,100 174.9235363,-36.9271934,100 174.9224634,-36.927262,100 174.9223431,-36.9290046,100 174.9219484,-36.9302123,100 174.9208755,-36.9313101,100 174.9204035,-36.9323392,100 174.9197168,-36.9340544,100 174.9195168342219,-36.93488996915461,100</coordinates>
        </LinearRing>
      </outerBoundaryIs>
    </Polygon>
  </Placemark>
</Document>
</kml>