<?xml version="1.0" encoding="UTF-8"?>
<kml xmlns="http://www.opengis.net/kml/2.2">
<Document>
  <name>Pakuranga Heights (Polygon: Official_Shp) Section 1</name>
  <Placemark>
    <name>Pakuranga Heights (Polygon: Official_Shp) Section 1</name>
    <Style>
      <LineStyle><color>ffff0000</color><width>2</width></LineStyle>
      <PolyStyle><color>66ff0000</color></PolyStyle>
    </Style>
    <Polygon>
      <tessellate>1</tessellate>
      <outerBoundaryIs>
        <LinearRing>
          <coordinates>174.89275987576343,-36.911230323015104,100 174.89275,-36.911256,100 174.892743,-36.911319,100 174.892759,-36.911418,100 174.892912,-36.911635,100 174.893015,-36.911743,100 174.893242,-36.912008,100 174.893315,-36.912183,100 174.893436,-36.912401,100 174.893525,-36.912643,100 174.893609,-36.912783,100 174.893835,-36.913371,100 174.89392,-36.913473,100 174.89405,-36.913657,100 174.89415,-36.913994,100 174.894109,-36.91425,100 174.89406,-36.914499,100 174.894037,-36.914702,100 174.894071,-36.914881,100 174.894098,-36.914941,100 174.894101,-36.914948,100 174.894112,-36.914958,100 174.894245,-36.915081,100 174.894268,-36.91515,100 174.894276,-36.915171,100 174.894279,-36.915306,100 174.894454,-36.915528,100 174.894633,-36.915787,100 174.894649,-36.915845,100 174.894665,-36.916043,100 174.89474,-36.916177,100 174.894792,-36.916235,100 174.89486,-36.91637,100 174.894909,-36.916616,100 174.895025,-36.916783,100 174.895056,-36.917033,100 174.895068,-36.917409,100 174.895072,-36.917541,100 174.895078,-36.917747,100 174.895053,-36.917883,100 174.894949,-36.918133,100 174.894829,-36.918307,100 174.894784,-36.918373,100 174.89476,-36.918407,100 174.894678,-36.918476,100 174.894567,-36.918546,100 174.894289,-36.918641,100 174.893592,-36.918789,100 174.893397,-36.91886,100 174.893249,-36.918933,100 174.893065,-36.919024,100 174.8929,-36.919139,100 174.892837,-36.919201,100 174.892737,-36.9193,100 174.892596,-36.919418,100 174.892517,-36.919485,100 174.89202,-36.919764,100 174.89171,-36.919724,100 174.891514,-36.919728,100 174.891431,-36.919774,100 174.891494,-36.920043,100 174.891506,-36.920426,100 174.891342,-36.92061,100 174.891231,-36.920657,100 174.890839,-36.920687,100 174.8907,-36.920734,100 174.890286,-36.920989,100 174.889698,-36.921023,100 174.889614,-36.921047,100 174.889559,-36.921093,100 174.889563,-36.921228,100 174.889804,-36.92181,100 174.889809,-36.92199,100 174.889703,-36.922195,100 174.888891,-36.923361,100 174.888183,-36.924297,100 174.887892,-36.924684,100 174.88777,-36.924833,100 174.887576,-36.925073,100 174.887725,-36.925105,100 174.887688,-36.925141,100 174.887668,-36.925158,100 174.88765,-36.925172,100 174.887637,-36.925189,100 174.887617,-36.9252,100 174.88759,-36.925221,100 174.887555,-36.925258,100 174.887535,-36.925288,100 174.887508,-36.92533,100 174.88748,-36.925362,100 174.887451,-36.925397,100 174.887424,-36.925439,100 174.887386,-36.925474,100 174.887321,-36.925512,100 174.887271,-36.925544,100 174.88722,-36.925573,100 174.88717,-36.92561,100 174.887141,-36.925659,100 174.887096,-36.925714,100 174.88705,-36.925765,100 174.887013,-36.925798,100 174.886972,-36.925818,100 174.88691,-36.925817,100 174.886864,-36.925826,100 174.886806,-36.925864,100 174.886763,-36.925887,100 174.886726,-36.925885,100 174.886643,-36.925883,100 174.886606,-36.925886,100 174.886556,-36.925888,100 174.886532,-36.925874,100 174.88649,-36.925872,100 174.886461,-36.925861,100 174.886438,-36.925852,100 174.886411,-36.925817,100 174.886391,-36.925785,100 174.886376,-36.925752,100 174.886338,-36.925721,100 174.886297,-36.925713,100 174.88625,-36.925712,100 174.886208,-36.925702,100 174.886161,-36.9257,100 174.886108,-36.925707,100 174.886036,-36.925723,100 174.885953,-36.925726,100 174.885929,-36.925718,100 174.885882,-36.925706,100 174.885852,-36.925693,100 174.885825,-36.925671,100 174.885799,-36.925655,100 174.885752,-36.925646,100 174.885685,-36.925626,100 174.885612,-36.925607,100 174.885571,-36.925592,100 174.885505,-36.925565,100 174.885458,-36.925552,100 174.885417,-36.925527,100 174.885406,-36.9255,100 174.885382,-36.925452,100 174.88537,-36.925422,100 174.885355,-36.925396,100 174.88532,-36.925374,100 174.885281,-36.925323,100 174.885264,-36.925306,100 174.885253,-36.925278,100 174.885247,-36.925246,100 174.885216,-36.925205,100 174.885191,-36.925203,100 174.885179,-36.925215,100 174.885177,-36.925245,100 174.885183,-36.92528,100 174.885173,-36.925309,100 174.885173,-36.925355,100 174.885161,-36.925412,100 174.885158,-36.92545,100 174.885153,-36.92549,100 174.885151,-36.925532,100 174.885145,-36.92556,100 174.885112,-36.92559,100 174.885073,-36.925624,100 174.88504,-36.925658,100 174.885011,-36.925675,100 174.884971,-36.9257,100 174.884916,-36.925728,100 174.884843,-36.925751,100 174.884824,-36.92574,100 174.884792,-36.925725,100 174.884757,-36.925714,100 174.884719,-36.925697,100 174.884665,-36.92567,100 174.88464,-36.925656,100 174.884607,-36.925634,100 174.884591,-36.925612,100 174.884562,-36.925585,100 174.884528,-36.925567,100 174.884489,-36.925549,100 174.884466,-36.925523,100 174.884407,-36.925508,100 174.884336,-36.925507,100 174.884296,-36.925497,100 174.884211,-36.925486,100 174.884127,-36.925447,100 174.884052,-36.925405,100 174.884029,-36.925375,100 174.883979,-36.92534,100 174.88394,-36.925293,100 174.883898,-36.925252,100 174.883864,-36.925205,100 174.883822,-36.925145,100 174.883787,-36.925112,100 174.883757,-36.925093,100 174.883727,-36.925079,100 174.88368,-36.92509,100 174.883638,-36.925101,100 174.883579,-36.925111,100 174.883518,-36.925121,100 174.883477,-36.925126,100 174.883421,-36.925143,100 174.883346,-36.925149,100 174.883293,-36.925147,100 174.883249,-36.925152,100 174.883199,-36.925153,100 174.883147,-36.925153,100 174.883053,-36.92517,100 174.883024,-36.925181,100 174.883022,-36.925227,100 174.883052,-36.925283,100 174.883092,-36.925347,100 174.883105,-36.925381,100 174.88312,-36.92542,100 174.883138,-36.925466,100 174.883078,-36.925554,100 174.883025,-36.925593,100 174.88299,-36.925614,100 174.882954,-36.925646,100 174.882951,-36.925678,100 174.882948,-36.925731,100 174.8829,-36.92576,100 174.882852,-36.925754,100 174.882809,-36.925712,100 174.882737,-36.925691,100 174.882635,-36.925668,100 174.882561,-36.925657,100 174.882444,-36.925625,100 174.882416,-36.925604,100 174.88237,-36.925588,100 174.882323,-36.925573,100 174.882279,-36.925549,100 174.882244,-36.925537,100 174.882224,-36.925538,100 174.882189,-36.925527,100 174.882167,-36.925522,100 174.882122,-36.925518,100 174.882095,-36.925517,100 174.882053,-36.925522,100 174.882016,-36.92552,100 174.881958,-36.925524,100 174.881916,-36.925523,100 174.881893,-36.925506,100 174.881856,-36.925494,100 174.881814,-36.925476,100 174.881766,-36.925453,100 174.881692,-36.925448,100 174.88163,-36.92542,100 174.881589,-36.92539,100 174.881503,-36.925359,100 174.881488,-36.925349,100 174.881454,-36.925318,100 174.881421,-36.925301,100 174.881389,-36.925285,100 174.881362,-36.925263,100 174.881348,-36.925252,100 174.881299,-36.925234,100 174.881277,-36.92523,100 174.881276,-36.925232,100 174.881251,-36.925223,100 174.881245,-36.925218,100 174.88123,-36.925213,100 174.881212,-36.925206,100 174.881198,-36.925188,100 174.881191,-36.925181,100 174.881187,-36.925173,100 174.881177,-36.925159,100 174.881171,-36.925148,100 174.881163,-36.925128,100 174.881156,-36.925119,100 174.881151,-36.925109,100 174.881149,-36.925088,100 174.881152,-36.925067,100 174.881157,-36.925043,100 174.881169,-36.925006,100 174.881173,-36.924984,100 174.881173,-36.924979,100 174.881169,-36.92495,100 174.881174,-36.92494,100 174.881181,-36.924921,100 174.881178,-36.924905,100 174.881173,-36.924894,100 174.881165,-36.924878,100 174.881156,-36.924856,100 174.88115,-36.924842,100 174.881139,-36.924826,100 174.881134,-36.924814,100 174.881129,-36.924801,100 174.881115,-36.924781,100 174.881111,-36.924778,100 174.881111,-36.924759,100 174.88111,-36.924746,100 174.881118,-36.924725,100 174.881125,-36.92471,100 174.881131,-36.924691,100 174.881148,-36.924667,100 174.881153,-36.924661,100 174.881173,-36.924643,100 174.881185,-36.924633,100 174.881202,-36.924616,100 174.881213,-36.924608,100 174.88123,-36.924599,100 174.881246,-36.924593,100 174.881275,-36.924587,100 174.881298,-36.924581,100 174.881315,-36.924579,100 174.881343,-36.924581,100 174.881374,-36.924592,100 174.881414,-36.9246,100 174.881446,-36.924602,100 174.881477,-36.924609,100 174.88151,-36.924613,100 174.881542,-36.924617,100 174.881576,-36.924618,100 174.881609,-36.924625,100 174.881671,-36.924632,100 174.881713,-36.924622,100 174.881757,-36.924614,100 174.881791,-36.924601,100 174.88181,-36.924569,100 174.881808,-36.924532,100 174.8818,-36.924497,100 174.881781,-36.924439,100 174.881765,-36.924425,100 174.88173,-36.924364,100 174.88173,-36.924307,100 174.881727,-36.924251,100 174.881723,-36.924214,100 174.881758,-36.924177,100 174.881789,-36.924158,100 174.88184,-36.92416,100 174.881898,-36.924164,100 174.881951,-36.924153,100 174.882054,-36.924148,100 174.882096,-36.924148,100 174.882151,-36.924147,100 174.882203,-36.924147,100 174.882215,-36.92413,100 174.882196,-36.924106,100 174.882156,-36.924093,100 174.882096,-36.924076,100 174.882032,-36.924041,100 174.882005,-36.924027,100 174.881986,-36.92401,100 174.881931,-36.923977,100 174.881907,-36.923958,100 174.881886,-36.923936,100 174.881861,-36.923914,100 174.881826,-36.923881,100 174.881814,-36.923866,100 174.881794,-36.923859,100 174.881774,-36.923842,100 174.88176,-36.923832,100 174.88175,-36.923813,100 174.881736,-36.923794,100 174.881731,-36.923759,100 174.88173,-36.923731,100 174.881729,-36.923709,100 174.881739,-36.923688,100 174.881761,-36.923672,100 174.881791,-36.923657,100 174.881824,-36.923646,100 174.881851,-36.923635,100 174.881871,-36.923622,100 174.881861,-36.92361,100 174.881842,-36.923597,100 174.881822,-36.923591,100 174.881793,-36.923589,100 174.881764,-36.923593,100 174.88174,-36.923601,100 174.881708,-36.923608,100 174.881686,-36.923604,100 174.881664,-36.9236,100 174.881645,-36.923605,100 174.881629,-36.923602,100 174.881599,-36.923597,100 174.881579,-36.923595,100 174.881551,-36.923601,100 174.881518,-36.923614,100 174.881469,-36.923629,100 174.881429,-36.923636,100 174.881392,-36.923639,100 174.881362,-36.923628,100 174.881341,-36.923614,100 174.881316,-36.923605,100 174.881295,-36.923604,100 174.881267,-36.923614,100 174.881257,-36.923629,100 174.881265,-36.92366,100 174.881272,-36.923702,100 174.881277,-36.923736,100 174.881273,-36.92378,100 174.881254,-36.923807,100 174.881235,-36.923819,100 174.8812,-36.923831,100 174.88115,-36.923827,100 174.881098,-36.923812,100 174.881021,-36.92378,100 174.880974,-36.923749,100 174.880888,-36.923677,100 174.880836,-36.923632,100 174.880786,-36.923593,100 174.880721,-36.923529,100 174.880677,-36.923485,100 174.880612,-36.923434,100 174.880556,-36.923385,100 174.880487,-36.923336,100 174.880442,-36.923303,100 174.880405,-36.923265,100 174.880383,-36.923236,100 174.880333,-36.923218,100 174.880289,-36.923192,100 174.880257,-36.923171,100 174.880212,-36.923155,100 174.880161,-36.923135,100 174.880121,-36.923093,100 174.880098,-36.923058,100 174.880032,-36.923036,100 174.879991,-36.923016,100 174.879961,-36.923003,100 174.879964,-36.922967,100 174.87997,-36.922885,100 174.87998,-36.922769,100 174.879984,-36.922715,100 174.88008,-36.922544,100 174.880222,-36.92229,100 174.880473,-36.922083,100 174.880393,-36.921985,100 174.880358,-36.92182,100 174.880304,-36.921788,100 174.880268,-36.921766,100 174.880377,-36.921648,100 174.880514,-36.921499,100 174.880621,-36.921383,100 174.880661,-36.921339,100 174.880701,-36.921295,100 174.880862,-36.921178,100 174.880928,-36.92113,100 174.881053,-36.921039,100 174.881251,-36.920894,100 174.881316,-36.920848,100 174.881445,-36.920753,100 174.881473,-36.920733,100 174.881569,-36.920601,100 174.881582,-36.920564,100 174.881847,-36.920465,100 174.881776,-36.920204,100 174.881765,-36.920163,100 174.881886,-36.920102,100 174.881932,-36.91994,100 174.882079,-36.919613,100 174.882102,-36.91962,100 174.882222,-36.91936,100 174.882233,-36.919334,100 174.882605,-36.919405,100 174.882683,-36.91942,100 174.882947,-36.91947,100 174.883048,-36.919117,100 174.882974,-36.919103,100 174.88295,-36.919098,100 174.883092,-36.9186,100 174.883136,-36.918445,100 174.883191,-36.918455,100 174.883411,-36.918494,100 174.883526,-36.918515,100 174.883665,-36.91854,100 174.883821,-36.918569,100 174.884017,-36.918604,100 174.884037,-36.918608,100 174.884171,-36.918632,100 174.884261,-36.918648,100 174.884447,-36.918682,100 174.884487,-36.918654,100 174.8846,-36.918574,100 174.884761,-36.918461,100 174.884471,-36.91818,100 174.884394,-36.918208,100 174.884157,-36.918295,100 174.88416,-36.918256,100 174.88418,-36.91806,100 174.884209,-36.917755,100 174.884026,-36.917722,100 174.883877,-36.917695,100 174.883842,-36.917688,100 174.883837,-36.917687,100 174.883659,-36.917655,100 174.883475,-36.917622,100 174.883292,-36.917589,100 174.883108,-36.917556,100 174.882925,-36.917522,100 174.88274,-36.917489,100 174.882789,-36.917314,100 174.882417,-36.917247,100 174.882452,-36.917121,100 174.882533,-36.91708,100 174.882571,-36.916946,100 174.882713,-36.916972,100 174.882804,-36.916644,100 174.883013,-36.916682,100 174.883021,-36.916656,100 174.883054,-36.916534,100 174.883057,-36.916526,100 174.88309,-36.916404,100 174.8831,-36.91637,100 174.883143,-36.916214,100 174.883155,-36.916171,100 174.883186,-36.916059,100 174.883219,-36.915941,100 174.88323,-36.915903,100 174.88324,-36.915867,100 174.883273,-36.915747,100 174.883276,-36.915738,100 174.883316,-36.915592,100 174.883359,-36.915436,100 174.883403,-36.91528,100 174.883165,-36.915238,100 174.882984,-36.915205,100 174.883065,-36.914915,100 174.883146,-36.914876,100 174.883134,-36.914666,100 174.883222,-36.914356,100 174.883764,-36.914386,100 174.883772,-36.914287,100 174.883777,-36.914234,100 174.883785,-36.914134,100 174.8838,-36.913959,100 174.883801,-36.91394,100 174.883843,-36.913793,100 174.883844,-36.913789,100 174.883884,-36.913646,100 174.883891,-36.913622,100 174.883899,-36.913489,100 174.883694,-36.913452,100 174.883487,-36.913414,100 174.883561,-36.913151,100 174.883563,-36.913145,100 174.883566,-36.913139,100 174.88357,-36.913133,100 174.883575,-36.913128,100 174.883581,-36.913123,100 174.883588,-36.913119,100 174.883595,-36.913115,100 174.883602,-36.913112,100 174.88361,-36.91311,100 174.883618,-36.913109,100 174.883626,-36.913108,100 174.883634,-36.913109,100 174.883643,-36.91311,100 174.883683,-36.912965,100 174.883675,-36.912963,100 174.883668,-36.91296,100 174.883661,-36.912957,100 174.883654,-36.912953,100 174.883648,-36.912949,100 174.883643,-36.912943,100 174.883639,-36.912938,100 174.883635,-36.912932,100 174.883632,-36.912926,100 174.883631,-36.912919,100 174.88363,-36.912912,100 174.88363,-36.912906,100 174.883632,-36.912899,100 174.883659,-36.912803,100 174.884099,-36.912883,100 174.884141,-36.912736,100 174.884153,-36.912693,100 174.884182,-36.912588,100 174.884191,-36.912555,100 174.884224,-36.912441,100 174.884309,-36.912457,100 174.884323,-36.91241,100 174.884326,-36.912396,100 174.884361,-36.912272,100 174.884258,-36.912253,100 174.884301,-36.9121,100 174.884345,-36.911946,100 174.884388,-36.911793,100 174.884431,-36.91164,100 174.884503,-36.911653,100 174.884613,-36.911673,100 174.884631,-36.911609,100 174.884659,-36.911512,100 174.884543,-36.911491,100 174.884566,-36.911407,100 174.88458,-36.91136,100 174.884616,-36.91123,100 174.884578,-36.911222,100 174.884582,-36.91121,100 174.884619,-36.911077,100 174.884626,-36.91105,100 174.884667,-36.910903,100 174.884708,-36.910756,100 174.884749,-36.91061,100 174.88479,-36.910463,100 174.884831,-36.910316,100 174.884872,-36.910169,100 174.884913,-36.910022,100 174.884954,-36.909875,100 174.884995,-36.909729,100 174.885036,-36.909582,100 174.884888,-36.909555,100 174.884951,-36.90933,100 174.884714,-36.909288,100 174.88476,-36.909122,100 174.884709,-36.909056,100 174.884739,-36.908949,100 174.88518,-36.909028,100 174.885221,-36.908877,100 174.885233,-36.908835,100 174.885421,-36.908868,100 174.885498,-36.908882,100 174.885585,-36.908567,100 174.885591,-36.908546,100 174.885574,-36.908483,100 174.885518,-36.908277,100 174.885479,-36.908135,100 174.885225,-36.908194,100 174.885129,-36.908216,100 174.884976,-36.908099,100 174.885213,-36.907689,100 174.885113,-36.907628,100 174.885185,-36.907373,100 174.885192,-36.907346,100 174.885334,-36.907372,100 174.885516,-36.907246,100 174.885618,-36.907176,100 174.885645,-36.907164,100 174.885688,-36.907145,100 174.885869,-36.907068,100 174.885976,-36.907022,100 174.885998,-36.907012,100 174.88605,-36.90699,100 174.886141,-36.906951,100 174.88622,-36.906917,100 174.886231,-36.906912,100 174.88617,-36.90682,100 174.886063,-36.90666,100 174.885974,-36.906526,100 174.886249,-36.906407,100 174.886286,-36.906463,100 174.886657,-36.906333,100 174.886575,-36.906209,100 174.886502,-36.906101,100 174.886478,-36.906064,100 174.886308,-36.90581,100 174.886577,-36.905694,100 174.886618,-36.905677,100 174.886758,-36.905617,100 174.886779,-36.905608,100 174.886939,-36.905539,100 174.886983,-36.90552,100 174.886778,-36.905363,100 174.886747,-36.905318,100 174.886737,-36.905303,100 174.886837,-36.905181,100 174.886947,-36.905048,100 174.887249,-36.905132,100 174.887378,-36.905167,100 174.887502,-36.905166,100 174.887661,-36.905163,100 174.887893,-36.90516,100 174.88792,-36.905159,100 174.888296,-36.905153,100 174.888341,-36.905157,100 174.888439,-36.905165,100 174.888643,-36.905183,100 174.88866,-36.905184,100 174.888907,-36.905205,100 174.888925,-36.905207,100 174.889154,-36.905226,100 174.889206,-36.90523,100 174.889601,-36.905264,100 174.88962,-36.905257,100 174.889667,-36.90524,100 174.889787,-36.905195,100 174.889925,-36.905144,100 174.890091,-36.905083,100 174.890096,-36.905081,100 174.89023514852815,-36.90502951504459,100 174.8905598,-36.9059705,100 174.8909245,-36.9078579,100 174.8912893,-36.9092477,100 174.8921262,-36.9105344,100 174.89275987576343,-36.911230323015104,100</coordinates>
        </LinearRing>
      </outerBoundaryIs>
    </Polygon>
  </Placemark>
</Document>
</kml>