<?xml version="1.0" encoding="UTF-8"?>
<kml xmlns="http://www.opengis.net/kml/2.2">
<Document>
  <name>Pakuranga Heights (Polygon: Official_Shp) Section 2</name>
  <Placemark>
    <name>Pakuranga Heights (Polygon: Official_Shp) Section 2</name>
    <Style>
      <LineStyle><color>ffff0000</color><width>2</width></LineStyle>
      <PolyStyle><color>66ff0000</color></PolyStyle>
    </Style>
    <Polygon>
      <tessellate>1</tessellate>
      <outerBoundaryIs>
        <LinearRing>
          <coordinates>174.89023514852815,-36.90502951504459,100 174.890396,-36.90497,100 174.890445,-36.904775,100 174.89047,-36.904672,100 174.890524,-36.904456,100 174.890562,-36.904305,100 174.89057,-36.90427,100 174.890613,-36.904099,100 174.890656,-36.903927,100 174.890681,-36.903825,100 174.890694,-36.903774,100 174.890702,-36.903756,100 174.89071,-36.903741,100 174.890749,-36.90366,100 174.890888,-36.903871,100 174.890898,-36.903885,100 174.891016,-36.904065,100 174.891196,-36.904337,100 174.891261,-36.904436,100 174.891447,-36.904357,100 174.891572,-36.904304,100 174.89181,-36.904203,100 174.891864,-36.904285,100 174.891964,-36.904437,100 174.892072,-36.904391,100 174.892074,-36.904394,100 174.892241,-36.904647,100 174.892365,-36.904594,100 174.892407,-36.904483,100 174.892679,-36.904367,100 174.892614,-36.904271,100 174.892936,-36.904134,100 174.892943,-36.904131,100 174.892846,-36.903985,100 174.892749,-36.90384,100 174.892652,-36.903695,100 174.892566,-36.903566,100 174.892859,-36.903624,100 174.892946,-36.903641,100 174.8932,-36.903747,100 174.893249,-36.903767,100 174.893292,-36.903785,100 174.893366,-36.903832,100 174.893418,-36.903808,100 174.893625,-36.903714,100 174.893698,-36.903681,100 174.893804,-36.903632,100 174.893963,-36.90356,100 174.893982,-36.903551,100 174.894141,-36.903479,100 174.894161,-36.90347,100 174.894197,-36.903443,100 174.894284,-36.90338,100 174.894101,-36.903008,100 174.894034,-36.902873,100 174.894018,-36.90284,100 174.894264,-36.902884,100 174.894826,-36.902985,100 174.89533,-36.903075,100 174.895371,-36.903082,100 174.895742,-36.902824,100 174.895192,-36.902724,100 174.89576,-36.902328,100 174.896044,-36.90213,100 174.896129,-36.901982,100 174.896618,-36.901671,100 174.896429,-36.901481,100 174.896335,-36.901544,100 174.895808,-36.901195,100 174.89578,-36.901177,100 174.895199,-36.900793,100 174.895675,-36.900309,100 174.895715,-36.90027,100 174.895972,-36.900008,100 174.896167,-36.899939,100 174.897105,-36.900569,100 174.897173,-36.900778,100 174.897201,-36.900818,100 174.897236,-36.900868,100 174.897339,-36.901015,100 174.897355,-36.901038,100 174.897873,-36.90134,100 174.898376,-36.90102,100 174.89839,-36.901011,100 174.898121,-36.900666,100 174.898308,-36.90057,100 174.898495,-36.900473,100 174.898771,-36.900815,100 174.898816,-36.901121,100 174.899534,-36.900742,100 174.899868,-36.900566,100 174.900821,-36.900068,100 174.902188,-36.899341,100 174.902484,-36.899691,100 174.902602,-36.899831,100 174.903397,-36.900818,100 174.903724,-36.900645,100 174.903998,-36.9005,100 174.904167,-36.900709,100 174.904239,-36.900797,100 174.904258,-36.900814,100 174.904251,-36.900826,100 174.904244,-36.900841,100 174.904232,-36.900863,100 174.904225,-36.900884,100 174.904222,-36.900889,100 174.904218,-36.900902,100 174.904215,-36.900907,100 174.904207,-36.900929,100 174.904195,-36.900942,100 174.904179,-36.900965,100 174.904158,-36.900993,100 174.904153,-36.901007,100 174.904144,-36.901031,100 174.904131,-36.901062,100 174.904123,-36.901089,100 174.904117,-36.901099,100 174.904114,-36.901113,100 174.904113,-36.901125,100 174.904103,-36.901177,100 174.904098,-36.901186,100 174.90409,-36.901198,100 174.904086,-36.901211,100 174.904088,-36.901226,100 174.90408,-36.901293,100 174.904081,-36.901304,100 174.90406,-36.901453,100 174.90405,-36.901489,100 174.904049,-36.901497,100 174.904046,-36.901513,100 174.904039,-36.901527,100 174.904039,-36.901533,100 174.904042,-36.901552,100 174.904041,-36.901579,100 174.90403,-36.901609,100 174.90403,-36.901632,100 174.904031,-36.901657,100 174.90403,-36.901667,100 174.90403,-36.901685,100 174.904028,-36.901694,100 174.904028,-36.901703,100 174.904018,-36.901794,100 174.90402,-36.901814,100 174.90402,-36.901823,100 174.904017,-36.901855,100 174.904018,-36.901867,100 174.904018,-36.901883,100 174.904019,-36.901889,100 174.904017,-36.901911,100 174.904017,-36.901917,100 174.904018,-36.901922,100 174.90402,-36.901978,100 174.904016,-36.902008,100 174.904018,-36.902031,100 174.904017,-36.902037,100 174.904017,-36.902052,100 174.904016,-36.902057,100 174.904014,-36.902094,100 174.904003,-36.902155,100 174.904005,-36.902193,100 174.904007,-36.902198,100 174.904015,-36.902214,100 174.904019,-36.902244,100 174.904018,-36.902259,100 174.904019,-36.902267,100 174.904021,-36.90227,100 174.904022,-36.902274,100 174.90403,-36.90229,100 174.904032,-36.902291,100 174.904035,-36.902296,100 174.904038,-36.902299,100 174.904048,-36.902323,100 174.904049,-36.902329,100 174.904057,-36.902356,100 174.904079,-36.902398,100 174.904083,-36.902402,100 174.9041,-36.902442,100 174.904107,-36.902452,100 174.904111,-36.902467,100 174.904127,-36.902509,100 174.904127,-36.902514,100 174.904129,-36.902516,100 174.904143,-36.902553,100 174.904149,-36.902566,100 174.904158,-36.902599,100 174.90416,-36.902603,100 174.904164,-36.902627,100 174.904164,-36.902632,100 174.904168,-36.902638,100 174.904184,-36.902631,100 174.904203,-36.902717,100 174.9042,-36.90272,100 174.904199,-36.902732,100 174.904183,-36.902762,100 174.904185,-36.902812,100 174.904196,-36.902822,100 174.904196,-36.902836,100 174.904223,-36.902946,100 174.904224,-36.902955,100 174.904236,-36.902998,100 174.90424,-36.903017,100 174.904253,-36.903062,100 174.904257,-36.903078,100 174.904263,-36.903099,100 174.904267,-36.903106,100 174.904274,-36.903125,100 174.904278,-36.903131,100 174.904284,-36.903153,100 174.904325,-36.903264,100 174.904334,-36.903277,100 174.904342,-36.90329,100 174.904344,-36.903294,100 174.904353,-36.903319,100 174.904354,-36.903324,100 174.904355,-36.903331,100 174.904358,-36.903344,100 174.90436,-36.903357,100 174.904364,-36.903364,100 174.904366,-36.903397,100 174.90436,-36.903451,100 174.904366,-36.903506,100 174.904366,-36.903524,100 174.904391,-36.903671,100 174.904405,-36.903706,100 174.904424,-36.903792,100 174.904418,-36.903852,100 174.90441,-36.903886,100 174.90441,-36.903889,100 174.904403,-36.903917,100 174.904401,-36.903922,100 174.904383,-36.903973,100 174.904306,-36.904103,100 174.904262,-36.904205,100 174.904256,-36.904213,100 174.904239,-36.904257,100 174.904226,-36.904301,100 174.904224,-36.904304,100 174.904191,-36.904399,100 174.904191,-36.904406,100 174.904183,-36.90443,100 174.904179,-36.904437,100 174.904158,-36.904554,100 174.904156,-36.90456,100 174.904151,-36.904598,100 174.904127,-36.904681,100 174.904128,-36.904697,100 174.904123,-36.904729,100 174.904123,-36.904791,100 174.904119,-36.904816,100 174.904118,-36.904831,100 174.904116,-36.904841,100 174.904118,-36.904847,100 174.904114,-36.904916,100 174.904092,-36.904986,100 174.904092,-36.905024,100 174.904092,-36.905026,100 174.904083,-36.905059,100 174.90408,-36.905075,100 174.904059,-36.90513,100 174.90405,-36.905157,100 174.90404,-36.905181,100 174.904039,-36.905189,100 174.904003,-36.905266,100 174.903995,-36.905277,100 174.903973,-36.905303,100 174.90396,-36.905342,100 174.903952,-36.905359,100 174.903948,-36.905372,100 174.903942,-36.905383,100 174.903941,-36.905388,100 174.903939,-36.9054,100 174.90394,-36.90545,100 174.903969,-36.905599,100 174.903971,-36.905605,100 174.90398,-36.905636,100 174.903997,-36.905675,100 174.90401,-36.905712,100 174.904018,-36.905748,100 174.904025,-36.905769,100 174.90403,-36.905793,100 174.904032,-36.905801,100 174.904036,-36.905842,100 174.904051,-36.90591,100 174.90407,-36.905956,100 174.904102,-36.906127,100 174.904104,-36.906147,100 174.904119,-36.906231,100 174.904139,-36.906283,100 174.904143,-36.906288,100 174.904144,-36.906293,100 174.904149,-36.9063,100 174.904172,-36.90634,100 174.904192,-36.906375,100 174.904195,-36.906383,100 174.904206,-36.9064,100 174.904208,-36.906405,100 174.904237,-36.90645,100 174.904238,-36.906456,100 174.904245,-36.906475,100 174.904246,-36.906496,100 174.904249,-36.90651,100 174.904248,-36.90655,100 174.904218,-36.906659,100 174.904214,-36.906668,100 174.904213,-36.906674,100 174.904213,-36.906697,100 174.904207,-36.90673,100 174.904209,-36.906767,100 174.904201,-36.906811,100 174.904201,-36.90684,100 174.904208,-36.906876,100 174.904231,-36.906924,100 174.90426,-36.906963,100 174.904284,-36.906985,100 174.904299,-36.906996,100 174.904308,-36.907,100 174.904311,-36.907002,100 174.904316,-36.907003,100 174.904348,-36.907027,100 174.904363,-36.90704,100 174.904384,-36.90706,100 174.904428,-36.907144,100 174.904456,-36.90724,100 174.904401,-36.907344,100 174.904388,-36.907395,100 174.904359,-36.907389,100 174.904356,-36.907398,100 174.904318,-36.907454,100 174.904304,-36.907491,100 174.904299,-36.9075,100 174.904263,-36.907544,100 174.904211,-36.907578,100 174.9042,-36.907582,100 174.904198,-36.907584,100 174.904149,-36.907607,100 174.904146,-36.907609,100 174.904141,-36.907611,100 174.904126,-36.907618,100 174.904106,-36.907625,100 174.903994,-36.907676,100 174.903982,-36.907686,100 174.903977,-36.907692,100 174.903918,-36.907754,100 174.903906,-36.907775,100 174.903903,-36.907779,100 174.903901,-36.907783,100 174.903889,-36.907798,100 174.90386,-36.907831,100 174.903835,-36.907876,100 174.903813,-36.907939,100 174.903809,-36.907958,100 174.903804,-36.907974,100 174.903803,-36.90798,100 174.903798,-36.907993,100 174.903787,-36.908007,100 174.903779,-36.908016,100 174.903738,-36.908066,100 174.903731,-36.908075,100 174.903707,-36.908112,100 174.903694,-36.908129,100 174.903687,-36.908141,100 174.903669,-36.908162,100 174.903603,-36.908267,100 174.903599,-36.908276,100 174.903599,-36.908282,100 174.903584,-36.908323,100 174.903579,-36.908334,100 174.90358,-36.908338,100 174.903579,-36.90835,100 174.903566,-36.908384,100 174.903553,-36.908406,100 174.903548,-36.908412,100 174.903548,-36.908414,100 174.903546,-36.908416,100 174.903541,-36.908435,100 174.903493,-36.908519,100 174.903479,-36.908591,100 174.90348,-36.908656,100 174.903485,-36.908689,100 174.903484,-36.908723,100 174.903467,-36.908797,100 174.903447,-36.908827,100 174.903423,-36.908854,100 174.903418,-36.908861,100 174.903411,-36.908876,100 174.90341,-36.908883,100 174.90341,-36.9089,100 174.903419,-36.908922,100 174.903422,-36.908929,100 174.903427,-36.908935,100 174.90343,-36.908943,100 174.903444,-36.908962,100 174.903449,-36.908971,100 174.903456,-36.908979,100 174.903475,-36.908995,100 174.9035,-36.909018,100 174.903551,-36.909051,100 174.903597,-36.909071,100 174.903609,-36.909078,100 174.903621,-36.909086,100 174.903637,-36.909094,100 174.903653,-36.909107,100 174.903675,-36.909119,100 174.903713,-36.909133,100 174.903733,-36.909138,100 174.903905,-36.909139,100 174.903935,-36.909148,100 174.903944,-36.909151,100 174.903952,-36.909157,100 174.903957,-36.909162,100 174.903984,-36.909208,100 174.903985,-36.909211,100 174.903985,-36.909228,100 174.903979,-36.909238,100 174.903969,-36.909246,100 174.903958,-36.909255,100 174.903904,-36.909276,100 174.903897,-36.90928,100 174.903891,-36.909284,100 174.903885,-36.90929,100 174.903851,-36.909335,100 174.903832,-36.909358,100 174.903828,-36.909366,100 174.90378,-36.909427,100 174.903766,-36.909453,100 174.903757,-36.909478,100 174.903746,-36.90951,100 174.903745,-36.909529,100 174.903734,-36.90958,100 174.903726,-36.909655,100 174.903731,-36.909678,100 174.903748,-36.909714,100 174.903761,-36.909733,100 174.903771,-36.909751,100 174.903773,-36.909758,100 174.903785,-36.909777,100 174.903815,-36.90981,100 174.903826,-36.909819,100 174.903839,-36.909827,100 174.903854,-36.909833,100 174.903879,-36.909842,100 174.903886,-36.909845,100 174.903932,-36.909857,100 174.903948,-36.909858,100 174.904139,-36.909888,100 174.904256,-36.909934,100 174.904262,-36.909938,100 174.904276,-36.909943,100 174.904337,-36.909977,100 174.904348,-36.909986,100 174.904383,-36.910022,100 174.904406,-36.910042,100 174.904446,-36.910089,100 174.904447,-36.910092,100 174.904483,-36.910131,100 174.904504,-36.91015,100 174.904509,-36.910157,100 174.904516,-36.910169,100 174.904537,-36.910194,100 174.904542,-36.910198,100 174.904558,-36.910207,100 174.904566,-36.910212,100 174.904649,-36.910245,100 174.904766,-36.910309,100 174.904774,-36.91032,100 174.904776,-36.910327,100 174.904774,-36.91034,100 174.904757,-36.910379,100 174.904723,-36.910424,100 174.904703,-36.910443,100 174.904698,-36.910447,100 174.904684,-36.910464,100 174.904676,-36.910484,100 174.904672,-36.910503,100 174.904671,-36.910515,100 174.904673,-36.910522,100 174.904669,-36.910558,100 174.904672,-36.910577,100 174.90467,-36.910606,100 174.904676,-36.910677,100 174.904685,-36.910696,100 174.904693,-36.910705,100 174.904722,-36.910733,100 174.904783,-36.910779,100 174.90479,-36.910787,100 174.904795,-36.910789,100 174.904808,-36.910795,100 174.904824,-36.910804,100 174.904856,-36.910816,100 174.904901,-36.910828,100 174.904922,-36.910836,100 174.904966,-36.910852,100 174.904981,-36.910858,100 174.90499,-36.910862,100 174.905001,-36.910865,100 174.90509,-36.910904,100 174.905119,-36.910929,100 174.905132,-36.910951,100 174.905134,-36.910961,100 174.905131,-36.910976,100 174.905129,-36.91098,100 174.905111,-36.911004,100 174.905054,-36.911061,100 174.905035,-36.911074,100 174.905029,-36.911076,100 174.905013,-36.911085,100 174.904946,-36.91116,100 174.90494,-36.911164,100 174.904922,-36.911181,100 174.9049,-36.911197,100 174.904871,-36.911208,100 174.904813,-36.911223,100 174.904791,-36.911231,100 174.904747,-36.911258,100 174.904668,-36.91131,100 174.904649,-36.911329,100 174.904594,-36.911366,100 174.904555,-36.911385,100 174.904501,-36.911415,100 174.904455,-36.911431,100 174.904448,-36.911435,100 174.904426,-36.911454,100 174.904419,-36.911466,100 174.904411,-36.91148,100 174.904374,-36.911538,100 174.904371,-36.911547,100 174.904363,-36.911561,100 174.904359,-36.911576,100 174.904357,-36.91159,100 174.904359,-36.911603,100 174.904369,-36.911634,100 174.904388,-36.911666,100 174.904397,-36.911688,100 174.904399,-36.911695,100 174.9044,-36.911718,100 174.904403,-36.91174,100 174.904402,-36.911776,100 174.904401,-36.911784,100 174.904387,-36.911823,100 174.904381,-36.911852,100 174.904383,-36.911871,100 174.904387,-36.911881,100 174.904392,-36.91189,100 174.9044,-36.9119,100 174.904406,-36.91191,100 174.904415,-36.911917,100 174.904423,-36.911923,100 174.904467,-36.911969,100 174.904481,-36.911986,100 174.904501,-36.912007,100 174.904513,-36.912024,100 174.904528,-36.912061,100 174.904536,-36.912089,100 174.904541,-36.912115,100 174.904577,-36.912213,100 174.904585,-36.91223,100 174.904604,-36.912276,100 174.904608,-36.912281,100 174.904612,-36.912288,100 174.904616,-36.912293,100 174.904668,-36.912392,100 174.904705,-36.912443,100 174.904725,-36.912461,100 174.904732,-36.912468,100 174.904745,-36.912482,100 174.904798,-36.912545,100 174.904802,-36.912551,100 174.904851,-36.912616,100 174.904902,-36.912701,100 174.904909,-36.91272,100 174.90491,-36.912736,100 174.904912,-36.912742,100 174.904915,-36.912768,100 174.904927,-36.912822,100 174.904927,-36.912835,100 174.904924,-36.912863,100 174.904915,-36.912896,100 174.904912,-36.912901,100 174.904898,-36.912916,100 174.904893,-36.91292,100 174.904875,-36.912929,100 174.904855,-36.912938,100 174.904849,-36.912941,100 174.904784,-36.912965,100 174.904762,-36.91297,100 174.904737,-36.912973,100 174.904711,-36.912978,100 174.904687,-36.912982,100 174.904675,-36.912984,100 174.904656,-36.912992,100 174.904588,-36.913028,100 174.904553,-36.913054,100 174.904548,-36.913057,100 174.904528,-36.913072,100 174.904514,-36.913081,100 174.904476,-36.913111,100 174.904427,-36.913158,100 174.904413,-36.913176,100 174.904409,-36.913184,100 174.904378,-36.913261,100 174.904379,-36.913263,100 174.904379,-36.913286,100 174.904381,-36.91329,100 174.904385,-36.913322,100 174.904387,-36.913335,100 174.904388,-36.913398,100 174.904391,-36.913422,100 174.904391,-36.913432,100 174.904392,-36.91345,100 174.904391,-36.913454,100 174.904407,-36.913556,100 174.904418,-36.913576,100 174.904455,-36.913633,100 174.904457,-36.913638,100 174.904473,-36.913661,100 174.904476,-36.913664,100 174.904481,-36.913674,100 174.904518,-36.913721,100 174.904523,-36.913732,100 174.904526,-36.913733,100 174.904526,-36.913734,100 174.904453,-36.913858,100 174.904456,-36.913884,100 174.904563,-36.913843,100 174.904644,-36.91388,100 174.904645,-36.913888,100 174.904647,-36.913892,100 174.90466,-36.913936,100 174.904659,-36.913941,100 174.904664,-36.913995,100 174.904664,-36.913998,100 174.904664,-36.91401,100 174.904662,-36.914016,100 174.904663,-36.91402,100 174.904662,-36.914023,100 174.904669,-36.914033,100 174.904669,-36.914045,100 174.904804,-36.914052,100 174.904768,-36.914125,100 174.904716,-36.914211,100 174.90466,-36.914209,100 174.904524,-36.914184,100 174.904485,-36.914176,100 174.904494,-36.914263,100 174.904358,-36.914423,100 174.904277,-36.914559,100 174.9042,-36.914809,100 174.904091,-36.914946,100 174.903628,-36.915405,100 174.903574,-36.915474,100 174.90347,-36.915791,100 174.903362,-36.915928,100 174.903169,-36.916067,100 174.902522,-36.916012,100 174.902188,-36.916108,100 174.90205,-36.916178,100 174.901666,-36.916477,100 174.901561,-36.916727,100 174.901075,-36.917458,100 174.900443,-36.917897,100 174.900285,-36.918284,100 174.90026,-36.918397,100 174.900234,-36.918713,100 174.900196,-36.919097,100 174.899656,-36.919805,100 174.8996,-36.919828,100 174.899299,-36.920126,100 174.899217,-36.920174,100 174.899076,-36.920176,100 174.898759,-36.919866,100 174.898749,-36.919551,100 174.898804,-36.91933,100 174.898851,-36.919144,100 174.898882,-36.918287,100 174.898793,-36.918108,100 174.898475,-36.917753,100 174.898244,-36.917577,100 174.897475,-36.917163,100 174.896508,-36.91673,100 174.896199,-36.916674,100 174.896057,-36.916648,100 174.895579,-36.916612,100 174.895232,-36.916235,100 174.894956,-36.915406,100 174.894717,-36.914892,100 174.894715,-36.914824,100 174.894921,-36.91419,100 174.894921,-36.914167,100 174.894887,-36.913965,100 174.894857,-36.913875,100 174.89471,-36.913675,100 174.894624,-36.913609,100 174.894397,-36.913524,100 174.894333,-36.913042,100 174.894326,-36.913043,100 174.894294,-36.912863,100 174.894309,-36.912862,100 174.894254,-36.912445,100 174.894385,-36.912104,100 174.894412,-36.912058,100 174.894631,-36.911851,100 174.894824,-36.911713,100 174.895461,-36.911348,100 174.895011,-36.911416,100 174.8949,-36.911482,100 174.893963,-36.912044,100 174.893824,-36.912114,100 174.893712,-36.912116,100 174.893655,-36.912095,100 174.893341,-36.911875,100 174.893044,-36.911339,100 174.89309,-36.911039,100 174.893283,-36.910808,100 174.893255,-36.910772,100 174.892944,-36.911021,100 174.892869,-36.911095,100 174.89278,-36.911178,100 174.89275987576343,-36.911230323015104,100 174.8921262,-36.9105344,100 174.8912893,-36.9092477,100 174.8909245,-36.9078579,100 174.8905598,-36.9059705,100 174.89023514852815,-36.90502951504459,100</coordinates>
        </LinearRing>
      </outerBoundaryIs>
    </Polygon>
  </Placemark>
</Document>
</kml>