<?xml version="1.0" encoding="UTF-8"?>
<kml xmlns="http://www.opengis.net/kml/2.2">
  <Document>
    <name>Flat Bush</name>
    <Style id="line-000000-2000-nodesc-normal">
      <LineStyle>
        <color>ff000000</color>
        <width>2</width>
      </LineStyle>
      <BalloonStyle>
        <text><![CDATA[<h3>$[name]</h3>]]></text>
      </BalloonStyle>
    </Style>
    <Style id="line-000000-2000-nodesc-highlight">
      <LineStyle>
        <color>ff000000</color>
        <width>3</width>
      </LineStyle>
      <BalloonStyle>
        <text><![CDATA[<h3>$[name]</h3>]]></text>
      </BalloonStyle>
    </Style>
    <StyleMap id="line-000000-2000-nodesc">
      <Pair>
        <key>normal</key>
        <styleUrl>#line-000000-2000-nodesc-normal</styleUrl>
      </Pair>
      <Pair>
        <key>highlight</key>
        <styleUrl>#line-000000-2000-nodesc-highlight</styleUrl>
      </Pair>
    </StyleMap>
    <Style id="poly-0000FF-2000-102-nodesc-normal">
      <LineStyle>
        <color>ffff0000</color>
        <width>2</width>
      </LineStyle>
      <PolyStyle>
        <color>66ff0000</color>
        <fill>1</fill>
        <outline>1</outline>
      </PolyStyle>
      <BalloonStyle>
        <text><![CDATA[<h3>$[name]</h3>]]></text>
      </BalloonStyle>
    </Style>
    <Style id="poly-0000FF-2000-102-nodesc-highlight">
      <LineStyle>
        <color>ffff0000</color>
        <width>3</width>
      </LineStyle>
      <PolyStyle>
        <color>66ff0000</color>
        <fill>1</fill>
        <outline>1</outline>
      </PolyStyle>
      <BalloonStyle>
        <text><![CDATA[<h3>$[name]</h3>]]></text>
      </BalloonStyle>
    </Style>
    <StyleMap id="poly-0000FF-2000-102-nodesc">
      <Pair>
        <key>normal</key>
        <styleUrl>#poly-0000FF-2000-102-nodesc-normal</styleUrl>
      </Pair>
      <Pair>
        <key>highlight</key>
        <styleUrl>#poly-0000FF-2000-102-nodesc-highlight</styleUrl>
      </Pair>
    </StyleMap>
    <Placemark>
      <name>5</name>
      <styleUrl>#line-000000-2000-nodesc</styleUrl>
      <LineString>
        <tessellate>1</tessellate>
        <coordinates>
          174.9001607,-36.9809026,0
          174.901989,-36.980634,0
          174.9029255,-36.9776929,0
          174.904642,-36.971847,0
          174.911122,-36.973013,0
          174.910864,-36.974299,0
          174.911036,-36.97591,0
          174.91095,-36.977179,0
          174.911354,-36.978079,0
          174.911194,-36.978405,0
          174.910786,-36.978756,0
          174.910872,-36.979459,0
          174.911172,-36.979862,0
          174.910936,-36.980719,0
          174.910839,-36.981465,0
          174.910925,-36.982313,0
          174.911002,-36.982892,0
          174.91097,-36.983518,0
          174.910799,-36.984201,0
          174.910681,-36.984381,0
          174.910584,-36.984638,0
          174.910441,-36.984891,0
          174.909497,-36.984796,0
          174.908982,-36.984814,0
          174.90851,-36.984985,0
          174.90793,-36.985079,0
          174.907405,-36.985011,0
          174.906793,-36.984762,0
        </coordinates>
      </LineString>
    </Placemark>
    <Placemark>
      <name>Flat Bush (polygon: official_shp)</name>
      <styleUrl>#poly-0000FF-2000-102-nodesc</styleUrl>
      <Polygon>
        <outerBoundaryIs>
          <LinearRing>
            <tessellate>1</tessellate>
            <coordinates>
              174.96851,-36.983085,0
              174.968168,-36.982706,0
              174.965413,-36.979656,0
              174.963988,-36.978077,0
              174.962739,-36.976694,0
              174.962559,-36.976881,0
              174.962394,-36.977004,0
              174.962169,-36.977108,0
              174.961919,-36.977169,0
              174.961637,-36.977052,0
              174.961308,-36.976962,0
              174.960828,-36.977771,0
              174.960285,-36.978987,0
              174.959799,-36.979151,0
              174.959398,-36.979478,0
              174.959407,-36.979493,0
              174.959012,-36.979764,0
              174.958586,-36.979854,0
              174.957844,-36.980421,0
              174.956883,-36.980928,0
              174.956735,-36.981035,0
              174.956687,-36.981472,0
              174.95667,-36.981626,0
              174.956585,-36.981634,0
              174.956483,-36.981608,0
              174.95619,-36.981511,0
              174.956091,-36.981474,0
              174.955683,-36.981731,0
              174.955531,-36.981747,0
              174.953643,-36.981361,0
              174.952274,-36.981081,0
              174.951395,-36.980898,0
              174.951336,-36.980759,0
              174.951264,-36.980587,0
              174.951262,-36.980582,0
              174.951236,-36.980521,0
              174.95037,-36.979671,0
              174.950079,-36.979385,0
              174.94995,-36.979258,0
              174.94983,-36.97909,0
              174.94961,-36.978782,0
              174.949513,-36.978647,0
              174.949431,-36.978499,0
              174.949402,-36.978445,0
              174.949357,-36.978364,0
              174.949314,-36.978118,0
              174.949257,-36.977797,0
              174.949255,-36.977788,0
              174.949225,-36.977614,0
              174.948737,-36.977592,0
              174.948117,-36.977481,0
              174.948269,-36.976879,0
              174.948426,-36.976409,0
              174.948233,-36.976375,0
              174.948315,-36.97629,0
              174.948485,-36.976169,0
              174.948553,-36.976121,0
              174.948801,-36.975909,0
              174.948938,-36.975754,0
              174.949146,-36.975411,0
              174.949196,-36.97503,0
              174.949157,-36.974651,0
              174.949044,-36.974368,0
              174.948451,-36.97378,0
              174.948015,-36.973395,0
              174.947833,-36.97319,0
              174.947749,-36.973032,0
              174.947696,-36.972867,0
              174.947676,-36.972695,0
              174.947687,-36.972271,0
              174.947649,-36.971965,0
              174.947489,-36.971609,0
              174.947269,-36.971327,0
              174.947045,-36.97111,0
              174.947049,-36.971063,0
              174.947078,-36.97071,0
              174.952059,-36.971535,0
              174.953211,-36.968448,0
              174.95352,-36.967575,0
              174.956427,-36.965945,0
              174.954003,-36.963215,0
              174.951764,-36.960651,0
              174.951002,-36.959779,0
              174.949182,-36.957698,0
              174.949129,-36.957764,0
              174.948682,-36.957437,0
              174.94892,-36.957338,0
              174.94963,-36.957122,0
              174.949928,-36.956888,0
              174.95008,-36.956345,0
              174.947263,-36.955888,0
              174.946716,-36.955807,0
              174.944525,-36.95534,0
              174.946096,-36.950401,0
              174.944864,-36.949923,0
              174.941998,-36.949067,0
              174.940672,-36.953646,0
              174.939945,-36.953616,0
              174.938843,-36.952906,0
              174.937924,-36.951837,0
              174.938193,-36.951295,0
              174.937858,-36.950615,0
              174.937551,-36.950222,0
              174.937531,-36.950288,0
              174.937475,-36.950466,0
              174.93724,-36.950998,0
              174.937047,-36.951809,0
              174.936801,-36.952631,0
              174.936153,-36.954715,0
              174.934921,-36.954472,0
              174.932395,-36.953969,0
              174.930177,-36.953522,0
              174.92984,-36.953454,0
              174.929612,-36.953408,0
              174.927145,-36.95291,0
              174.92642,-36.952764,0
              174.926013,-36.952682,0
              174.925543,-36.952587,0
              174.923763,-36.952227,0
              174.923899,-36.951755,0
              174.923921,-36.951678,0
              174.923975,-36.951491,0
              174.924275,-36.950424,0
              174.924311,-36.950295,0
              174.924362,-36.950109,0
              174.924715,-36.948856,0
              174.923673,-36.94887,0
              174.922351,-36.94863,0
              174.921947,-36.94869,0
              174.921754,-36.948798,0
              174.921679,-36.948785,0
              174.921205,-36.948704,0
              174.920682,-36.948614,0
              174.920277,-36.948544,0
              174.919617,-36.948431,0
              174.919071,-36.948336,0
              174.918807,-36.948292,0
              174.918451,-36.948231,0
              174.918126,-36.948176,0
              174.917618,-36.948087,0
              174.916965,-36.947973,0
              174.91629,-36.947856,0
              174.91624,-36.948045,0
              174.916189,-36.948239,0
              174.916141,-36.948419,0
              174.916093,-36.9486,0
              174.916093,-36.948601,0
              174.916043,-36.948789,0
              174.915974,-36.94905,0
              174.915964,-36.949084,0
              174.915894,-36.94935,0
              174.915817,-36.949638,0
              174.915741,-36.949926,0
              174.913825,-36.949595,0
              174.913458,-36.949533,0
              174.913328,-36.94951,0
              174.913395,-36.949264,0
              174.91326,-36.949242,0
              174.913216,-36.949236,0
              174.913103,-36.94922,0
              174.913049,-36.949211,0
              174.913035,-36.949208,0
              174.912853,-36.949177,0
              174.912831,-36.949173,0
              174.912672,-36.949145,0
              174.912633,-36.949139,0
              174.912491,-36.949114,0
              174.912436,-36.949104,0
              174.91231,-36.949083,0
              174.912238,-36.94907,0
              174.912128,-36.949051,0
              174.912041,-36.949036,0
              174.911947,-36.94902,0
              174.911832,-36.949,0
              174.911766,-36.948988,0
              174.911585,-36.948957,0
              174.911528,-36.948947,0
              174.911436,-36.948955,0
              174.911247,-36.948923,0
              174.910999,-36.948708,0
              174.910915,-36.948694,0
              174.910783,-36.948671,0
              174.910684,-36.948654,0
              174.910569,-36.948634,0
              174.910427,-36.948609,0
              174.910355,-36.948597,0
              174.91024,-36.948577,0
              174.910135,-36.948558,0
              174.910064,-36.948546,0
              174.909915,-36.94852,0
              174.909888,-36.948516,0
              174.909711,-36.94849,0
              174.90966,-36.948483,0
              174.909534,-36.948468,0
              174.909288,-36.94844,0
              174.909022,-36.94852,0
              174.908676,-36.948467,0
              174.908668,-36.948494,0
              174.908494,-36.948462,0
              174.908443,-36.948453,0
              174.908319,-36.948431,0
              174.908225,-36.948414,0
              174.908144,-36.9484,0
              174.907967,-36.948368,0
              174.907879,-36.94837,0
              174.907682,-36.948335,0
              174.907616,-36.948323,0
              174.907485,-36.9483,0
              174.907353,-36.948276,0
              174.907289,-36.948265,0
              174.907091,-36.94823,0
              174.906538,-36.948479,0
              174.906279,-36.949411,0
              174.906147,-36.949888,0
              174.905981,-36.950484,0
              174.905591,-36.951891,0
              174.905323,-36.952859,0
              174.905265,-36.953067,0
              174.905188,-36.953346,0
              174.905157,-36.95334,0
              174.904945,-36.954105,0
              174.904719,-36.954496,0
              174.904755,-36.954659,0
              174.90465,-36.955113,0
              174.904579,-36.955423,0
              174.90453,-36.955601,0
              174.904466,-36.955885,0
              174.904395,-36.956204,0
              174.904383,-36.956249,0
              174.904228,-36.956749,0
              174.903695,-36.956655,0
              174.903457,-36.956516,0
              174.90313,-36.956324,0
              174.902556,-36.956211,0
              174.901744,-36.956052,0
              174.90181,-36.955838,0
              174.900996,-36.955366,0
              174.900282,-36.954952,0
              174.900207,-36.954969,0
              174.90014,-36.954985,0
              174.899142,-36.955216,0
              174.898973,-36.955822,0
              174.89958,-36.955929,0
              174.899558,-36.956003,0
              174.89953,-36.956106,0
              174.899462,-36.956342,0
              174.899303,-36.956896,0
              174.899022,-36.95693,0
              174.898644,-36.957241,0
              174.899101,-36.957599,0
              174.899397,-36.95752,0
              174.899861,-36.957556,0
              174.899956,-36.957563,0
              174.900188,-36.957707,0
              174.900312,-36.957784,0
              174.900476,-36.958218,0
              174.900427,-36.958326,0
              174.900212,-36.958808,0
              174.90014,-36.958967,0
              174.90018,-36.959223,0
              174.900246,-36.959647,0
              174.900289,-36.959924,0
              174.900412,-36.960042,0
              174.900599,-36.960034,0
              174.901433,-36.960058,0
              174.901689,-36.960065,0
              174.90228,-36.960073,0
              174.902504,-36.960077,0
              174.902685,-36.960277,0
              174.90294,-36.960374,0
              174.902947,-36.960376,0
              174.902601,-36.961547,0
              174.901798,-36.961519,0
              174.901529,-36.962366,0
              174.901472,-36.962469,0
              174.901125,-36.96356,0
              174.901219,-36.963573,0
              174.901316,-36.963585,0
              174.901329,-36.963587,0
              174.901609,-36.963637,0
              174.901813,-36.963646,0
              174.90166,-36.963968,0
              174.902422,-36.964156,0
              174.902268,-36.964226,0
              174.902132,-36.964686,0
              174.901687,-36.965786,0
              174.901579,-36.96616,0
              174.901407,-36.96676,0
              174.901342,-36.966987,0
              174.901273,-36.967225,0
              174.901121,-36.967757,0
              174.900966,-36.968296,0
              174.9009,-36.968526,0
              174.900832,-36.968762,0
              174.900524,-36.969833,0
              174.900458,-36.970063,0
              174.90039,-36.970299,0
              174.900218,-36.970899,0
              174.900168,-36.971074,0
              174.899764,-36.971001,0
              174.899637,-36.970977,0
              174.899627,-36.970572,0
              174.899626,-36.970504,0
              174.899626,-36.970437,0
              174.899627,-36.970369,0
              174.899628,-36.970302,0
              174.899631,-36.970235,0
              174.899634,-36.970167,0
              174.899639,-36.9701,0
              174.899644,-36.970033,0
              174.89965,-36.969965,0
              174.899658,-36.969898,0
              174.899666,-36.969831,0
              174.899675,-36.969764,0
              174.899685,-36.969697,0
              174.899696,-36.96963,0
              174.899707,-36.969564,0
              174.89972,-36.969497,0
              174.899734,-36.969431,0
              174.899748,-36.969364,0
              174.899764,-36.969298,0
              174.89978,-36.969232,0
              174.899797,-36.969166,0
              174.899815,-36.9691,0
              174.899834,-36.969034,0
              174.899854,-36.968969,0
              174.899875,-36.968904,0
              174.899897,-36.968838,0
              174.89992,-36.968774,0
              174.899943,-36.968709,0
              174.899968,-36.968644,0
              174.899993,-36.96858,0
              174.900019,-36.968516,0
              174.900046,-36.968452,0
              174.900074,-36.968389,0
              174.900103,-36.968325,0
              174.900133,-36.968262,0
              174.900163,-36.968199,0
              174.900195,-36.968137,0
              174.900227,-36.968075,0
              174.90026,-36.968013,0
              174.900294,-36.967951,0
              174.900329,-36.96789,0
              174.900347,-36.967858,0
              174.89663,-36.967172,0
              174.896094,-36.969054,0
              174.895755,-36.970283,0
              174.895706,-36.97046,0
              174.895502,-36.97119,0
              174.895462,-36.971334,0
              174.895412,-36.971514,0
              174.89536,-36.9717,0
              174.895278,-36.971993,0
              174.895223,-36.972191,0
              174.895131,-36.972521,0
              174.895056,-36.972791,0
              174.895017,-36.97293,0
              174.894973,-36.973086,0
              174.894929,-36.973244,0
              174.894887,-36.973397,0
              174.894885,-36.973402,0
              174.894884,-36.973407,0
              174.894844,-36.973552,0
              174.894803,-36.973701,0
              174.894739,-36.973933,0
              174.894675,-36.974164,0
              174.894633,-36.974317,0
              174.894612,-36.974391,0
              174.89455,-36.974618,0
              174.894464,-36.974927,0
              174.894459,-36.974948,0
              174.894806,-36.975172,0
              174.895025,-36.975314,0
              174.895243,-36.975455,0
              174.895455,-36.975245,0
              174.895507,-36.975279,0
              174.895296,-36.975489,0
              174.895523,-36.975636,0
              174.89575,-36.975783,0
              174.895846,-36.975845,0
              174.896071,-36.97593,0
              174.896255,-36.976,0
              174.896325,-36.976026,0
              174.896473,-36.975774,0
              174.896504,-36.975786,0
              174.896356,-36.976038,0
              174.89681,-36.976209,0
              174.896871,-36.976246,0
              174.897098,-36.97638,0
              174.897153,-36.976413,0
              174.897235,-36.976461,0
              174.897472,-36.976602,0
              174.897716,-36.976747,0
              174.898038,-36.976937,0
              174.898026,-36.976981,0
              174.898018,-36.977009,0
              174.898002,-36.977069,0
              174.897955,-36.977041,0
              174.897667,-36.97687,0
              174.89761,-36.976888,0
              174.897475,-36.977383,0
              174.897897,-36.977456,0
              174.897776,-36.9779,0
              174.897772,-36.977911,0
              174.897768,-36.977921,0
              174.897762,-36.977931,0
              174.897756,-36.97794,0
              174.897749,-36.977949,0
              174.897668,-36.977987,0
              174.898102,-36.978055,0
              174.898118,-36.977993,0
              174.89848,-36.978057,0
              174.898437,-36.978217,0
              174.898748,-36.978339,0
              174.89881,-36.978115,0
              174.899161,-36.978177,0
              174.899152,-36.978211,0
              174.899113,-36.978361,0
              174.899074,-36.978511,0
              174.899037,-36.978652,0
              174.899374,-36.978713,0
              174.899366,-36.978744,0
              174.899428,-36.978781,0
              174.899575,-36.978869,0
              174.899629,-36.978901,0
              174.899776,-36.978987,0
              174.899809,-36.979007,0
              174.899822,-36.979031,0
              174.89989,-36.979159,0
              174.899961,-36.979178,0
              174.900095,-36.97928,0
              174.90004,-36.979479,0
              174.901291,-36.98022,0
              174.901989,-36.980634,0
              174.902033,-36.98066,0
              174.902077,-36.980686,0
              174.902016,-36.980888,0
              174.901898,-36.980818,0
              174.90186,-36.980859,0
              174.901681,-36.981056,0
              174.901635,-36.981217,0
              174.901596,-36.981356,0
              174.90159,-36.981378,0
              174.901545,-36.981539,0
              174.901499,-36.9817,0
              174.901453,-36.981863,0
              174.901561,-36.981881,0
              174.901493,-36.982133,0
              174.901519,-36.982137,0
              174.901676,-36.982165,0
              174.901758,-36.982123,0
              174.901685,-36.98238,0
              174.901647,-36.982514,0
              174.901296,-36.98245,0
              174.901267,-36.982553,0
              174.901068,-36.982518,0
              174.900867,-36.982483,0
              174.900783,-36.982441,0
              174.900739,-36.982602,0
              174.900733,-36.982624,0
              174.900695,-36.982764,0
              174.90069,-36.982782,0
              174.900885,-36.982816,0
              174.901179,-36.982868,0
              174.901142,-36.982998,0
              174.901096,-36.983163,0
              174.901049,-36.983327,0
              174.9014,-36.983391,0
              174.901351,-36.983567,0
              174.901,-36.983503,0
              174.900963,-36.983632,0
              174.900953,-36.983668,0
              174.900919,-36.983788,0
              174.900907,-36.983832,0
              174.900836,-36.983973,0
              174.900785,-36.984073,0
              174.900764,-36.984115,0
              174.900692,-36.984257,0
              174.900844,-36.984303,0
              174.901068,-36.98437,0
              174.901366,-36.984471,0
              174.901677,-36.984469,0
              174.901691,-36.984341,0
              174.901765,-36.984245,0
              174.901998,-36.984286,0
              174.902211,-36.984256,0
              174.902285,-36.984246,0
              174.902437,-36.984225,0
              174.902538,-36.984211,0
              174.902628,-36.984198,0
              174.902816,-36.984123,0
              174.902996,-36.984051,0
              174.903179,-36.983978,0
              174.903476,-36.983873,0
              174.903715,-36.983883,0
              174.903724,-36.98388,0
              174.90373,-36.983883,0
              174.904465,-36.983915,0
              174.904898,-36.983933,0
              174.905055,-36.98394,0
              174.905128,-36.983943,0
              174.905367,-36.983953,0
              174.905571,-36.983961,0
              174.905774,-36.98397,0
              174.905993,-36.983979,0
              174.90624,-36.98399,0
              174.906493,-36.984001,0
              174.906599,-36.984005,0
              174.906683,-36.984009,0
              174.906766,-36.984012,0
              174.906849,-36.984016,0
              174.906933,-36.984019,0
              174.907016,-36.984023,0
              174.907276,-36.984034,0
              174.90739,-36.984126,0
              174.907514,-36.984226,0
              174.90768,-36.984361,0
              174.907689,-36.984368,0
              174.907547,-36.984418,0
              174.907514,-36.984472,0
              174.907559,-36.98449,0
              174.907284,-36.984935,0
              174.907148,-36.985095,0
              174.907033,-36.985311,0
              174.906827,-36.985226,0
              174.90662,-36.985148,0
              174.906421,-36.985074,0
              174.906375,-36.985124,0
              174.906215,-36.984999,0
              174.906083,-36.985119,0
              174.905947,-36.985243,0
              174.905811,-36.985366,0
              174.905701,-36.985467,0
              174.905583,-36.985574,0
              174.90543,-36.985714,0
              174.90522,-36.985905,0
              174.905233,-36.985936,0
              174.905198,-36.985925,0
              174.904921,-36.985835,0
              174.904783,-36.985994,0
              174.904634,-36.985949,0
              174.904633,-36.985952,0
              174.904537,-36.986257,0
              174.904454,-36.98652,0
              174.904401,-36.986691,0
              174.904386,-36.986739,0
              174.904359,-36.986883,0
              174.904327,-36.987058,0
              174.904323,-36.987079,0
              174.90429,-36.987261,0
              174.904254,-36.987455,0
              174.90423,-36.987584,0
              174.904205,-36.98772,0
              174.904163,-36.987947,0
              174.904112,-36.988224,0
              174.904073,-36.988439,0
              174.904056,-36.988531,0
              174.903975,-36.988966,0
              174.903416,-36.989072,0
              174.903595,-36.989401,0
              174.903575,-36.989617,0
              174.903544,-36.989957,0
              174.903512,-36.990294,0
              174.903511,-36.990313,0
              174.903482,-36.990612,0
              174.904712,-36.990524,0
              174.904721,-36.990056,0
              174.904699,-36.989598,0
              174.904587,-36.989218,0
              174.906157,-36.988886,0
              174.90659,-36.988891,0
              174.907493,-36.990552,0
              174.908063,-36.991598,0
              174.908758,-36.990771,0
              174.908831,-36.990684,0
              174.90989,-36.990698,0
              174.909897,-36.990385,0
              174.910462,-36.990392,0
              174.910464,-36.990296,0
              174.910479,-36.989568,0
              174.910492,-36.988942,0
              174.912373,-36.988967,0
              174.91394,-36.989445,0
              174.913867,-36.989599,0
              174.914059,-36.989657,0
              174.914132,-36.989503,0
              174.915621,-36.989615,0
              174.915589,-36.989585,0
              174.915708,-36.989418,0
              174.915783,-36.989274,0
              174.915868,-36.989106,0
              174.915996,-36.98912,0
              174.916724,-36.9892,0
              174.917681,-36.989306,0
              174.918505,-36.989397,0
              174.918641,-36.989321,0
              174.918774,-36.988837,0
              174.918859,-36.988529,0
              174.919415,-36.986517,0
              174.919499,-36.986217,0
              174.919684,-36.986384,0
              174.926907,-36.987687,0
              174.928773,-36.988025,0
              174.929776,-36.984254,0
              174.930082,-36.983948,0
              174.930096,-36.983967,0
              174.93011,-36.983985,0
              174.930124,-36.984004,0
              174.930138,-36.984024,0
              174.930152,-36.984043,0
              174.930166,-36.984061,0
              174.930179,-36.98408,0
              174.930191,-36.984098,0
              174.930202,-36.984116,0
              174.930211,-36.984133,0
              174.930218,-36.98415,0
              174.930222,-36.984166,0
              174.930224,-36.984183,0
              174.930225,-36.984199,0
              174.930226,-36.984215,0
              174.930227,-36.98423,0
              174.930228,-36.984245,0
              174.930232,-36.984259,0
              174.930238,-36.984272,0
              174.930246,-36.984284,0
              174.930258,-36.984296,0
              174.930273,-36.984308,0
              174.93029,-36.98432,0
              174.930309,-36.984331,0
              174.930329,-36.984341,0
              174.930349,-36.984351,0
              174.930369,-36.984359,0
              174.930387,-36.984365,0
              174.930403,-36.984371,0
              174.930417,-36.984374,0
              174.930429,-36.984375,0
              174.930439,-36.984375,0
              174.930449,-36.984372,0
              174.930457,-36.984369,0
              174.930465,-36.984364,0
              174.930472,-36.984358,0
              174.930478,-36.984352,0
              174.930484,-36.984345,0
              174.930489,-36.984338,0
              174.930494,-36.984332,0
              174.930498,-36.984326,0
              174.9305,-36.984319,0
              174.930501,-36.984311,0
              174.930501,-36.984303,0
              174.930501,-36.984295,0
              174.930502,-36.984287,0
              174.930503,-36.984278,0
              174.930506,-36.984269,0
              174.930511,-36.984261,0
              174.930518,-36.984252,0
              174.930528,-36.984242,0
              174.93054,-36.984232,0
              174.930553,-36.98422,0
              174.930568,-36.984208,0
              174.930584,-36.984196,0
              174.930601,-36.984185,0
              174.930618,-36.984175,0
              174.930636,-36.984167,0
              174.930654,-36.984161,0
              174.930672,-36.984158,0
              174.93069,-36.984158,0
              174.930709,-36.98416,0
              174.930728,-36.984165,0
              174.930748,-36.984171,0
              174.930768,-36.984178,0
              174.930789,-36.984186,0
              174.930809,-36.984196,0
              174.930831,-36.984205,0
              174.930852,-36.984215,0
              174.930874,-36.984225,0
              174.930896,-36.984235,0
              174.930919,-36.984246,0
              174.930943,-36.984258,0
              174.930968,-36.98427,0
              174.930992,-36.984283,0
              174.931016,-36.984296,0
              174.93104,-36.984309,0
              174.931062,-36.984323,0
              174.931084,-36.984338,0
              174.931104,-36.984352,0
              174.931123,-36.984368,0
              174.931141,-36.984384,0
              174.931158,-36.984402,0
              174.931175,-36.98442,0
              174.931191,-36.984438,0
              174.931206,-36.984456,0
              174.93122,-36.984473,0
              174.931233,-36.98449,0
              174.931244,-36.984506,0
              174.931253,-36.98452,0
              174.931262,-36.984533,0
              174.931269,-36.984544,0
              174.931274,-36.984555,0
              174.931279,-36.984565,0
              174.931282,-36.984575,0
              174.931284,-36.984584,0
              174.931285,-36.984593,0
              174.931286,-36.984602,0
              174.931285,-36.98461,0
              174.931285,-36.984619,0
              174.931283,-36.984627,0
              174.93128,-36.984635,0
              174.931277,-36.984643,0
              174.931272,-36.984651,0
              174.931267,-36.984658,0
              174.931261,-36.984666,0
              174.931255,-36.984672,0
              174.931248,-36.984679,0
              174.931241,-36.984685,0
              174.931234,-36.98469,0
              174.931226,-36.984695,0
              174.931217,-36.984699,0
              174.931208,-36.984703,0
              174.931198,-36.984706,0
              174.931188,-36.984708,0
              174.931178,-36.984711,0
              174.931168,-36.984714,0
              174.931158,-36.984717,0
              174.931149,-36.984721,0
              174.931141,-36.984726,0
              174.931133,-36.984732,0
              174.931125,-36.984738,0
              174.931116,-36.984744,0
              174.931108,-36.984751,0
              174.9311,-36.984759,0
              174.931094,-36.984766,0
              174.931087,-36.984774,0
              174.931083,-36.984781,0
              174.93108,-36.984789,0
              174.931078,-36.984796,0
              174.931078,-36.984804,0
              174.93108,-36.984812,0
              174.931084,-36.98482,0
              174.931088,-36.984829,0
              174.931094,-36.984837,0
              174.9311,-36.984845,0
              174.931107,-36.984853,0
              174.931113,-36.98486,0
              174.93112,-36.984867,0
              174.931127,-36.984872,0
              174.931133,-36.984877,0
              174.93114,-36.98488,0
              174.931147,-36.984884,0
              174.931154,-36.984886,0
              174.931162,-36.984889,0
              174.931169,-36.98489,0
              174.931177,-36.984892,0
              174.931185,-36.984893,0
              174.931194,-36.984893,0
              174.931202,-36.984893,0
              174.93121,-36.984893,0
              174.931219,-36.984892,0
              174.931228,-36.98489,0
              174.931237,-36.984888,0
              174.931247,-36.984885,0
              174.931256,-36.984883,0
              174.931266,-36.98488,0
              174.931275,-36.984877,0
              174.931284,-36.984874,0
              174.931294,-36.984872,0
              174.931358,-36.984843,0
              174.931435,-36.984786,0
              174.931525,-36.984733,0
              174.931604,-36.984726,0
              174.93168,-36.984763,0
              174.931731,-36.98486,0
              174.931718,-36.98494,0
              174.931749,-36.985017,0
              174.93174,-36.985077,0
              174.931785,-36.985151,0
              174.931856,-36.985216,0
              174.931935,-36.985237,0
              174.932027,-36.985214,0
              174.932112,-36.985168,0
              174.932185,-36.985125,0
              174.932194,-36.985119,0
              174.932286,-36.985133,0
              174.932351,-36.985167,0
              174.932364,-36.985174,0
              174.932404,-36.985214,0
              174.932416,-36.985223,0
              174.932431,-36.985241,0
              174.93247,-36.985298,0
              174.932526,-36.985341,0
              174.932574,-36.985391,0
              174.932655,-36.985394,0
              174.932733,-36.985374,0
              174.932809,-36.985341,0
              174.932887,-36.985314,0
              174.932896,-36.985312,0
              174.932974,-36.985308,0
              174.933051,-36.985337,0
              174.933089,-36.985347,0
              174.933169,-36.985328,0
              174.933191,-36.985322,0
              174.933276,-36.985331,0
              174.93335,-36.985338,0
              174.933424,-36.98531,0
              174.933496,-36.985273,0
              174.933523,-36.985261,0
              174.933602,-36.985239,0
              174.933617,-36.985237,0
              174.933701,-36.985232,0
              174.933723,-36.985227,0
              174.933744,-36.985221,0
              174.933765,-36.985216,0
              174.933786,-36.985211,0
              174.933807,-36.985206,0
              174.933829,-36.985201,0
              174.93383,-36.985201,0
              174.933851,-36.985196,0
              174.933872,-36.985191,0
              174.933894,-36.985187,0
              174.933916,-36.985183,0
              174.933937,-36.985179,0
              174.933948,-36.985178,0
              174.93397,-36.985175,0
              174.933992,-36.985173,0
              174.934014,-36.985172,0
              174.934036,-36.985171,0
              174.934042,-36.985171,0
              174.934064,-36.985172,0
              174.934086,-36.985174,0
              174.934108,-36.985177,0
              174.93413,-36.98518,0
              174.934151,-36.985185,0
              174.934155,-36.985185,0
              174.934177,-36.98519,0
              174.934198,-36.985195,0
              174.934219,-36.985201,0
              174.934239,-36.985208,0
              174.934241,-36.985209,0
              174.93426,-36.985218,0
              174.934278,-36.985228,0
              174.934296,-36.985239,0
              174.934313,-36.98525,0
              174.934331,-36.985261,0
              174.934349,-36.985271,0
              174.934369,-36.985279,0
              174.93439,-36.985286,0
              174.934411,-36.985292,0
              174.934431,-36.985299,0
              174.934451,-36.985306,0
              174.934471,-36.985315,0
              174.934472,-36.985316,0
              174.934489,-36.985326,0
              174.934505,-36.985338,0
              174.934521,-36.985351,0
              174.934536,-36.985364,0
              174.934551,-36.985378,0
              174.934566,-36.985391,0
              174.934574,-36.985397,0
              174.934591,-36.985408,0
              174.934609,-36.985419,0
              174.934627,-36.98543,0
              174.934644,-36.985441,0
              174.934662,-36.985451,0
              174.93468,-36.985462,0
              174.934694,-36.98547,0
              174.934712,-36.985481,0
              174.934729,-36.985492,0
              174.934746,-36.985503,0
              174.934763,-36.985514,0
              174.93478,-36.985526,0
              174.934797,-36.985537,0
              174.934803,-36.985542,0
              174.934819,-36.985554,0
              174.934834,-36.985566,0
              174.93485,-36.985579,0
              174.934866,-36.985591,0
              174.934882,-36.985604,0
              174.934888,-36.985608,0
              174.934904,-36.98562,0
              174.934921,-36.985631,0
              174.934938,-36.985643,0
              174.934946,-36.985648,0
              174.934963,-36.985659,0
              174.934979,-36.985671,0
              174.934982,-36.985673,0
              174.934972,-36.985704,0
              174.934854,-36.986073,0
              174.935218,-36.98618,0
              174.9357,-36.986321,0
              174.936035,-36.98642,0
              174.936449,-36.986542,0
              174.937542,-36.986863,0
              174.939034,-36.987302,0
              174.938783,-36.988108,0
              174.938753,-36.988206,0
              174.938633,-36.98859,0
              174.93815,-36.990141,0
              174.93812,-36.990234,0
              174.937847,-36.991111,0
              174.937549,-36.992067,0
              174.93745,-36.992365,0
              174.937208,-36.993096,0
              174.937026,-36.993645,0
              174.936968,-36.993819,0
              174.936793,-36.994346,0
              174.936477,-36.995299,0
              174.936775,-36.995382,0
              174.937333,-36.995536,0
              174.937425,-36.995561,0
              174.93802,-36.995703,0
              174.938783,-36.995933,0
              174.938995,-36.995905,0
              174.939015,-36.99591,0
              174.940276,-36.996237,0
              174.941,-36.996425,0
              174.941938,-36.996673,0
              174.941936,-36.996704,0
              174.945126,-36.997664,0
              174.945512,-36.99778,0
              174.949281,-36.998913,0
              174.950515,-36.999281,0
              174.953913,-37.000296,0
              174.953552,-36.999995,0
              174.953276,-36.997211,0
              174.952903,-36.993434,0
              174.952701,-36.991362,0
              174.950924,-36.990807,0
              174.950188,-36.990584,0
              174.951363,-36.987764,0
              174.952133,-36.985754,0
              174.952625,-36.985748,0
              174.955005,-36.985729,0
              174.956299,-36.985734,0
              174.957874,-36.985731,0
              174.957971,-36.985731,0
              174.963157,-36.985709,0
              174.963866,-36.985679,0
              174.964764,-36.983579,0
              174.965426,-36.983682,0
              174.967065,-36.983935,0
              174.968048,-36.983357,0
              174.96851,-36.983085,0
            </coordinates>
          </LinearRing>
        </outerBoundaryIs>
      </Polygon>
    </Placemark>
  </Document>
</kml>
