<?xml version="1.0" encoding="UTF-8"?>
<kml xmlns="http://www.opengis.net/kml/2.2">
<Document>
  <name>Flat Bush (Polygon: Official_Shp) Section 2</name>
  <Placemark>
    <name>Flat Bush (Polygon: Official_Shp) Section 2</name>
    <Style>
      <LineStyle><color>ffff0000</color><width>2</width></LineStyle>
      <PolyStyle><color>66ff0000</color></PolyStyle>
    </Style>
    <Polygon>
      <tessellate>1</tessellate>
      <outerBoundaryIs>
        <LinearRing>
          <coordinates>174.90726709287927,-36.984954890730286,100 174.907284,-36.984935,100 174.907559,-36.98449,100 174.907514,-36.984472,100 174.907547,-36.984418,100 174.907689,-36.984368,100 174.90768,-36.984361,100 174.907514,-36.984226,100 174.90739,-36.984126,100 174.907276,-36.984034,100 174.907016,-36.984023,100 174.906933,-36.984019,100 174.906849,-36.984016,100 174.906766,-36.984012,100 174.906683,-36.984009,100 174.906599,-36.984005,100 174.906493,-36.984001,100 174.90624,-36.98399,100 174.905993,-36.983979,100 174.905774,-36.98397,100 174.905571,-36.983961,100 174.905367,-36.983953,100 174.905128,-36.983943,100 174.905055,-36.98394,100 174.904898,-36.983933,100 174.904465,-36.983915,100 174.90373,-36.983883,100 174.903724,-36.98388,100 174.903715,-36.983883,100 174.903476,-36.983873,100 174.903179,-36.983978,100 174.902996,-36.984051,100 174.902816,-36.984123,100 174.902628,-36.984198,100 174.902538,-36.984211,100 174.902437,-36.984225,100 174.902285,-36.984246,100 174.902211,-36.984256,100 174.901998,-36.984286,100 174.901765,-36.984245,100 174.901691,-36.984341,100 174.901677,-36.984469,100 174.901366,-36.984471,100 174.901068,-36.98437,100 174.900844,-36.984303,100 174.900692,-36.984257,100 174.900764,-36.984115,100 174.900785,-36.984073,100 174.900836,-36.983973,100 174.900907,-36.983832,100 174.900919,-36.983788,100 174.900953,-36.983668,100 174.900963,-36.983632,100 174.901,-36.983503,100 174.901351,-36.983567,100 174.9014,-36.983391,100 174.901049,-36.983327,100 174.901096,-36.983163,100 174.901142,-36.982998,100 174.901179,-36.982868,100 174.900885,-36.982816,100 174.90069,-36.982782,100 174.900695,-36.982764,100 174.900733,-36.982624,100 174.900739,-36.982602,100 174.900783,-36.982441,100 174.900867,-36.982483,100 174.901068,-36.982518,100 174.901267,-36.982553,100 174.901296,-36.98245,100 174.901647,-36.982514,100 174.901685,-36.98238,100 174.901758,-36.982123,100 174.901676,-36.982165,100 174.901519,-36.982137,100 174.901493,-36.982133,100 174.901561,-36.981881,100 174.901453,-36.981863,100 174.901499,-36.9817,100 174.901545,-36.981539,100 174.90159,-36.981378,100 174.901596,-36.981356,100 174.901635,-36.981217,100 174.901681,-36.981056,100 174.90186,-36.980859,100 174.901898,-36.980818,100 174.902016,-36.980888,100 174.902077,-36.980686,100 174.902033,-36.98066,100 174.901989,-36.980634,100 174.9029255,-36.9776929,100 174.904642,-36.971847,100 174.911122,-36.973013,100 174.910864,-36.974299,100 174.911036,-36.97591,100 174.91095,-36.977179,100 174.911354,-36.978079,100 174.911194,-36.978405,100 174.910786,-36.978756,100 174.910872,-36.979459,100 174.911172,-36.979862,100 174.910936,-36.980719,100 174.910839,-36.981465,100 174.910925,-36.982313,100 174.911002,-36.982892,100 174.91097,-36.983518,100 174.910799,-36.984201,100 174.910681,-36.984381,100 174.910584,-36.984638,100 174.910441,-36.984891,100 174.909497,-36.984796,100 174.908982,-36.984814,100 174.90851,-36.984985,100 174.90793,-36.985079,100 174.907405,-36.985011,100 174.90726709287927,-36.984954890730286,100</coordinates>
        </LinearRing>
      </outerBoundaryIs>
    </Polygon>
  </Placemark>
</Document>
</kml>