<?xml version="1.0" encoding="UTF-8"?>
<kml xmlns="http://www.opengis.net/kml/2.2">
<Document>
  <name>Flat Bush (Polygon: Official_Shp) Section 2</name>
  <Placemark>
    <name>Flat Bush (Polygon: Official_Shp) Section 2</name>
    <Style>
      <LineStyle><color>ffff0000</color><width>2</width></LineStyle>
      <PolyStyle><color>66ff0000</color></PolyStyle>
    </Style>
    <Polygon>
      <tessellate>1</tessellate>
      <outerBoundaryIs>
        <LinearRing>
          <coordinates>174.90426298214948,-36.956635109195304,100 174.9043828,-36.9562486,100 174.9043948,-36.9562036,100 174.9044658,-36.9558846,100 174.9045298,-36.9556006,100 174.9045788,-36.9554226,100 174.9046498,-36.9551126,100 174.9047548,-36.9546586,100 174.9047188,-36.9544956,100 174.9049448,-36.9541046,100 174.9051568,-36.9533396,100 174.9051878,-36.9533456,100 174.9052648,-36.9530666,100 174.9053228,-36.9528586,100 174.9055908,-36.9518906,100 174.9059808,-36.9504836,100 174.9061468,-36.9498876,100 174.9062788,-36.9494106,100 174.9065378,-36.9484786,100 174.9070908,-36.9482296,100 174.9072888,-36.9482646,100 174.9073528,-36.9482756,100 174.9074848,-36.9482996,100 174.9076158,-36.9483226,100 174.9076818,-36.9483346,100 174.9078788,-36.9483696,100 174.9079668,-36.9483676,100 174.9081438,-36.9483996,100 174.9082248,-36.94841359999999,100 174.9083188,-36.9484306,100 174.9084428,-36.94845260000002,100 174.9084938,-36.9484616,100 174.9086678,-36.9484936,100 174.9086758,-36.9484666,100 174.9090218,-36.9485196,100 174.9092878,-36.9484396,100 174.9095338,-36.9484676,100 174.9096598,-36.9484826,100 174.9097108,-36.9484896,100 174.9098878,-36.9485156,100 174.9099148,-36.9485196,100 174.9100638,-36.9485456,100 174.9101348,-36.9485576,100 174.9102398,-36.9485766,100 174.9103548,-36.9485966,100 174.9104268,-36.9486086,100 174.9105688,-36.9486336,100 174.9106839,-36.9486536,100 174.9107829,-36.9486706,100 174.9109149,-36.9486936,100 174.9109989,-36.9487076,100 174.9112468,-36.9489226,100 174.9114358,-36.9489546,100 174.9115278,-36.9489466,100 174.9115848,-36.9489566,100 174.9117658,-36.9489876,100 174.9118318,-36.9489996,100 174.9119468,-36.94901959999998,100 174.9120408,-36.9490356,100 174.9121278,-36.9490506,100 174.9122378,-36.9490696,100 174.9123098,-36.9490826,100 174.9124358,-36.9491036,100 174.9124908,-36.9491136,100 174.9126328,-36.9491386,100 174.9126718,-36.9491446,100 174.9128308,-36.9491726,100 174.9128528,-36.9491766,100 174.9130348,-36.9492076,100 174.9130488,-36.9492106,100 174.9131028,-36.9492196,100 174.9132158,-36.9492356,100 174.9132598,-36.9492416,100 174.9133948,-36.9492636,100 174.9133278,-36.9495096,100 174.9134578,-36.9495326,100 174.9138248,-36.9495946,100 174.9157408,-36.9499256,100 174.9158168,-36.94963760000001,100 174.9158938,-36.9493496,100 174.9159638,-36.9490836,100 174.9159738,-36.9490496,100 174.9160428,-36.9487886,100 174.9160928,-36.9486006,100 174.9160928,-36.9485996,100 174.9161408,-36.9484186,100 174.9161888,-36.9482386,100 174.9162398,-36.9480446,100 174.9162898,-36.9478556,100 174.9169648,-36.9479726,100 174.9176178,-36.9480866,100 174.9181258,-36.9481756,100 174.9184508,-36.94823059999999,100 174.9188069,-36.9482916,100 174.9190709,-36.9483356,100 174.9196169,-36.9484306,100 174.9202768,-36.948543600000015,100 174.9206818,-36.9486136,100 174.9212048,-36.9487036,100 174.9216788,-36.9487846,100 174.9217538,-36.9487976,100 174.9219468,-36.9486896,100 174.9223508,-36.9486296,100 174.9236729,-36.9488696,100 174.9247148,-36.9488556,100 174.9243618,-36.9501086,100 174.9243108,-36.9502946,100 174.9242748,-36.9504236,100 174.9239749,-36.9514906,100 174.9239209,-36.95167759999999,100 174.9238989,-36.9517546,100 174.9237629,-36.9522266,100 174.9255428,-36.9525866,100 174.9260128,-36.9526816,100 174.92641980000002,-36.9527636,100 174.9271449,-36.9529096,100 174.92887334848567,-36.95325852672822,100 174.9256984,-36.9554461,100 174.926621,-36.956132,100 174.9270073,-36.9566464,100 174.9264494,-36.9586182,100 174.9268999,-36.9599026,100 174.926664,-36.9607786,100 174.9256769,-36.9611215,100 174.9247541,-36.9605541,100 174.9238368,-36.9602612,100 174.9169435,-36.9591139,100 174.9092188,-36.9576393,100 174.90426298214948,-36.956635109195304,100</coordinates>
        </LinearRing>
      </outerBoundaryIs>
    </Polygon>
  </Placemark>
</Document>
</kml>