<?xml version="1.0" encoding="UTF-8"?>
<kml xmlns="http://www.opengis.net/kml/2.2">
<Document>
  <name>Flat Bush (Polygon: Official_Shp) Section 2</name>
  <Placemark>
    <name>Flat Bush (Polygon: Official_Shp) Section 2</name>
    <Style>
      <LineStyle><color>ffff0000</color><width>2</width></LineStyle>
      <PolyStyle><color>66ff0000</color></PolyStyle>
    </Style>
    <Polygon>
      <tessellate>1</tessellate>
      <outerBoundaryIs>
        <LinearRing>
          <coordinates>174.90175523367972,-36.963767573562926,100 174.901813,-36.963646,100 174.901609,-36.963637,100 174.901329,-36.963587,100 174.901316,-36.963585,100 174.901219,-36.963573,100 174.901125,-36.96356,100 174.901472,-36.962469,100 174.901529,-36.962366,100 174.901798,-36.961519,100 174.902601,-36.961547,100 174.902947,-36.960376,100 174.90294,-36.960374,100 174.902685,-36.960277,100 174.902504,-36.960077,100 174.90228,-36.960073,100 174.901689,-36.960065,100 174.901433,-36.960058,100 174.900599,-36.960034,100 174.900412,-36.960042,100 174.900289,-36.959924,100 174.900246,-36.959647,100 174.90018,-36.959223,100 174.90014,-36.958967,100 174.900212,-36.958808,100 174.900427,-36.958326,100 174.900476,-36.958218,100 174.900312,-36.957784,100 174.900188,-36.957707,100 174.899956,-36.957563,100 174.899861,-36.957556,100 174.899397,-36.95752,100 174.899101,-36.957599,100 174.898644,-36.957241,100 174.899022,-36.95693,100 174.899303,-36.956896,100 174.899462,-36.956342,100 174.89953,-36.956106,100 174.899558,-36.956003,100 174.89958,-36.955929,100 174.898973,-36.955822,100 174.899142,-36.955216,100 174.90014,-36.954985,100 174.900207,-36.954969,100 174.900282,-36.954952,100 174.900996,-36.955366,100 174.90181,-36.955838,100 174.901744,-36.956052,100 174.902556,-36.956211,100 174.90313,-36.956324,100 174.903457,-36.956516,100 174.903695,-36.956655,100 174.904228,-36.956749,100 174.90428313353354,-36.956571149891744,100 174.907906,-36.95734,100 174.911735,-36.958066,100 174.915983,-36.958958,100 174.923837,-36.960261,100 174.925339,-36.960844,100 174.925677,-36.961122,100 174.926085,-36.961876,100 174.925725,-36.963827,100 174.924598,-36.967485,100 174.922414,-36.967553,100 174.917543,-36.96673,100 174.916685,-36.966336,100 174.914046,-36.965959,100 174.912179,-36.965942,100 174.910355,-36.965359,100 174.906702,-36.964613,100 174.90175523367972,-36.963767573562926,100</coordinates>
        </LinearRing>
      </outerBoundaryIs>
    </Polygon>
  </Placemark>
</Document>
</kml>