<?xml version="1.0" encoding="UTF-8"?>
<kml xmlns="http://www.opengis.net/kml/2.2">
<Document>
  <name>Flat Bush (Polygon: Official_Shp) Section 2</name>
  <Placemark>
    <name>Flat Bush (Polygon: Official_Shp) Section 2</name>
    <Style>
      <LineStyle><color>ffff0000</color><width>2</width></LineStyle>
      <PolyStyle><color>66ff0000</color></PolyStyle>
    </Style>
    <Polygon>
      <tessellate>1</tessellate>
      <outerBoundaryIs>
        <LinearRing>
          <coordinates>174.92972434219345,-36.98444821893173,100 174.928773,-36.988025,100 174.926907,-36.987687,100 174.919684,-36.986384,100 174.919499,-36.986217,100 174.919415,-36.986517,100 174.918859,-36.988529,100 174.918774,-36.988837,100 174.918641,-36.989321,100 174.918505,-36.989397,100 174.917681,-36.989306,100 174.916724,-36.9892,100 174.915996,-36.98912,100 174.915868,-36.989106,100 174.915783,-36.989274,100 174.915708,-36.989418,100 174.915589,-36.989585,100 174.915621,-36.989615,100 174.914132,-36.989503,100 174.914059,-36.989657,100 174.913867,-36.989599,100 174.91394,-36.989445,100 174.912373,-36.988967,100 174.910492,-36.988942,100 174.910479,-36.989568,100 174.910464,-36.990296,100 174.910462,-36.990392,100 174.909897,-36.990385,100 174.90989,-36.990698,100 174.908831,-36.990684,100 174.908758,-36.990771,100 174.908063,-36.991598,100 174.907493,-36.990552,100 174.90659,-36.988891,100 174.906157,-36.988886,100 174.904587,-36.989218,100 174.904699,-36.989598,100 174.904721,-36.990056,100 174.904712,-36.990524,100 174.903482,-36.990612,100 174.903511,-36.990313,100 174.903512,-36.990294,100 174.903544,-36.989957,100 174.903575,-36.989617,100 174.903595,-36.989401,100 174.903416,-36.989072,100 174.903975,-36.988966,100 174.904056,-36.988531,100 174.904073,-36.988439,100 174.904112,-36.988224,100 174.904163,-36.987947,100 174.904205,-36.98772,100 174.90423,-36.987584,100 174.904254,-36.987455,100 174.90429,-36.987261,100 174.904323,-36.987079,100 174.904327,-36.987058,100 174.904359,-36.986883,100 174.904386,-36.986739,100 174.904401,-36.986691,100 174.904454,-36.98652,100 174.904537,-36.986257,100 174.904633,-36.985952,100 174.904634,-36.985949,100 174.904783,-36.985994,100 174.904921,-36.985835,100 174.905198,-36.985925,100 174.905233,-36.985936,100 174.90522,-36.985905,100 174.90543,-36.985714,100 174.905583,-36.985574,100 174.905701,-36.985467,100 174.905811,-36.985366,100 174.905947,-36.985243,100 174.906083,-36.985119,100 174.906215,-36.984999,100 174.906375,-36.985124,100 174.906421,-36.985074,100 174.90662,-36.985148,100 174.906827,-36.985226,100 174.907033,-36.985311,100 174.907148,-36.985095,100 174.90726816696903,-36.98495362709527,100 174.907405,-36.985011,100 174.90832,-36.98503,100 174.909497,-36.984796,100 174.910441,-36.984891,100 174.910584,-36.984638,100 174.91097,-36.983518,100 174.91096,-36.982716,100 174.910839,-36.981465,100 174.911172,-36.979862,100 174.910872,-36.979459,100 174.910786,-36.978756,100 174.911194,-36.978405,100 174.911354,-36.978079,100 174.91095,-36.977179,100 174.911036,-36.97591,100 174.910864,-36.974299,100 174.911122,-36.973013,100 174.922504,-36.975037,100 174.927697,-36.9761,100 174.927654,-36.977985,100 174.927268,-36.979768,100 174.92804,-36.980968,100 174.927954,-36.982202,100 174.928555,-36.983436,100 174.92972434219345,-36.98444821893173,100</coordinates>
        </LinearRing>
      </outerBoundaryIs>
    </Polygon>
  </Placemark>
</Document>
</kml>