<?xml version="1.0" encoding="UTF-8"?>
<kml xmlns="http://www.opengis.net/kml/2.2">
<Document>
  <name>Flat Bush (Polygon: Official_Shp) Section 2</name>
  <Placemark>
    <name>Flat Bush (Polygon: Official_Shp) Section 2</name>
    <Style>
      <LineStyle><color>ffff0000</color><width>2</width></LineStyle>
      <PolyStyle><color>66ff0000</color></PolyStyle>
    </Style>
    <Polygon>
      <tessellate>1</tessellate>
      <outerBoundaryIs>
        <LinearRing>
          <coordinates>174.90206994348344,-36.98070936748103,100 174.902077,-36.980686,100 174.902033,-36.98066,100 174.901989,-36.980634,100 174.901291,-36.98022,100 174.90004,-36.979479,100 174.900095,-36.97928,100 174.899961,-36.979178,100 174.89989,-36.979159,100 174.899822,-36.979031,100 174.899809,-36.979007,100 174.899776,-36.978987,100 174.899629,-36.978901,100 174.899575,-36.978869,100 174.899428,-36.978781,100 174.899366,-36.978744,100 174.899374,-36.978713,100 174.899037,-36.978652,100 174.899074,-36.978511,100 174.899113,-36.978361,100 174.899152,-36.978211,100 174.899161,-36.978177,100 174.89881,-36.978115,100 174.898748,-36.978339,100 174.898437,-36.978217,100 174.89848,-36.978057,100 174.898118,-36.977993,100 174.898102,-36.978055,100 174.897668,-36.977987,100 174.897749,-36.977949,100 174.897756,-36.97794,100 174.897762,-36.977931,100 174.897768,-36.977921,100 174.897772,-36.977911,100 174.897776,-36.9779,100 174.897897,-36.977456,100 174.897475,-36.977383,100 174.89761,-36.976888,100 174.897667,-36.97687,100 174.897955,-36.977041,100 174.898002,-36.977069,100 174.898018,-36.977009,100 174.898026,-36.976981,100 174.898038,-36.976937,100 174.897716,-36.976747,100 174.897472,-36.976602,100 174.897235,-36.976461,100 174.897153,-36.976413,100 174.897098,-36.97638,100 174.896871,-36.976246,100 174.89681,-36.976209,100 174.896356,-36.976038,100 174.896504,-36.975786,100 174.896473,-36.975774,100 174.896325,-36.976026,100 174.896255,-36.976,100 174.896071,-36.97593,100 174.895846,-36.975845,100 174.89575,-36.975783,100 174.895523,-36.975636,100 174.895296,-36.975489,100 174.895507,-36.975279,100 174.895455,-36.975245,100 174.895243,-36.975455,100 174.895025,-36.975314,100 174.894806,-36.975172,100 174.894459,-36.974948,100 174.894464,-36.974927,100 174.89455,-36.974618,100 174.894612,-36.974391,100 174.894633,-36.974317,100 174.894675,-36.974164,100 174.894739,-36.973933,100 174.894803,-36.973701,100 174.894844,-36.973552,100 174.894884,-36.973407,100 174.894885,-36.973402,100 174.894887,-36.973397,100 174.894929,-36.973244,100 174.894973,-36.973086,100 174.895017,-36.97293,100 174.895056,-36.972791,100 174.895131,-36.972521,100 174.895223,-36.972191,100 174.895278,-36.971993,100 174.89536,-36.9717,100 174.895412,-36.971514,100 174.895462,-36.971334,100 174.895502,-36.97119,100 174.895706,-36.97046,100 174.895755,-36.970283,100 174.896094,-36.969054,100 174.89663,-36.967172,100 174.900347,-36.967858,100 174.900329,-36.96789,100 174.900294,-36.967951,100 174.90026,-36.968013,100 174.900227,-36.968075,100 174.900195,-36.968137,100 174.900163,-36.968199,100 174.900133,-36.968262,100 174.900103,-36.968325,100 174.900074,-36.968389,100 174.900046,-36.968452,100 174.900019,-36.968516,100 174.899993,-36.96858,100 174.899968,-36.968644,100 174.899943,-36.968709,100 174.89992,-36.968774,100 174.899897,-36.968838,100 174.899875,-36.968904,100 174.899854,-36.968969,100 174.899834,-36.969034,100 174.899815,-36.9691,100 174.899797,-36.969166,100 174.89978,-36.969232,100 174.899764,-36.969298,100 174.899748,-36.969364,100 174.899734,-36.969431,100 174.89972,-36.969497,100 174.899707,-36.969564,100 174.899696,-36.96963,100 174.899685,-36.969697,100 174.899675,-36.969764,100 174.899666,-36.969831,100 174.899658,-36.969898,100 174.89965,-36.969965,100 174.899644,-36.970033,100 174.899639,-36.9701,100 174.899634,-36.970167,100 174.899631,-36.970235,100 174.899628,-36.970302,100 174.899627,-36.970369,100 174.899626,-36.970437,100 174.899626,-36.970504,100 174.899627,-36.970572,100 174.899637,-36.970977,100 174.899764,-36.971001,100 174.900168,-36.971074,100 174.900218,-36.970899,100 174.90039,-36.970299,100 174.900458,-36.970063,100 174.900524,-36.969833,100 174.900832,-36.968762,100 174.9009,-36.968526,100 174.900966,-36.968296,100 174.901121,-36.967757,100 174.901273,-36.967225,100 174.901342,-36.966987,100 174.901407,-36.96676,100 174.901579,-36.96616,100 174.901687,-36.965786,100 174.902132,-36.964686,100 174.902268,-36.964226,100 174.902422,-36.964156,100 174.90166,-36.963968,100 174.9017646907171,-36.96374767051698,100 174.906702,-36.964613,100 174.90215,-36.980732,100 174.90206994348344,-36.98070936748103,100</coordinates>
        </LinearRing>
      </outerBoundaryIs>
    </Polygon>
  </Placemark>
</Document>
</kml>