<?xml version="1.0" encoding="UTF-8"?>
<kml xmlns="http://www.opengis.net/kml/2.2">
  <Document>
    <name>Flat Bush </name>
    <Style id="line-000000-1200-nodesc-normal">
      <LineStyle>
        <color>ff000000</color>
        <width>1.2</width>
      </LineStyle>
      <BalloonStyle>
        <text><![CDATA[<h3>$[name]</h3>]]></text>
      </BalloonStyle>
    </Style>
    <Style id="line-000000-1200-nodesc-highlight">
      <LineStyle>
        <color>ff000000</color>
        <width>1.8</width>
      </LineStyle>
      <BalloonStyle>
        <text><![CDATA[<h3>$[name]</h3>]]></text>
      </BalloonStyle>
    </Style>
    <StyleMap id="line-000000-1200-nodesc">
      <Pair>
        <key>normal</key>
        <styleUrl>#line-000000-1200-nodesc-normal</styleUrl>
      </Pair>
      <Pair>
        <key>highlight</key>
        <styleUrl>#line-000000-1200-nodesc-highlight</styleUrl>
      </Pair>
    </StyleMap>
    <Style id="poly-0000FF-2000-102-nodesc-normal">
      <LineStyle>
        <color>ffff0000</color>
        <width>2</width>
      </LineStyle>
      <PolyStyle>
        <color>66ff0000</color>
        <fill>1</fill>
        <outline>1</outline>
      </PolyStyle>
      <BalloonStyle>
        <text><![CDATA[<h3>$[name]</h3>]]></text>
      </BalloonStyle>
    </Style>
    <Style id="poly-0000FF-2000-102-nodesc-highlight">
      <LineStyle>
        <color>ffff0000</color>
        <width>3</width>
      </LineStyle>
      <PolyStyle>
        <color>66ff0000</color>
        <fill>1</fill>
        <outline>1</outline>
      </PolyStyle>
      <BalloonStyle>
        <text><![CDATA[<h3>$[name]</h3>]]></text>
      </BalloonStyle>
    </Style>
    <StyleMap id="poly-0000FF-2000-102-nodesc">
      <Pair>
        <key>normal</key>
        <styleUrl>#poly-0000FF-2000-102-nodesc-normal</styleUrl>
      </Pair>
      <Pair>
        <key>highlight</key>
        <styleUrl>#poly-0000FF-2000-102-nodesc-highlight</styleUrl>
      </Pair>
    </StyleMap>
    <Placemark>
      <name>Flat Bush (polygon: official_shp)</name>
      <styleUrl>#poly-0000FF-2000-102-nodesc</styleUrl>
      <Polygon>
        <outerBoundaryIs>
          <LinearRing>
            <tessellate>1</tessellate>
            <coordinates>
              174.9685099,-36.9830846,0
              174.9681679,-36.9827056,0
              174.9654129,-36.9796556,0
              174.9639879,-36.9780766,0
              174.9627389,-36.9766936,0
              174.9625589,-36.9768806,0
              174.9623939,-36.9770036,0
              174.962169,-36.9771076,0
              174.9619189,-36.9771686,0
              174.9616369,-36.9770516,0
              174.9613079,-36.9769616,0
              174.9608279,-36.9777706,0
              174.9602849,-36.9789866,0
              174.9597989,-36.9791506,0
              174.9593979,-36.9794776,0
              174.9594069,-36.9794926,0
              174.9590119,-36.9797636,0
              174.9585859,-36.9798536,0
              174.9578439,-36.9804206,0
              174.9568829,-36.9809276,0
              174.9567349,-36.9810346,0
              174.9566869,-36.9814716,0
              174.9566699,-36.9816256,0
              174.9565849,-36.9816336,0
              174.9564829,-36.9816076,0
              174.9561899,-36.9815106,0
              174.9560909,-36.9814736,0
              174.9556829,-36.9817306,0
              174.9555309,-36.9817466,0
              174.9536429,-36.9813606,0
              174.9522739,-36.9810806,0
              174.9513949,-36.9808976,0
              174.9513359,-36.9807586,0
              174.9512639,-36.9805866,0
              174.9512619,-36.9805816,0
              174.9512359,-36.9805206,0
              174.9503699,-36.9796706,0
              174.9500788,-36.9793846,0
              174.9499498,-36.9792576,0
              174.9498298,-36.9790896,0
              174.9496098,-36.9787816,0
              174.9495129,-36.9786466,0
              174.9494309,-36.9784986,0
              174.9494019,-36.9784446,0
              174.9493569,-36.9783636,0
              174.9493139,-36.9781176,0
              174.9492569,-36.9777966,0
              174.9492549,-36.9777876,0
              174.9492249,-36.9776136,0
              174.9487369,-36.9775916,0
              174.9481169,-36.9774806,0
              174.9482689,-36.9768786,0
              174.9484259,-36.9764086,0
              174.9482329,-36.9763746,0
              174.9483149,-36.9762896,0
              174.9484849,-36.9761686,0
              174.9485529,-36.9761206,0
              174.9488009,-36.9759086,0
              174.9489379,-36.9757536,0
              174.9491459,-36.9754106,0
              174.9491959,-36.9750296,0
              174.9491569,-36.9746506,0
              174.9490439,-36.9743676,0
              174.9484509,-36.9737796,0
              174.9480149,-36.9733946,0
              174.9478329,-36.9731896,0
              174.9477489,-36.9730316,0
              174.9476959,-36.9728666,0
              174.9476759,-36.9726946,0
              174.9476869,-36.9722706,0
              174.9476489,-36.9719646,0
              174.9474889,-36.9716086,0
              174.9472689,-36.9713266,0
              174.9470449,-36.9711096,0
              174.9470489,-36.9710626,0
              174.9470779,-36.9707096,0
              174.9520589,-36.9715346,0
              174.9532109,-36.9684476,0
              174.9535199,-36.9675746,0
              174.9564269,-36.9659446,0
              174.9540028,-36.9632146,0
              174.9517639,-36.9606506,0
              174.9510019,-36.9597786,0
              174.9491819,-36.9576976,0
              174.9491289,-36.9577636,0
              174.9486819,-36.9574366,0
              174.9489199,-36.9573376,0
              174.9496299,-36.9571216,0
              174.9499278,-36.9568876,0
              174.9500798,-36.9563446,0
              174.9472629,-36.9558876,0
              174.9467159,-36.9558066,0
              174.9445249,-36.9553396,0
              174.9460958,-36.9504006,0
              174.9448639,-36.9499226,0
              174.9419978,-36.9490666,0
              174.9406719,-36.9536456,0
              174.9399449,-36.9536156,0
              174.9388429,-36.9529056,0
              174.9379238,-36.9518366,0
              174.9381928,-36.9512946,0
              174.9378578,-36.9506146,0
              174.9375508,-36.9502216,0
              174.9375308,-36.9502876,0
              174.9374748,-36.9504656,0
              174.9372398,-36.9509976,0
              174.9370468,-36.9518086,0
              174.9368009,-36.9526306,0
              174.9361529,-36.9547146,0
              174.9349209,-36.9544716,0
              174.9323949,-36.9539686,0
              174.9301768,-36.9535216,0
              174.9298398,-36.9534536,0
              174.9296118,-36.9534076,0
              174.9271449,-36.9529096,0
              174.9264198,-36.9527636,0
              174.9260128,-36.9526816,0
              174.9255428,-36.9525866,0
              174.9237629,-36.9522266,0
              174.9238989,-36.9517546,0
              174.9239209,-36.9516776,0
              174.9239749,-36.9514906,0
              174.9242748,-36.9504236,0
              174.9243108,-36.9502946,0
              174.9243618,-36.9501086,0
              174.9247148,-36.9488556,0
              174.9236729,-36.9488696,0
              174.9223508,-36.9486296,0
              174.9219468,-36.9486896,0
              174.9217538,-36.9487976,0
              174.9216788,-36.9487846,0
              174.9212048,-36.9487036,0
              174.9206818,-36.9486136,0
              174.9202768,-36.9485436,0
              174.9196169,-36.9484306,0
              174.9190709,-36.9483356,0
              174.9188069,-36.9482916,0
              174.9184508,-36.9482306,0
              174.9181258,-36.9481756,0
              174.9176178,-36.9480866,0
              174.9169648,-36.9479726,0
              174.9162898,-36.9478556,0
              174.9162398,-36.9480446,0
              174.9161888,-36.9482386,0
              174.9161408,-36.9484186,0
              174.9160928,-36.9485996,0
              174.9160928,-36.9486006,0
              174.9160428,-36.9487886,0
              174.9159738,-36.9490496,0
              174.9159638,-36.9490836,0
              174.9158938,-36.9493496,0
              174.9158168,-36.9496376,0
              174.9157408,-36.9499256,0
              174.9138248,-36.9495946,0
              174.9134578,-36.9495326,0
              174.9133278,-36.9495096,0
              174.9133948,-36.9492636,0
              174.9132598,-36.9492416,0
              174.9132158,-36.9492356,0
              174.9131028,-36.9492196,0
              174.9130488,-36.9492106,0
              174.9130348,-36.9492076,0
              174.9128528,-36.9491766,0
              174.9128308,-36.9491726,0
              174.9126718,-36.9491446,0
              174.9126328,-36.9491386,0
              174.9124908,-36.9491136,0
              174.9124358,-36.9491036,0
              174.9123098,-36.9490826,0
              174.9122378,-36.9490696,0
              174.9121278,-36.9490506,0
              174.9120408,-36.9490356,0
              174.9119468,-36.9490196,0
              174.9118318,-36.9489996,0
              174.9117658,-36.9489876,0
              174.9115848,-36.9489566,0
              174.9115278,-36.9489466,0
              174.9114358,-36.9489546,0
              174.9112468,-36.9489226,0
              174.9109989,-36.9487076,0
              174.9109149,-36.9486936,0
              174.9107829,-36.9486706,0
              174.9106839,-36.9486536,0
              174.9105688,-36.9486336,0
              174.9104268,-36.9486086,0
              174.9103548,-36.9485966,0
              174.9102398,-36.9485766,0
              174.9101348,-36.9485576,0
              174.9100638,-36.9485456,0
              174.9099148,-36.9485196,0
              174.9098878,-36.9485156,0
              174.9097108,-36.9484896,0
              174.9096598,-36.9484826,0
              174.9095338,-36.9484676,0
              174.9092878,-36.9484396,0
              174.9090218,-36.9485196,0
              174.9086758,-36.9484666,0
              174.9086678,-36.9484936,0
              174.9084938,-36.9484616,0
              174.9084428,-36.9484526,0
              174.9083188,-36.9484306,0
              174.9082248,-36.9484136,0
              174.9081438,-36.9483996,0
              174.9079668,-36.9483676,0
              174.9078788,-36.9483696,0
              174.9076818,-36.9483346,0
              174.9076158,-36.9483226,0
              174.9074848,-36.9482996,0
              174.9073528,-36.9482756,0
              174.9072888,-36.9482646,0
              174.9070908,-36.9482296,0
              174.9065378,-36.9484786,0
              174.9062788,-36.9494106,0
              174.9061468,-36.9498876,0
              174.9059808,-36.9504836,0
              174.9055908,-36.9518906,0
              174.9053228,-36.9528586,0
              174.9052648,-36.9530666,0
              174.9051878,-36.9533456,0
              174.9051568,-36.9533396,0
              174.9049448,-36.9541046,0
              174.9047188,-36.9544956,0
              174.9047548,-36.9546586,0
              174.9046498,-36.9551126,0
              174.9045788,-36.9554226,0
              174.9045298,-36.9556006,0
              174.9044658,-36.9558846,0
              174.9043948,-36.9562036,0
              174.9043828,-36.9562486,0
              174.9042278,-36.9567486,0
              174.9036948,-36.9566546,0
              174.9034568,-36.9565156,0
              174.9031298,-36.9563236,0
              174.9025558,-36.9562106,0
              174.9017438,-36.9560516,0
              174.9018098,-36.9558376,0
              174.9009958,-36.9553656,0
              174.9002818,-36.9549516,0
              174.9002068,-36.9549686,0
              174.9001398,-36.9549846,0
              174.8991418,-36.9552156,0
              174.8989728,-36.9558216,0
              174.8995798,-36.9559286,0
              174.8995578,-36.9560026,0
              174.8995298,-36.9561056,0
              174.8994618,-36.9563416,0
              174.8993028,-36.9568956,0
              174.8990218,-36.9569296,0
              174.8986437,-36.9572406,0
              174.8991008,-36.9575986,0
              174.8993968,-36.9575196,0
              174.8998608,-36.9575556,0
              174.8999558,-36.9575626,0
              174.9001878,-36.9577066,0
              174.9003118,-36.9577836,0
              174.9004758,-36.9582176,0
              174.9004268,-36.9583256,0
              174.9002118,-36.9588076,0
              174.9001398,-36.9589666,0
              174.9001798,-36.9592226,0
              174.9002458,-36.9596466,0
              174.9002888,-36.9599236,0
              174.9004118,-36.9600416,0
              174.9005988,-36.9600336,0
              174.9014328,-36.9600576,0
              174.9016888,-36.9600646,0
              174.9022798,-36.9600726,0
              174.9025038,-36.9600766,0
              174.9026848,-36.9602766,0
              174.9029398,-36.9603736,0
              174.9029468,-36.9603756,0
              174.9026008,-36.9615466,0
              174.9017978,-36.9615186,0
              174.9015288,-36.9623656,0
              174.9014718,-36.9624686,0
              174.9011248,-36.9635596,0
              174.9012188,-36.9635726,0
              174.9013158,-36.9635846,0
              174.9013288,-36.9635866,0
              174.9016088,-36.9636366,0
              174.9018128,-36.9636456,0
              174.9016598,-36.9639676,0
              174.9024218,-36.9641556,0
              174.9022678,-36.9642256,0
              174.9021318,-36.9646856,0
              174.9016868,-36.9657856,0
              174.9015788,-36.9661596,0
              174.9014068,-36.9667596,0
              174.9013418,-36.9669866,0
              174.9012728,-36.9672246,0
              174.9011208,-36.9677566,0
              174.9009658,-36.9682956,0
              174.9008998,-36.9685256,0
              174.9008318,-36.9687616,0
              174.9005238,-36.9698326,0
              174.9004578,-36.9700626,0
              174.9003898,-36.9702986,0
              174.9002178,-36.9708986,0
              174.9001678,-36.9710736,0
              174.8997638,-36.9710006,0
              174.8996368,-36.9709766,0
              174.8996268,-36.9705716,0
              174.8996258,-36.9705036,0
              174.8996258,-36.9704366,0
              174.8996268,-36.9703686,0
              174.8996278,-36.9703016,0
              174.8996308,-36.9702346,0
              174.8996338,-36.9701666,0
              174.8996388,-36.9700996,0
              174.8996438,-36.9700326,0
              174.8996498,-36.9699646,0
              174.8996578,-36.9698976,0
              174.8996658,-36.9698306,0
              174.8996748,-36.9697636,0
              174.8996848,-36.9696966,0
              174.8996958,-36.9696296,0
              174.8997068,-36.9695636,0
              174.8997198,-36.9694966,0
              174.8997338,-36.9694306,0
              174.8997478,-36.9693636,0
              174.8997638,-36.9692976,0
              174.8997798,-36.9692316,0
              174.8997968,-36.9691656,0
              174.8998148,-36.9690996,0
              174.8998338,-36.9690336,0
              174.8998538,-36.9689686,0
              174.8998748,-36.9689036,0
              174.8998968,-36.9688376,0
              174.8999198,-36.9687736,0
              174.8999428,-36.9687086,0
              174.8999678,-36.9686436,0
              174.8999928,-36.9685796,0
              174.9000188,-36.9685156,0
              174.9000458,-36.9684516,0
              174.9000738,-36.9683886,0
              174.9001028,-36.9683246,0
              174.9001328,-36.9682616,0
              174.9001628,-36.9681986,0
              174.9001948,-36.9681366,0
              174.9002268,-36.9680746,0
              174.9002598,-36.9680126,0
              174.9002938,-36.9679506,0
              174.9003288,-36.9678896,0
              174.9003468,-36.9678576,0
              174.8966298,-36.9671716,0
              174.8960938,-36.9690536,0
              174.8957548,-36.9702826,0
              174.8957058,-36.9704596,0
              174.8955018,-36.9711896,0
              174.8954618,-36.9713336,0
              174.8954118,-36.9715136,0
              174.8953598,-36.9716996,0
              174.8952778,-36.9719926,0
              174.8952228,-36.9721906,0
              174.8951308,-36.9725206,0
              174.8950558,-36.9727906,0
              174.8950168,-36.9729296,0
              174.8949728,-36.9730856,0
              174.8949288,-36.9732436,0
              174.8948868,-36.9733966,0
              174.8948848,-36.9734016,0
              174.8948838,-36.9734066,0
              174.8948438,-36.9735516,0
              174.8948028,-36.9737006,0
              174.8947387,-36.9739326,0
              174.8946747,-36.9741636,0
              174.8946327,-36.9743166,0
              174.8946117,-36.9743906,0
              174.8945497,-36.9746176,0
              174.8944637,-36.9749266,0
              174.8944587,-36.9749476,0
              174.8948058,-36.9751716,0
              174.8950248,-36.9753136,0
              174.8952428,-36.9754546,0
              174.8954548,-36.9752446,0
              174.8955068,-36.9752786,0
              174.8952958,-36.9754886,0
              174.8955228,-36.9756356,0
              174.8957498,-36.9757826,0
              174.8958458,-36.9758446,0
              174.8960708,-36.9759296,0
              174.8962548,-36.9759996,0
              174.8963248,-36.9760256,0
              174.8964728,-36.9757736,0
              174.8965038,-36.9757856,0
              174.8963558,-36.9760376,0
              174.8968098,-36.9762086,0
              174.8968708,-36.9762456,0
              174.8970978,-36.9763796,0
              174.8971528,-36.9764126,0
              174.8972348,-36.9764606,0
              174.8974718,-36.9766016,0
              174.8977158,-36.9767466,0
              174.8980378,-36.9769366,0
              174.8980258,-36.9769806,0
              174.8980178,-36.9770086,0
              174.8980018,-36.9770686,0
              174.8979548,-36.9770406,0
              174.8976668,-36.9768696,0
              174.8976098,-36.9768876,0
              174.8974748,-36.9773826,0
              174.8978968,-36.9774556,0
              174.8977758,-36.9778996,0
              174.8977718,-36.9779106,0
              174.8977678,-36.9779206,0
              174.8977618,-36.9779306,0
              174.8977558,-36.9779396,0
              174.8977488,-36.9779486,0
              174.8976678,-36.9779866,0
              174.8981018,-36.9780546,0
              174.8981178,-36.9779926,0
              174.8984797,-36.9780566,0
              174.8984367,-36.9782166,0
              174.8987478,-36.9783386,0
              174.8988098,-36.9781146,0
              174.8991608,-36.9781766,0
              174.8991518,-36.9782106,0
              174.8991128,-36.9783606,0
              174.8990738,-36.9785106,0
              174.8990368,-36.9786516,0
              174.8993738,-36.9787126,0
              174.8993658,-36.9787436,0
              174.8994278,-36.9787806,0
              174.8995748,-36.9788686,0
              174.8996288,-36.9789006,0
              174.8997758,-36.9789866,0
              174.8998088,-36.9790066,0
              174.8998218,-36.9790306,0
              174.8998898,-36.9791586,0
              174.8999608,-36.9791776,0
              174.9000948,-36.9792796,0
              174.9000398,-36.9794786,0
              174.9012908,-36.9802196,0
              174.9019888,-36.9806336,0
              174.9020328,-36.9806596,0
              174.9020768,-36.9806856,0
              174.9020158,-36.9808876,0
              174.9018978,-36.9808176,0
              174.9018598,-36.9808586,0
              174.9016808,-36.9810556,0
              174.9016348,-36.9812166,0
              174.9015958,-36.9813556,0
              174.9015898,-36.9813776,0
              174.9015448,-36.9815386,0
              174.9014988,-36.9816996,0
              174.9014528,-36.9818626,0
              174.9015608,-36.9818806,0
              174.9014928,-36.9821326,0
              174.9015188,-36.9821366,0
              174.9016758,-36.9821646,0
              174.9017578,-36.9821226,0
              174.9016848,-36.9823796,0
              174.9016468,-36.9825136,0
              174.9012958,-36.9824496,0
              174.9012668,-36.9825526,0
              174.9010678,-36.9825176,0
              174.9008668,-36.9824826,0
              174.9007828,-36.9824406,0
              174.9007388,-36.9826016,0
              174.9007328,-36.9826236,0
              174.9006948,-36.9827636,0
              174.9006898,-36.9827816,0
              174.9008848,-36.9828156,0
              174.9011788,-36.9828676,0
              174.9011418,-36.9829976,0
              174.9010958,-36.9831626,0
              174.9010488,-36.9833266,0
              174.9013998,-36.9833906,0
              174.9013508,-36.9835666,0
              174.9009998,-36.9835026,0
              174.9009628,-36.9836316,0
              174.9009528,-36.9836676,0
              174.9009188,-36.9837876,0
              174.9009068,-36.9838316,0
              174.9008358,-36.9839726,0
              174.9007848,-36.9840726,0
              174.9007638,-36.9841146,0
              174.9006918,-36.9842566,0
              174.9008438,-36.9843026,0
              174.9010678,-36.9843696,0
              174.9013658,-36.9844706,0
              174.9016768,-36.9844686,0
              174.9016908,-36.9843406,0
              174.9017648,-36.9842446,0
              174.9019978,-36.9842856,0
              174.9022108,-36.9842556,0
              174.9022848,-36.9842456,0
              174.9024368,-36.9842246,0
              174.9025378,-36.9842106,0
              174.9026277,-36.9841976,0
              174.9028158,-36.9841226,0
              174.9029958,-36.9840506,0
              174.9031788,-36.9839776,0
              174.9034758,-36.9838726,0
              174.9037148,-36.9838826,0
              174.9037238,-36.9838796,0
              174.9037298,-36.9838826,0
              174.9044648,-36.9839146,0
              174.9048978,-36.9839326,0
              174.9050548,-36.9839396,0
              174.9051278,-36.9839426,0
              174.9053668,-36.9839526,0
              174.9055708,-36.9839606,0
              174.9057738,-36.9839696,0
              174.9059928,-36.9839786,0
              174.9062398,-36.9839896,0
              174.9064928,-36.9840006,0
              174.9065988,-36.9840046,0
              174.9066829,-36.9840086,0
              174.9067659,-36.9840116,0
              174.9068489,-36.9840156,0
              174.9069328,-36.9840186,0
              174.9070158,-36.9840226,0
              174.9072758,-36.9840336,0
              174.9073898,-36.9841256,0
              174.9075138,-36.9842256,0
              174.9076798,-36.9843606,0
              174.9076888,-36.9843676,0
              174.9075468,-36.9844176,0
              174.9075138,-36.9844716,0
              174.9075588,-36.9844896,0
              174.9072838,-36.9849346,0
              174.9071478,-36.9850946,0
              174.9070328,-36.9853106,0
              174.9068269,-36.9852256,0
              174.9066198,-36.9851476,0
              174.9064208,-36.9850736,0
              174.9063748,-36.9851236,0
              174.9062148,-36.9849986,0
              174.9060828,-36.9851186,0
              174.9059468,-36.9852426,0
              174.9058108,-36.9853656,0
              174.9057008,-36.9854666,0
              174.9055828,-36.9855736,0
              174.9054298,-36.9857136,0
              174.9052198,-36.9859046,0
              174.9052328,-36.9859356,0
              174.9051978,-36.9859246,0
              174.9049208,-36.9858346,0
              174.9047828,-36.9859936,0
              174.9046338,-36.9859486,0
              174.9046328,-36.9859516,0
              174.9045368,-36.9862566,0
              174.9044538,-36.9865196,0
              174.9044008,-36.9866906,0
              174.9043858,-36.9867386,0
              174.9043588,-36.9868826,0
              174.9043268,-36.9870576,0
              174.9043228,-36.9870786,0
              174.9042898,-36.9872606,0
              174.9042538,-36.9874546,0
              174.9042298,-36.9875836,0
              174.9042048,-36.9877196,0
              174.9041628,-36.9879466,0
              174.9041118,-36.9882236,0
              174.9040728,-36.9884386,0
              174.9040558,-36.9885306,0
              174.9039748,-36.9889656,0
              174.9034158,-36.9890716,0
              174.9035948,-36.9894006,0
              174.9035748,-36.9896166,0
              174.9035438,-36.9899566,0
              174.9035118,-36.9902936,0
              174.9035108,-36.9903126,0
              174.9034818,-36.9906116,0
              174.9047118,-36.9905236,0
              174.9047208,-36.9900556,0
              174.9046988,-36.9895976,0
              174.9045868,-36.9892176,0
              174.9061568,-36.9888856,0
              174.9065898,-36.9888906,0
              174.9074928,-36.9905516,0
              174.9080628,-36.9915976,0
              174.9087578,-36.9907706,0
              174.9088308,-36.9906836,0
              174.9098898,-36.9906976,0
              174.9098968,-36.9903846,0
              174.9104618,-36.9903916,0
              174.9104638,-36.9902956,0
              174.9104788,-36.9895676,0
              174.9104918,-36.9889416,0
              174.9123728,-36.9889666,0
              174.9139398,-36.9894446,0
              174.9138668,-36.9895986,0
              174.9140588,-36.9896566,0
              174.9141318,-36.9895026,0
              174.9156208,-36.9896146,0
              174.9155888,-36.9895846,0
              174.9157078,-36.9894176,0
              174.9157828,-36.9892736,0
              174.9158678,-36.9891056,0
              174.9159958,-36.9891196,0
              174.9167238,-36.9891996,0
              174.9176808,-36.9893056,0
              174.9185048,-36.9893966,0
              174.9186409,-36.9893206,0
              174.9187739,-36.9888366,0
              174.9188589,-36.9885286,0
              174.9194149,-36.9865166,0
              174.9194989,-36.9862166,0
              174.9196838,-36.9863836,0
              174.9269069,-36.9876866,0
              174.9287728,-36.9880246,0
              174.9297758,-36.9842536,0
              174.9300818,-36.9839476,0
              174.9300958,-36.9839666,0
              174.9301098,-36.9839846,0
              174.9301238,-36.9840036,0
              174.9301378,-36.9840236,0
              174.9301518,-36.9840426,0
              174.9301658,-36.9840606,0
              174.9301788,-36.9840796,0
              174.9301908,-36.9840976,0
              174.9302018,-36.9841156,0
              174.9302108,-36.9841326,0
              174.9302178,-36.9841496,0
              174.9302218,-36.9841656,0
              174.9302238,-36.9841826,0
              174.9302248,-36.9841986,0
              174.9302258,-36.9842146,0
              174.9302268,-36.9842296,0
              174.9302278,-36.9842446,0
              174.9302318,-36.9842586,0
              174.9302378,-36.9842716,0
              174.9302458,-36.9842836,0
              174.9302578,-36.9842956,0
              174.9302728,-36.9843076,0
              174.9302898,-36.9843196,0
              174.9303088,-36.9843306,0
              174.9303288,-36.9843406,0
              174.9303488,-36.9843506,0
              174.9303688,-36.9843586,0
              174.9303868,-36.9843646,0
              174.9304028,-36.9843706,0
              174.9304168,-36.9843736,0
              174.9304289,-36.9843746,0
              174.9304389,-36.9843746,0
              174.9304489,-36.9843716,0
              174.9304569,-36.9843686,0
              174.9304649,-36.9843636,0
              174.9304719,-36.9843576,0
              174.9304779,-36.9843516,0
              174.9304839,-36.9843446,0
              174.9304889,-36.9843376,0
              174.9304939,-36.9843316,0
              174.9304979,-36.9843256,0
              174.9304999,-36.9843186,0
              174.9305009,-36.9843106,0
              174.9305009,-36.9843026,0
              174.9305009,-36.9842946,0
              174.9305019,-36.9842866,0
              174.9305029,-36.9842776,0
              174.9305059,-36.9842686,0
              174.9305109,-36.9842606,0
              174.9305179,-36.9842516,0
              174.9305279,-36.9842416,0
              174.9305399,-36.9842316,0
              174.9305529,-36.9842196,0
              174.9305679,-36.9842076,0
              174.9305839,-36.9841956,0
              174.9306009,-36.9841846,0
              174.9306179,-36.9841746,0
              174.9306359,-36.9841666,0
              174.9306539,-36.9841606,0
              174.9306719,-36.9841576,0
              174.9306899,-36.9841576,0
              174.9307089,-36.9841596,0
              174.9307279,-36.9841646,0
              174.9307479,-36.9841706,0
              174.9307679,-36.9841776,0
              174.9307889,-36.9841856,0
              174.9308089,-36.9841956,0
              174.9308309,-36.9842046,0
              174.9308519,-36.9842146,0
              174.9308739,-36.9842246,0
              174.9308959,-36.9842346,0
              174.9309189,-36.9842456,0
              174.9309429,-36.9842576,0
              174.9309679,-36.9842696,0
              174.9309919,-36.9842826,0
              174.9310159,-36.9842956,0
              174.9310399,-36.9843086,0
              174.9310619,-36.9843226,0
              174.9310839,-36.9843376,0
              174.9311039,-36.9843516,0
              174.9311229,-36.9843676,0
              174.9311409,-36.9843836,0
              174.9311579,-36.9844016,0
              174.9311749,-36.9844196,0
              174.9311909,-36.9844376,0
              174.9312059,-36.9844556,0
              174.9312199,-36.9844726,0
              174.9312329,-36.9844896,0
              174.9312439,-36.9845056,0
              174.9312529,-36.9845196,0
              174.9312619,-36.9845326,0
              174.9312689,-36.9845436,0
              174.9312739,-36.9845546,0
              174.9312789,-36.9845646,0
              174.9312819,-36.9845746,0
              174.9312839,-36.9845836,0
              174.9312849,-36.9845926,0
              174.9312859,-36.9846016,0
              174.9312849,-36.9846096,0
              174.9312849,-36.9846186,0
              174.9312829,-36.9846266,0
              174.9312799,-36.9846346,0
              174.9312769,-36.9846426,0
              174.9312719,-36.9846506,0
              174.9312669,-36.9846576,0
              174.9312609,-36.9846656,0
              174.9312549,-36.9846716,0
              174.9312479,-36.9846786,0
              174.9312409,-36.9846846,0
              174.9312339,-36.9846896,0
              174.9312259,-36.9846946,0
              174.9312169,-36.9846986,0
              174.9312079,-36.9847026,0
              174.9311979,-36.9847056,0
              174.9311879,-36.9847076,0
              174.9311779,-36.9847106,0
              174.9311679,-36.9847136,0
              174.9311579,-36.9847166,0
              174.9311489,-36.9847206,0
              174.9311409,-36.9847256,0
              174.9311329,-36.9847316,0
              174.9311249,-36.9847376,0
              174.9311159,-36.9847436,0
              174.9311079,-36.9847506,0
              174.9310999,-36.9847586,0
              174.9310939,-36.9847656,0
              174.9310869,-36.9847736,0
              174.9310829,-36.9847806,0
              174.9310799,-36.9847886,0
              174.9310779,-36.9847956,0
              174.9310779,-36.9848036,0
              174.9310799,-36.9848116,0
              174.9310839,-36.9848196,0
              174.9310879,-36.9848286,0
              174.9310939,-36.9848366,0
              174.9310999,-36.9848446,0
              174.9311069,-36.9848526,0
              174.9311129,-36.9848596,0
              174.9311199,-36.9848666,0
              174.9311269,-36.9848716,0
              174.9311329,-36.9848766,0
              174.9311399,-36.9848796,0
              174.9311469,-36.9848836,0
              174.9311539,-36.9848856,0
              174.9311619,-36.9848886,0
              174.9311689,-36.9848896,0
              174.9311769,-36.9848916,0
              174.9311849,-36.9848926,0
              174.9311939,-36.9848926,0
              174.9312019,-36.9848926,0
              174.9312099,-36.9848926,0
              174.9312189,-36.9848916,0
              174.9312279,-36.9848896,0
              174.9312369,-36.9848876,0
              174.9312469,-36.9848846,0
              174.9312559,-36.9848826,0
              174.9312659,-36.9848796,0
              174.9312749,-36.9848766,0
              174.9312839,-36.9848736,0
              174.9312939,-36.9848716,0
              174.9313579,-36.9848426,0
              174.9314349,-36.9847856,0
              174.9315249,-36.9847326,0
              174.9316039,-36.9847256,0
              174.9316799,-36.9847626,0
              174.9317309,-36.9848596,0
              174.9317179,-36.9849396,0
              174.9317489,-36.9850166,0
              174.9317399,-36.9850766,0
              174.9317849,-36.9851506,0
              174.9318559,-36.9852156,0
              174.9319349,-36.9852366,0
              174.9320269,-36.9852136,0
              174.9321119,-36.9851676,0
              174.9321849,-36.9851246,0
              174.9321939,-36.9851186,0
              174.9322859,-36.9851326,0
              174.9323509,-36.9851666,0
              174.9323639,-36.9851736,0
              174.9324039,-36.9852136,0
              174.9324159,-36.9852226,0
              174.9324309,-36.9852406,0
              174.9324698,-36.9852976,0
              174.9325258,-36.9853406,0
              174.9325738,-36.9853906,0
              174.9326548,-36.9853936,0
              174.9327328,-36.9853736,0
              174.9328088,-36.9853406,0
              174.9328868,-36.9853136,0
              174.9328958,-36.9853116,0
              174.9329738,-36.9853076,0
              174.9330508,-36.9853366,0
              174.9330888,-36.9853466,0
              174.9331688,-36.9853276,0
              174.9331908,-36.9853216,0
              174.9332758,-36.9853306,0
              174.9333498,-36.9853376,0
              174.9334238,-36.9853096,0
              174.9334958,-36.9852726,0
              174.9335228,-36.9852606,0
              174.9336018,-36.9852386,0
              174.9336168,-36.9852366,0
              174.9337008,-36.9852316,0
              174.9337228,-36.9852266,0
              174.9337438,-36.9852206,0
              174.9337648,-36.9852156,0
              174.9337858,-36.9852106,0
              174.9338068,-36.9852056,0
              174.9338288,-36.9852006,0
              174.9338298,-36.9852006,0
              174.9338508,-36.9851956,0
              174.9338718,-36.9851906,0
              174.9338938,-36.9851866,0
              174.9339158,-36.9851826,0
              174.9339368,-36.9851786,0
              174.9339478,-36.9851776,0
              174.9339698,-36.9851746,0
              174.9339918,-36.9851726,0
              174.9340138,-36.9851716,0
              174.9340358,-36.9851706,0
              174.9340418,-36.9851706,0
              174.9340638,-36.9851716,0
              174.9340858,-36.9851736,0
              174.9341078,-36.9851766,0
              174.9341298,-36.9851796,0
              174.9341508,-36.9851846,0
              174.9341548,-36.9851846,0
              174.9341768,-36.9851896,0
              174.9341978,-36.9851946,0
              174.9342188,-36.9852006,0
              174.9342388,-36.9852076,0
              174.9342408,-36.9852086,0
              174.9342598,-36.9852176,0
              174.9342778,-36.9852276,0
              174.9342958,-36.9852386,0
              174.9343128,-36.9852496,0
              174.9343308,-36.9852606,0
              174.9343488,-36.9852706,0
              174.9343688,-36.9852786,0
              174.9343899,-36.9852856,0
              174.9344109,-36.9852916,0
              174.9344309,-36.9852986,0
              174.9344509,-36.9853056,0
              174.9344709,-36.9853146,0
              174.9344719,-36.9853156,0
              174.9344889,-36.9853256,0
              174.9345049,-36.9853376,0
              174.9345209,-36.9853506,0
              174.9345359,-36.9853636,0
              174.9345509,-36.9853776,0
              174.9345659,-36.9853906,0
              174.9345739,-36.9853966,0
              174.9345909,-36.9854076,0
              174.9346089,-36.9854186,0
              174.9346269,-36.9854296,0
              174.9346439,-36.9854406,0
              174.9346619,-36.9854506,0
              174.9346799,-36.9854616,0
              174.9346939,-36.9854696,0
              174.9347119,-36.9854806,0
              174.9347289,-36.9854916,0
              174.9347459,-36.9855026,0
              174.9347629,-36.9855136,0
              174.9347799,-36.9855256,0
              174.9347969,-36.9855366,0
              174.9348029,-36.9855416,0
              174.9348189,-36.9855536,0
              174.9348339,-36.9855656,0
              174.9348499,-36.9855786,0
              174.9348659,-36.9855906,0
              174.9348819,-36.9856036,0
              174.9348879,-36.9856076,0
              174.9349039,-36.9856196,0
              174.9349209,-36.9856306,0
              174.9349379,-36.9856426,0
              174.9349459,-36.9856476,0
              174.9349629,-36.9856586,0
              174.9349789,-36.9856706,0
              174.9349819,-36.9856726,0
              174.9349719,-36.9857036,0
              174.9348539,-36.9860726,0
              174.9352179,-36.9861796,0
              174.9356999,-36.9863206,0
              174.9360349,-36.9864196,0
              174.9364489,-36.9865416,0
              174.9375418,-36.9868626,0
              174.9390339,-36.9873016,0
              174.9387829,-36.9881076,0
              174.9387529,-36.9882056,0
              174.9386329,-36.9885896,0
              174.9381498,-36.9901406,0
              174.9381198,-36.9902336,0
              174.9378468,-36.9911106,0
              174.9375488,-36.9920666,0
              174.9374498,-36.9923646,0
              174.9372078,-36.9930956,0
              174.9370258,-36.9936446,0
              174.9369678,-36.9938186,0
              174.9367928,-36.9943456,0
              174.9364769,-36.9952986,0
              174.9367748,-36.9953816,0
              174.9373328,-36.9955356,0
              174.9374248,-36.9955606,0
              174.9380198,-36.9957026,0
              174.9387829,-36.9959326,0
              174.9389949,-36.9959046,0
              174.9390149,-36.9959096,0
              174.9402759,-36.9962366,0
              174.9409998,-36.9964246,0
              174.9419378,-36.9966726,0
              174.9419358,-36.9967036,0
              174.9451259,-36.9976636,0
              174.9455118,-36.9977796,0
              174.9492809,-36.9989126,0
              174.9505149,-36.9992806,0
              174.9539128,-37.0002956,0
              174.9535519,-36.9999946,0
              174.9532759,-36.9972106,0
              174.9529029,-36.9934336,0
              174.9527009,-36.9913616,0
              174.9509239,-36.9908066,0
              174.9501878,-36.9905836,0
              174.9513629,-36.9877636,0
              174.9521329,-36.9857536,0
              174.9526249,-36.9857476,0
              174.9550049,-36.9857286,0
              174.9562989,-36.9857336,0
              174.9578739,-36.9857306,0
              174.9579709,-36.9857306,0
              174.9631569,-36.9857086,0
              174.9638659,-36.9856786,0
              174.9647639,-36.9835786,0
              174.9654259,-36.9836816,0
              174.9670649,-36.9839346,0
              174.9680479,-36.9833566,0
              174.9685099,-36.9830846,0
            </coordinates>
          </LinearRing>
        </outerBoundaryIs>
      </Polygon>
    </Placemark>
    <Placemark>
      <name>1</name>
      <styleUrl>#line-000000-1200-nodesc</styleUrl>
      <LineString>
        <tessellate>1</tessellate>
        <coordinates>
          174.9297323,-36.9526667,0
          174.9256984,-36.9554461,0
          174.926621,-36.956132,0
          174.9270073,-36.9566464,0
          174.9264494,-36.9586182,0
          174.9268999,-36.9599026,0
          174.926664,-36.9607786,0
          174.9256769,-36.9611215,0
          174.9247541,-36.9605541,0
          174.9238368,-36.9602612,0
          174.9169435,-36.9591139,0
          174.9092188,-36.9576393,0
          174.904144,-36.956611,0
          174.903511,-36.9558903,0
        </coordinates>
      </LineString>
    </Placemark>
  </Document>
</kml>
