<?xml version="1.0" encoding="UTF-8"?>
<kml xmlns="http://www.opengis.net/kml/2.2">
<Document>
  <name>Flat Bush (Polygon: Official_Shp) Section 2</name>
  <Placemark>
    <name>Flat Bush (Polygon: Official_Shp) Section 2</name>
    <Style>
      <LineStyle><color>ffff0000</color><width>2</width></LineStyle>
      <PolyStyle><color>66ff0000</color></PolyStyle>
    </Style>
    <Polygon>
      <tessellate>1</tessellate>
      <outerBoundaryIs>
        <LinearRing>
          <coordinates>174.92860686890063,-36.95320509959972,100 174.929612,-36.953408,100 174.92984,-36.953454,100 174.930177,-36.953522,100 174.932395,-36.953969,100 174.934921,-36.954472,100 174.936153,-36.954715,100 174.936801,-36.952631,100 174.937047,-36.951809,100 174.93724,-36.950998,100 174.937475,-36.950466,100 174.937531,-36.950288,100 174.937551,-36.950222,100 174.937858,-36.950615,100 174.938193,-36.951295,100 174.937924,-36.951837,100 174.938843,-36.952906,100 174.939945,-36.953616,100 174.940672,-36.953646,100 174.941998,-36.949067,100 174.944864,-36.949923,100 174.946096,-36.950401,100 174.944525,-36.95534,100 174.946716,-36.955807,100 174.947263,-36.955888,100 174.95008,-36.956345,100 174.949928,-36.956888,100 174.94963,-36.957122,100 174.94892,-36.957338,100 174.948682,-36.957437,100 174.94884055712916,-36.95755299145689,100 174.948387,-36.95771,100 174.944946,-36.962819,100 174.943645,-36.96371,100 174.940791,-36.963933,100 174.939632,-36.964636,100 174.938637,-36.966419,100 174.937376,-36.968642,100 174.936062,-36.969265,100 174.935376,-36.969368,100 174.933975,-36.969113,100 174.926293,-36.967176,100 174.924598,-36.967485,100 174.925376,-36.965014,100 174.926042,-36.96263,100 174.926085,-36.961876,100 174.925677,-36.961122,100 174.926149,-36.96095,100 174.926664,-36.960779,100 174.926685,-36.960333,100 174.926857,-36.959664,100 174.926449,-36.958618,100 174.9266,-36.957984,100 174.927007,-36.956646,100 174.926621,-36.956132,100 174.925698,-36.955446,100 174.92860686890063,-36.95320509959972,100</coordinates>
        </LinearRing>
      </outerBoundaryIs>
    </Polygon>
  </Placemark>
</Document>
</kml>