<?xml version="1.0" encoding="UTF-8"?>
<kml xmlns="http://www.opengis.net/kml/2.2">
<Document>
  <name>Flat Bush (Polygon: Official_Shp) Section 1</name>
  <Placemark>
    <name>Flat Bush (Polygon: Official_Shp) Section 1</name>
    <Style>
      <LineStyle><color>ffff0000</color><width>2</width></LineStyle>
      <PolyStyle><color>66ff0000</color></PolyStyle>
    </Style>
    <Polygon>
      <tessellate>1</tessellate>
      <outerBoundaryIs>
        <LinearRing>
          <coordinates>174.968048,-36.983357,100 174.967065,-36.983935,100 174.965426,-36.983682,100 174.964764,-36.983579,100 174.963866,-36.985679,100 174.963157,-36.985709,100 174.957971,-36.985731,100 174.957874,-36.985731,100 174.956299,-36.985734,100 174.955005,-36.985729,100 174.952625,-36.985748,100 174.952133,-36.985754,100 174.951363,-36.987764,100 174.950188,-36.990584,100 174.950924,-36.990807,100 174.952701,-36.991362,100 174.952903,-36.993434,100 174.953276,-36.997211,100 174.953552,-36.999995,100 174.953913,-37.000296,100 174.950515,-36.999281,100 174.949281,-36.998913,100 174.945512,-36.99778,100 174.945126,-36.997664,100 174.941936,-36.996704,100 174.941938,-36.996673,100 174.941,-36.996425,100 174.940276,-36.996237,100 174.939015,-36.99591,100 174.938995,-36.995905,100 174.938783,-36.995933,100 174.93802,-36.995703,100 174.937425,-36.995561,100 174.937333,-36.995536,100 174.936775,-36.995382,100 174.936477,-36.995299,100 174.936793,-36.994346,100 174.936968,-36.993819,100 174.937026,-36.993645,100 174.937208,-36.993096,100 174.93745,-36.992365,100 174.937549,-36.992067,100 174.937847,-36.991111,100 174.93812,-36.990234,100 174.93815,-36.990141,100 174.938633,-36.98859,100 174.938753,-36.988206,100 174.938783,-36.988108,100 174.93901231900992,-36.98737162102786,100 174.941358,-36.98686,100 174.94331,-36.986071,100 174.944619,-36.984443,100 174.944555,-36.981735,100 174.940907,-36.980295,100 174.939497,-36.977935,100 174.938017,-36.976632,100 174.935377,-36.974815,100 174.937437,-36.972946,100 174.939025,-36.972758,100 174.940441,-36.972912,100 174.942866,-36.971472,100 174.944196,-36.971044,100 174.946192,-36.972141,100 174.947007,-36.972544,100 174.9476795374897,-36.97255864585126,100 174.947676,-36.972695,100 174.947696,-36.972867,100 174.947749,-36.973032,100 174.947833,-36.97319,100 174.948015,-36.973395,100 174.948451,-36.97378,100 174.949044,-36.974368,100 174.949157,-36.974651,100 174.949196,-36.97503,100 174.949146,-36.975411,100 174.948938,-36.975754,100 174.948801,-36.975909,100 174.948553,-36.976121,100 174.948485,-36.976169,100 174.948315,-36.97629,100 174.948233,-36.976375,100 174.948426,-36.976409,100 174.948269,-36.976879,100 174.948117,-36.977481,100 174.948737,-36.977592,100 174.949225,-36.977614,100 174.949255,-36.977788,100 174.949257,-36.977797,100 174.949314,-36.978118,100 174.949357,-36.978364,100 174.949402,-36.978445,100 174.949431,-36.978499,100 174.949513,-36.978647,100 174.94961,-36.978782,100 174.94983,-36.97909,100 174.94995,-36.979258,100 174.950079,-36.979385,100 174.95037,-36.979671,100 174.951236,-36.980521,100 174.951262,-36.980582,100 174.951264,-36.980587,100 174.951336,-36.980759,100 174.951395,-36.980898,100 174.952274,-36.981081,100 174.953643,-36.981361,100 174.955531,-36.981747,100 174.955683,-36.981731,100 174.956091,-36.981474,100 174.95619,-36.981511,100 174.956483,-36.981608,100 174.956585,-36.981634,100 174.95667,-36.981626,100 174.956687,-36.981472,100 174.956735,-36.981035,100 174.956883,-36.980928,100 174.957844,-36.980421,100 174.958586,-36.979854,100 174.959012,-36.979764,100 174.959407,-36.979493,100 174.959398,-36.979478,100 174.959799,-36.979151,100 174.960285,-36.978987,100 174.960828,-36.977771,100 174.961308,-36.976962,100 174.961637,-36.977052,100 174.961919,-36.977169,100 174.962169,-36.977108,100 174.962394,-36.977004,100 174.962559,-36.976881,100 174.962739,-36.976694,100 174.963988,-36.978077,100 174.965413,-36.979656,100 174.968168,-36.982706,100 174.96851,-36.983085,100 174.968048,-36.983357,100</coordinates>
        </LinearRing>
      </outerBoundaryIs>
    </Polygon>
  </Placemark>
</Document>
</kml>