<?xml version="1.0" encoding="UTF-8"?>
<kml xmlns="http://www.opengis.net/kml/2.2">
<Document>
  <name>Flat Bush (Polygon: Official_Shp) Section 2</name>
  <Placemark>
    <name>Flat Bush (Polygon: Official_Shp) Section 2</name>
    <Style>
      <LineStyle><color>ffff0000</color><width>2</width></LineStyle>
      <PolyStyle><color>66ff0000</color></PolyStyle>
    </Style>
    <Polygon>
      <tessellate>1</tessellate>
      <outerBoundaryIs>
        <LinearRing>
          <coordinates>174.93900038414662,-36.98740994572832,100 174.939034,-36.987302,100 174.937542,-36.986863,100 174.936449,-36.986542,100 174.936035,-36.98642,100 174.9357,-36.986321,100 174.935218,-36.98618,100 174.934854,-36.986073,100 174.934972,-36.985704,100 174.934982,-36.985673,100 174.934979,-36.985671,100 174.934963,-36.985659,100 174.934946,-36.985648,100 174.934938,-36.985643,100 174.934921,-36.985631,100 174.934904,-36.98562,100 174.934888,-36.985608,100 174.934882,-36.985604,100 174.934866,-36.985591,100 174.93485,-36.985579,100 174.934834,-36.985566,100 174.934819,-36.985554,100 174.934803,-36.985542,100 174.934797,-36.985537,100 174.93478,-36.985526,100 174.934763,-36.985514,100 174.934746,-36.985503,100 174.934729,-36.985492,100 174.934712,-36.985481,100 174.934694,-36.98547,100 174.93468,-36.985462,100 174.934662,-36.985451,100 174.934644,-36.985441,100 174.934627,-36.98543,100 174.934609,-36.985419,100 174.934591,-36.985408,100 174.934574,-36.985397,100 174.934566,-36.985391,100 174.934551,-36.985378,100 174.934536,-36.985364,100 174.934521,-36.985351,100 174.934505,-36.985338,100 174.934489,-36.985326,100 174.934472,-36.985316,100 174.934471,-36.985315,100 174.934451,-36.985306,100 174.934431,-36.985299,100 174.934411,-36.985292,100 174.93439,-36.985286,100 174.934369,-36.985279,100 174.934349,-36.985271,100 174.934331,-36.985261,100 174.934313,-36.98525,100 174.934296,-36.985239,100 174.934278,-36.985228,100 174.93426,-36.985218,100 174.934241,-36.985209,100 174.934239,-36.985208,100 174.934219,-36.985201,100 174.934198,-36.985195,100 174.934177,-36.98519,100 174.934155,-36.985185,100 174.934151,-36.985185,100 174.93413,-36.98518,100 174.934108,-36.985177,100 174.934086,-36.985174,100 174.934064,-36.985172,100 174.934042,-36.985171,100 174.934036,-36.985171,100 174.934014,-36.985172,100 174.933992,-36.985173,100 174.93397,-36.985175,100 174.933948,-36.985178,100 174.933937,-36.985179,100 174.933916,-36.985183,100 174.933894,-36.985187,100 174.933872,-36.985191,100 174.933851,-36.985196,100 174.93383,-36.985201,100 174.933829,-36.985201,100 174.933807,-36.985206,100 174.933786,-36.985211,100 174.933765,-36.985216,100 174.933744,-36.985221,100 174.933723,-36.985227,100 174.933701,-36.985232,100 174.933617,-36.985237,100 174.933602,-36.985239,100 174.933523,-36.985261,100 174.933496,-36.985273,100 174.933424,-36.98531,100 174.93335,-36.985338,100 174.933276,-36.985331,100 174.933191,-36.985322,100 174.933169,-36.985328,100 174.933089,-36.985347,100 174.933051,-36.985337,100 174.932974,-36.985308,100 174.932896,-36.985312,100 174.932887,-36.985314,100 174.932809,-36.985341,100 174.932733,-36.985374,100 174.932655,-36.985394,100 174.932574,-36.985391,100 174.932526,-36.985341,100 174.93247,-36.985298,100 174.932431,-36.985241,100 174.932416,-36.985223,100 174.932404,-36.985214,100 174.932364,-36.985174,100 174.932351,-36.985167,100 174.932286,-36.985133,100 174.932194,-36.985119,100 174.932185,-36.985125,100 174.932112,-36.985168,100 174.932027,-36.985214,100 174.931935,-36.985237,100 174.931856,-36.985216,100 174.931785,-36.985151,100 174.93174,-36.985077,100 174.931749,-36.985017,100 174.931718,-36.98494,100 174.931731,-36.98486,100 174.93168,-36.984763,100 174.931604,-36.984726,100 174.931525,-36.984733,100 174.931435,-36.984786,100 174.931358,-36.984843,100 174.931294,-36.984872,100 174.931284,-36.984874,100 174.931275,-36.984877,100 174.931266,-36.98488,100 174.931256,-36.984883,100 174.931247,-36.984885,100 174.931237,-36.984888,100 174.931228,-36.98489,100 174.931219,-36.984892,100 174.93121,-36.984893,100 174.931202,-36.984893,100 174.931194,-36.984893,100 174.931185,-36.984893,100 174.931177,-36.984892,100 174.931169,-36.98489,100 174.931162,-36.984889,100 174.931154,-36.984886,100 174.931147,-36.984884,100 174.93114,-36.98488,100 174.931133,-36.984877,100 174.931127,-36.984872,100 174.93112,-36.984867,100 174.931113,-36.98486,100 174.931107,-36.984853,100 174.9311,-36.984845,100 174.931094,-36.984837,100 174.931088,-36.984829,100 174.931084,-36.98482,100 174.93108,-36.984812,100 174.931078,-36.984804,100 174.931078,-36.984796,100 174.93108,-36.984789,100 174.931083,-36.984781,100 174.931087,-36.984774,100 174.931094,-36.984766,100 174.9311,-36.984759,100 174.931108,-36.984751,100 174.931116,-36.984744,100 174.931125,-36.984738,100 174.931133,-36.984732,100 174.931141,-36.984726,100 174.931149,-36.984721,100 174.931158,-36.984717,100 174.931168,-36.984714,100 174.931178,-36.984711,100 174.931188,-36.984708,100 174.931198,-36.984706,100 174.931208,-36.984703,100 174.931217,-36.984699,100 174.931226,-36.984695,100 174.931234,-36.98469,100 174.931241,-36.984685,100 174.931248,-36.984679,100 174.931255,-36.984672,100 174.931261,-36.984666,100 174.931267,-36.984658,100 174.931272,-36.984651,100 174.931277,-36.984643,100 174.93128,-36.984635,100 174.931283,-36.984627,100 174.931285,-36.984619,100 174.931285,-36.98461,100 174.931286,-36.984602,100 174.931285,-36.984593,100 174.931284,-36.984584,100 174.931282,-36.984575,100 174.931279,-36.984565,100 174.931274,-36.984555,100 174.931269,-36.984544,100 174.931262,-36.984533,100 174.931253,-36.98452,100 174.931244,-36.984506,100 174.931233,-36.98449,100 174.93122,-36.984473,100 174.931206,-36.984456,100 174.931191,-36.984438,100 174.931175,-36.98442,100 174.931158,-36.984402,100 174.931141,-36.984384,100 174.931123,-36.984368,100 174.931104,-36.984352,100 174.931084,-36.984338,100 174.931062,-36.984323,100 174.93104,-36.984309,100 174.931016,-36.984296,100 174.930992,-36.984283,100 174.930968,-36.98427,100 174.930943,-36.984258,100 174.930919,-36.984246,100 174.930896,-36.984235,100 174.930874,-36.984225,100 174.930852,-36.984215,100 174.930831,-36.984205,100 174.930809,-36.984196,100 174.930789,-36.984186,100 174.930768,-36.984178,100 174.930748,-36.984171,100 174.930728,-36.984165,100 174.930709,-36.98416,100 174.93069,-36.984158,100 174.930672,-36.984158,100 174.930654,-36.984161,100 174.930636,-36.984167,100 174.930618,-36.984175,100 174.930601,-36.984185,100 174.930584,-36.984196,100 174.930568,-36.984208,100 174.930553,-36.98422,100 174.93054,-36.984232,100 174.930528,-36.984242,100 174.930518,-36.984252,100 174.930511,-36.984261,100 174.930506,-36.984269,100 174.930503,-36.984278,100 174.930502,-36.984287,100 174.930501,-36.984295,100 174.930501,-36.984303,100 174.930501,-36.984311,100 174.9305,-36.984319,100 174.930498,-36.984326,100 174.930494,-36.984332,100 174.930489,-36.984338,100 174.930484,-36.984345,100 174.930478,-36.984352,100 174.930472,-36.984358,100 174.930465,-36.984364,100 174.930457,-36.984369,100 174.930449,-36.984372,100 174.930439,-36.984375,100 174.930429,-36.984375,100 174.930417,-36.984374,100 174.930403,-36.984371,100 174.930387,-36.984365,100 174.930369,-36.984359,100 174.930349,-36.984351,100 174.930329,-36.984341,100 174.930309,-36.984331,100 174.93029,-36.98432,100 174.930273,-36.984308,100 174.930258,-36.984296,100 174.930246,-36.984284,100 174.930238,-36.984272,100 174.930232,-36.984259,100 174.930228,-36.984245,100 174.930227,-36.98423,100 174.930226,-36.984215,100 174.930225,-36.984199,100 174.930224,-36.984183,100 174.930222,-36.984166,100 174.930218,-36.98415,100 174.930211,-36.984133,100 174.930202,-36.984116,100 174.930191,-36.984098,100 174.930179,-36.98408,100 174.930166,-36.984061,100 174.930152,-36.984043,100 174.930138,-36.984024,100 174.930124,-36.984004,100 174.93011,-36.983985,100 174.930096,-36.983967,100 174.930082,-36.983948,100 174.929776,-36.984254,100 174.92971189875328,-36.98449500279299,100 174.928555,-36.983436,100 174.9277492,-36.98245,100 174.92804,-36.980968,100 174.927268,-36.979768,100 174.927697,-36.9761,100 174.922504,-36.975037,100 174.924598,-36.967485,100 174.926293,-36.967176,100 174.9350877,-36.9692505,100 174.936062,-36.969265,100 174.937376,-36.968642,100 174.938637,-36.966419,100 174.939632,-36.964636,100 174.941671,-36.963882,100 174.943645,-36.96371,100 174.9460311,-36.9611239,100 174.948387,-36.95771,100 174.94886092035662,-36.957567888046114,100 174.949129,-36.957764,100 174.949182,-36.957698,100 174.951002,-36.959779,100 174.951764,-36.960651,100 174.954003,-36.963215,100 174.956427,-36.965945,100 174.95352,-36.967575,100 174.953211,-36.968448,100 174.952059,-36.971535,100 174.947078,-36.97071,100 174.947049,-36.971063,100 174.947045,-36.97111,100 174.947269,-36.971327,100 174.947489,-36.971609,100 174.947649,-36.971965,100 174.947687,-36.972271,100 174.9476795374897,-36.97255864585126,100 174.947007,-36.972544,100 174.944196,-36.971044,100 174.9431343,-36.9713763,100 174.9418469,-36.9720106,100 174.940441,-36.972912,100 174.939025,-36.972758,100 174.937437,-36.972946,100 174.935377,-36.974815,100 174.939497,-36.977935,100 174.940907,-36.980295,100 174.944555,-36.981735,100 174.944619,-36.984443,100 174.94331,-36.986071,100 174.9420829,-36.986598,100 174.9394222,-36.9872836,100 174.93900038414662,-36.98740994572832,100</coordinates>
        </LinearRing>
      </outerBoundaryIs>
    </Polygon>
  </Placemark>
</Document>
</kml>