<?xml version="1.0" encoding="utf-8"?>
<kml xmlns="http://www.opengis.net/kml/2.2">
<Document>
  <name>Alfriston (polygon: official_shp)</name>
  <open>1</open>

  <Placemark>
    <name>Alfriston (polygon: official_shp)</name>
    <Style>
      <LineStyle><color>ffff0000</color><width>2</width></LineStyle>
      <PolyStyle><color>66ff0000</color><fill>1</fill><outline>1</outline></PolyStyle>
    </Style>
    <Polygon>
      <tessellate>1</tessellate>
      <altitudeMode>relativeToGround</altitudeMode>
      <outerBoundaryIs><LinearRing><coordinates>174.95958106734966,-37.00204595470033,100 174.95958056964324,-37.002046134166505,100 174.95772729789942,-37.00270053188369,100 174.95743203415464,-37.00289453500921,100 174.95709559492178,-37.003161003048575,100 174.95603103098964,-37.00445719656415,100 174.95590018736988,-37.00460946087767,100 174.95436123193053,-37.00654246387291,100 174.95525370848827,-37.0083428703264,100 174.95527297052385,-37.00838148886481,100 174.9553285334635,-37.00849461231723,100 174.9560449561621,-37.00994870259107,100 174.95693961160487,-37.01176465541745,100 174.95800313293225,-37.01401114887678,100 174.95839279477065,-37.01483412087378,100 174.95435318469254,-37.015985373115626,100 174.9550741204896,-37.01750034809033,100 174.95655824806195,-37.020618667944106,100 174.9519217821442,-37.0219949348262,100 174.9509011914572,-37.019872210032766,100 174.95033814406625,-37.01870114560852,100 174.94977706273517,-37.01753413224737,100 174.94800165377487,-37.01804584325844,100 174.94701616351355,-37.018329883840416,100 174.945863906337,-37.01627320193782,100 174.94588617143313,-37.01608044875604,100 174.9448753335927,-37.01467555569982,100 174.94477295549066,-37.014712720752904,100 174.94574805370536,-37.016067955408495,100 174.94225300521177,-37.01715490338839,100 174.9421529299146,-37.017186015970886,100 174.94162433188714,-37.01735038372818,100 174.94143193991152,-37.01694075740604,100 174.9414238466117,-37.01692372555667,100 174.94059998494566,-37.0172228882461,100 174.94046995440988,-37.016945827686385,100 174.93985156892612,-37.01716764383874,100 174.93962728551304,-37.01668994541356,100 174.93943747573837,-37.016800238949656,100 174.9399436122956,-37.017877945177304,100 174.93676467232834,-37.01888760474616,100 174.93492774021968,-37.01947181486884,100 174.9331979147839,-37.020019467680385,100 174.93156126387325,-37.02053747779029,100 174.93032999738162,-37.02092199954246,100 174.93029399331493,-37.02093300259311,100 174.92955200354524,-37.02116799437534,100 174.9289949932233,-37.021344999131024,100 174.92881400031894,-37.02140199741825,100 174.92764299546806,-37.02177200396629,100 174.9275889920251,-37.02178899488535,100 174.92612599443552,-37.02225700075318,100 174.92570000433636,-37.02239300240164,100 174.92536500295756,-37.02171100530646,100 174.92503700011403,-37.02104200023765,100 174.92470799413005,-37.02037099960038,100 174.92438299467628,-37.019700004120914,100 174.9240530033807,-37.01903299930938,100 174.9239890085028,-37.01890399777717,100 174.92371099344754,-37.01834000288683,100 174.92337999653535,-37.01766499156352,100 174.92308699211665,-37.01706700395312,100 174.92289799220808,-37.01701200762076,100 174.92122799560013,-37.01754200381501,100 174.9204299959197,-37.01780000223676,100 174.92013464910977,-37.01720728423312,100 174.9197327374044,-37.016386750367694,100 174.919506001553,-37.016052006203445,100 174.91942799233877,-37.01591299901645,100 174.9193889920458,-37.01584299240602,100 174.91935398082794,-37.01577138092195,100 174.91928314973353,-37.01562893259905,100 174.91940420697944,-37.01558554221894,100 174.91961102048438,-37.01551142142863,100 174.91978314959314,-37.015449716352876,100 174.91995280991173,-37.01538889189671,100 174.91999354663253,-37.01546656642237,100 174.92002684916616,-37.01553020002127,100 174.92005413397072,-37.01558221680576,100 174.92011419135787,-37.01569685455813,100 174.92038300836884,-37.01560210398321,100 174.9204470928694,-37.01572024822448,100 174.92045637949508,-37.01573741367047,100 174.92079692855555,-37.015592509894816,100 174.92102657142598,-37.015443533598386,100 174.9206123671178,-37.015080898864454,100 174.92163938865917,-37.01475420274585,100 174.92149584278516,-37.014489722230955,100 174.92181094124643,-37.01438209458657,100 174.92162489633782,-37.014039478547275,100 174.92157778935322,-37.01395247204553,100 174.92117479242825,-37.01320984698906,100 174.9209656512274,-37.01282436841285,100 174.92072834977432,-37.012387071703515,100 174.92059383864532,-37.01213914023058,100 174.92016354860775,-37.0122882546644,100 174.91955726989332,-37.012499589203166,100 174.9190210007789,-37.01268635355843,100 174.91881488002198,-37.01230634712111,100 174.91872602050964,-37.01214222612038,100 174.91859761071012,-37.0119055824491,100 174.91848270570586,-37.01169344833168,100 174.91836162107705,-37.01147067500946,100 174.91813460155294,-37.01105266020832,100 174.91792857277457,-37.01067317599861,100 174.9179861466401,-37.010645221555116,100 174.918362579239,-37.01046186941124,100 174.91866989098727,-37.01031218621016,100 174.91901906534113,-37.01017884167466,100 174.91894274396114,-37.010037387568296,100 174.91886344653375,-37.00989028892193,100 174.91880100587218,-37.00977499489869,100 174.91932000099376,-37.009494993059604,100 174.91933699997594,-37.0094880006657,100 174.9195350063361,-37.00931299759365,100 174.91961099418972,-37.009245999326374,100 174.91962300029815,-37.00923500658403,100 174.91978999983823,-37.00908700572602,100 174.91995000783496,-37.00937899501031,100 174.92026099708778,-37.00927499196551,100 174.92112700685522,-37.0089860025819,100 174.9217359944411,-37.008783005732035,100 174.9217290027027,-37.00878500360027,100 174.92213400270808,-37.00864999227877,100 174.9225040056454,-37.00852599365932,100 174.92336699683412,-37.008238001390666,100 174.92390299207852,-37.009212002559245,100 174.92399399604642,-37.009376995192326,100 174.92462199658084,-37.010519003683946,100 174.92492499974014,-37.01041299362641,100 174.92578300792812,-37.01011399928238,100 174.926115000293,-37.00999899657789,100 174.9261156978381,-37.00999853640613,100 174.92689730619435,-37.00972494454488,100 174.92694410595274,-37.0097088263031,100 174.92732820001922,-37.00956546544131,100 174.92786890062035,-37.00936269119461,100 174.92816920510103,-37.00925018416854,100 174.9289855974786,-37.00894410286934,100 174.9292654067102,-37.00883934492005,100 174.92986510773252,-37.00861443343019,100 174.93024059714352,-37.009030227017185,100 174.930338507461,-37.0091385015502,100 174.93076079703962,-37.008826473559225,100 174.93114099418978,-37.00854558143145,100 174.93123530412623,-37.00847600273423,100 174.93154919790211,-37.008243992579665,100 174.93176839972796,-37.00808217178866,100 174.9319523927288,-37.0079460837006,100 174.9326137072537,-37.00703880259719,100 174.9331444057716,-37.006310514407765,100 174.93338340054777,-37.00619594509169,100 174.9334932007823,-37.00627101681949,100 174.93355760512569,-37.006311682090654,100 174.9337355010445,-37.00642445557729,100 174.93416960694847,-37.0066995898937,100 174.9341890952085,-37.006711832699715,100 174.93434240041773,-37.00681928467857,100 174.93441300483192,-37.00674845412015,100 174.93428299544144,-37.006240147255355,100 174.934838900387,-37.00568267406143,100 174.93632529540025,-37.004628959714395,100 174.93635659552993,-37.00476530756772,100 174.9364530924921,-37.005181830916406,100 174.93766560436134,-37.005631023423604,100 174.93771459230175,-37.005639577053955,100 174.9384871019346,-37.00577474855437,100 174.93894430234724,-37.00585476054667,100 174.93897020441807,-37.005859252029325,100 174.93967040596365,-37.005791124337215,100 174.93958549604008,-37.005213869742825,100 174.93926539270433,-37.003500267749274,100 174.93911750498157,-37.00206431794636,100 174.93905989783752,-37.00169703184192,100 174.939291007497,-37.00108134468347,100 174.9391870033677,-37.00059390219654,100 174.93873159980424,-36.99982493869737,100 174.93862999316443,-36.99950490162004,100 174.938642597753,-36.99934083581985,100 174.93869159647244,-36.998963182968204,100 174.93923630573897,-36.998533890418955,100 174.93939290540462,-36.99834596426452,100 174.9393993911022,-36.99813878287706,100 174.93919159849054,-36.99801746257926,100 174.93887050736694,-36.998010994637696,100 174.93889460449012,-36.9972282555869,100 174.9379384944532,-36.99660995188018,100 174.93852419221272,-36.99632970631005,100 174.93885940143443,-36.995842527937064,100 174.93891080785588,-36.995766570909815,100 174.93893099990106,-36.99577187769512,100 174.94019210250823,-36.99609930635813,100 174.94091600510467,-36.996287399229615,100 174.9418535053878,-36.99653481282856,100 174.94185240767413,-36.996566225756276,100 174.94504239683096,-36.99752571224082,100 174.9454279046662,-36.997641537184684,100 174.94919680209975,-36.998774638852105,100 174.9504305053483,-36.99914256558274,100 174.9538285055486,-37.00015839688508,100 174.9572600055316,-37.00117899365937,100 174.95954000511134,-37.00186800408977,100 174.95958106734966,-37.00204595470033,100</coordinates></LinearRing></outerBoundaryIs>
    </Polygon>
  </Placemark>

  <Placemark>
    <name>Alfriston</name>
    <Point>
      <altitudeMode>relativeToGround</altitudeMode>
      <coordinates>174.94085123042018,-37.01049329364047,100</coordinates>
    </Point>
  </Placemark>

</Document>
</kml>