<?xml version="1.0" encoding="utf-8"?>
<kml xmlns="http://www.opengis.net/kml/2.2">
<Document>
  <name>Ardmore (polygon: official_shp)</name>
  <open>1</open>

  <Placemark>
    <name>Ardmore (polygon: official_shp)</name>
    <Style>
      <LineStyle><color>ffff0000</color><width>2</width></LineStyle>
      <PolyStyle><color>66ff0000</color><fill>1</fill><outline>1</outline></PolyStyle>
    </Style>
    <Polygon>
      <tessellate>1</tessellate>
      <altitudeMode>relativeToGround</altitudeMode>
      <outerBoundaryIs><LinearRing><coordinates>174.9842260056829,-37.012960003177575,100 174.9843119934282,-37.01313800658008,100 174.98685699909262,-37.018453003401504,100 174.98718300759754,-37.01913199842752,100 174.98730900707884,-37.01909299882844,100 174.98807399325133,-37.019050004997005,100 174.98830000342184,-37.0189799948873,100 174.99165400811694,-37.02263499843177,100 174.99504200324253,-37.02062699916758,100 174.99588100310947,-37.021420996243656,100 174.99941899626995,-37.02476299364846,100 174.99949200528272,-37.02483199401434,100 174.99957799329832,-37.02491399562641,100 175.00005600046475,-37.02536899475134,100 175.00171599820348,-37.024678004927665,100 175.0028289962933,-37.02644899980375,100 175.0034459932675,-37.026251004846706,100 175.0045119929819,-37.027976992960426,100 175.0046950027713,-37.02784200057992,100 175.00473099200678,-37.02790000295461,100 175.0047589943557,-37.02785299270024,100 175.00479900033048,-37.027787995391726,100 175.0048109974776,-37.02777100076804,100 175.00486000253807,-37.02771000356532,100 175.00488400642186,-37.02768899355919,100 175.00496200884388,-37.02765299996724,100 175.00497699477043,-37.02764600234259,100 175.00504199196897,-37.027594993188075,100 175.00504600513358,-37.02758999441765,100 175.0050570009232,-37.02754599344457,100 175.00506699353934,-37.02750800297797,100 175.00515300697802,-37.02750799377661,100 175.00523700538835,-37.027480004812915,100 175.00524499452968,-37.027472997452584,100 175.0052749969098,-37.027406992018946,100 175.0052800062563,-37.027374004095066,100 175.005296997199,-37.027303004679105,100 175.0053040072699,-37.02728300470768,100 175.00533200669483,-37.027212993557406,100 175.00533600717606,-37.027209993142385,100 175.00542500105152,-37.02720099440911,100 175.0054260051678,-37.02720100537285,100 175.00550399167852,-37.02723500104559,100 175.0055209957379,-37.027246998979756,100 175.00558800609033,-37.02729499598177,100 175.00559700524758,-37.02729899604797,100 175.00568599139677,-37.0273000006186,100 175.00571899283958,-37.027292003389476,100 175.00578500258888,-37.027271997165165,100 175.0058550041839,-37.0272269983459,100 175.00585799476923,-37.02722500730654,100 175.0058989978521,-37.02716099861048,100 175.00591499508698,-37.02714100254938,100 175.00600300477424,-37.02714899394036,100 175.00601199858377,-37.02715099591512,100 175.00609500821992,-37.0271259991177,100 175.0061370037988,-37.02711100529961,100 175.00622400067624,-37.02709400297873,100 175.0063000072757,-37.02708200475613,100 175.00638800821366,-37.02706800463999,100 175.00644699754562,-37.02705500442313,100 175.0065290077636,-37.02702599818685,100 175.00655100154233,-37.02702000031781,100 175.00663999420996,-37.0270169933448,100 175.0066789925691,-37.027013995678985,100 175.00675299613658,-37.026995002827945,100 175.00680200188322,-37.02695700383558,100 175.00684999955993,-37.02689599403155,100 175.00685399386177,-37.02689400040666,100 175.00694000656503,-37.02690599234941,100 175.0069630029557,-37.02690900561879,100 175.0070449963543,-37.02688300419994,100 175.00708299188727,-37.02685899277288,100 175.007146008248,-37.026808995699014,100 175.00716300312217,-37.02679599729801,100 175.00723400829597,-37.02675099421458,100 175.00724300778975,-37.02674599571515,100 175.0073189972366,-37.02671299628062,100 175.0074080068366,-37.026722006190354,100 175.00742700272525,-37.02672199566193,100 175.0075000016552,-37.026700000946136,100 175.00756500396636,-37.02664799983326,100 175.00757299854473,-37.02664599255898,100 175.00762000686618,-37.02665900104445,100 175.00769799899578,-37.02663299569866,100 175.00778499343627,-37.02664300290784,100 175.0078369991005,-37.02666299640326,100 175.00790999200353,-37.02670400409638,100 175.00795000391568,-37.026729004414804,100 175.00802599762315,-37.0267810001815,100 175.00807000433923,-37.02678899858076,100 175.00813499351406,-37.02674500530319,100 175.00820800307665,-37.0267299949355,100 175.00828699505786,-37.02676099570209,100 175.00830699533887,-37.02677300018741,100 175.00838099236765,-37.0268140059063,100 175.00841999512082,-37.026827997725526,100 175.00851500603153,-37.02684099972674,100 175.0085480026516,-37.02683100364754,100 175.008580996693,-37.0267650044357,100 175.0085820024187,-37.02675299940931,100 175.00856899943295,-37.026663999549314,100 175.00857700774685,-37.02662999544342,100 175.00865600626588,-37.02666000534057,100 175.00874500828803,-37.02667000488559,100 175.00877799579388,-37.02667899717703,100 175.008844997244,-37.026726001959176,100 175.0088469943967,-37.026727993324904,100 175.00886799408738,-37.02679700511018,100 175.00887199887282,-37.026817002601625,100 175.00889400286846,-37.02689200443872,100 175.00891399619897,-37.02691099389825,100 175.00900099597385,-37.02691700472011,100 175.00901399618863,-37.02691499819219,100 175.0091020016946,-37.02690000457769,100 175.00911900219003,-37.02689499660009,100 175.00919400346,-37.0268679927372,100 175.00922699403952,-37.026929997545295,100 175.01035300207738,-37.02913399797166,100 175.01042499699116,-37.029311004103015,100 175.01086800248845,-37.03015700496138,100 175.01094499995938,-37.030310997235865,100 175.0126249963095,-37.03366100619347,100 175.0131149926541,-37.03461900294361,100 175.0113819924239,-37.03517400373515,100 175.0093099970103,-37.0358300038037,100 175.00794499351343,-37.03625800579778,100 175.00787499232902,-37.0362809983187,100 175.00693800412915,-37.036575996065196,100 175.00698799360867,-37.03667800294928,100 175.0088140043062,-37.04053499954133,100 175.01039900215466,-37.04371899200895,100 175.01102200501552,-37.04496900143901,100 175.0114139919159,-37.04503300191628,100 175.01224599508504,-37.04552199210899,100 175.01293599457986,-37.04559000841638,100 175.01376100322182,-37.04592600657208,100 175.01487800443087,-37.04666099742496,100 175.01602700522508,-37.04682799560602,100 175.01808700050142,-37.04875099610892,100 175.0187200022018,-37.05003600123883,100 175.0203099982575,-37.04955199728405,100 175.020320001698,-37.04958699933825,100 175.0205270027781,-37.05033699630763,100 175.02055900511223,-37.050453998741766,100 175.02058900397333,-37.05056100224727,100 175.02075400377038,-37.05115899414443,100 175.020780000483,-37.05125100268317,100 175.02092499591805,-37.05177600065995,100 175.020930996613,-37.05179899640629,100 175.02101200824052,-37.05209200273761,100 175.02101700408087,-37.05210899324944,100 175.0210580019764,-37.052861007553204,100 175.0210690058532,-37.0530580065479,100 175.02108299335998,-37.05331800101614,100 175.02112100083403,-37.05399300398718,100 175.02115199466562,-37.0545609939947,100 175.02117699948468,-37.055025002640086,100 175.01938300759244,-37.05533099713827,100 175.01945599297989,-37.055770000608796,100 175.01918399266225,-37.055973002264125,100 175.01920599373932,-37.055976001130965,100 175.01965700802685,-37.05612000235634,100 175.01964800727416,-37.055940001547256,100 175.02032500322673,-37.055960995755775,100 175.0203070007621,-37.05600700365044,100 175.0199459966503,-37.05695200117025,100 175.02007599992234,-37.057100001081324,100 175.02042099921158,-37.05749299821392,100 175.02039799201148,-37.05765999531761,100 175.02115000015598,-37.05826799583246,100 175.021522993247,-37.05842299741594,100 175.02253300676026,-37.0581170050455,100 175.0236559974259,-37.05777800190556,100 175.0243859951858,-37.057556006303585,100 175.0244919927469,-37.05752400206728,100 175.02516299796423,-37.05887000162436,100 175.02543000539836,-37.05940700056421,100 175.02500700567973,-37.05979099989277,100 175.0252150083797,-37.05981199842943,100 175.0251999952412,-37.05982600023402,100 175.02518500592365,-37.05983899490194,100 175.02516999275045,-37.05985299580212,100 175.02515600801257,-37.05986600305182,100 175.02514699500824,-37.05987600524879,100 175.02513400817247,-37.059890000378815,100 175.0251209997529,-37.059905002604,100 175.02510899548793,-37.059920001197945,100 175.0250960039196,-37.059935003132665,100 175.02509300164746,-37.059938992991924,100 175.02507900478867,-37.05995399857395,100 175.02506600104226,-37.0599679930842,100 175.02505199315465,-37.05998199212349,100 175.0250369979384,-37.0599959936018,100 175.02502200784306,-37.06000900358459,100 175.02501099592124,-37.060016999413406,100 175.02499600651026,-37.06002999315826,100 175.02497900652335,-37.06004299419755,100 175.02496200066457,-37.06005399810181,100 175.02495000765686,-37.060061004852244,100 175.0249300045418,-37.060068997391404,100 175.02490900710907,-37.060074995253224,100 175.02488799906382,-37.06008000188635,100 175.02486599741457,-37.060086001567136,100 175.02485000078462,-37.06009000241298,100 175.0248299976508,-37.06009799493577,100 175.0248099949198,-37.06010600277007,100 175.02478899274436,-37.060113007419815,100 175.0247819989334,-37.06011499609327,100 175.02476000826522,-37.06011899833411,100 175.02473800660425,-37.06012199493186,100 175.02471599795754,-37.06012299441185,100 175.02469300308493,-37.06012399540544,100 175.02467100652623,-37.06012599959614,100 175.02465500394655,-37.06012800058062,100 175.0246340076218,-37.06013399927649,100 175.0246120059589,-37.06013999981202,100 175.02459099161794,-37.060145997906666,100 175.0245820063097,-37.06014799263109,100 175.02456099822035,-37.060152999207446,100 175.02453900127108,-37.06015799292104,100 175.02451699373844,-37.06016199630626,100 175.0244960083518,-37.060165995755554,100 175.0244740007903,-37.060169998232055,100 175.02445699405564,-37.060172003715756,100 175.02443500335121,-37.060176005897254,100 175.02441400582163,-37.06017899881139,100 175.02439199827535,-37.060183002173765,100 175.0243699965783,-37.06018599870417,100 175.02435499343582,-37.060189003734585,100 175.02433300384436,-37.06019300587827,100 175.02431200050063,-37.060197007404284,100 175.02428999248795,-37.06020099363151,100 175.02426800176502,-37.06020499578253,100 175.02424699363686,-37.060210002304274,100 175.02424199870046,-37.060210994258185,100 175.02422000211797,-37.06021600322845,100 175.02419899357622,-37.060220994427084,100 175.02417799603847,-37.06022699216225,100 175.0241560064253,-37.060230994273695,100 175.0241339929934,-37.060236004417014,100 175.02413000847983,-37.060236001231225,100 175.02410800563092,-37.06023899773294,100 175.02408599801294,-37.06023999527627,100 175.02406399669186,-37.0602430070655,100 175.0240579964382,-37.06024400175131,100 175.02403600571265,-37.060248004760865,100 175.02401500812942,-37.06025400156689,100 175.02399399485344,-37.060260000439634,100 175.02397299726331,-37.060265997238396,100 175.0239520008177,-37.06027199491522,100 175.02394899774828,-37.06027299521899,100 175.02392700700776,-37.06027699820873,100 175.0239049993796,-37.060281000581384,100 175.02388299763103,-37.06028399702277,100 175.02386100688332,-37.060288000000455,100 175.02384200231972,-37.06029100206,100 175.0238209926055,-37.06029599321214,100 175.02379999654545,-37.06030200617739,100 175.02377799476164,-37.06030800656139,100 175.02375700302335,-37.060312997395485,100 175.0237359948279,-37.06031800382848,100 175.02371499134182,-37.06032200254799,100 175.02369299543304,-37.06032399212653,100 175.02367099880573,-37.06032599703498,100 175.02364800274856,-37.06032699874812,100 175.02362600721898,-37.06032900272823,100 175.0236169980442,-37.06032900055399,100 175.02359600669524,-37.06033400667484,100 175.02357399273737,-37.060338999599544,100 175.02355200310302,-37.06034300340252,100 175.02353100548567,-37.06034599616258,100 175.02350899674806,-37.06034699542084,100 175.02348700011936,-37.06034599543249,100 175.02346499763993,-37.06034299740526,100 175.02344200670936,-37.060340001820485,100 175.02342000423306,-37.06033700378479,100 175.02339800178223,-37.060334006645846,100 175.02337599890217,-37.06033099328709,100 175.02335399530642,-37.06032799525817,100 175.02334700815464,-37.06032600368762,100 175.02332399524718,-37.06032400076254,100 175.02330199752092,-37.060319995895554,100 175.0232840074697,-37.060311997574175,100 175.0232710073426,-37.06029799180705,100 175.02325999842395,-37.06028100578351,100 175.0232539912512,-37.0602739935875,100 175.02323599539474,-37.06026399812418,100 175.02321599703365,-37.06025600702022,100 175.02319500354412,-37.060248994556,100 175.02320299808318,-37.06026600588038,100 175.0232099997413,-37.06028399580908,100 175.02321899847715,-37.06030100441892,100 175.02323100614151,-37.060316005012886,100 175.0232419964473,-37.06032699875507,100 175.02325899910082,-37.060338002570234,100 175.0232780002922,-37.06034799529641,100 175.02327900448225,-37.06034799258266,100 175.02329799394212,-37.060356993197985,100 175.02331899805935,-37.06036499686846,100 175.02333599969117,-37.060369992766525,100 175.02335799154451,-37.0603750035541,100 175.02338000574366,-37.06037899280759,100 175.02340199649302,-37.06038099874294,100 175.02342499258182,-37.06038300284085,100 175.02342999410908,-37.06038399362158,100 175.02345300706054,-37.06038599742629,100 175.0234749989373,-37.06038800332879,100 175.02349800086876,-37.060388999683326,100 175.02350800216712,-37.06038799443113,100 175.02352999920092,-37.06038600396621,100 175.02355199473536,-37.0603809942396,100 175.02356500059403,-37.06037900218253,100 175.0235870082711,-37.0603749998717,100 175.02360899319876,-37.06037200377188,100 175.0236130004432,-37.06037099985904,100 175.0236350080911,-37.06036699663855,100 175.0236569988992,-37.06036299460268,100 175.0236630039053,-37.060360993127766,100 175.02368600513992,-37.060359000818096,100 175.02370800177619,-37.06035699590659,100 175.023730997865,-37.06035599508244,100 175.02373699813248,-37.060355000412784,100 175.02375899366567,-37.060352996411964,100 175.02378100866602,-37.06035100559399,100 175.02379599388138,-37.06035100580425,100 175.02381900166188,-37.06035099526861,100 175.02383999884054,-37.06035399596732,100 175.02386099200658,-37.06036099299974,100 175.02387999256123,-37.06037100096082,100 175.02388300733583,-37.06037399582664,100 175.02389600873403,-37.060388002404395,100 175.02390500720315,-37.060404994741255,100 175.0239119914851,-37.06042300114537,100 175.02391799943345,-37.060436006795726,100 175.02391700656725,-37.060442995131304,100 175.02391900101495,-37.06046100108031,100 175.02392399225317,-37.06047899733834,100 175.02393200455776,-37.060495992985544,100 175.0239340081902,-37.060499998317226,100 175.02394199665017,-37.06051499623622,100 175.02395400448927,-37.06052999675115,100 175.02396600175976,-37.060544006940106,100 175.02396899229552,-37.06054799362358,100 175.02398100640903,-37.06056200262214,100 175.02399300218255,-37.06057599841326,100 175.024003006379,-37.060586992691164,100 175.0240139972265,-37.060601005632925,100 175.0240250056565,-37.060615002951764,100 175.02403599096638,-37.06062999207043,100 175.02404700093592,-37.0606440046825,100 175.0240469946731,-37.0606449961957,100 175.02405900881675,-37.060659005185244,100 175.02406900680725,-37.06067399673303,100 175.02406900095176,-37.060675003561,100 175.0240759958865,-37.06069099631601,100 175.02408000613235,-37.06070800438575,100 175.02408200650754,-37.0607250044028,100 175.0240820013465,-37.06073200381927,100 175.02408100336817,-37.06074899733496,100 175.02407800328547,-37.0607650056797,100 175.02407400807408,-37.06078199267478,100 175.02407299176087,-37.06078399373654,100 175.02406899807866,-37.060800996027055,100 175.0240649974152,-37.06081299634129,100 175.02405500270163,-37.0608280037904,100 175.02404499585447,-37.06084200471779,100 175.02404299921983,-37.060846007127765,100 175.02404200706434,-37.060861992914326,100 175.0240440015571,-37.060879998858816,100 175.0240470053876,-37.0608910017655,100 175.0240509983712,-37.06090799480857,100 175.02405500862517,-37.06092500287839,100 175.02405499250426,-37.06093700637953,100 175.02405099723256,-37.060953991572035,100 175.02404200198922,-37.06097000400945,100 175.02403000320427,-37.06098399567506,100 175.02401400229652,-37.06099499581167,100 175.02399599659537,-37.06100499459682,100 175.02398899837934,-37.06100800625072,100 175.0239699991102,-37.061015995917145,100 175.02395100607689,-37.06102299316658,100 175.02394199795276,-37.06102599586246,100 175.02392299905696,-37.06103399993551,100 175.02390400018106,-37.06104200490652,100 175.02389500262558,-37.061045997923465,100 175.02387600374354,-37.06105400289014,100 175.02385700595758,-37.06106200693382,100 175.02383899397435,-37.061069993247976,100 175.02383500355833,-37.061070996881575,100 175.02381599366063,-37.06107799529876,100 175.02379600156297,-37.061084004649594,100 175.02377700739552,-37.06109100279212,100 175.02375800332302,-37.061099998333695,100 175.02374000382883,-37.06110900556833,100 175.02372500705195,-37.0611200029498,100 175.02371500599202,-37.061129993062146,100 175.02370499906783,-37.061143994864096,100 175.02369699102115,-37.06116000304604,100 175.02369099359706,-37.06117600485315,100 175.02368599408044,-37.061192994554844,100 175.02368400141341,-37.06119600458366,100 175.02367599409837,-37.06121199833124,100 175.0236690082021,-37.06122800258623,100 175.02366099975671,-37.061243996352104,100 175.02365799666606,-37.06124800241284,100 175.02365099390155,-37.061264006954666,100 175.02364300231034,-37.061280000431694,100 175.02363900153742,-37.061288994970184,100 175.02363300296798,-37.061304996793886,100 175.02362700439622,-37.06132099861732,100 175.02362100584597,-37.06133700134136,100 175.0236169992066,-37.061347002707215,100 175.02361000231036,-37.061362001319736,100 175.02360199381567,-37.06137799418121,100 175.02359500791397,-37.06139399933322,100 175.02359000770568,-37.061404996442334,100 175.0235840032324,-37.061422004190995,100 175.02358100667385,-37.06143099691187,100 175.02357999728937,-37.06143799994651,100 175.02357899445943,-37.061456000268564,100 175.02357599898713,-37.06147100179396,100 175.0235699941232,-37.061487995128076,100 175.02356399664947,-37.0615039969295,100 175.0235570044367,-37.061520992691904,100 175.02355500662898,-37.06152799997607,100 175.02355200011925,-37.06154499892212,100 175.02354899363232,-37.06156199876896,100 175.02354700347408,-37.0615800024203,100 175.02354600573997,-37.06159400458385,100 175.02354400345683,-37.061611001714006,100 175.02354200114902,-37.061627997943255,100 175.0235409982858,-37.06164599736392,100 175.0235389959768,-37.06166299359306,100 175.02353699407396,-37.061680005136935,100 175.02353500348025,-37.061697992572256,100 175.02353300160726,-37.06171200015462,100 175.02353099343335,-37.06173000321155,100 175.02352800377392,-37.0617470018691,100 175.0235239919191,-37.06176400354989,100 175.02351899238022,-37.06178099504696,100 175.02351600204696,-37.06178899535225,100 175.02350899810762,-37.06180500080674,100 175.023499997487,-37.06182200380046,100 175.02349199993276,-37.06183599833344,100 175.0234830040195,-37.06185199361632,100 175.023472004876,-37.06186700463827,100 175.02346199781564,-37.06188100642232,100 175.0234499929226,-37.06189600486272,100 175.02343700656303,-37.06190999980285,100 175.02342299800225,-37.06192399776416,100 175.02340899461848,-37.06193400026846,100 175.02339200607435,-37.06194500275587,100 175.02337400598014,-37.06195399642798,100 175.0233550009291,-37.06196300724558,100 175.0233409912722,-37.061970996393114,100 175.02332400745033,-37.061980992062416,100 175.02330599668576,-37.06199199755978,100 175.02328899601682,-37.06200199441289,100 175.02328100405867,-37.062005999968115,100 175.0232620048487,-37.06201400394341,100 175.02324200621192,-37.06202100562274,100 175.02322100292838,-37.06202799379706,100 175.02320899150743,-37.06203199672852,100 175.02318999228297,-37.06204000069267,100 175.02317000532062,-37.06204799266577,100 175.02315100725986,-37.062055998406436,100 175.02313600432163,-37.06206499588363,100 175.02311799240906,-37.062076002273756,100 175.02310200912737,-37.06208700198931,100 175.02308999828753,-37.062100002361326,100 175.02307799331084,-37.06211500166763,100 175.02306999674875,-37.062132001018206,100 175.02306999669997,-37.06213500497998,100 175.02306700697326,-37.062152005430114,100 175.0230700061678,-37.062169991544835,100 175.023076007827,-37.062186993610354,100 175.02307700145383,-37.06218900543546,100 175.02308600622527,-37.06220500541458,100 175.02309399476312,-37.06221699942462,100 175.02310600746657,-37.062230993209475,100 175.02311899219723,-37.06224500015081,100 175.0231280080716,-37.062255998743225,100 175.02313899386752,-37.06227100325412,100 175.02314899193092,-37.06228599577562,100 175.02315700247476,-37.06229699709808,100 175.02316899362265,-37.062311998873064,100 175.0231799973969,-37.0623270021718,100 175.02318800797366,-37.06233800439269,100 175.02319800016593,-37.0623540028365,100 175.02320600040778,-37.06236999200555,100 175.02321400108391,-37.06238599738957,100 175.02321799217256,-37.0623969960884,100 175.02322799652342,-37.0624140019511,100 175.023235003557,-37.06243100037207,100 175.0232369916632,-37.062446992981066,100 175.02323700380742,-37.062448000403045,100 175.02323099292846,-37.06246299478677,100 175.02322000536478,-37.06247899699435,100 175.02320800033408,-37.062493995413064,100 175.02320700086267,-37.062495997081406,100 175.02319900429376,-37.062512996440006,100 175.02319300554637,-37.06252899824402,100 175.02318800624974,-37.06254600324185,100 175.02318600321243,-37.06255400111363,100 175.023182996614,-37.06257100095212,100 175.0231809942101,-37.06258799717585,100 175.02317900392512,-37.062605999920635,100 175.02317799925902,-37.06261199704419,100 175.02317400417456,-37.06262899932767,100 175.02316999222674,-37.062646001898734,100 175.02316800130495,-37.06265500629134,100 175.02316499469953,-37.062672006129326,100 175.02316300285457,-37.0626899926773,100 175.0231610019753,-37.062707004196206,100 175.0231599921374,-37.06271699767586,100 175.02315999340294,-37.062734994379646,100 175.02315799139814,-37.06275200591762,100 175.02315399632008,-37.06276299757507,100 175.02314500028206,-37.0627789946371,100 175.02313199614275,-37.062793005169716,100 175.02313000415566,-37.062796000757274,100 175.02311900440648,-37.06281099643562,100 175.02310799763794,-37.062826998059315,100 175.02309499420113,-37.06284099325424,100 175.0230840047619,-37.06285100107935,100 175.02306700387578,-37.062860997905894,100 175.0230480044325,-37.06286900185289,100 175.0230280003787,-37.06287699409563,100 175.0230090068194,-37.06288399210947,100 175.02298999634408,-37.06289399436951,100 175.02297200807357,-37.06290399360766,100 175.02295300276396,-37.06291300526887,100 175.02293300384014,-37.06292000600214,100 175.02292299599634,-37.06292200543146,100 175.02290200389504,-37.06292400568683,100 175.0228799944069,-37.06292199908715,100 175.02285900753665,-37.0629200047801,100 175.02283600485018,-37.062916002561245,100 175.0228179980312,-37.06291399976904,100 175.02279600066228,-37.06291299967485,100 175.0227750074939,-37.062911995965194,100 175.02275299216376,-37.06291099707068,100 175.02273100688603,-37.06291100258477,100 175.022717995885,-37.06291099741026,100 175.02269599264497,-37.062911004125546,100 175.02267499319814,-37.06291099191145,100 175.0226530079437,-37.06291099831195,100 175.02263100470307,-37.06291100501515,100 175.02263000009611,-37.0629109933105,100 175.02260799577283,-37.062907995165816,100 175.02258699792338,-37.06290499426975,100 175.0225649947273,-37.06290199609779,100 175.02254399575673,-37.06289899521319,100 175.02253599675538,-37.06289799784314,100 175.02251399939237,-37.06289699769636,100 175.0224929956738,-37.062895003611615,100 175.0224709920297,-37.06289499497019,100 175.02244900565393,-37.06289500135188,100 175.02242800774036,-37.06289500438952,100 175.02240599934353,-37.06289600254507,100 175.02238400780777,-37.06289700040897,100 175.0223620041108,-37.06289999661043,100 175.02234099515823,-37.06290199795517,100 175.02231999718882,-37.06290500583689,100 175.022298005188,-37.062908993233314,100 175.02227700092993,-37.062912992620966,100 175.0222559919154,-37.06291799881404,100 175.0222429929383,-37.062922004071304,100 175.02222200029317,-37.062929998618515,100 175.02220199653706,-37.062938006039666,100 175.02218200447675,-37.0629470046643,100 175.02216199918098,-37.062954996783326,100 175.0221480018112,-37.06296100367172,100 175.0221259933047,-37.062965005738434,100 175.0221039953707,-37.06296999902708,100 175.02208200486888,-37.062974001679926,100 175.02206000217234,-37.0629800017697,100 175.02204999896375,-37.06298399827965,100 175.0220310063169,-37.062994000083556,100 175.022013005745,-37.0630059984232,100 175.021996991904,-37.06301899484561,100 175.02198999404968,-37.06302499501709,100 175.02197600190502,-37.06303899343239,100 175.02196299116588,-37.06305399355576,100 175.0219509979239,-37.06306999927846,100 175.0219449979076,-37.06307999222009,100 175.021933991999,-37.06309599462436,100 175.0219229981654,-37.06311300264848,100 175.0219150012473,-37.06313000192933,100 175.0219089958951,-37.063146995189875,100 175.0219070049056,-37.06315299560278,100 175.02190600165184,-37.06317099501747,100 175.02190600303254,-37.063189007043675,100 175.02190799670183,-37.063206997716,100 175.0219089971229,-37.063225997632294,100 175.02190899188906,-37.06322999399014,100 175.02190800549758,-37.0632479931171,100 175.02190599215595,-37.063267002964025,100 175.0219029957981,-37.063284993102656,100 175.0219000057523,-37.06330199262855,100 175.0218960055927,-37.06332000168591,100 175.0218920050248,-37.06333799542833,100 175.02188699910076,-37.06335599189293,100 175.0218840042905,-37.06337399822757,100 175.02188299999057,-37.06337700579414,100 175.02188199560652,-37.0633950052274,100 175.02188100404285,-37.06341399584827,100 175.02187800810543,-37.06343200220187,100 175.0218730086258,-37.06344299832642,100 175.02186200265282,-37.06345900072511,100 175.02184699988604,-37.06347399334381,100 175.02182900541627,-37.06348499834362,100 175.02182499169322,-37.06348699371479,100 175.0218050046106,-37.06349500078637,100 175.02178299595397,-37.06349900369509,100 175.0217600046849,-37.06350200220527,100 175.0217399938698,-37.0635050066741,100 175.02171799690078,-37.06351000077782,100 175.02169700454385,-37.063515006589874,100 175.02167500754487,-37.06351999978492,100 175.02166499956104,-37.06352199821033,100 175.0216430018401,-37.063527006733516,100 175.0216210048576,-37.06353200081959,100 175.02159900784812,-37.06353699400081,100 175.02157799272615,-37.06354300690811,100 175.02156900063798,-37.06354599293105,100 175.02154899664922,-37.063554000248125,100 175.02152900322406,-37.063562998788086,100 175.02150999237782,-37.063573000820604,100 175.02149299689728,-37.06358499456579,100 175.02148600412238,-37.06359000321528,100 175.02147199379715,-37.06360400188237,100 175.02145900087478,-37.063619002549174,100 175.0214440042913,-37.063633003606185,100 175.02143800364559,-37.06363700303172,100 175.02141899865765,-37.063645998222015,100 175.02139700780825,-37.063653004717295,100 175.02137699750037,-37.063662004421104,100 175.0213710027144,-37.0636649961141,100 175.02135600610558,-37.06367899716063,100 175.0213429951615,-37.06369399812223,100 175.02133100169166,-37.0637100037875,100 175.02132900378663,-37.063711000410834,100 175.02131499341044,-37.06372499906061,100 175.0213010020916,-37.06373899558136,100 175.02128600435532,-37.06375299753973,100 175.02127700148023,-37.06376100204322,100 175.02126199274022,-37.063773996556876,100 175.02124699606625,-37.06378799668974,100 175.02123499571096,-37.063798998564856,100 175.02121999905106,-37.06381299959543,100 175.02120700609183,-37.063828002038406,100 175.02119499456288,-37.0638440070968,100 175.02119199773313,-37.06384999490109,100 175.02118500519967,-37.06386700585439,100 175.02118100443988,-37.063884999577155,100 175.0211790073623,-37.06390399381352,100 175.0211790030958,-37.06391099411605,100 175.02117899801422,-37.06392999765896,100 175.02118099194632,-37.06394800366077,100 175.02118400808052,-37.06396600575759,100 175.02118500125312,-37.06396800138312,100 175.02118700685202,-37.06398699769084,100 175.02119000615144,-37.064005000975605,100 175.02119499702138,-37.064022997350804,100 175.02119999948502,-37.06403600675449,100 175.02120999153075,-37.06405200626831,100 175.02122300477512,-37.06406700343318,100 175.02123600006237,-37.064082001803904,100 175.02124700263593,-37.06409700620164,100 175.0212560068911,-37.06411299190578,100 175.021265006814,-37.064130000634016,100 175.02127400521042,-37.06414699406575,100 175.02127600408784,-37.06414899958507,100 175.0212879951827,-37.06416400154832,100 175.02129500624636,-37.064174000686386,100 175.02130400577917,-37.0641909940962,100 175.0213100072285,-37.06420799625275,100 175.0213140002205,-37.064225004707005,100 175.02131900799853,-37.06424300078759,100 175.02132299469835,-37.0642610007549,100 175.02132500551497,-37.06427900556376,100 175.02132699340135,-37.06429199424791,100 175.02133100904098,-37.0643109995481,100 175.02133400729036,-37.064329003746934,100 175.02133499662375,-37.06434699712764,100 175.0213350024242,-37.06434899516292,100 175.02133600273078,-37.06436799508446,100 175.02133300663675,-37.06438600142656,100 175.0213309975633,-37.06439200123668,100 175.02131899715332,-37.064403004022594,100 175.0213160008099,-37.06440600228106,100 175.02130099195475,-37.06441899680192,100 175.02129800028544,-37.0644239931144,100 175.021298994785,-37.06444099500098,100 175.02130400413068,-37.06445900727778,100 175.0213059971681,-37.06447100356664,100 175.02130099695628,-37.06448799408218,100 175.02129100703775,-37.06450499935556,100 175.02128500102958,-37.064512994232224,100 175.02127399478624,-37.064528996581934,100 175.02125999745212,-37.06454400082992,100 175.02124400117674,-37.06455699775527,100 175.02124300751916,-37.06455799258041,100 175.0212250010439,-37.06456800719084,100 175.02120399097535,-37.06457600185991,100 175.02118899377703,-37.06458100543422,100 175.02116699528747,-37.06458599766267,100 175.0211449921711,-37.06458899363431,100 175.02112700273128,-37.06459299821548,100 175.02110699844647,-37.06460100636715,100 175.02108699834923,-37.06461099455271,100 175.0210700029816,-37.06462300355903,100 175.02106700666764,-37.06462600361336,100 175.0210540014052,-37.064639997719155,100 175.02104399929516,-37.06465599555085,100 175.02103499783178,-37.06467299927718,100 175.02102800532043,-37.06468700625936,100 175.0210159994957,-37.06470200357333,100 175.02100499319306,-37.06471800680097,100 175.0209940032939,-37.06473399262376,100 175.02098500696323,-37.064750003951374,100 175.02098199839853,-37.06475500054402,100 175.02097500533742,-37.06477199617159,100 175.02097000024045,-37.06478999258354,100 175.02096399499172,-37.06480700201766,100 175.020958995194,-37.064821002971776,100 175.02095200212233,-37.064837998598136,100 175.02094299947038,-37.064855001436534,100 175.02093399679063,-37.06487200337346,100 175.02092699804697,-37.064883997000074,100 175.02091599167682,-37.06489999931947,100 175.0209050032886,-37.0649160013314,100 175.020895001137,-37.064932000052714,100 175.02089000560804,-37.06493900070211,100 175.02088200828322,-37.06495599992102,100 175.02087499832083,-37.06497299583074,100 175.02086700098937,-37.06498999504875,100 175.02086399281447,-37.064995006953545,100 175.020854008631,-37.06501100536523,100 175.02084300182165,-37.06502699236374,100 175.0208339996387,-37.065041005645654,100 175.0208260011674,-37.065058004880356,100 175.02081899118403,-37.06507500078716,100 175.02081099383022,-37.065092000001805,100 175.02080199122776,-37.06510599796675,100 175.02078900384774,-37.065119992640646,100 175.02078000652662,-37.06512999424571,100 175.0207690000918,-37.06514599655283,100 175.02076100271998,-37.06516299576447,100 175.0207549973746,-37.0651800042884,100 175.02075200134087,-37.06519200089074,100 175.0207499924537,-37.065210003913094,100 175.02074900578384,-37.06522800303375,100 175.02074900763128,-37.06524599972834,100 175.02075099520766,-37.06526499724925,100 175.02075100813204,-37.06528099562087,100 175.02075199665683,-37.06529900524232,100 175.02075199850574,-37.06531700193669,100 175.0207520046307,-37.065327997428014,100 175.02075200058312,-37.06534700095069,100 175.0207520013084,-37.06536499766407,100 175.02075300149485,-37.06538399759142,100 175.0207540080092,-37.065402006905984,100 175.0207549968681,-37.06541100193559,100 175.02075999985752,-37.065430005748134,100 175.02076299757476,-37.065447992844376,100 175.02076299845544,-37.065454001651915,100 175.02075799806704,-37.06547099214748,100 175.02074900736864,-37.06548900059394,100 175.02074699720984,-37.06549199555075,100 175.0207370081921,-37.065509001664104,100 175.02072399682686,-37.06552400256644,100 175.02071300153918,-37.065535002583694,100 175.02069700496662,-37.065547999442195,100 175.02067900356596,-37.065559996697935,100 175.0206619958376,-37.065570999130344,100 175.02065799406333,-37.065574000987425,100 175.02064299695942,-37.0655880019547,100 175.02062799870197,-37.0656020020385,100 175.0206130015871,-37.06561600300227,100 175.02061000404532,-37.0656190012637,100 175.0205930079752,-37.0656309948939,100 175.02057500766253,-37.0656429921156,100 175.02055900456807,-37.06565400715596,100 175.02054399534308,-37.065667001589645,100 175.0205289982,-37.06568100254348,100 175.02051800873753,-37.065690994814595,100 175.02050299359837,-37.065704996071865,100 175.02048799529229,-37.06571899613915,100 175.02047400351523,-37.06573299437513,100 175.0204700063565,-37.06573799338011,100 175.02045800028696,-37.0657529915442,100 175.02044500683644,-37.0657679930126,100 175.02043199651837,-37.06578299476703,100 175.02043100321703,-37.06578400399991,100 175.02041599394485,-37.065796998418534,100 175.02039899190316,-37.065809998851115,100 175.02038800293545,-37.06581700156181,100 175.02037100681002,-37.06582899606305,100 175.02035300526737,-37.065840992371385,100 175.02033700899943,-37.06585400540012,100 175.02033000345295,-37.06585799215133,100 175.0203150051091,-37.065871993099115,100 175.0203010063491,-37.06588399239875,100 175.02028599225648,-37.065897993611294,100 175.02027599519005,-37.065909996827884,100 175.0202650065047,-37.065925997885444,100 175.0202560035795,-37.06594300067718,100 175.02024800601606,-37.065959999857995,100 175.0202439929632,-37.065968003988274,100 175.0202340085289,-37.065984002353,100 175.02022599296987,-37.066001001838956,100 175.0202189996603,-37.066017998327915,100 175.0202120015444,-37.06603600072497,100 175.0202050024558,-37.06605099917751,100 175.02019500114054,-37.06606699782661,100 175.02018399332968,-37.06608300010393,100 175.02017200513794,-37.0660979979351,100 175.02016899649365,-37.06610299541011,100 175.02015799581727,-37.06612999225775,100 175.02014899284578,-37.06614699504224,100 175.02014799434951,-37.06614899576746,100 175.02014000880047,-37.06616700056297,100 175.0201340091746,-37.06618300313166,100 175.02012900858037,-37.06619999270349,100 175.02012500156772,-37.06621899322358,100 175.02012200515725,-37.066237000441426,100 175.02012099538618,-37.06624400255184,100 175.02011600576736,-37.06626199956521,100 175.02011299244316,-37.06628000526837,100 175.02011200548608,-37.06628600206469,100 175.0201120012898,-37.06630500558924,100 175.02011499889878,-37.06632299270296,100 175.02012200567023,-37.06633999220835,100 175.02013199189022,-37.06635699773249,100 175.0201360072277,-37.06636400075199,100 175.02014400139245,-37.06638099695263,100 175.02015499779847,-37.066396992956406,100 175.02017100772812,-37.06640899199356,100 175.0201870061646,-37.06641699675895,100 175.0202079947958,-37.066425000319136,100 175.02023099841304,-37.0664290021173,100 175.0202409957306,-37.066429002124146,100 175.02026399850558,-37.06642699510802,100 175.02028300588188,-37.06642399355578,100 175.02030600328405,-37.0664200038109,100 175.02032800083143,-37.06641499643048,100 175.0203369990355,-37.06641400672516,100 175.020359996025,-37.066410001655164,100 175.0203700055725,-37.06640800421017,100 175.02039199730942,-37.06640099788181,100 175.02041200847037,-37.06639199922401,100 175.0204219990006,-37.066386996335766,100 175.02043900116252,-37.06637399589732,100 175.02045399845326,-37.06635999495184,100 175.02045700811576,-37.06635800321548,100 175.0204730048946,-37.06634500638471,100 175.0204900070384,-37.0663320059394,100 175.02049399677097,-37.06632799756513,100 175.02050900037244,-37.06631300600051,100 175.02052100608458,-37.06629799161457,100 175.0205239919744,-37.06629400214778,100 175.02053500453968,-37.06627699393235,100 175.02053800150856,-37.06627100614255,100 175.0205490081446,-37.06625500385341,100 175.02056000383635,-37.06623799592324,100 175.02057099825933,-37.06622399197408,100 175.0205829938184,-37.066208002571955,100 175.02059099697365,-37.06619600536873,100 175.0205990003802,-37.06617799933865,100 175.0206049940085,-37.066163003577664,100 175.02061299265839,-37.06614600525676,100 175.0206219944242,-37.066129003360146,100 175.02062800073708,-37.0661180036496,100 175.0206399947377,-37.06610199894664,100 175.02065499821927,-37.06608700556346,100 175.02065600840777,-37.06608599694223,100 175.0206719941074,-37.06607199264496,100 175.02068899503294,-37.06605899219255,100 175.02070299474974,-37.06604999679182,100 175.0207210072483,-37.06603900697181,100 175.02074099409444,-37.06602799521845,100 175.02075899548322,-37.06601900281469,100 175.0207789955332,-37.06600899755779,100 175.02080000603837,-37.06600100295269,100 175.02080799264877,-37.06599800437906,100 175.02083100747126,-37.06599399891537,100 175.0208539921077,-37.06599199209555,100 175.02085499790383,-37.06599200469575,100 175.02087899410162,-37.065992007605594,100 175.02090200351063,-37.06599500244841,100 175.02091200066567,-37.06599800726372,100 175.02093100299015,-37.06600799942319,100 175.02094900462174,-37.06601999324999,100 175.02095699274244,-37.06602599300231,100 175.020977004928,-37.06603500627821,100 175.02098799638836,-37.066040005792765,100 175.0210039952978,-37.06605400303882,100 175.021015997221,-37.06606999624365,100 175.02102099410925,-37.066078002749386,100 175.02102999270264,-37.06609499618912,100 175.02103600635544,-37.066113004873344,100 175.02104200276608,-37.066130999430605,100 175.02104500636108,-37.06614200060926,100 175.02105499387977,-37.06615900603162,100 175.02106399246716,-37.066175998567175,100 175.0210700057287,-37.0661939919342,100 175.02107000806922,-37.066212003938546,100 175.02106799291923,-37.06623099757441,100 175.0210629987588,-37.066250001429935,100 175.02105899737046,-37.06626200165513,100 175.02105399221196,-37.06627999806872,100 175.0210469931744,-37.06629800142916,100 175.02104099950367,-37.066316001172055,100 175.0210400069217,-37.066316995075965,100 175.02103399526126,-37.066334995125125,100 175.0210270036378,-37.066352006952016,100 175.0210179945164,-37.06637000040937,100 175.02101500388162,-37.06637499669685,100 175.02100400829903,-37.06639200556727,100 175.02099300171824,-37.066408006995175,100 175.02098000309454,-37.06642400001504,100 175.02097600116656,-37.06643000584562,100 175.02096500511342,-37.06644699759624,100 175.02095399856464,-37.06646300082261,100 175.02094299198743,-37.06647900314717,100 175.02093099758977,-37.06649499256491,100 175.0209179981971,-37.066511000011694,100 175.02090599212707,-37.066525999121204,100 175.02090100349585,-37.06653199202419,100 175.02088999577379,-37.06654799436346,100 175.02087900126375,-37.06656500320425,100 175.02086900480074,-37.066579995097705,100 175.0208590035633,-37.06659599379938,100 175.0208489953027,-37.06661299934764,100 175.0208390061488,-37.06663000456941,100 175.02083400420892,-37.066637996731416,100 175.02082399706174,-37.066655002258614,100 175.02081400636646,-37.06667199218287,100 175.02080900592807,-37.06667999873868,100 175.02080000304497,-37.06669700156875,100 175.02079200553337,-37.06671400078297,100 175.02078400212267,-37.06673200682489,100 175.02077699788882,-37.06674799590144,100 175.0207670075781,-37.06676500113695,100 175.0207580046763,-37.06678200396418,100 175.020747997088,-37.066798994170846,100 175.02073899415433,-37.06681599609591,100 175.02073300091374,-37.06683100717767,100 175.02072700713194,-37.06684900690665,100 175.02072099646085,-37.066867006021866,100 175.0207160080753,-37.06688500303653,100 175.02071200016698,-37.066900998727114,100 175.0207079991686,-37.06691899243338,100 175.02070299317273,-37.066937004168004,100 175.0206989921707,-37.06695499787399,100 175.02069299837243,-37.06697299760143,100 175.0206919939841,-37.06697600515903,100 175.02068499552135,-37.066993993166626,100 175.02067699683138,-37.06701099239316,100 175.02067099145103,-37.06702499604966,100 175.02066499876548,-37.06704299575668,100 175.02065900492917,-37.06706099458173,100 175.02065499803825,-37.0670799960154,100 175.0206520016816,-37.0670980014397,100 175.02065099724416,-37.06710999203674,100 175.0206519974487,-37.06712899195978,100 175.02065300398152,-37.06714700127023,100 175.02065399806412,-37.06715500570454,100 175.02065499939474,-37.06717400560821,100 175.0206560043748,-37.067191998721974,100 175.02065700575466,-37.06721100042722,100 175.0206570001714,-37.06722100380799,100 175.02065800152832,-37.06724000461225,100 175.0206590065107,-37.067257997725754,100 175.02065900246225,-37.067277001243305,100 175.02066000267294,-37.06729600116563,100 175.020660991335,-37.067311005918945,100 175.0206610048683,-37.06732999381499,100 175.02066200508077,-37.0673489937371,100 175.02066299363423,-37.06736700335322,100 175.02066399927148,-37.067379002955946,100 175.02066500061014,-37.06739800285869,100 175.0206660067222,-37.067415995952416,100 175.0206670059477,-37.06743199193122,100 175.02066499813012,-37.067449994928964,100 175.0206630012539,-37.0674690035665,100 175.0206600045056,-37.06748699457636,100 175.02065599757356,-37.06750599510858,100 175.0206559928008,-37.06750700191752,100 175.0206520027298,-37.067526002162225,100 175.0206480016912,-37.0675439958661,100 175.02064200784082,-37.06756199559104,100 175.02063999274307,-37.06756900221866,100 175.02063299460244,-37.06758700463744,100 175.0206250075279,-37.06760499506783,100 175.02061799772142,-37.067622007179935,100 175.0206169988137,-37.06762399259404,100 175.0206110049505,-37.06764199231759,100 175.02060599258795,-37.067660995561454,100 175.02060000502362,-37.06767800377121,100 175.02059399341417,-37.06768999497556,100 175.0205829986597,-37.06770700289187,100 175.02057200869817,-37.0677230048992,100 175.02056899997353,-37.06772800058247,100 175.0205630061157,-37.06774600120475,100 175.0205599928554,-37.06776400691362,100 175.02055900097926,-37.06778299842274,100 175.02055700366517,-37.06780199174374,100 175.02055499433868,-37.06781099640491,100 175.02054699666616,-37.06782799560476,100 175.0205380056886,-37.06784600493919,100 175.02052799677338,-37.06786299424837,100 175.0205189948231,-37.06787999704081,100 175.02051099601167,-37.06789699625766,100 175.02050900478017,-37.06790299574872,100 175.0205060020843,-37.06792199358313,100 175.0205049984885,-37.06793999298416,100 175.02050499438556,-37.06795899559994,100 175.02050700001476,-37.06797799371083,100 175.0205079998566,-37.067987995279395,100 175.0205109980499,-37.068005997688296,100 175.020514007951,-37.06802499220464,100 175.02051799513183,-37.06804300840369,100 175.02051900617013,-37.068048006787016,100 175.02052300345758,-37.068066997095094,100 175.02052600280655,-37.06808500038492,100 175.02052899582847,-37.06810399428692,100 175.0205289960897,-37.06811599840413,100 175.020527005068,-37.06813400021089,100 175.02052399178805,-37.068152005918435,100 175.02051899698066,-37.068170994438304,100 175.02051600023432,-37.06818000240568,100 175.02051199911227,-37.068197995204216,100 175.02050699299963,-37.068216006930825,100 175.0204999943923,-37.0682339949287,100 175.02049600388023,-37.06824399591394,100 175.02048399746758,-37.06825899498727,100 175.02047099769464,-37.068275002392376,100 175.02045800383937,-37.06829000386903,100 175.0204519974616,-37.06829799871026,100 175.02044399971962,-37.06831499790406,100 175.02043700149562,-37.06833300121344,100 175.0204319949513,-37.0683509976225,100 175.0204299966796,-37.06835800395954,100 175.02042299844877,-37.068376007268185,100 175.0204170044644,-37.06839400608205,100 175.02041199793584,-37.06841200339122,100 175.02041199275396,-37.0684129948853,100 175.02040700346876,-37.068431006320864,100 175.02040300233426,-37.06844900001704,100 175.0203989952982,-37.068468000541124,100 175.02039700426423,-37.06848600324674,100 175.02039699318235,-37.06848800156883,100 175.0203949958174,-37.06850699488673,100 175.02039399221792,-37.06852499518705,100 175.02039199528198,-37.068544004720515,100 175.02039100273979,-37.068560005797785,100 175.0203870015722,-37.06857799859252,100 175.02038299932653,-37.068595993208,100 175.0203820064693,-37.06860299683265,100 175.0203789931654,-37.06862100343765,100 175.020376995794,-37.06863999675508,100 175.0203750047283,-37.06865799855926,100 175.0203739952237,-37.06867700568718,100 175.0203729916189,-37.06869500598704,100 175.02037199967077,-37.068713996592685,100 175.02037200000706,-37.06872299494592,100 175.02037199588003,-37.06874199756033,100 175.0203709922746,-37.06875999786004,100 175.02036999960808,-37.06877900379947,100 175.02036899600208,-37.068797004099075,100 175.0203689954526,-37.068799992746065,100 175.02036599422726,-37.06881900587197,100 175.02036199306687,-37.06883699956657,100 175.02035799078058,-37.06885499328018,100 175.02035799806794,-37.06885700570962,100 175.02035399577986,-37.06887499942311,100 175.0203499946143,-37.06889299311731,100 175.02034500643623,-37.068911005432,100 175.02034499998572,-37.06891500090692,100 175.02033999453568,-37.068932998193944,100 175.02033500479857,-37.06895099431173,100 175.02032999860245,-37.06896900603145,100 175.02032899477436,-37.06897500311491,100 175.0203269974092,-37.06899399733196,100 175.02032599376867,-37.06901199673012,100 175.0203239968086,-37.06903100626185,100 175.020322998088,-37.06904499488939,100 175.02032000159676,-37.06906300030435,100 175.0203160004153,-37.0690809939974,100 175.02031299804463,-37.06910000714102,100 175.0203119932106,-37.06910299938087,100 175.02030899783932,-37.06912100477638,100 175.0203059950594,-37.06914000260499,100 175.02030399821354,-37.06915600727371,100 175.0203020067402,-37.06917399466219,100 175.0203009971926,-37.0691930008878,100 175.0202990061244,-37.069211003590965,100 175.02029800692299,-37.06921899782698,100 175.0202929944201,-37.069238001959185,100 175.0202889932249,-37.069255995651275,100 175.02028700745748,-37.0692700019977,100 175.02028800762486,-37.06928900191916,100 175.0202910069801,-37.06930700521166,100 175.02029200596147,-37.06931099797528,100 175.02029399355374,-37.06932999459099,100 175.0202970049993,-37.06934900440456,100 175.02030000863613,-37.069360005595904,100 175.02030900864142,-37.06937699995647,100 175.02032000551972,-37.06939299502247,100 175.02032199825808,-37.06939599386769,100 175.020332996816,-37.06940900026637,100 175.0203360059296,-37.06941300203947,100 175.02034800825433,-37.0694289943909,100 175.02035999415122,-37.06944500324393,100 175.02037099217475,-37.069460998285244,100 175.02038200709018,-37.069476993938885,100 175.0203829943734,-37.06947999459399,100 175.02039200535242,-37.06949799458659,100 175.02039899564704,-37.06951499434381,100 175.02040500370111,-37.06953100591311,100 175.02041200453593,-37.06954899599413,100 175.02041800626642,-37.0695659981747,100 175.0204250075143,-37.06958400356947,100 175.02043199151979,-37.069601994837086,100 175.02043399635713,-37.06960600020133,100 175.02044400109574,-37.06962300536895,100 175.02045400543255,-37.06963999522076,100 175.02046399219282,-37.069657000692864,100 175.02047299222454,-37.06967399323628,100 175.02047700136418,-37.069684992609474,100 175.02048299722313,-37.06970300161344,100 175.02048800637527,-37.06972099859034,100 175.0204910046513,-37.0697390009929,100 175.02049199333433,-37.069754005741856,100 175.02049199517103,-37.06977200242535,100 175.02048999783503,-37.069790996642176,100 175.02048700136234,-37.06980900205894,100 175.020483998584,-37.06982799898859,100 175.02048400538075,-37.06983300186571,100 175.02048199635868,-37.06985100487586,100 175.0204810044123,-37.069869994577694,100 175.0204789953889,-37.069887997587735,100 175.020478003896,-37.06990700440602,100 175.0204780043642,-37.06991299789519,100 175.02047600702264,-37.06993199211155,100 175.02047499754124,-37.069950999236234,100 175.0204739939337,-37.06996899863224,100 175.02047300129126,-37.06998800456859,100 175.02047199680865,-37.069999995160615,100 175.0204709932003,-37.070017994556494,100 175.02047000170518,-37.07003700137443,100 175.0204679926766,-37.07005500438401,100 175.020467999473,-37.07006000726097,100 175.02046600687672,-37.07007799376746,100 175.02046399307272,-37.07009700358552,100 175.02046200202952,-37.0701150062884,100 175.02046000470492,-37.07013400140503,100 175.02045700819147,-37.07015200591981,100 175.02045499351036,-37.07016500693382,100 175.0204519966123,-37.07018299703453,100 175.0204480075052,-37.07020199725089,100 175.02044499304705,-37.07022000387359,100 175.0204420025635,-37.07023399759918,100 175.02044000520823,-37.070252991814506,100 175.02043699187098,-37.070270998417804,100 175.02043499449002,-37.070289991732125,100 175.0204339961906,-37.07030399567248,100 175.02043200513714,-37.070321998374645,100 175.02043000777812,-37.07034099258967,100 175.02042699441205,-37.07035899829177,100 175.02042500766458,-37.070370000696336,100 175.02041900260457,-37.07038699386982,100 175.02041200308267,-37.07040499719686,100 175.02040599209474,-37.0704229962966,100 175.02039999799157,-37.07044099600959,100 175.02039800692796,-37.07045899871113,100 175.02039699742622,-37.07047800583435,100 175.02039599379904,-37.07049600522896,100 175.02039600091717,-37.07051000555546,100 175.0203959953101,-37.07052899376954,100 175.02039699555974,-37.070547994585866,100 175.02039699778916,-37.07056600658256,100 175.02039699215905,-37.070584993895594,100 175.02039700607153,-37.07060399709858,100 175.02039700087224,-37.070623000627165,100 175.02039700269606,-37.070640997308864,100 175.02039800292485,-37.0706599972239,100 175.02039799762937,-37.07066399357936,100 175.020400002593,-37.07068300611568,100 175.02040199618642,-37.07070099679675,100 175.02040400149528,-37.07071099474772,100 175.02040699982533,-37.07072899804989,100 175.02041200311615,-37.07074800095237,100 175.02041699434415,-37.070765998234236,100 175.02042099243798,-37.07077899502643,100 175.02042600094046,-37.07079700733514,100 175.02043099215157,-37.070815003715225,100 175.02043600137696,-37.070833000689326,100 175.02043799460472,-37.07084199211814,100 175.0204419924817,-37.070860998632426,100 175.0204459962588,-37.07087899831882,100 175.0204510043684,-37.07089699531104,100 175.02045500866822,-37.07091200545015,100 175.0204630034283,-37.07092900160058,100 175.02047200252315,-37.070945995056185,100 175.0204809968251,-37.070963994418506,100 175.02048200847375,-37.0709660050538,100 175.02048800401857,-37.070983997835135,100 175.02049299528244,-37.07100199511213,100 175.0204980049432,-37.07102000739706,100 175.02050100881988,-37.07102800461699,100 175.0205109953806,-37.071044994760804,100 175.02052200579712,-37.07106199719811,100 175.02053000058925,-37.07107899334271,100 175.02053200534175,-37.07108600266355,100 175.02053499854202,-37.07110499745367,100 175.02053399382197,-37.07112299686608,100 175.02053300194848,-37.07113300443108,100 175.0205310046029,-37.071151998645256,100 175.02052700338484,-37.071169992341275,100 175.02052400061729,-37.07118000623476,100 175.02051999939644,-37.071197999930554,100 175.0205149927389,-37.07121599724088,100 175.02051099731813,-37.07122700503491,100 175.0205060011933,-37.071245992669404,100 175.02049699308571,-37.07126099742941,100 175.02047999618495,-37.07127300638574,100 175.0204669951817,-37.07128000103504,100 175.02044799286725,-37.07129099417233,100 175.0204279984377,-37.07129999256115,100 175.02042500006957,-37.071300001294695,100 175.0204029949888,-37.07130299718442,100 175.02037900229274,-37.07130200273475,100 175.0203750003304,-37.071301999727446,100 175.0203670063611,-37.07129999541037,100 175.02034400125373,-37.071295993686014,100 175.02032200578225,-37.071287992908914,100 175.02030100519343,-37.071278997289255,100 175.02029999975755,-37.071279000902116,100 175.0202809968329,-37.071268991551065,100 175.02026200547374,-37.07125700189288,100 175.02025100232507,-37.071250995795964,100 175.02023099440854,-37.07124100626455,100 175.02020999343654,-37.071231995313184,100 175.02019499872716,-37.07122400411114,100 175.02017500840637,-37.071213998948494,100 175.02015699341501,-37.071204003387734,100 175.0201359924616,-37.07119499242264,100 175.02011600143805,-37.07118500258348,100 175.0200970048929,-37.07117400258931,100 175.0200909969717,-37.071169995123995,100 175.02007600887237,-37.07115500357026,100 175.02006099645791,-37.071141002932954,100 175.02005600028463,-37.07113600034199,100 175.02003800809388,-37.07112499764695,100 175.02001699547378,-37.07111499455223,100 175.01999600597492,-37.07110700721797,100 175.0199729999489,-37.071100000576266,100 175.01995100093885,-37.071093007417545,100 175.01992800064528,-37.07108799699941,100 175.0199050019568,-37.07108300457499,100 175.01988699800896,-37.07107999368615,100 175.01986400502412,-37.071076996585354,100 175.01984099410083,-37.07107400158822,100 175.01983200643434,-37.07107299295018,100 175.01980899647643,-37.07107300188897,100 175.01978499276,-37.07107400563831,100 175.0197619933519,-37.071075005793745,100 175.01973800721538,-37.07107599391239,100 175.019734004546,-37.071076006217034,100 175.01971000042062,-37.07107699463645,100 175.01968600301484,-37.07107700685273,100 175.01966299743205,-37.07107599363972,100 175.01963900481036,-37.071074999037755,100 175.01963299785265,-37.07107399458974,100 175.01960899949174,-37.07107100284797,100 175.01958600039634,-37.07106599414517,100 175.0195630074727,-37.07106299878725,100 175.01955899272534,-37.071062004564446,100 175.01953499491657,-37.07106200143523,100 175.01951100806107,-37.07106300484184,100 175.01948699226364,-37.0710630020093,100 175.01946400508007,-37.07106200376586,100 175.0194549945963,-37.071062000412454,100 175.0194319955124,-37.07105699167938,100 175.01941000748826,-37.071051004058205,100 175.01938699674045,-37.0710450041094,100 175.0193769978431,-37.07104199920505,100 175.01935299428183,-37.07103999800399,100 175.01932900167265,-37.07103900333882,100 175.0193060083588,-37.07103599261566,100 175.01930199361584,-37.07103499838402,100 175.01928099896557,-37.071028000612436,100 175.01925999858827,-37.071019005702986,100 175.01923999636406,-37.071007993855346,100 175.01922699467343,-37.070999995625,100 175.0192079971972,-37.070988996402804,100 175.01918900604713,-37.07097700566414,100 175.0191750059737,-37.07096800418384,100 175.01915500377487,-37.07095699232099,100 175.01913600038046,-37.07094699901375,100 175.0191179972254,-37.07093799359473,100 175.01909800756857,-37.07092800536005,100 175.01907700568523,-37.07091899422004,100 175.01906200018004,-37.070909995427044,100 175.01904400243208,-37.070896994539716,100 175.01902900807414,-37.07088599832084,100 175.01901099349772,-37.07087299861614,100 175.01899499386406,-37.07085900023022,100 175.01898200353466,-37.070845999686505,100 175.01897000084705,-37.070829991883635,100 175.0189599966669,-37.07081300190454,100 175.01894999208517,-37.07079599660961,100 175.01894099813774,-37.07077799621832,100 175.0189300061234,-37.070760994216165,100 175.01891800386684,-37.070745001721896,100 175.01890899306983,-37.07072700161477,100 175.0189049955823,-37.07071999825577,100 175.01889900520203,-37.07070099767186,100 175.01889399751926,-37.07068300240389,100 175.01889200347975,-37.070671004297175,100 175.01888800599966,-37.07065199771815,100 175.01888599549505,-37.07063399197306,100 175.01888499564384,-37.07061499203386,100 175.01888499512762,-37.07060000018578,100 175.01888900263148,-37.07058099970464,100 175.01889399167803,-37.070563003658094,100 175.0188939918522,-37.070559998794536,100 175.01889399630332,-37.07054099527373,100 175.01889500661116,-37.07052200436791,100 175.018896004417,-37.07051399394392,100 175.01890199888436,-37.070495994296394,100 175.0189069947921,-37.070479996265526,100 175.01890899253448,-37.0704610020651,100 175.01890799155757,-37.07044200214483,100 175.01890799747605,-37.070440995316595,100 175.01890699757635,-37.07042199357536,100 175.01890400488696,-37.070403001431714,100 175.0188980032182,-37.070389003131346,100 175.01888600694934,-37.07037200380268,100 175.01887000744748,-37.070358005394944,100 175.0188649939586,-37.070355992585284,100 175.01884399343922,-37.070353006420724,100 175.0188189961413,-37.07035500387458,100 175.01879800782507,-37.070355998438814,100 175.0187749971295,-37.070353002325724,100 175.01876199595907,-37.0703509984324,100 175.01873900307316,-37.07035100686981,100 175.01871900106863,-37.07035199814621,100 175.0186959975933,-37.070356994427904,100 175.01867800665815,-37.070360998678375,100 175.0186550017026,-37.07036000057751,100 175.0186320028784,-37.070354991680716,100 175.01860900354862,-37.07034699415019,100 175.01859200514085,-37.070341006145014,100 175.01857000489036,-37.07033399562134,100 175.01854799413348,-37.070325994767856,100 175.01853199485316,-37.0703209955706,100 175.0185099950196,-37.07031400035024,100 175.01849400740178,-37.07030999235504,100 175.01847200277447,-37.070304003936684,100 175.01844799855405,-37.07029899860024,100 175.01842499954319,-37.070296993625625,100 175.0184230066596,-37.07029699961165,100 175.01839899224174,-37.07029699743315,100 175.01837599281822,-37.0703010012767,100 175.01835300619604,-37.07030599720501,100 175.0183429972279,-37.07030799537709,100 175.01831999301936,-37.07031300692014,100 175.018297000009,-37.07031899254971,100 175.01828899488245,-37.07032199217567,100 175.018269998779,-37.07033199255315,100 175.01825200796665,-37.07034499689965,100 175.01823900780167,-37.07035499525139,100 175.0179170026835,-37.07005899660145,100 175.01725500589063,-37.07044199622857,100 175.0146940071146,-37.07058400492446,100 175.01154299865485,-37.070758005841455,100 175.01140399531198,-37.07020000455649,100 175.01171000295923,-37.06934399560409,100 175.01263499820683,-37.066744002432955,100 175.0123420081434,-37.06569899906883,100 175.0123710047458,-37.06501200497905,100 175.01175500710227,-37.06445199719846,100 175.0117119984668,-37.06457500621834,100 175.01100300238915,-37.064977999881414,100 175.010281991029,-37.06580199255153,100 175.00912300639345,-37.06641999601269,100 175.00831000038693,-37.066923999549054,100 175.008294994722,-37.06693299702348,100 175.0072910019038,-37.06738800636564,100 175.00704200158054,-37.067629999844065,100 175.00673299648696,-37.06793399799139,100 175.00660700113693,-37.067772001786096,100 175.00543499482475,-37.06625800582758,100 175.00468900675776,-37.06514499290682,100 175.0035189982355,-37.06359400360584,100 175.00149500511534,-37.06091099435712,100 174.99855999649193,-37.05727399359263,100 175.00253900055253,-37.05597400505541,100 175.0044960040224,-37.05533300739721,100 175.00239000863306,-37.0508769966337,100 175.0017040018997,-37.051109999595084,100 175.0001610042057,-37.05158399338751,100 174.99920499880392,-37.05184199559444,100 174.99918699682343,-37.05180500306314,100 174.9990260051588,-37.05148299171947,100 174.99822500079748,-37.04988199911593,100 174.99704099864312,-37.0475139960794,100 174.99678700225297,-37.04700599905811,100 174.9967129951549,-37.0468579986892,100 174.9935490032433,-37.04783299282031,100 174.99332499570275,-37.04790199941822,100 174.99251699849793,-37.04815100379415,100 174.99146299596467,-37.04847599159954,100 174.990215006437,-37.0489239984132,100 174.98696699188224,-37.05008499306414,100 174.98673599191042,-37.050168005922394,100 174.9864710067816,-37.050262002860876,100 174.98580599198172,-37.05049999564945,100 174.98255899639523,-37.0494140034292,100 174.98269000222174,-37.04424799726984,100 174.98135599570008,-37.04466899969089,100 174.97927600681098,-37.04532299408592,100 174.9778299936139,-37.04379199356195,100 174.977202006706,-37.044832999575064,100 174.97666199223772,-37.04551600385457,100 174.97642400872988,-37.04553399859,100 174.97629000119838,-37.04536499516947,100 174.97602500432706,-37.0454670057387,100 174.97557700373977,-37.04530599690201,100 174.97523200095466,-37.04552600740509,100 174.9752249937187,-37.045544006561556,100 174.9752160020998,-37.04556899580792,100 174.9751579948229,-37.045716997086465,100 174.9750910082577,-37.04589099500735,100 174.97499799228373,-37.04613000182816,100 174.9749879965525,-37.04615499516021,100 174.9749440087802,-37.04626899341495,100 174.97504199783413,-37.046468995017214,100 174.97417799864314,-37.04674200037582,100 174.97338900025716,-37.045136992169816,100 174.9691510036624,-37.04647300741627,100 174.96860099538728,-37.04541699423999,100 174.9680560030802,-37.04436999433127,100 174.96750900307646,-37.043317005157604,100 174.96742499815298,-37.04334400613811,100 174.96579900159898,-37.04386799301479,100 174.96323100731593,-37.04469500670535,100 174.96318400374815,-37.04459500434052,100 174.96128099450718,-37.04505700599671,100 174.96110699234944,-37.045098995719655,100 174.9594839921618,-37.041803006083555,100 174.95710399945702,-37.042389004217355,100 174.95569799584965,-37.04273599281676,100 174.95286200122644,-37.0434349957627,100 174.9525910049341,-37.04289199866528,100 174.95226000605575,-37.04226400440479,100 174.95163500262038,-37.041000004387705,100 174.95161299270868,-37.04075599564533,100 174.9517379962786,-37.0405299982575,100 174.9513200027493,-37.04037500203112,100 174.94965000223158,-37.03705699881784,100 174.95177100407963,-37.03639899639527,100 174.95139200812,-37.03562800161687,100 174.95136700205651,-37.03557799469623,100 174.95096499133177,-37.034760998251414,100 174.95093799715679,-37.03470800639879,100 174.95056399162073,-37.0339470029409,100 174.94841900280903,-37.034613994568396,100 174.94816000430592,-37.03410199693359,100 174.94862500289284,-37.033950996233436,100 174.94844399491035,-37.033576005143175,100 174.9480329942226,-37.03370399515285,100 174.94799200256233,-37.03352199779656,100 174.94971299470842,-37.032985998643596,100 174.94936099762228,-37.03201500542029,100 174.9488249942734,-37.03053599159391,100 174.95021000022783,-37.03015500036207,100 174.94924599450445,-37.027916001157955,100 174.94974900562502,-37.02776400132378,100 174.9524520051157,-37.02694600456052,100 174.95386200005242,-37.026517993938675,100 174.95595400403917,-37.02588499456424,100 174.957653003751,-37.02536999273939,100 174.95800200264094,-37.025265992590334,100 174.95955700577142,-37.024794003219455,100 174.95965799307595,-37.0247649969359,100 174.96045900657057,-37.0245229998573,100 174.9612100075005,-37.02429399804887,100 174.96164999600154,-37.02416300425318,100 174.9627245836549,-37.023834669068016,100 174.96179160254192,-37.02190856041291,100 174.9685298416278,-37.01980697766005,100 174.96872142081546,-37.01974763531017,100 174.966226366665,-37.01657226920369,100 174.96531767387637,-37.01703232644306,100 174.96290634964853,-37.01825326882047,100 174.96261284128562,-37.01840187402765,100 174.96190090256857,-37.01622080622775,100 174.95954460190197,-37.0169426868139,100 174.96054261140563,-37.01903708185765,100 174.9604139442947,-37.01907648661113,100 174.95975517744066,-37.01769368699671,100 174.95941607391015,-37.01698201064887,100 174.95842508737007,-37.014901929351204,100 174.95839279477065,-37.01483412087378,100 174.95800313293225,-37.01401114887678,100 174.95693961160487,-37.01176465541745,100 174.9560449561621,-37.00994870259107,100 174.9553285334635,-37.00849461231723,100 174.95527297052385,-37.00838148886481,100 174.95525370848827,-37.0083428703264,100 174.95436123193053,-37.00654246387291,100 174.95590018736988,-37.00460946087767,100 174.95603103098964,-37.00445719656415,100 174.95709559492178,-37.003161003048575,100 174.95743203415464,-37.00289453500921,100 174.95772729789942,-37.00270053188369,100 174.95958056964324,-37.002046134166505,100 174.95958106734966,-37.00204595470033,100 174.95995900291192,-37.00191300356091,100 174.960290003176,-37.00179099870997,100 174.96063400149643,-37.00249600105728,100 174.96274600701838,-37.006857993408296,100 174.96280299880607,-37.006933003598974,100 174.96287199697477,-37.00692899688513,100 174.96290499330783,-37.006913004591475,100 174.96293299973152,-37.00689499663076,100 174.96295299688572,-37.006867995564996,100 174.96298200698357,-37.0068340027454,100 174.96299099689628,-37.00679299920919,100 174.96299700176834,-37.006771997927174,100 174.9629839985871,-37.00673199728731,100 174.96297600696474,-37.0066720050257,100 174.9629570051079,-37.00662799282361,100 174.96294299836526,-37.00656400459316,100 174.9629340056073,-37.00651699311677,100 174.962920994141,-37.006472997163996,100 174.96290700302777,-37.00643600335431,100 174.96288200879545,-37.00637100628378,100 174.96288200280344,-37.006329004233784,100 174.96289199305963,-37.00629399218468,100 174.96292299338967,-37.006268000595774,100 174.96298199721514,-37.006253999778984,100 174.9630229971939,-37.006287995146955,100 174.96302400421087,-37.0063520019739,100 174.96302200374834,-37.00640700234827,100 174.9630429967401,-37.00645900041842,100 174.96306600522652,-37.006506997635924,100 174.96309799686313,-37.00653400106408,100 174.96314900639817,-37.00657300329734,100 174.96319499974726,-37.006605994855,100 174.96322499574998,-37.00661500717337,100 174.96330099716272,-37.00661200373821,100 174.9634009935152,-37.00658499375529,100 174.96346799445757,-37.00655500387335,100 174.96350100103183,-37.006531995567734,100 174.96356800685243,-37.00649599661651,100 174.96361099770616,-37.00647099521486,100 174.96362999945634,-37.006447993333865,100 174.963643992605,-37.00641499877001,100 174.96364799588346,-37.0063850050172,100 174.96361600231526,-37.00632600490096,100 174.96359500474313,-37.006280000622624,100 174.96360600103088,-37.00624199669287,100 174.96364199514144,-37.0061959964431,100 174.9636920025125,-37.00616499883816,100 174.9637329991733,-37.00615400317436,100 174.9637699947316,-37.00614600743614,100 174.96381999223368,-37.00617000425092,100 174.96385000803747,-37.00622699741857,100 174.9638500040169,-37.00628400528616,100 174.96387999901077,-37.00633599479989,100 174.96390900072555,-37.006381002192335,100 174.9639289968965,-37.006396994548126,100 174.96398500251036,-37.00642099188096,100 174.96403800454846,-37.00643299400403,100 174.9640569932279,-37.00642800374794,100 174.96411500278057,-37.00639899784863,100 174.96414699691016,-37.00635299336636,100 174.9641820036179,-37.006283006019906,100 174.96419699361942,-37.0062429936323,100 174.96421100775623,-37.0061799999601,100 174.9642280008454,-37.006137998596856,100 174.96425499647037,-37.00607799230423,100 174.96428200424066,-37.00604299673573,100 174.96433600579374,-37.006061006435566,100 174.9643610037383,-37.00611200241317,100 174.9643689953463,-37.00613999680582,100 174.96438400184192,-37.006170003010865,100 174.96441699600894,-37.00620799969854,100 174.96444400824345,-37.00623399283512,100 174.96446700134135,-37.00624700356657,100 174.96447099753087,-37.00627699287603,100 174.96444899245697,-37.00629599059206,100 174.96439999358907,-37.006297003764224,100 174.964316007764,-37.00632200640461,100 174.964284007979,-37.00636599663106,100 174.96425700342976,-37.00641400143525,100 174.96424599364894,-37.006516000276406,100 174.96426200200585,-37.006592001005565,100 174.96430799350532,-37.006678995933555,100 174.96435199235424,-37.00671800104772,100 174.96440799282516,-37.00675099588506,100 174.96444599175803,-37.006770007741096,100 174.96451999469798,-37.00677100411167,100 174.9645710001646,-37.00675699343722,100 174.96461300652422,-37.00672099776126,100 174.9646560056195,-37.006649006849464,100 174.96467799475784,-37.006576002880315,100 174.96469000852088,-37.006516995362254,100 174.96471599500447,-37.00645499218936,100 174.9647540000696,-37.00642199643896,100 174.96477600140787,-37.00641699763828,100 174.9647930011785,-37.0064520009043,100 174.9647829992818,-37.0064970032451,100 174.96482099702297,-37.00657799433256,100 174.96487200371962,-37.00662300569218,100 174.96493000163036,-37.00666299459606,100 174.96497199268407,-37.00670200568945,100 174.96498599921128,-37.00675299969594,100 174.96500100666435,-37.00683400465392,100 174.9650379984119,-37.00687499574537,100 174.965070008856,-37.00690199831742,100 174.96515099622573,-37.00691799872877,100 174.9652140035536,-37.006914006962496,100 174.96530899323727,-37.00690899959052,100 174.96534299453933,-37.006916995056535,100 174.9653779995545,-37.006928006741994,100 174.96539299345724,-37.00695200408672,100 174.96541499652903,-37.00701400376755,100 174.96541499220808,-37.007081992991,100 174.96540400226732,-37.00714600021663,100 174.96539499822467,-37.00721900100789,100 174.96540699461463,-37.00727300523052,100 174.96543299205868,-37.007309006689724,100 174.96546500203738,-37.007351991811774,100 174.96549599560876,-37.00738099485712,100 174.96554399582635,-37.00740100243494,100 174.96560699347518,-37.00740399384491,100 174.9657129913134,-37.00739400257059,100 174.9657669933801,-37.00737699359783,100 174.9658500002564,-37.00735100210299,100 174.9658979922218,-37.0073209995507,100 174.9659529990245,-37.007276993597976,100 174.96600500431873,-37.00723400174222,100 174.9660239909226,-37.00719699812913,100 174.9660479987953,-37.00715999692869,100 174.96609899278465,-37.007109992595886,100 174.96612699623245,-37.00706799328437,100 174.96616799273255,-37.00704900500321,100 174.96621000163225,-37.00705299735812,100 174.96624800713573,-37.007062994673824,100 174.96627599273978,-37.007075000282214,100 174.96628500094502,-37.0071199986278,100 174.96626300189914,-37.00719199629006,100 174.9662299930782,-37.0072640069652,100 174.96625400626598,-37.00729900643772,100 174.96628399297322,-37.00733899290982,100 174.96633300787227,-37.00737900740582,100 174.96638500791508,-37.00740699330245,100 174.96642700496372,-37.00740999435025,100 174.9664829933096,-37.0074019939166,100 174.96654100160606,-37.007392005068226,100 174.96657199639617,-37.00739099290379,100 174.96661600311478,-37.00739400473683,100 174.96666800515135,-37.00739999889429,100 174.96673199521481,-37.007421000943154,100 174.96678799719393,-37.007453994607815,100 174.9668229985852,-37.007486998400815,100 174.9668540050692,-37.0075330055875,100 174.96688000327595,-37.007569006705445,100 174.96690099412828,-37.00762699768778,100 174.96694100253424,-37.007699991778566,100 174.966985002403,-37.00774999165688,100 174.9670359963952,-37.00778100155806,100 174.96708599488446,-37.0077889989747,100 174.9671199974921,-37.007789001224225,100 174.96722599364185,-37.00777400643843,100 174.96730399313577,-37.00775400583938,100 174.96734300540413,-37.00774200714404,100 174.96738099888879,-37.00773499867083,100 174.96743000095591,-37.00772300463709,100 174.96747499810195,-37.00770100143048,100 174.96753599927783,-37.00766699795378,100 174.96759999288776,-37.007654994979596,100 174.96765799610813,-37.00765400418875,100 174.96769399354142,-37.007682993058,100 174.96771800480604,-37.00771300539322,100 174.967779994323,-37.00775999911938,100 174.96783700008055,-37.007784998275696,100 174.96791100478566,-37.00779399958258,100 174.96796600248922,-37.007819004944245,100 174.96800900269645,-37.00785200278011,100 174.96806099789887,-37.00788900275043,100 174.96814600631978,-37.00790999335294,100 174.9682240078599,-37.00791399718001,100 174.96833200356497,-37.00791400271884,100 174.96839900772466,-37.007904995739956,100 174.96846099752028,-37.00789799978691,100 174.96853100485308,-37.00790399181148,100 174.9686109963263,-37.00791900231579,100 174.96866800306037,-37.00790599528896,100 174.96872599887791,-37.00789800284497,100 174.96885800849427,-37.007895001078005,100 174.9689390036944,-37.007902001128194,100 174.96902900681297,-37.00792700458497,100 174.96907800299337,-37.00796199892432,100 174.9690779961325,-37.007993003546375,100 174.96905999774725,-37.00801899544222,100 174.9690260018212,-37.00804800088076,100 174.96900899510996,-37.00809500439748,100 174.96900099438156,-37.008147001230746,100 174.96902600370854,-37.008204996320444,100 174.96906400536565,-37.00825100037225,100 174.9691029935136,-37.00826999158511,100 174.96916800641156,-37.00827200128536,100 174.9692109955895,-37.00826900568894,100 174.96922399940215,-37.00826599764463,100 174.96925300542787,-37.00824299827619,100 174.9692939986413,-37.008210999698996,100 174.96931999957727,-37.00818700198993,100 174.9693369988485,-37.00817899573413,100 174.96938100342769,-37.00818499525859,100 174.96942499876087,-37.00819799526874,100 174.96947100794316,-37.00824800410419,100 174.96951699883047,-37.00830100281565,100 174.96954599711566,-37.00833100137889,100 174.96957999618297,-37.00833399256957,100 174.96962800222454,-37.00833700718349,100 174.96969999482675,-37.0083359931445,100 174.9697379952299,-37.00833599856923,100 174.96978500828567,-37.00835100419324,100 174.9698299986218,-37.008387000262296,100 174.96988099263802,-37.008420997605626,100 174.96993399257116,-37.0084690055777,100 174.96998700464343,-37.008514999833324,100 174.97002499788908,-37.008556992948584,100 174.97006700237668,-37.008599995588284,100 174.97012699837757,-37.00864499685022,100 174.9701880031934,-37.008673004562134,100 174.97023100129542,-37.00867400387975,100 174.97028900477852,-37.00867299556429,100 174.97036499242807,-37.00865899202454,100 174.97043700223512,-37.00863900501923,100 174.9704870063792,-37.008629996189136,100 174.97060000747237,-37.008626997225576,100 174.97066299420425,-37.00863200140557,100 174.9707460039752,-37.00864899904356,100 174.97079999486186,-37.00867999897232,100 174.97085399319278,-37.008728994878936,100 174.970893995252,-37.00878199337914,100 174.9709259961154,-37.00881899974306,100 174.9709590044495,-37.008831006407966,100 174.97099500205107,-37.00883299960389,100 174.97106099653647,-37.008825001113976,100 174.97111900098685,-37.00884299524539,100 174.97118700543032,-37.00887299697234,100 174.97124799394626,-37.00890100440121,100 174.97130500024664,-37.008936997630016,100 174.97136500718594,-37.008985994403325,100 174.97140300523137,-37.00901099579916,100 174.97145100133307,-37.00903200685866,100 174.97150399379956,-37.009046003926436,100 174.97149000567077,-37.00909499724158,100 174.97134600591644,-37.00960899566182,100 174.9723720020572,-37.010106001105015,100 174.97210899249419,-37.01162000662929,100 174.97330400707887,-37.011722004346744,100 174.97784300093136,-37.01033500271417,100 174.98230999246272,-37.008957996366455,100 174.98290700004367,-37.01020500603409,100 174.98348300335283,-37.01140799461711,100 174.9842260056829,-37.012960003177575,100</coordinates></LinearRing></outerBoundaryIs>
    </Polygon>
  </Placemark>

  <Placemark>
    <name>Ardmore</name>
    <Point>
      <altitudeMode>relativeToGround</altitudeMode>
      <coordinates>174.9856766182044,-37.035747332879325,100</coordinates>
    </Point>
  </Placemark>

</Document>
</kml>