<?xml version="1.0" encoding="UTF-8"?>
<kml xmlns="http://www.opengis.net/kml/2.2">
  <Document>
    <name>Botany Downs (polygon: official_shp)</name>
    <Style id="icon-1899-0288D1-nodesc-normal">
      <IconStyle>
        <color>ffd18802</color>
        <scale>1</scale>
        <Icon>
          <href>https://www.gstatic.com/mapspro/images/stock/503-wht-blank_maps.png</href>
        </Icon>
        <hotSpot x="32" xunits="pixels" y="64" yunits="insetPixels"/>
      </IconStyle>
      <LabelStyle>
        <scale>0</scale>
      </LabelStyle>
      <BalloonStyle>
        <text><![CDATA[<h3>$[name]</h3>]]></text>
      </BalloonStyle>
    </Style>
    <Style id="icon-1899-0288D1-nodesc-highlight">
      <IconStyle>
        <color>ffd18802</color>
        <scale>1</scale>
        <Icon>
          <href>https://www.gstatic.com/mapspro/images/stock/503-wht-blank_maps.png</href>
        </Icon>
        <hotSpot x="32" xunits="pixels" y="64" yunits="insetPixels"/>
      </IconStyle>
      <LabelStyle>
        <scale>1</scale>
      </LabelStyle>
      <BalloonStyle>
        <text><![CDATA[<h3>$[name]</h3>]]></text>
      </BalloonStyle>
    </Style>
    <StyleMap id="icon-1899-0288D1-nodesc">
      <Pair>
        <key>normal</key>
        <styleUrl>#icon-1899-0288D1-nodesc-normal</styleUrl>
      </Pair>
      <Pair>
        <key>highlight</key>
        <styleUrl>#icon-1899-0288D1-nodesc-highlight</styleUrl>
      </Pair>
    </StyleMap>
    <Style id="poly-0000FF-2000-102-nodesc-normal">
      <LineStyle>
        <color>ffff0000</color>
        <width>2</width>
      </LineStyle>
      <PolyStyle>
        <color>66ff0000</color>
        <fill>1</fill>
        <outline>1</outline>
      </PolyStyle>
      <BalloonStyle>
        <text><![CDATA[<h3>$[name]</h3>]]></text>
      </BalloonStyle>
    </Style>
    <Style id="poly-0000FF-2000-102-nodesc-highlight">
      <LineStyle>
        <color>ffff0000</color>
        <width>3</width>
      </LineStyle>
      <PolyStyle>
        <color>66ff0000</color>
        <fill>1</fill>
        <outline>1</outline>
      </PolyStyle>
      <BalloonStyle>
        <text><![CDATA[<h3>$[name]</h3>]]></text>
      </BalloonStyle>
    </Style>
    <StyleMap id="poly-0000FF-2000-102-nodesc">
      <Pair>
        <key>normal</key>
        <styleUrl>#poly-0000FF-2000-102-nodesc-normal</styleUrl>
      </Pair>
      <Pair>
        <key>highlight</key>
        <styleUrl>#poly-0000FF-2000-102-nodesc-highlight</styleUrl>
      </Pair>
    </StyleMap>
    <Placemark>
      <name>Botany Downs (polygon: official_shp)</name>
      <styleUrl>#poly-0000FF-2000-102-nodesc</styleUrl>
      <Polygon>
        <outerBoundaryIs>
          <LinearRing>
            <tessellate>1</tessellate>
            <coordinates>
              174.929348,-36.90883,0
              174.929073,-36.908635,0
              174.928866,-36.908535,0
              174.928832,-36.908515,0
              174.928535,-36.908339,0
              174.928399,-36.908259,0
              174.928262,-36.908178,0
              174.928214,-36.908149,0
              174.928088,-36.908075,0
              174.928011,-36.908029,0
              174.927862,-36.907988,0
              174.92785,-36.907984,0
              174.927586,-36.907911,0
              174.927369,-36.90785,0
              174.9273,-36.907831,0
              174.927163,-36.907793,0
              174.926951,-36.907734,0
              174.926808,-36.907696,0
              174.926662,-36.907657,0
              174.9266,-36.90764,0
              174.926246,-36.907545,0
              174.926031,-36.907488,0
              174.926001,-36.90748,0
              174.92585,-36.907439,0
              174.925832,-36.907435,0
              174.925575,-36.907366,0
              174.925536,-36.907355,0
              174.925488,-36.907343,0
              174.925379,-36.907312,0
              174.925187,-36.90726,0
              174.925185,-36.90726,0
              174.924987,-36.907205,0
              174.924801,-36.907169,0
              174.924648,-36.907112,0
              174.924571,-36.907091,0
              174.924421,-36.90705,0
              174.924376,-36.907038,0
              174.924367,-36.907035,0
              174.924366,-36.907034,0
              174.924325,-36.90702,0
              174.924256,-36.906995,0
              174.924081,-36.906932,0
              174.923875,-36.906858,0
              174.923862,-36.906854,0
              174.923668,-36.906785,0
              174.923643,-36.906776,0
              174.923462,-36.906711,0
              174.923425,-36.906698,0
              174.923256,-36.906637,0
              174.92305,-36.906563,0
              174.923013,-36.90655,0
              174.922844,-36.90649,0
              174.922641,-36.906417,0
              174.922558,-36.906387,0
              174.922437,-36.906344,0
              174.922234,-36.906272,0
              174.922181,-36.906252,0
              174.922016,-36.906193,0
              174.921859,-36.906137,0
              174.921712,-36.906085,0
              174.921624,-36.906052,0
              174.921409,-36.905974,0
              174.921212,-36.905902,0
              174.921044,-36.90584,0
              174.920778,-36.905742,0
              174.920469,-36.905629,0
              174.920235,-36.905543,0
              174.920103,-36.905494,0
              174.920015,-36.905463,0
              174.919964,-36.905445,0
              174.919794,-36.905386,0
              174.919758,-36.905373,0
              174.919626,-36.905327,0
              174.91963,-36.904977,0
              174.919638,-36.90492,0
              174.91969,-36.904572,0
              174.91957,-36.904428,0
              174.919544,-36.90439,0
              174.919566,-36.90421,0
              174.919766,-36.904177,0
              174.919766,-36.904145,0
              174.919764,-36.904023,0
              174.919762,-36.903862,0
              174.919826,-36.903762,0
              174.919679,-36.90365,0
              174.919532,-36.903537,0
              174.919384,-36.903425,0
              174.919393,-36.903409,0
              174.919362,-36.903376,0
              174.919331,-36.903342,0
              174.919249,-36.903253,0
              174.9192,-36.903199,0
              174.919169,-36.903166,0
              174.919091,-36.903081,0
              174.919032,-36.903017,0
              174.919011,-36.902993,0
              174.91892,-36.902894,0
              174.918892,-36.902865,0
              174.91887,-36.90284,0
              174.918843,-36.902696,0
              174.918831,-36.902629,0
              174.918821,-36.902575,0
              174.918787,-36.902396,0
              174.918775,-36.902328,0
              174.91894,-36.90234,0
              174.919005,-36.902345,0
              174.918978,-36.902307,0
              174.918883,-36.902124,0
              174.918805,-36.901939,0
              174.919018,-36.90188,0
              174.918931,-36.901636,0
              174.918916,-36.901603,0
              174.918915,-36.9016,0
              174.918902,-36.901572,0
              174.918888,-36.901541,0
              174.918797,-36.90134,0
              174.918564,-36.901321,0
              174.918533,-36.901394,0
              174.918251,-36.901163,0
              174.918226,-36.901143,0
              174.918107,-36.901045,0
              174.917967,-36.900931,0
              174.917725,-36.900922,0
              174.917691,-36.900949,0
              174.917374,-36.901199,0
              174.917349,-36.901219,0
              174.917086,-36.901426,0
              174.917052,-36.901453,0
              174.917128,-36.901515,0
              174.917356,-36.901701,0
              174.917209,-36.901817,0
              174.917126,-36.901882,0
              174.917063,-36.901932,0
              174.917021,-36.901965,0
              174.916924,-36.902041,0
              174.916917,-36.902048,0
              174.916756,-36.902175,0
              174.916609,-36.90229,0
              174.916512,-36.902367,0
              174.916463,-36.902405,0
              174.916317,-36.902521,0
              174.916287,-36.902544,0
              174.916239,-36.902582,0
              174.916194,-36.902606,0
              174.916087,-36.902662,0
              174.916022,-36.902696,0
              174.915851,-36.902787,0
              174.915846,-36.902789,0
              174.915679,-36.902877,0
              174.915508,-36.902968,0
              174.915491,-36.902976,0
              174.915336,-36.903058,0
              174.915282,-36.903086,0
              174.915164,-36.903148,0
              174.914993,-36.903239,0
              174.914957,-36.903257,0
              174.914885,-36.903295,0
              174.914815,-36.90333,0
              174.914641,-36.903418,0
              174.914467,-36.903505,0
              174.914293,-36.903592,0
              174.914119,-36.903679,0
              174.913928,-36.903775,0
              174.913753,-36.903862,0
              174.913579,-36.903949,0
              174.913405,-36.904037,0
              174.913375,-36.904052,0
              174.913231,-36.904124,0
              174.913216,-36.904132,0
              174.913057,-36.904211,0
              174.913023,-36.904228,0
              174.912883,-36.904298,0
              174.912709,-36.904385,0
              174.912675,-36.904403,0
              174.912535,-36.904472,0
              174.912394,-36.904543,0
              174.912361,-36.904559,0
              174.912187,-36.904647,0
              174.912013,-36.904734,0
              174.911821,-36.90483,0
              174.911803,-36.904807,0
              174.911686,-36.904962,0
              174.911594,-36.905085,0
              174.911569,-36.905118,0
              174.911506,-36.905201,0
              174.91129,-36.905161,0
              174.911184,-36.905141,0
              174.91099,-36.905105,0
              174.910971,-36.905101,0
              174.910731,-36.905056,0
              174.91072,-36.905051,0
              174.910513,-36.904951,0
              174.91043,-36.904911,0
              174.910312,-36.904854,0
              174.91019,-36.904795,0
              174.910118,-36.90476,0
              174.909918,-36.904664,0
              174.909852,-36.904632,0
              174.909695,-36.904556,0
              174.909631,-36.904525,0
              174.909512,-36.904468,0
              174.909285,-36.90477,0
              174.90919,-36.904725,0
              174.909051,-36.904911,0
              174.908987,-36.90488,0
              174.908904,-36.904992,0
              174.908937,-36.90506,0
              174.909045,-36.905112,0
              174.909102,-36.90514,0
              174.909089,-36.905155,0
              174.909281,-36.905248,0
              174.909449,-36.905071,0
              174.909456,-36.905093,0
              174.909252,-36.905309,0
              174.909486,-36.905432,0
              174.909558,-36.905461,0
              174.909678,-36.90551,0
              174.909881,-36.905593,0
              174.909706,-36.905766,0
              174.909371,-36.905668,0
              174.909281,-36.90587,0
              174.909174,-36.905839,0
              174.909098,-36.90604,0
              174.909056,-36.906152,0
              174.909108,-36.90633,0
              174.908979,-36.906354,0
              174.90907,-36.906612,0
              174.909048,-36.906616,0
              174.90911,-36.906979,0
              174.909036,-36.906987,0
              174.908871,-36.907006,0
              174.908805,-36.907014,0
              174.908715,-36.907031,0
              174.908573,-36.907057,0
              174.908683,-36.907214,0
              174.908894,-36.907514,0
              174.908853,-36.907557,0
              174.908749,-36.907663,0
              174.908688,-36.907725,0
              174.908733,-36.907787,0
              174.908767,-36.907834,0
              174.908851,-36.907951,0
              174.908969,-36.908115,0
              174.909087,-36.908278,0
              174.908714,-36.908452,0
              174.908721,-36.908489,0
              174.908751,-36.908642,0
              174.908782,-36.908795,0
              174.908785,-36.908808,0
              174.908804,-36.908906,0
              174.90903,-36.908969,0
              174.909048,-36.908974,0
              174.909142,-36.909001,0
              174.909251,-36.909031,0
              174.90919,-36.909193,0
              174.909294,-36.909243,0
              174.909233,-36.909652,0
              174.909094,-36.909664,0
              174.909128,-36.909755,0
              174.909184,-36.909901,0
              174.909516,-36.909868,0
              174.909535,-36.909979,0
              174.909562,-36.91014,0
              174.909573,-36.910203,0
              174.909589,-36.910301,0
              174.909613,-36.910442,0
              174.909621,-36.910487,0
              174.909646,-36.910639,0
              174.909678,-36.910827,0
              174.909703,-36.910977,0
              174.909669,-36.911179,0
              174.909628,-36.911333,0
              174.909583,-36.911501,0
              174.909572,-36.911543,0
              174.909504,-36.911799,0
              174.909773,-36.911905,0
              174.909743,-36.911918,0
              174.909713,-36.91193,0
              174.909682,-36.91194,0
              174.909651,-36.911951,0
              174.909619,-36.91196,0
              174.909743,-36.912254,0
              174.909487,-36.912289,0
              174.909351,-36.912308,0
              174.909233,-36.912324,0
              174.909013,-36.912286,0
              174.90901,-36.912328,0
              174.908995,-36.91253,0
              174.90898,-36.912732,0
              174.909091,-36.913107,0
              174.909096,-36.913122,0
              174.909232,-36.913276,0
              174.909132,-36.913442,0
              174.909118,-36.91343,0
              174.909102,-36.91342,0
              174.909085,-36.913412,0
              174.909067,-36.913405,0
              174.909066,-36.913404,0
              174.909061,-36.913403,0
              174.909043,-36.913396,0
              174.909024,-36.91339,0
              174.909006,-36.913383,0
              174.908995,-36.913378,0
              174.908978,-36.913371,0
              174.90896,-36.913363,0
              174.908943,-36.913355,0
              174.908926,-36.913347,0
              174.90891,-36.913341,0
              174.908892,-36.913334,0
              174.908874,-36.913327,0
              174.908856,-36.913321,0
              174.908839,-36.913317,0
              174.90882,-36.913312,0
              174.908801,-36.913307,0
              174.908782,-36.913303,0
              174.908774,-36.913302,0
              174.908755,-36.913297,0
              174.908736,-36.913292,0
              174.908717,-36.913288,0
              174.908698,-36.913283,0
              174.908679,-36.913278,0
              174.908673,-36.913277,0
              174.908654,-36.913272,0
              174.908635,-36.913267,0
              174.908616,-36.913262,0
              174.908597,-36.913257,0
              174.908578,-36.913251,0
              174.908575,-36.91325,0
              174.908564,-36.913247,0
              174.908546,-36.913241,0
              174.908527,-36.913236,0
              174.908513,-36.913233,0
              174.908507,-36.913232,0
              174.908488,-36.913228,0
              174.908474,-36.913226,0
              174.908455,-36.913222,0
              174.908435,-36.913218,0
              174.908416,-36.913214,0
              174.908396,-36.913211,0
              174.908377,-36.913208,0
              174.908368,-36.913206,0
              174.908349,-36.913203,0
              174.908329,-36.9132,0
              174.90831,-36.913198,0
              174.90829,-36.913198,0
              174.908271,-36.9132,0
              174.908262,-36.9132,0
              174.908005,-36.913224,0
              174.90801,-36.91325,0
              174.908021,-36.913309,0
              174.908031,-36.913368,0
              174.908039,-36.913427,0
              174.908046,-36.913486,0
              174.908057,-36.913611,0
              174.908062,-36.913735,0
              174.908062,-36.913847,0
              174.908061,-36.913847,0
              174.90805,-36.914051,0
              174.908015,-36.914188,0
              174.907927,-36.914322,0
              174.907796,-36.91443,0
              174.907666,-36.914488,0
              174.907617,-36.914731,0
              174.908679,-36.914925,0
              174.910316,-36.915223,0
              174.910652,-36.915284,0
              174.911957,-36.915521,0
              174.912287,-36.915581,0
              174.912981,-36.915705,0
              174.913341,-36.915795,0
              174.913577,-36.91587,0
              174.913798,-36.916046,0
              174.913931,-36.916221,0
              174.914578,-36.916483,0
              174.914685,-36.916314,0
              174.914787,-36.916153,0
              174.914981,-36.916239,0
              174.914984,-36.916241,0
              174.915195,-36.916334,0
              174.915323,-36.91639,0
              174.915335,-36.916338,0
              174.915347,-36.916285,0
              174.915361,-36.916233,0
              174.915376,-36.916182,0
              174.915392,-36.91613,0
              174.915399,-36.916098,0
              174.915407,-36.916066,0
              174.915416,-36.916035,0
              174.915426,-36.916003,0
              174.915437,-36.915972,0
              174.915449,-36.915941,0
              174.915461,-36.91591,0
              174.915475,-36.915879,0
              174.915489,-36.915849,0
              174.915505,-36.915819,0
              174.915521,-36.915789,0
              174.915538,-36.91576,0
              174.915556,-36.915731,0
              174.915575,-36.915702,0
              174.915595,-36.915674,0
              174.915615,-36.915646,0
              174.915636,-36.915618,0
              174.915659,-36.915591,0
              174.915682,-36.915564,0
              174.915705,-36.915538,0
              174.91573,-36.915512,0
              174.915755,-36.915486,0
              174.915781,-36.915462,0
              174.915808,-36.915437,0
              174.915835,-36.915413,0
              174.915863,-36.91539,0
              174.916555,-36.914827,0
              174.916572,-36.914813,0
              174.916588,-36.914798,0
              174.916603,-36.914783,0
              174.916617,-36.914767,0
              174.916631,-36.914751,0
              174.916644,-36.914735,0
              174.916656,-36.914718,0
              174.916667,-36.9147,0
              174.916677,-36.914683,0
              174.916686,-36.914665,0
              174.916694,-36.914646,0
              174.916701,-36.914628,0
              174.916708,-36.914609,0
              174.916713,-36.91459,0
              174.916718,-36.914571,0
              174.916721,-36.914552,0
              174.916724,-36.91453,0
              174.916726,-36.914509,0
              174.916727,-36.914488,0
              174.916727,-36.914467,0
              174.916726,-36.914445,0
              174.916724,-36.914424,0
              174.916722,-36.914403,0
              174.916718,-36.914382,0
              174.916713,-36.914361,0
              174.916708,-36.91434,0
              174.916702,-36.914319,0
              174.916696,-36.914299,0
              174.91669,-36.914279,0
              174.916686,-36.914258,0
              174.916683,-36.914238,0
              174.91668,-36.914217,0
              174.916679,-36.914197,0
              174.916678,-36.914176,0
              174.916678,-36.914156,0
              174.916679,-36.914135,0
              174.916681,-36.914114,0
              174.916684,-36.914094,0
              174.916688,-36.914073,0
              174.916693,-36.914053,0
              174.916699,-36.914033,0
              174.916705,-36.914013,0
              174.916713,-36.913993,0
              174.916721,-36.913974,0
              174.91673,-36.913955,0
              174.91674,-36.913935,0
              174.916751,-36.913917,0
              174.916757,-36.913906,0
              174.916762,-36.913895,0
              174.916766,-36.913883,0
              174.916769,-36.913872,0
              174.916771,-36.91386,0
              174.916772,-36.913848,0
              174.916772,-36.913836,0
              174.916771,-36.913824,0
              174.916769,-36.913813,0
              174.916767,-36.913801,0
              174.916763,-36.91379,0
              174.916758,-36.913778,0
              174.916752,-36.913768,0
              174.916745,-36.913757,0
              174.916737,-36.913747,0
              174.91664,-36.913618,0
              174.916738,-36.913608,0
              174.916894,-36.913665,0
              174.917105,-36.913742,0
              174.917446,-36.913711,0
              174.917562,-36.913733,0
              174.917635,-36.913695,0
              174.917997,-36.913595,0
              174.918149,-36.913604,0
              174.918307,-36.913902,0
              174.918529,-36.914081,0
              174.919307,-36.914189,0
              174.919856,-36.914098,0
              174.92008,-36.914124,0
              174.920237,-36.914247,0
              174.920299,-36.914295,0
              174.920334,-36.914323,0
              174.920351,-36.914324,0
              174.920615,-36.914343,0
              174.920881,-36.914362,0
              174.92108,-36.914376,0
              174.92114,-36.914366,0
              174.921338,-36.914335,0
              174.921366,-36.914314,0
              174.921612,-36.914129,0
              174.92184,-36.913956,0
              174.922119,-36.913746,0
              174.922274,-36.913629,0
              174.92244,-36.913504,0
              174.922457,-36.913491,0
              174.922601,-36.913383,0
              174.922716,-36.913296,0
              174.922758,-36.91327,0
              174.922914,-36.913147,0
              174.923061,-36.913036,0
              174.923174,-36.913054,0
              174.923352,-36.913134,0
              174.923528,-36.913156,0
              174.923717,-36.913256,0
              174.923731,-36.913244,0
              174.923859,-36.91313,0
              174.924003,-36.913,0
              174.924168,-36.912852,0
              174.92426,-36.912722,0
              174.924381,-36.912549,0
              174.924509,-36.912365,0
              174.924594,-36.912331,0
              174.924626,-36.912318,0
              174.924877,-36.912342,0
              174.92505,-36.912359,0
              174.925041,-36.912347,0
              174.925374,-36.912373,0
              174.925419,-36.912368,0
              174.92549,-36.91236,0
              174.925561,-36.912351,0
              174.925632,-36.91234,0
              174.925703,-36.912329,0
              174.925871,-36.912326,0
              174.926106,-36.912285,0
              174.926099,-36.912244,0
              174.926094,-36.912213,0
              174.92609,-36.912182,0
              174.926086,-36.912151,0
              174.926084,-36.912119,0
              174.926083,-36.912088,0
              174.926083,-36.912057,0
              174.926083,-36.91201,0
              174.9262,-36.912017,0
              174.926405,-36.911956,0
              174.926586,-36.911903,0
              174.926548,-36.911811,0
              174.926536,-36.911692,0
              174.92655,-36.91166,0
              174.926597,-36.911556,0
              174.926641,-36.911459,0
              174.926658,-36.911421,0
              174.926753,-36.911288,0
              174.92677,-36.911264,0
              174.926848,-36.911155,0
              174.926946,-36.911069,0
              174.926991,-36.91103,0
              174.927127,-36.91091,0
              174.927132,-36.910914,0
              174.927144,-36.910901,0
              174.927142,-36.910899,0
              174.9273,-36.910776,0
              174.927457,-36.910654,0
              174.927608,-36.910536,0
              174.927645,-36.91057,0
              174.927812,-36.910431,0
              174.927747,-36.910381,0
              174.927903,-36.910264,0
              174.927948,-36.91023,0
              174.928068,-36.91014,0
              174.928176,-36.910059,0
              174.928196,-36.91004,0
              174.928219,-36.910017,0
              174.928357,-36.909884,0
              174.928512,-36.909736,0
              174.92822,-36.909533,0
              174.928352,-36.909394,0
              174.928546,-36.909515,0
              174.928665,-36.909589,0
              174.928802,-36.909458,0
              174.928909,-36.909289,0
              174.929019,-36.909114,0
              174.929048,-36.909089,0
              174.929194,-36.908963,0
              174.929228,-36.908933,0
              174.929348,-36.90883,0
            </coordinates>
          </LinearRing>
        </outerBoundaryIs>
      </Polygon>
    </Placemark>
    <Placemark>
      <name>Botany Downs</name>
      <styleUrl>#icon-1899-0288D1-nodesc</styleUrl>
      <Point>
        <coordinates>
          174.917069,-36.909453,100
        </coordinates>
      </Point>
    </Placemark>
  </Document>
</kml>
