<?xml version="1.0" encoding="utf-8"?>
<kml xmlns="http://www.opengis.net/kml/2.2">
<Document>
  <name>Burswood (polygon: official_shp)</name>
  <open>1</open>

  <Placemark>
    <name>Burswood (polygon: official_shp)</name>
    <Style>
      <LineStyle><color>ffff0000</color><width>2</width></LineStyle>
      <PolyStyle><color>66ff0000</color><fill>1</fill><outline>1</outline></PolyStyle>
    </Style>
    <Polygon>
      <tessellate>1</tessellate>
      <altitudeMode>relativeToGround</altitudeMode>
      <outerBoundaryIs><LinearRing><coordinates>174.8875759926789,-36.925072992825896,100 174.88776999321263,-36.92483300212887,100 174.88959999517385,-36.925265994877144,100 174.8896109961402,-36.9252470003222,100 174.88962600472277,-36.925238003390334,100 174.88965500590365,-36.92521000575074,100 174.88967999237775,-36.925187003097726,100 174.88970600832235,-36.925172004874234,100 174.88972099420286,-36.92515899743233,100 174.88973600496394,-36.925144997242874,100 174.88975900542792,-36.92513099608384,100 174.88978100238248,-36.92510999774537,100 174.8898119914736,-36.9250889959978,100 174.8898440047547,-36.92505600575175,100 174.8898760061903,-36.92502899321841,100 174.88991600799065,-36.92499600199615,100 174.88994899429107,-36.924974005819934,100 174.8899720013129,-36.92494499759224,100 174.889999006111,-36.924917995152825,100 174.8900099988107,-36.924913993195965,100 174.89004599387667,-36.924899006413966,100 174.89010800761895,-36.924864002736044,100 174.89014800114057,-36.92483200211589,100 174.89020799630566,-36.92480799954234,100 174.89024399527545,-36.92478999232664,100 174.8903039962465,-36.92476299994518,100 174.8903529997052,-36.92474499658499,100 174.89039800358066,-36.924730006887216,100 174.89045099452133,-36.92471300265923,100 174.89051899816562,-36.92469799556033,100 174.890582005324,-36.92469000090178,100 174.89063199651025,-36.92468099396704,100 174.89068900207982,-36.92468699581503,100 174.89074000718497,-36.92469999365978,100 174.89077300582105,-36.924730002131334,100 174.89081800517502,-36.924774002620445,100 174.8908359951979,-36.9248199933582,100 174.89085099723667,-36.92485400360204,100 174.89086000211577,-36.9248990062591,100 174.89086699852808,-36.92496300009245,100 174.8908769946457,-36.92501899744646,100 174.89086999203778,-36.92507499689352,100 174.89088300152798,-36.92514899873104,100 174.8908869996677,-36.92520000456318,100 174.89090199817,-36.925246000561444,100 174.89092599242508,-36.92531499460829,100 174.890953000187,-36.92536700672493,100 174.89095899605184,-36.92537699967891,100 174.8910850081109,-36.92541499514025,100 174.89125299982598,-36.925412004167185,100 174.89127900134997,-36.92534300255274,100 174.89129799607474,-36.92532800314844,100 174.89129299731133,-36.92527199654437,100 174.89128799104654,-36.92523099697892,100 174.89130500284924,-36.92519199555164,100 174.8913369917256,-36.92516199496618,100 174.89138500523484,-36.92514699841782,100 174.8914420044282,-36.92514000572008,100 174.89149900431602,-36.925134994978976,100 174.89157800804293,-36.92513399696773,100 174.89164100224494,-36.925150997258946,100 174.89170000483503,-36.925184003591845,100 174.89174099812158,-36.92521100742039,100 174.8917839978252,-36.92525900608001,100 174.89181399546183,-36.92532299932948,100 174.89184500673744,-36.92537399656308,100 174.89184499778395,-36.92542200622549,100 174.89185599534025,-36.92549700440304,100 174.89185699153438,-36.92553299341723,100 174.89185999168583,-36.925552997203596,100 174.8918739967315,-36.925558001705205,100 174.89229900095327,-36.925663000032586,100 174.8925249993895,-36.92570399543158,100 174.89272099785669,-36.925699999887506,100 174.892722991746,-36.92569700728189,100 174.89269700657252,-36.925675006638514,100 174.89267199815006,-36.925625995097484,100 174.89266600078088,-36.925574001821026,100 174.89266500358275,-36.9255309960874,100 174.89266399646877,-36.92548699906363,100 174.89266099303572,-36.92543699774381,100 174.8926579918453,-36.92538899370464,100 174.8926549921832,-36.92534100586433,100 174.89265500486965,-36.92527600633573,100 174.89265100285098,-36.92520900137433,100 174.89265899497266,-36.925142994975964,100 174.8926730045697,-36.92507000570566,100 174.89267599783187,-36.92505099700412,100 174.89267399722226,-36.92504799686387,100 174.89264400329398,-36.924980999690305,100 174.8924460046194,-36.92471499617609,100 174.89243099613512,-36.92470999421197,100 174.8923859942453,-36.9246849977413,100 174.8923509968483,-36.924647001665036,100 174.89233299586564,-36.92460700509561,100 174.89232399724472,-36.92458199636175,100 174.89232299424896,-36.92456099725121,100 174.8923299968125,-36.924546998173966,100 174.8923630065072,-36.92451699366778,100 174.89240599407816,-36.92447999996223,100 174.89244500641408,-36.9244519962331,100 174.8924819929211,-36.9244360005694,100 174.8925129932308,-36.924328997937536,100 174.89267499598435,-36.92426800157244,100 174.8926799980881,-36.92425800285658,100 174.89272700637375,-36.924228991903874,100 174.8927809920494,-36.92419200662999,100 174.89284299565162,-36.92415099262606,100 174.89289600551515,-36.92411499988256,100 174.8929509933209,-36.924084997279934,100 174.89300300202623,-36.924058004771254,100 174.89304599940726,-36.92403600137651,100 174.8930979957287,-36.92401300455988,100 174.89315000732333,-36.92398799393642,100 174.8931949933108,-36.92397300257194,100 174.89323599506676,-36.92396599638365,100 174.89326299801482,-36.92395999391725,100 174.89350300045723,-36.923899997972406,100 174.8935129960257,-36.92389999270892,100 174.89352200525565,-36.92390000497542,100 174.8935310049218,-36.923898995301,100 174.89354000496655,-36.92389800094222,100 174.89354899698483,-36.92389799815877,100 174.8935580046764,-36.923895996906325,100 174.8935670035982,-36.92389500256343,100 174.89357600326304,-36.92389399288562,100 174.8935849929987,-36.923891991917465,100 174.89359299713888,-36.92388999314585,100 174.89360200482824,-36.92388799189011,100 174.89361099496364,-36.92388600713733,100 174.89361899870124,-36.92388399214669,100 174.89362699293247,-36.923881002984125,100 174.8936360071438,-36.92387799485148,100 174.89364400135142,-36.923875004786844,100 174.8936509992761,-36.92387099499704,100 174.89365900112827,-36.92386699803914,100 174.89366600707612,-36.92386199667254,100 174.89367299619062,-36.923856995573985,100 174.89368000101447,-36.9238519942245,100 174.89368700695957,-36.92384699285672,100 174.89369400638046,-36.92384299836294,100 174.8937009943692,-36.92383799728072,100 174.89370799378852,-36.92383400278616,100 174.89371600444213,-36.92383099713209,100 174.89372399864152,-36.923828007062276,100 174.8937319924614,-36.92382500167562,100 174.89373299601016,-36.92382499919096,100 174.89374300840038,-36.92382499363995,100 174.89375200078834,-36.92382500615769,100 174.89376199636834,-36.923825001774475,100 174.89376999245073,-36.92382399366619,100 174.89377600853553,-36.923821998647256,100 174.89378100847404,-36.92381700132534,100 174.89378399974865,-36.923809994556365,100 174.89378700827865,-36.92380300463712,100 174.89378900362578,-36.92379499255991,100 174.89379099944063,-36.92378699940285,100 174.89379400790233,-36.923780006780575,100 174.8937960013232,-36.92377699884228,100 174.89380200709314,-36.92377399721623,100 174.89380900876662,-36.923771999996866,100 174.8938180076698,-36.92377100563542,100 174.89382700731596,-36.92376999593907,100 174.89383599931824,-36.92376999313431,100 174.8938459952697,-36.92377000406055,100 174.8938560011311,-36.92377100537456,100 174.89386599555922,-36.92377100009973,100 174.89387400194576,-36.92377099859052,100 174.89388299278053,-36.92376899758249,100 174.89389099577716,-36.92376699880921,100 174.89390000346566,-36.923764998432425,100 174.8939079972716,-36.923761993034255,100 174.89391599145586,-36.923759002951904,100 174.89392400321512,-36.92375599726632,100 174.89393300746602,-36.92375199782227,100 174.8939410012692,-36.92374899242194,100 174.8939490031152,-36.92374499634617,100 174.89395699729602,-36.92374200626113,100 174.8939649987391,-36.92373799396702,100 174.89397300056035,-36.92373399698873,100 174.893980994739,-36.923731006902145,100 174.89398900537046,-36.923728001230224,100 174.89399700718937,-36.92372400425035,100 174.894005000987,-36.923720998845866,100 174.89401299590614,-36.923717993422954,100 174.89402200246317,-36.92371599305505,100 174.89402999663793,-36.92371300296525,100 174.8940380007466,-36.92371100416441,100 174.894047008402,-36.92370900287579,100 174.89405299849568,-36.9237079997055,100 174.89406199850959,-36.92370700530795,100 174.8940720005691,-36.923705993123825,100 174.89408100058245,-36.92370499872484,100 174.8940899925762,-36.923704995901055,100 174.89409900252454,-36.92370499279018,100 174.89410799489724,-36.923705005281356,100 174.8941170048455,-36.923705002169115,100 174.89412600713158,-36.923706005047414,100 174.8941349911066,-36.92370699379605,100 174.89414400373036,-36.9237090041797,100 174.89414899477174,-36.92370999983657,100 174.89415699580834,-36.92371300338222,100 174.89416500560702,-36.923715000017246,100 174.8941730077892,-36.92371800444483,100 174.8941810019093,-36.923721998645775,100 174.89418800050092,-36.92372500375878,100 174.89419599464478,-36.92372899885964,100 174.8942029966577,-36.92373400213539,100 174.89421100873557,-36.9237379960478,100 174.8942179927957,-36.92374299960902,100 174.89422499371145,-36.923748003802245,100 174.894231995728,-36.923753007076165,100 174.89423799379648,-36.92375799662126,100 174.89424499469263,-36.92376299991228,100 174.8942490024447,-36.92376599594885,100 174.89425599682636,-36.923772006113396,100 174.89426199492016,-36.92377699655813,100 174.8942679933715,-36.92378200141792,100 174.89427400176132,-36.92378799756675,100 174.89427999334197,-36.92379399488472,100 174.89428599181812,-36.92379900064446,100 174.89429099664014,-36.923804998380696,100 174.89429699511788,-36.923810004139845,100 174.89430300351222,-36.92381600028705,100 174.8943100055401,-36.923821003556,100 174.8943160036413,-36.92382599399777,100 174.89432300454877,-36.9238309972838,100 174.89432999626177,-36.92383499394581,100 174.89433700520934,-36.923839006556165,100 174.89434100265132,-36.92384099598373,100 174.89434899714954,-36.923845004588024,100 174.89435699897317,-36.92384799368622,100 174.89435900534997,-36.92384800494151,100 174.89436799966197,-36.92385000027758,100 174.89437700196765,-36.92385100313625,100 174.8943869975487,-36.9238509987003,100 174.8943959975739,-36.92385000427711,100 174.89440600763925,-36.92384799958775,100 174.89441400145463,-36.923844995056825,100 174.89442200328432,-36.92384099894964,100 174.89442900154222,-36.92383700443153,100 174.89443400143784,-36.9238320070833,100 174.8944369949343,-36.92382699757994,100 174.89444000300315,-36.923819991428566,100 174.894441006576,-36.92381300463797,100 174.89444199181497,-36.92380600281747,100 174.8944430015219,-36.92379799383637,100 174.89444300805968,-36.92379000266223,100 174.89444299850814,-36.923781996422385,100 174.89444299470472,-36.923772997741644,100 174.8944429977542,-36.92376799538782,100 174.89444399982506,-36.923760993298735,100 174.8944450022971,-36.923754007426936,100 174.8944459951485,-36.92374599781335,100 174.89444699719658,-36.92373899482328,100 174.89444800038893,-36.92373199271625,100 174.89444900283806,-36.92372500594344,100 174.8944499957111,-36.92371699723077,100 174.89445099778084,-36.92370999514161,100 174.89445200097256,-36.92370299303454,100 174.89445300342106,-36.9236960062617,100 174.8944549922046,-36.92368900195034,100 174.8944559942736,-36.92368199986114,100 174.894457999889,-36.92367499528119,100 174.8944600058831,-36.923668006017536,100 174.89446299711182,-36.92366100013418,100 174.89446499506838,-36.92365500154524,100 174.89446800315088,-36.92364799629417,100 174.89447100467513,-36.9236419961153,100 174.8944749987048,-36.92363500307506,100 174.89447900267402,-36.92362900132401,100 174.8944830077648,-36.92362299955492,100 174.89448700181475,-36.923616007415276,100 174.89449199135086,-36.92361000255835,100 174.89449599531753,-36.92360400080677,100 174.894501002829,-36.923597996564,100 174.8945059924298,-36.92359199440941,100 174.89451100029655,-36.92358600458163,100 174.89451600670586,-36.923580001257136,100 174.89452199980488,-36.92357399480882,100 174.8945270077138,-36.92356800678232,100 174.89453299971117,-36.92356200125235,100 174.8945380072171,-36.923555997008144,100 174.89454399267814,-36.92355099745086,100 174.89454900020482,-36.92354499410719,100 174.89455499257775,-36.9235390038925,100 174.8945600000805,-36.923532999647435,100 174.89456599319473,-36.92352699409802,100 174.8945709999528,-36.92352100518675,100 174.8945729956436,-36.923519995417706,100 174.89457800350053,-36.9235140055873,100 174.89458299308993,-36.923508003429724,100 174.894588007457,-36.92350100672477,100 174.89459199457826,-36.923495005238784,100 174.89459700207533,-36.92348900099228,100 174.89460199163935,-36.923482997933,100 174.89460699801268,-36.923476993704014,100 174.8946120059088,-36.923471005674216,100 174.89461699544822,-36.92346500171339,100 174.8946220029191,-36.92345899656495,100 174.89462699250157,-36.92345299440568,100 174.89463200035,-36.92344700457318,100 174.89463800265113,-36.923442005643885,100 174.89464299220896,-36.92343600258302,100 174.89464799969824,-36.92342999833453,100 174.89465300718678,-36.923423994085844,100 174.89465399968765,-36.92342300122316,100 174.89465900717528,-36.92341699697424,100 174.89466400474188,-36.92341000233684,100 174.89466899427336,-36.923403998374006,100 174.89467399183826,-36.92339700373622,100 174.8946789982228,-36.923391000405395,100 174.8946840056841,-36.92338499525454,100 174.89468899523473,-36.92337899219189,100 174.8946950055385,-36.92337300168419,100 174.89469999506517,-36.92336699772016,100 174.89470600648932,-36.92336100719403,100 174.89471200837752,-36.923355992043966,100 174.89471800184538,-36.923350001803755,100 174.89472400413334,-36.923345002870406,100 174.8947300075204,-36.9233400030179,100 174.89473700533765,-36.92333599316674,100 174.89474400353325,-36.92333199863151,100 174.89475200527,-36.92332800160281,100 174.8947540013102,-36.92332700624626,100 174.89476199503505,-36.923324000792604,100 174.8947699990822,-36.923322001943994,100 174.89477900667066,-36.923320000601535,100 174.89478699276242,-36.9233180020383,100 174.8947960003499,-36.92331600069457,100 174.89480500681472,-36.923313999368084,100 174.894813996469,-36.92331199921048,100 174.89482200046882,-36.923309998556505,100 174.89482999421136,-36.923306993999375,100 174.89483799596306,-36.92330299786602,100 174.89484599769165,-36.92329900083117,100 174.89485299587798,-36.923295006289756,100 174.8948599948066,-36.923290996413705,100 174.8948669994773,-36.92328599409643,100 174.89487300287257,-36.92328099513801,100 174.89488000868596,-36.92327599370306,100 174.89488699654396,-36.92327099255424,100 174.8948929999367,-36.923265993594846,100 174.89490000574742,-36.92326099215879,100 174.89490600799408,-36.92325599231573,100 174.8949079941071,-36.923254006568484,100 174.8949149998934,-36.92324900423063,100 174.8949219988145,-36.9232449943511,100 174.8949290046214,-36.923239992913416,100 174.8949350068868,-36.92323499396996,100 174.8949419958596,-36.923229992800145,100 174.89494900204295,-36.923225006677676,100 174.8949550039267,-36.92321999241692,100 174.89496200207773,-36.92321599696842,100 174.89496900790164,-36.92321099642946,100 174.89497499330753,-36.92320599685175,100 174.89498199910736,-36.9232009954111,100 174.89498900490625,-36.92319599397006,100 174.8949950006355,-36.923192000996856,100 174.8950020064327,-36.92318699955509,100 174.89500899427455,-36.92318199839947,100 174.89501500795606,-36.923178005138766,100 174.89502399526964,-36.92317400678472,100 174.8950319954734,-36.923169994439505,100 174.89504100073955,-36.923165995797675,100 174.8950500048826,-36.92316199717311,100 174.89505899217005,-36.92315799791553,100 174.89506699274946,-36.923154000884374,100 174.8950739985384,-36.923148999438574,100 174.89508099782105,-36.923145004866434,100 174.895087000069,-36.92314000591569,100 174.89509099705836,-36.923134994802375,100 174.89509499332655,-36.92312999992415,100 174.89509600107263,-36.92312699327405,100 174.89509600066086,-36.923119993658695,100 174.89509399424887,-36.923112997215306,100 174.8950920046919,-36.92310600140421,100 174.895088995485,-36.923098992122355,100 174.89508500102906,-36.923091998564075,100 174.89508200907946,-36.92308500613161,100 174.89507900675903,-36.92307700529167,100 174.89507699999302,-36.92306999443252,100 174.89507600632712,-36.9230640021163,100 174.89507599602265,-36.923062996411815,100 174.8950789974776,-36.923056996219,100 174.89508199893208,-36.92305099602613,100 174.89508700526238,-36.92304499267931,100 174.89509299176999,-36.92303999307818,100 174.8950989940092,-36.92303499412701,100 174.8951060077919,-36.923029001103934,100 174.8951129956127,-36.92302399994265,100 174.8951200013647,-36.923018997593495,100 174.8951279927435,-36.923013994836246,100 174.8951349985159,-36.92300899338721,100 174.89514200428738,-36.92300399193777,100 174.89514499392524,-36.92300200369056,100 174.8951499937206,-36.92299700631437,100 174.89515600355705,-36.92299099956755,100 174.89516199548277,-36.922984994908916,100 174.89516800567426,-36.922979002576895,100 174.89517399109386,-36.922974004791755,100 174.89518000437133,-36.922969996206945,100 174.89518399644396,-36.922968006381105,100 174.89519199773994,-36.922963994007915,100 174.89519999178822,-36.922961003842495,100 174.89520799578509,-36.92295900496563,100 174.89521700219618,-36.92295700360926,100 174.89522600172393,-36.922955993809964,100 174.89523600404524,-36.922954996847174,100 174.89524499706914,-36.92295499392047,100 174.89525500171447,-36.92295599513711,100 174.89526399361628,-36.922955992226875,100 174.89527300619892,-36.92295800342767,100 174.8952820083857,-36.92295900531952,100 174.89529100373534,-36.92296100057031,100 174.89529700638474,-36.922963001224616,100 174.8953260078937,-36.922917997086685,100 174.89532100115886,-36.92291700082794,100 174.89531299904252,-36.92291399737721,100 174.89530499694902,-36.922910994826886,100 174.89529699521307,-36.92290800669137,100 174.89529000315966,-36.922903994768426,100 174.89528900072344,-36.92290399634704,100 174.89528199221778,-36.92290000000857,100 174.89527600408104,-36.92289600090366,100 174.8952690020798,-36.922890997690345,100 174.89526299368777,-36.92288500159123,100 174.89525699522414,-36.922879995879896,100 174.89525200720178,-36.92287399701433,100 174.89524700122587,-36.92286799843508,100 174.8952419963729,-36.922861999837686,100 174.8952369980465,-36.92285499526696,100 174.89523300361327,-36.922848002614366,100 174.89522900770177,-36.922840995564165,100 174.89522500524276,-36.92283499358595,100 174.8952219964594,-36.922828001425444,100 174.89522000229522,-36.922823993553195,100 174.89521699239063,-36.92281700141043,100 174.89521399346876,-36.92281099693493,100 174.89521100149733,-36.922804003604455,100 174.8952089950845,-36.922797007162735,100 174.89520700514734,-36.92278999603693,100 174.89520499873532,-36.92278299959511,100 174.8952029934681,-36.92277600403628,100 174.89520200632353,-36.922769005747895,100 174.89519999953336,-36.922761993989596,100 174.89519899667923,-36.9227549959519,100 174.89519800070858,-36.9227470063564,100 174.89519599391943,-36.92273999459798,100 174.89519600194717,-36.922739003923276,100 174.89425199518288,-36.92328399995608,100 174.89417000633227,-36.92330800386891,100 174.89385899861017,-36.923291006602916,100 174.89328600205164,-36.92287299910909,100 174.89324700738348,-36.922894002300396,100 174.89326999940025,-36.923301002845804,100 174.8931640018933,-36.92348299305539,100 174.89305399800284,-36.923574997414164,100 174.89291599523332,-36.92364599396719,100 174.8928039951709,-36.92367100441926,100 174.89235499508865,-36.92367900334226,100 174.89227300037493,-36.923747996166554,100 174.8922749970542,-36.9238150051758,100 174.89236299702551,-36.923949004897324,100 174.89236499620947,-36.924038997433264,100 174.8923109991391,-36.924107993858826,100 174.8922559956806,-36.92415399478559,100 174.8918959992158,-36.92434000415795,100 174.89178399479422,-36.92434200041483,100 174.8911489966547,-36.92370100038213,100 174.8911409979846,-36.9234310004324,100 174.89134000368145,-36.92252599134749,100 174.89139100026483,-36.92236700519097,100 174.89149700403877,-36.9221399956233,100 174.8921560026465,-36.921609002553346,100 174.89251900464092,-36.92151299695097,100 174.89277099306508,-36.921508003663725,100 174.89305299685623,-36.921547999174265,100 174.89313800074908,-36.921591002339206,100 174.89327799779548,-36.92158899479019,100 174.89333299769845,-36.921542992557605,100 174.8933329947158,-36.92151999641052,100 174.89309200557108,-36.920982996165066,100 174.8930599964391,-36.920826006739105,100 174.8930500055605,-36.92044299998165,100 174.89307299270635,-36.92028500041238,100 174.89314699375714,-36.92011500042328,100 174.89323100342517,-36.919921997844504,100 174.8933680088093,-36.919807001963,100 174.8935619914389,-36.91971299759624,100 174.89386899564147,-36.91963999288661,100 174.89400799634902,-36.91959200530836,100 174.89500499295502,-36.91910099657647,100 174.89543900534838,-36.91861999441521,100 174.89552000300074,-36.91848299659402,100 174.89556900763728,-36.91821199508203,100 174.89560799448125,-36.91812800455034,100 174.8956750008771,-36.91798400500463,100 174.89572999793936,-36.917938002632404,100 174.89595100364053,-36.91786699817545,100 174.89611999972948,-36.9178639979985,100 174.8961770038338,-36.917885994768106,100 174.89660599141695,-36.918192998854,100 174.89680499474827,-36.91827900025578,100 174.89720099452,-36.918385001845614,100 174.89778999730922,-36.91837399504737,100 174.89793200658053,-36.91843900516294,100 174.89813899242782,-36.91879599809903,100 174.89801399883882,-36.91933899216792,100 174.89798799635236,-36.91953500512542,100 174.89794399654997,-36.919858004649406,100 174.897954992466,-36.92021799487505,100 174.8980729959111,-36.92041900227343,100 174.89827299692857,-36.920573003867425,100 174.898866995331,-36.920721002952206,100 174.89887600044477,-36.92101299259376,100 174.8990179908334,-36.921078994863336,100 174.89959700526347,-36.920752000226855,100 174.89965299912024,-36.920728001064234,100 174.89979299445955,-36.92072600119757,100 174.89982200723347,-36.92074799332151,100 174.89985199300148,-36.920792997590254,100 174.8998549980975,-36.920904993888435,100 174.8997570024624,-36.9214249958326,100 174.89993499329915,-36.92175999375475,100 174.89991899842326,-36.92216600667053,100 174.89994800683266,-36.9222100062459,100 174.9000339989582,-36.922276992434185,100 174.90009000033356,-36.92227600623025,100 174.90048199869682,-36.92224599791979,100 174.90059200762548,-36.922154002931876,100 174.90061599615115,-36.92201800524074,100 174.90064300617388,-36.92197300467506,100 174.90075299733454,-36.92188099540468,100 174.90089200416608,-36.92183200733276,100 174.9011439961927,-36.921805004096385,100 174.9012850012247,-36.92182599866779,100 174.90145499406927,-36.92191299911875,100 174.90151400730693,-36.92200200182758,100 174.90157700484923,-36.922271002791945,100 174.90158400625032,-36.92251899936668,100 174.90151000588457,-36.92285800006985,100 174.90131700716998,-36.922973991905025,100 174.90120699726546,-36.92306600289578,100 174.90109300455202,-36.92317999844113,100 174.9010630050088,-36.923250993128924,100 174.9010599944508,-36.92332499785589,100 174.90099899693686,-36.92347100142486,100 174.90097199954533,-36.92367599885198,100 174.9009859925767,-36.92382800699298,100 174.9010160049791,-36.92389800667323,100 174.90110500452735,-36.92382999896598,100 174.90119500627554,-36.92354300240314,100 174.9012960078906,-36.92336999655095,100 174.9014639935701,-36.92322899990298,100 174.90160600131844,-36.923147994174386,100 174.9017960072435,-36.92305599775028,100 174.90187999953162,-36.92303199887276,100 174.9019920013986,-36.923029994953296,100 174.90204900206422,-36.92305099742364,100 174.90219200267748,-36.92316199760155,100 174.90228099242057,-36.92331700430399,100 174.90231199435829,-36.92345099469243,100 174.90231799376053,-36.923654003636244,100 174.90226699500445,-36.923814001893696,100 174.90226900002943,-36.92388099426809,100 174.90229999684405,-36.92399200209486,100 174.90233000222958,-36.92403700536707,100 174.90255899915502,-36.92421299206445,100 174.9026719915171,-36.924256005815174,100 174.90292499613108,-36.92427400226894,100 174.90334200056301,-36.92410900563883,100 174.90356600833815,-36.92410499392966,100 174.9039060002591,-36.92421100061761,100 174.90421500643936,-36.92422800626646,100 174.90427200068788,-36.92424999919524,100 174.90435800709872,-36.92431600579987,100 174.9044159973195,-36.924381995684946,100 174.90441999257553,-36.924540002378,100 174.9041239911109,-36.924951003358856,100 174.9040139995331,-36.92504300130267,100 174.90348700110772,-36.92527800574097,100 174.90337800283,-36.92537099214897,100 174.90326999707708,-36.9255299982748,100 174.90321800434708,-36.92568899343179,100 174.90323299538645,-36.926184006637584,100 174.90319200803648,-36.926747996930956,100 174.90313799834428,-36.92683900666093,100 174.90300199169917,-36.92695500263855,100 174.90275100663905,-36.927026998308335,100 174.90266900132826,-36.92709599838208,100 174.90250699521934,-36.92732499721743,100 174.90250899996295,-36.92739200577686,100 174.90253899302968,-36.92745799355825,100 174.90326799358564,-36.92744599356941,100 174.9034089995392,-36.92746599580364,100 174.90372099776783,-36.927594999701256,100 174.90411400368032,-36.92758700007252,100 174.90419899963268,-36.927608994615774,100 174.90445499485566,-36.927739000096665,100 174.90470900384824,-36.927780004154926,100 174.90485200417302,-36.927845005029056,100 174.90496699524604,-36.92793300326282,100 174.90505399613673,-36.928043997729404,100 174.90509099419228,-36.92812700642205,100 174.90514399559947,-36.92824499701016,100 174.90523000625566,-36.92831100280954,100 174.90525800568747,-36.928311004200594,100 174.9053520049309,-36.92847800014643,100 174.90539799175104,-36.92862400694596,100 174.90554500423457,-36.92880199257297,100 174.9060070091349,-36.92899499980772,100 174.9064399997057,-36.928988005356,100 174.9065959932068,-36.92904800497105,100 174.90676800545012,-36.929051998183354,100 174.90661399921103,-36.92957400193938,100 174.9063570012962,-36.929521996334515,100 174.90632700130703,-36.92951399301647,100 174.90585999324372,-36.929385998045355,100 174.90557199916262,-36.92930599500074,100 174.90537799554173,-36.9292529988076,100 174.9050170084454,-36.929146004128654,100 174.90500399818765,-36.929172995406134,100 174.9049540057769,-36.92915800283034,100 174.90496699773567,-36.929130997430654,100 174.90483499376927,-36.929089992673866,100 174.90470300717598,-36.92904900371312,100 174.90336700638406,-36.92857299898289,100 174.90315999614654,-36.92849199556626,100 174.90243799858428,-36.92821900074623,100 174.90228900774477,-36.92816700334949,100 174.90213900780856,-36.92811599895273,100 174.9020519921614,-36.92814599787368,100 174.90182699796821,-36.92807700266771,100 174.90178899190752,-36.92800700421051,100 174.9016860004502,-36.927976992335296,100 174.90158200472902,-36.92794699825507,100 174.9014780034087,-36.927917995618294,100 174.90137400104146,-36.927888992905984,100 174.90127000273964,-36.927862003573324,100 174.90097899517767,-36.92889999755745,100 174.90095999297952,-36.928965997694874,100 174.90062999205563,-36.928906003586484,100 174.90046600250116,-36.928875996314645,100 174.90018400195257,-36.92873400439612,100 174.90021400834775,-36.9286270023185,100 174.89985099402497,-36.9285619966512,100 174.89944099670385,-36.9284870067848,100 174.89915499742546,-36.928436006394854,100 174.89891999151305,-36.92831700310026,100 174.8989389953489,-36.928251003237165,100 174.8990419982874,-36.927881000207655,100 174.8991429996901,-36.92751999898047,100 174.89915499618658,-36.927478004115706,100 174.89836500389723,-36.92733500119175,100 174.89755199909033,-36.92716800627962,100 174.89740000158156,-36.92712099533128,100 174.89697299577043,-36.927044003568035,100 174.89676100399572,-36.92785699394535,100 174.89604100282705,-36.92773500100804,100 174.89593799854308,-36.92812900637287,100 174.8958349929041,-36.92852299633734,100 174.89565600532808,-36.92920800730297,100 174.89532700706764,-36.92926599342301,100 174.89485600182135,-36.9292210036936,100 174.89371800362213,-36.92936500025025,100 174.89369200053318,-36.929378000930406,100 174.8936329943632,-36.929405998559865,100 174.8935550032747,-36.92926900664628,100 174.89349599146024,-36.92919200192625,100 174.89355500514418,-36.92916299657476,100 174.89377600517798,-36.92905300143421,100 174.89395500144167,-36.92836200009892,100 174.89407600612947,-36.92790399790438,100 174.89408199994836,-36.92790499198545,100 174.89410300564512,-36.92782599458177,100 174.89354000631744,-36.92772700173755,100 174.89297700140298,-36.92762899683693,100 174.8929442610983,-36.92775027708896,100 174.892867300019,-36.92761032363356,100 174.89275730774025,-36.92759114391878,100 174.8924139710725,-36.927531315024936,100 174.8924512401032,-36.9273933830205,100 174.89251994527763,-36.92713902630687,100 174.89251016227539,-36.92713733903769,100 174.8915984582819,-36.926978492720565,100 174.89160499399608,-36.92695299492089,100 174.89175900368943,-36.926383002376745,100 174.89179900859608,-36.92623500342036,100 174.89156599952827,-36.92616899324074,100 174.8915599961607,-36.926201993229455,100 174.89155300058997,-36.92623600137267,100 174.89154400626654,-36.92626899222283,100 174.8914320061725,-36.92668399558676,100 174.8907929938511,-36.92654800703401,100 174.8907270010794,-36.92653400135857,100 174.8906589940696,-36.92671499868168,100 174.89059699282214,-36.92687899344924,100 174.89058599669485,-36.92690899939609,100 174.89057399806853,-36.9269390068823,100 174.89050600718593,-36.92712000295751,100 174.89021099461434,-36.92705699804542,100 174.8898219929723,-36.92697499416524,100 174.88971899865527,-36.92695299358189,100 174.88944199472925,-36.92689399220976,100 174.88927800275738,-36.92660699231232,100 174.88906499969062,-36.92646700240067,100 174.88898000616015,-36.926349999023444,100 174.88900700342884,-36.926168001997624,100 174.8890569923945,-36.92609899870137,100 174.8891719958839,-36.92593799474828,100 174.88953699697328,-36.92555500321414,100 174.88950000407397,-36.92554600275745,100 174.88937399240754,-36.925515005225655,100 174.8877249493304,-36.92510521654678,100 174.8875759926789,-36.925072992825896,100</coordinates></LinearRing></outerBoundaryIs>
    </Polygon>
  </Placemark>

  <Placemark>
    <name>Burswood</name>
    <Point>
      <altitudeMode>relativeToGround</altitudeMode>
      <coordinates>174.89706657986932,-36.924395248959385,100</coordinates>
    </Point>
  </Placemark>

</Document>
</kml>