<?xml version="1.0" encoding="utf-8"?>
<kml xmlns="http://www.opengis.net/kml/2.2">
<Document>
  <name>Clover Park (polygon: official_shp)</name>
  <open>1</open>

  <Placemark>
    <name>Clover Park (polygon: official_shp)</name>
    <Style>
      <LineStyle><color>ffff0000</color><width>2</width></LineStyle>
      <PolyStyle><color>66ff0000</color><fill>1</fill><outline>1</outline></PolyStyle>
    </Style>
    <Polygon>
      <tessellate>1</tessellate>
      <altitudeMode>relativeToGround</altitudeMode>
      <outerBoundaryIs><LinearRing><coordinates>174.88644900750356,-36.97432800015421,100 174.88646199986454,-36.97433299240672,100 174.88658400261087,-36.974024000095824,100 174.88666400047967,-36.97407499456007,100 174.88677299747604,-36.97414499627712,100 174.886883995408,-36.97421600078423,100 174.88689400295667,-36.974243005379044,100 174.8869259919444,-36.974324991955356,100 174.88696500219552,-36.97442399990254,100 174.88699300070786,-36.9744960056967,100 174.8870019994237,-36.97451900196866,100 174.88699800768904,-36.97461800228083,100 174.88699799496086,-36.97463599894862,100 174.88699399768151,-36.974738004316144,100 174.8869920049142,-36.974786993378494,100 174.88698808106398,-36.97488910663479,100 174.88695523314925,-36.97493996706688,100 174.88686087340423,-36.97508603291638,100 174.88685467321315,-36.97525095411632,100 174.88684845541044,-36.975415844947605,100 174.88672878399018,-36.97541296506578,100 174.88671800108574,-36.97569851657352,100 174.8874193074862,-36.97571556158819,100 174.8874275741456,-36.97571537063822,100 174.88743573219517,-36.97571437564358,100 174.88744369559205,-36.97571259509748,100 174.88745134491708,-36.97571006064237,100 174.8874585417281,-36.97570680692712,100 174.88746520141697,-36.97570286504062,100 174.88747122186595,-36.97569833034319,100 174.88747651626562,-36.97569323576138,100 174.88767184267672,-36.975697936415244,100 174.88767674542973,-36.9757032708048,100 174.88768241410773,-36.97570809639019,100 174.88768875920778,-36.97571233708213,100 174.88769570959454,-36.97571593272288,100 174.887703142834,-36.97571883839152,100 174.88771097204742,-36.97572099327941,100 174.88771905651222,-36.975722385203724,100 174.88772727529565,-36.97572298454208,100 174.8879257683542,-36.97572772183666,100 174.88794005140784,-36.97534887586124,100 174.8880929983585,-36.975352999843714,100 174.8881289922454,-36.97535300587269,100 174.88813499428045,-36.97519999680623,100 174.88813999684882,-36.975065001900134,100 174.88839499751177,-36.97507200214635,100 174.8884800010719,-36.975074000700104,100 174.88861099183114,-36.975077006045474,100 174.88859799729818,-36.975420998640836,100 174.88875800170294,-36.97542499864403,100 174.88884599852767,-36.97542700607785,100 174.88894600503528,-36.97542900436967,100 174.88910699571605,-36.975433001723864,100 174.88913400139307,-36.975433999546354,100 174.88932200476353,-36.97543800557596,100 174.8895319944813,-36.97544300332414,100 174.88964500725936,-36.975445997206414,100 174.88972000775968,-36.97544799910396,100 174.88985800785738,-36.975451004122576,100 174.88986700399508,-36.975209000664805,100 174.89016099558972,-36.975119992406555,100 174.89014800020973,-36.97545799228829,100 174.89031899366879,-36.975461999040256,100 174.890372995195,-36.97546300554595,100 174.89050700696856,-36.97546699266921,100 174.89067299909237,-36.97547099385225,100 174.89069499353093,-36.9754709958862,100 174.8908599993781,-36.97547499809803,100 174.89088300725274,-36.97547600513517,100 174.8910709938086,-36.97548000685426,100 174.89108199925997,-36.97548000004251,100 174.8912199976994,-36.97532900031465,100 174.89133000828326,-36.975207002635265,100 174.8913400045804,-36.97519600058069,100 174.8915890045171,-36.975349995842095,100 174.89148200096514,-36.97545400706707,100 174.89148100703179,-36.97548999958424,100 174.89166899365657,-36.97549400215586,100 174.89172800536556,-36.97549600435209,100 174.89185700702976,-36.97549899364078,100 174.89204499364794,-36.97550299471451,100 174.89223300744342,-36.97550800181942,100 174.89226999254169,-36.97547699835677,100 174.89242099674522,-36.975520999125386,100 174.89246100383704,-36.97553299756655,100 174.892640008732,-36.97558400359705,100 174.89266499608374,-36.975590998567334,100 174.89291500378786,-36.975662999019804,100 174.89291100643806,-36.97576599681762,100 174.8929080031665,-36.97584700032917,100 174.89299219726797,-36.975849117604206,100 174.89323033515547,-36.9755868659363,100 174.8933909694028,-36.97568072009144,100 174.89340602325,-36.97575753557494,100 174.89408444300165,-36.97586115704331,100 174.8941810002695,-36.97551100404524,100 174.89420299732177,-36.975432997068665,100 174.89424400735646,-36.97528299739639,100 174.8942710050787,-36.9751839957115,100 174.89437499154542,-36.97481000240666,100 174.89472199626823,-36.97503400598634,100 174.89494099753122,-36.975176005228555,100 174.89515900410254,-36.975316999654495,100 174.8953710080934,-36.97510700618572,100 174.89542300029922,-36.97514100155484,100 174.89521200058985,-36.975350992597704,100 174.89543899580048,-36.9754979925894,100 174.89566599300124,-36.97564499210072,100 174.89576199463167,-36.9757070045822,100 174.89598700832624,-36.97579199804548,100 174.89617099915876,-36.97586200607501,100 174.89624099572669,-36.97588800362371,100 174.89638900191298,-36.975636000566865,100 174.8964199935661,-36.975648001111615,100 174.89627200542907,-36.975900003917346,100 174.89672600704276,-36.97607100018888,100 174.8967869957444,-36.97610799673066,100 174.8970140049103,-36.97624199923371,100 174.89706900135306,-36.97627499675939,100 174.89715100364026,-36.97632300559814,100 174.89738800055787,-36.97646400410138,100 174.89763199516807,-36.97660899839542,100 174.89795400119448,-36.976799004316135,100 174.89794199881814,-36.97684299714702,100 174.89793400620314,-36.97687099883059,100 174.8979179921618,-36.97693099815746,100 174.89787100641934,-36.976903002286214,100 174.89758300414437,-36.97673200456361,100 174.89752600790214,-36.976749995643,100 174.89739100137973,-36.977244996834585,100 174.89781300830492,-36.97731800709025,100 174.8976919958662,-36.97776199516165,100 174.89768800366514,-36.97777299907801,100 174.89768400218574,-36.977782996381045,100 174.89767799331665,-36.97779299874217,100 174.89767199199082,-36.977801993319524,100 174.89766500477768,-36.97781100636439,100 174.8975839963702,-36.9778489938918,100 174.8980180004384,-36.97791699225041,100 174.898033995267,-36.977854995023876,100 174.89839600413438,-36.977919006810815,100 174.8983530071428,-36.97807900081866,100 174.8986639931482,-36.978200993365284,100 174.89872600876404,-36.977976997727836,100 174.89907699319983,-36.97803900172691,100 174.8990680052079,-36.97807299958584,100 174.89902899404086,-36.978222996722174,100 174.898989999555,-36.978372992675965,100 174.89895299131794,-36.978514003239034,100 174.89929000281325,-36.97857499805519,100 174.8992820065936,-36.97860600393611,100 174.89934400171992,-36.97864299742307,100 174.89949099307773,-36.978730997436045,100 174.89954499486726,-36.978763002924,100 174.8996920010208,-36.97884900424378,100 174.89972499546212,-36.97886900699907,100 174.89973800698016,-36.97889299974333,100 174.89980600114464,-36.97902099755978,100 174.89987700647592,-36.97904000513338,100 174.90001100448114,-36.979142000690324,100 174.89995599262946,-36.97934100239452,100 174.90120700552941,-36.980081994557956,100 174.90190500094684,-36.980495992679536,100 174.90194899399742,-36.9805219951939,100 174.90199300504543,-36.98054799740303,100 174.90193200455863,-36.98075000082152,100 174.9018140023777,-36.980680001778964,100 174.90177599474765,-36.9807209993335,100 174.90159700401026,-36.980918001886266,100 174.90155099377742,-36.98107899427853,100 174.90151199674492,-36.9812179959458,100 174.90150600493547,-36.9812400009307,100 174.9014609979275,-36.98140100695398,100 174.9014150040045,-36.981561999027576,100 174.90136899601404,-36.981725005729245,100 174.90147699371212,-36.981743005925686,100 174.90140899939072,-36.98199500037484,100 174.9014349992835,-36.98199900291738,100 174.9015920055173,-36.98202699741393,100 174.90167399586392,-36.98198499320787,100 174.9016009993541,-36.98224200166393,100 174.9015630064204,-36.98237599940627,100 174.90121199872772,-36.98231200344951,100 174.90118300519333,-36.982414993438525,100 174.9009839961599,-36.98237999299162,100 174.90078299665677,-36.98234499795078,100 174.90069900280614,-36.98230300294529,100 174.90065499789364,-36.982464007037024,100 174.9006490053498,-36.98248599576696,100 174.90061100174788,-36.98262600240853,100 174.90060600732866,-36.98264399317496,100 174.9008009924695,-36.98267799425449,100 174.90109499587638,-36.982729999669914,100 174.90105799996897,-36.98285999930733,100 174.90101199307372,-36.98302500313701,100 174.90096500711388,-36.98318900054766,100 174.90131600072726,-36.98325299740575,100 174.90126700658308,-36.98342900276612,100 174.90091599388393,-36.98336499256023,100 174.90087900641316,-36.983493999662535,100 174.9008690000393,-36.983529997717326,100 174.90083500154452,-36.98365000244166,100 174.9008229999152,-36.98369399459845,100 174.90075200279196,-36.98383499930121,100 174.9007009987238,-36.98393499874589,100 174.90067999427512,-36.983976997177095,100 174.90060800236822,-36.984118995644806,100 174.90076000066426,-36.984164996584774,100 174.90098399858118,-36.984232002655105,100 174.90128160535983,-36.98433269699137,100 174.901592713428,-36.98433089210877,100 174.90160748407618,-36.98420332868749,100 174.9016073091065,-36.98420261855732,100 174.90168100017584,-36.9841070059849,100 174.90191399620878,-36.98414800309707,100 174.90212699899894,-36.98411800158868,100 174.90220100585398,-36.98410799608269,100 174.9023530069063,-36.98408699807718,100 174.9024540072418,-36.98407300044251,100 174.9025439918922,-36.984060002215834,100 174.9027320023155,-36.983985000563976,100 174.90291199482235,-36.98391300685871,100 174.9030950052493,-36.98383999918773,100 174.90339200352204,-36.983734999932345,100 174.9036310048388,-36.98374500596858,100 174.90364000763554,-36.98374199810458,100 174.90364599212205,-36.98374500530732,100 174.90438099665542,-36.98377699655704,100 174.90481399891883,-36.983794996394394,100 174.90497100669157,-36.983802001201674,100 174.9050440014766,-36.98380500431149,100 174.90528300270051,-36.983814991691034,100 174.90548700728837,-36.98382299432424,100 174.90569000123614,-36.98383200607461,100 174.90590900327885,-36.983840997431166,100 174.90615599342652,-36.98385200481231,100 174.90640900626875,-36.98386299694699,100 174.90651499812844,-36.98386699678642,100 174.90659899328924,-36.98387099841899,100 174.906681991502,-36.98387399302678,100 174.90676500028798,-36.98387799596825,100 174.90684900214623,-36.983881004977526,100 174.90693199369298,-36.983884991855355,100 174.9071919985575,-36.98389599885037,100 174.90730599297865,-36.983987993687975,100 174.90743000381192,-36.984088004970154,100 174.90759600748092,-36.984223003099366,100 174.90760499153282,-36.98422999973519,100 174.90746299402713,-36.98428000543216,100 174.90742999961782,-36.984334002135576,100 174.9074750056075,-36.98435199437131,100 174.90720000093285,-36.98479699166187,100 174.90706399364464,-36.98495700418037,100 174.90694899227046,-36.98517300432695,100 174.90674299428605,-36.985088006156374,100 174.90653599372934,-36.985009994429994,100 174.90633699637624,-36.98493599167133,100 174.9062909980598,-36.98498600588337,100 174.90613099660206,-36.984860997847626,100 174.90599899694817,-36.984980997104266,100 174.90586300500757,-36.98510500084345,100 174.90572700209324,-36.98522799694558,100 174.90561699720368,-36.98532899274648,100 174.9054990043934,-36.985435998632994,100 174.90534600352078,-36.98557600539772,100 174.90513600389406,-36.985766993692614,100 174.90514900350186,-36.98579800174204,100 174.90511400130114,-36.98578700440623,100 174.9048369939268,-36.98569699775593,100 174.90469899786868,-36.985856004843036,100 174.90454999808566,-36.985810992007686,100 174.90454900682053,-36.985813997549606,100 174.90445299644347,-36.98611900641883,100 174.9043699929643,-36.986382000286646,100 174.90431700651928,-36.986552997375824,100 174.90430199979576,-36.986600993001396,100 174.90427499813327,-36.98674500258175,100 174.90424299295609,-36.98691999913615,100 174.90423899867304,-36.986940991561674,100 174.90420599313026,-36.9871230064035,100 174.9041700086697,-36.98731699601782,100 174.9041460039866,-36.98744599308315,100 174.9041209963714,-36.987581993160326,100 174.90407899238363,-36.987809000434815,100 174.90383300516322,-36.987775003008224,100 174.90355599610737,-36.98773699976127,100 174.90360300376793,-36.98750999801047,100 174.9036509949665,-36.9872809957828,100 174.90366300107704,-36.98722199565331,100 174.90362700034882,-36.98721499497421,100 174.90340099223238,-36.98717299429538,100 174.90321500185382,-36.98713800258157,100 174.90317900117822,-36.98713100086319,100 174.9029249928063,-36.9870839954175,100 174.90277799746806,-36.98705599735092,100 174.90254099855713,-36.98701200540764,100 174.9025340030769,-36.987010006700004,100 174.90247399168703,-36.98699899944065,100 174.90246700667947,-36.98699800732049,100 174.90210800330442,-36.98693099605332,100 174.9018729947893,-36.986886998801744,100 174.90155595146928,-36.98682719259321,100 174.90156602747516,-36.98700773410861,100 174.9015760016101,-36.98718702443385,100 174.90158307498817,-36.98731533376192,100 174.90155591834224,-36.98731652331301,100 174.90144759584885,-36.98722302965411,100 174.90133125792954,-36.987044589978204,100 174.90123644701697,-36.98690146999882,100 174.90117256677237,-36.98686921897216,100 174.9011934237006,-36.98683445491399,100 174.90118678464015,-36.98680245222432,100 174.9011524647119,-36.98676068299239,100 174.90103314555066,-36.98661935609474,100 174.90068263263427,-36.986717268888306,100 174.90067259982771,-36.98671114206102,100 174.90071460931802,-36.986535925742686,100 174.90074155809805,-36.98645493440452,100 174.90064600597384,-36.986460006946785,100 174.90017700250118,-36.98648300025442,100 174.90004599476114,-36.98648900505692,100 174.89990499331532,-36.98649600702679,100 174.89963200653716,-36.986510006743046,100 174.8995719969519,-36.9865129979766,100 174.89920399859886,-36.98653100512914,100 174.89920499676862,-36.98664799232843,100 174.89920499635997,-36.98685900543361,100 174.89920599989384,-36.98715999255837,100 174.89924299447577,-36.98721099310341,100 174.89899799234766,-36.98727699957834,100 174.89896100257187,-36.98728700474368,100 174.89873199382075,-36.98734800666191,100 174.8987160075045,-36.987352004669454,100 174.898500008177,-36.9874089980827,100 174.89847099403062,-36.98741700438788,100 174.8982840009795,-36.98746699889305,100 174.8982529966876,-36.987474992816246,100 174.89807699951655,-36.98752200623925,100 174.89801200566018,-36.98753899169446,100 174.897803006147,-36.98759499402056,100 174.89776700246128,-36.98760499656648,100 174.89764599538364,-36.98763699654662,100 174.89750299916298,-36.98767500461071,100 174.89726299323306,-36.987738999747954,100 174.89723699844794,-36.98774599218109,100 174.89701300338254,-36.98780499807783,100 174.89679399287988,-36.98786399328359,100 174.89688600730716,-36.98803299755414,100 174.89698100165472,-36.98821099602204,100 174.89710599318207,-36.98844299706892,100 174.89702699193782,-36.98854799233283,100 174.89699199258033,-36.98853200472562,100 174.8968950081644,-36.98866299355317,100 174.8968759989716,-36.98871099728475,100 174.89682199705962,-36.988847999303545,100 174.89675100528962,-36.98902900427687,100 174.89667199205905,-36.98923000402407,100 174.89661000240875,-36.989229001997295,100 174.89626800159073,-36.989218992074456,100 174.89623000154535,-36.989218002176585,100 174.89621500232852,-36.9893819949329,100 174.8962349935363,-36.989613004964035,100 174.89625600188683,-36.989729006371576,100 174.89628199295174,-36.989823997096885,100 174.896302992385,-36.989880001329276,100 174.89617700543465,-36.98985899785234,100 174.8958349935154,-36.989935001331595,100 174.8958420044347,-36.98992300018303,100 174.89584899202026,-36.989912005265545,100 174.89585499962035,-36.98990000572448,100 174.89586000242272,-36.98988799339417,100 174.89586399228455,-36.989875006710186,100 174.89586700532428,-36.98986299822802,100 174.8958690050441,-36.98985000007617,100 174.89587100478568,-36.989837002825226,100 174.89587099637288,-36.989823992591816,100 174.8958700019406,-36.98981100171656,100 174.8958669990753,-36.98976499560261,100 174.89566800487665,-36.98982899572781,100 174.89558999902215,-36.98980299890578,100 174.8954849965234,-36.98955500416458,100 174.8951469965425,-36.989667005576926,100 174.89503199389443,-36.98944700067861,100 174.89496500436385,-36.98932099601573,100 174.89452699819986,-36.98947300269259,100 174.89447200801237,-36.98937000221873,100 174.89412499224818,-36.989436998173005,100 174.89384100268896,-36.989490993592455,100 174.89387599488114,-36.989554993088234,100 174.89396600158474,-36.989721000582044,100 174.8941379947535,-36.990040006800996,100 174.8941580063889,-36.990076995192105,100 174.89392800194608,-36.99013300339422,100 174.89368399969769,-36.99019300379797,100 174.89367600551415,-36.99019500158112,100 174.89343899372514,-36.99025300529803,100 174.89342299614577,-36.990255996020295,100 174.89319299939237,-36.99031299322218,100 174.89294700615554,-36.9903729959448,100 174.89269799231144,-36.99043399541558,100 174.89245600379226,-36.990492997696606,100 174.89220845046427,-36.990553116613626,100 174.89226294558424,-36.99069675427848,100 174.89200924218326,-36.990754612135,100 174.89205400448287,-36.9908719931584,100 174.89213799428833,-36.99090800054733,100 174.89175120007505,-36.99100208359464,100 174.8916080497194,-36.99103696677238,100 174.89154548285157,-36.99105218313474,100 174.8914264003503,-36.99073831625301,100 174.8911930040906,-36.99079500056414,100 174.89094700758554,-36.99085500012381,100 174.89070100299836,-36.99091600516535,100 174.89045500565385,-36.990976002824524,100 174.89039599850875,-36.99081999632392,100 174.89003000621423,-36.99074899774974,100 174.88989300588196,-36.99093400278326,100 174.88992200012956,-36.99110600535877,100 174.88961399679042,-36.991089991875555,100 174.8893129938496,-36.99120100372118,100 174.88926200078453,-36.99121999856734,100 174.88919800667009,-36.99124399442925,100 174.88916300224923,-36.99120299239804,100 174.88917799799896,-36.99125100337926,100 174.8892250039021,-36.991305004976724,100 174.8894380039231,-36.99154899386711,100 174.88819500260675,-36.9918300022229,100 174.88799100704372,-36.99197600256543,100 174.88750600187186,-36.99208099537692,100 174.88746199899472,-36.99199799531655,100 174.8871999919665,-36.99207099624143,100 174.88677599363237,-36.99087399371948,100 174.88679799381734,-36.99074399883683,100 174.88652700173824,-36.990220006300056,100 174.88631600685454,-36.989808995581065,100 174.8861680056147,-36.98952200461125,100 174.88602399587487,-36.989242996876186,100 174.88563199981226,-36.988483003040635,100 174.885359001751,-36.987953993807146,100 174.88492800621958,-36.987118002951156,100 174.88447800839293,-36.986087003757746,100 174.88440200167105,-36.98591300158058,100 174.8843460043388,-36.9857850026179,100 174.88428400291897,-36.98565899891684,100 174.8841870051192,-36.98547100626442,100 174.88328700307963,-36.98372300124231,100 174.88314900684998,-36.983455005426556,100 174.88261000042354,-36.982405001096915,100 174.8825579983624,-36.98242300588117,100 174.88237300265624,-36.98213199334818,100 174.8822419951433,-36.981925002427154,100 174.88211100683213,-36.98171999212148,100 174.88199799830144,-36.98154299406941,100 174.88187499403998,-36.98134899615742,100 174.881737999707,-36.981133001728345,100 174.88166999683696,-36.9810259948123,100 174.88151499280943,-36.98085999741993,100 174.88158700150106,-36.980843997682,100 174.88178600463644,-36.98079999955161,100 174.8815690013331,-36.98037799733617,100 174.88157799598469,-36.98033500373047,100 174.88153200012835,-36.98030699917626,100 174.8815199942156,-36.980209996702825,100 174.88151599291692,-36.980075004171574,100 174.88206800837784,-36.979834005318786,100 174.8818780022423,-36.97948099259478,100 174.8816820037417,-36.97911499741968,100 174.88200299630506,-36.979038007408576,100 174.88221500066535,-36.978988003404716,100 174.88224700731237,-36.97897999598758,100 174.88242500499908,-36.979012992742184,100 174.88251400112463,-36.979029993992874,100 174.88260300435124,-36.97904600542469,100 174.88278099563925,-36.979080006703384,100 174.88286700478162,-36.979096006849154,100 174.88297399212217,-36.97911599317596,100 174.88301000534744,-36.97912300000708,100 174.88315800649013,-36.97914999836814,100 174.88320499725998,-36.97898800470418,100 174.88325899257146,-36.97880100207196,100 174.88325799239504,-36.97865999440867,100 174.8833059985549,-36.978494002597074,100 174.8833470004842,-36.9783550043997,100 174.88338899994883,-36.97820999483972,100 174.88339000916886,-36.978207003598314,100 174.8834169933425,-36.97811399817327,100 174.883431999582,-36.97806300002801,100 174.88343299157654,-36.978059993737304,100 174.8834750002065,-36.97791600608503,100 174.88347600906434,-36.97791300042763,100 174.8835170051066,-36.97777000494822,100 174.88351800484833,-36.977765991769964,100 174.8835600050481,-36.9776229956605,100 174.88356100404064,-36.97761899781601,100 174.88359699709068,-36.977496998420314,100 174.8836030020287,-36.977474004421076,100 174.883576995715,-36.97746900569383,100 174.8836190033949,-36.977325001776485,100 174.88362099325906,-36.977317998558135,100 174.88362599101785,-36.977299992171396,100 174.88366399313765,-36.97717100365022,100 174.88367700359373,-36.977122999754656,100 174.88372600094905,-36.9769559996828,100 174.88379199277443,-36.97672900089461,100 174.88382600189306,-36.976612997786034,100 174.8838340017884,-36.97658699507946,100 174.8835120042013,-36.9765299999087,100 174.88341299922536,-36.976511996410935,100 174.88342700873326,-36.97645999469269,100 174.8834410002565,-36.97640799325803,100 174.88347500151858,-36.97628399934363,100 174.88353799208656,-36.97627699966316,100 174.88372599426026,-36.976256001388926,100 174.88381799587947,-36.975955000431156,100 174.8840230052046,-36.9759919987802,100 174.8841229930585,-36.97602200154564,100 174.8842239967883,-36.976040992107855,100 174.88430700053493,-36.97574200656042,100 174.88447000133473,-36.97577100228063,100 174.88450300095653,-36.975590993108916,100 174.8845130058252,-36.975593002802555,100 174.88452300706558,-36.97559299812361,100 174.88453299260712,-36.97559299459441,100 174.8845430019666,-36.975591998343134,100 174.88455299450405,-36.975591003259446,100 174.8845630014005,-36.9755879944189,100 174.8845720055648,-36.975585003302335,100 174.88458099950236,-36.97558100558347,100 174.88458899694777,-36.97557600340352,100 174.8845969943699,-36.975571000322084,100 174.88460299219088,-36.97556499518859,100 174.8846099934975,-36.9755590029623,100 174.8846149948253,-36.97555199336797,100 174.88461999653006,-36.975544999089735,100 174.88462299861203,-36.9755370018591,100 174.88462600069343,-36.97552900462841,100 174.8848500057692,-36.97555499865841,100 174.8848489931064,-36.975562992240924,100 174.8848479999111,-36.97557100083652,100 174.88484799147986,-36.97557899199033,100 174.88484900452463,-36.97558699666521,100 174.88485100385716,-36.975595000097655,100 174.88485499368764,-36.975602998957925,100 174.8848590073551,-36.97561000599781,100 174.88486400803387,-36.97561699555996,100 174.88486900801297,-36.97562400225788,100 174.884876006206,-36.975629996595295,100 174.88488299459246,-36.975635001448985,100 174.8848910040564,-36.97564000360567,100 174.88489899667752,-36.97564500602929,100 174.88490800675962,-36.9756479922852,100 174.88491800350846,-36.9756509926137,100 174.88492699710366,-36.975653993550964,100 174.88493699180393,-36.97565499840874,100 174.8849470032595,-36.97565599939431,100 174.88528300164086,-36.97566399298714,100 174.88537699187728,-36.975330000162884,100 174.8853839946048,-36.975302992010455,100 174.88551700337817,-36.97530700341786,100 174.88571199683477,-36.97531100056854,100 174.8858319990199,-36.97531399880171,100 174.88583800820206,-36.97516300410982,100 174.88584299590536,-36.97501199590193,100 174.88584900504586,-36.974861000302525,100 174.8858530064049,-36.974746992138854,100 174.88585500607303,-36.97471099627022,100 174.88588100171586,-36.9745599931376,100 174.8859149993726,-36.97436399920838,100 174.8861369968363,-36.9739730070555,100 174.88615200063236,-36.973944992026716,100 174.88620599207195,-36.973954006947075,100 174.88639300665307,-36.97398800105913,100 174.88655700084232,-36.97401799844863,100 174.8864360070268,-36.97432399856954,100 174.88644900750356,-36.97432800015421,100</coordinates></LinearRing></outerBoundaryIs>
    </Polygon>
  </Placemark>

  <Placemark>
    <name>Clover Park</name>
    <Point>
      <altitudeMode>relativeToGround</altitudeMode>
      <coordinates>174.89220823142313,-36.982833679177524,100</coordinates>
    </Point>
  </Placemark>

</Document>
</kml>