<?xml version="1.0" encoding="utf-8"?>
<kml xmlns="http://www.opengis.net/kml/2.2">
<Document>
  <name>Cockle Bay (polygon: official_shp)</name>
  <open>1</open>

  <Placemark>
    <name>Cockle Bay (polygon: official_shp)</name>
    <Style>
      <LineStyle><color>ffff0000</color><width>2</width></LineStyle>
      <PolyStyle><color>66ff0000</color><fill>1</fill><outline>1</outline></PolyStyle>
    </Style>
    <Polygon>
      <tessellate>1</tessellate>
      <altitudeMode>relativeToGround</altitudeMode>
      <outerBoundaryIs><LinearRing><coordinates>174.94403628346655,-36.89339731347239,100 174.94404093088568,-36.893403432417244,100 174.94405259383294,-36.893411322703855,100 174.94405650134377,-36.89341318755977,100 174.94405835534198,-36.89341461103335,100 174.94407390939065,-36.893424382665714,100 174.9440784649017,-36.89342781601535,100 174.9440980027545,-36.893439761302446,100 174.94410274586792,-36.89344187566362,100 174.9441077414149,-36.8934455803156,100 174.94411265057025,-36.89344866627803,100 174.94411745424404,-36.89345108879774,100 174.94412144782893,-36.893453603891935,100 174.9441335659628,-36.89345917755618,100 174.94413822270892,-36.893460674127525,100 174.94416385262676,-36.893470403407754,100 174.94418611739567,-36.89347660143898,100 174.94420503335698,-36.8934792490281,100 174.94420981783188,-36.89347910131365,100 174.94421679159217,-36.89348001376073,100 174.94423461995248,-36.8934808386662,100 174.94423629294047,-36.893481319622474,100 174.9442390675887,-36.8934810371604,100 174.94424522300807,-36.89348171694237,100 174.94424936265966,-36.89348260277135,100 174.9442603619696,-36.89348344211279,100 174.94428388332946,-36.89347950322013,100 174.94429313226553,-36.893479553719274,100 174.94430514293873,-36.89348190873364,100 174.94431669058352,-36.89348627043824,100 174.9443256475386,-36.893486975560975,100 174.94433931552996,-36.89348432909665,100 174.94434465804406,-36.893482513826214,100 174.9443451226995,-36.89348242870718,100 174.94434991266053,-36.89348249721238,100 174.9443624051261,-36.89348044502576,100 174.94436877816096,-36.89348023705103,100 174.94437231518623,-36.89347935264737,100 174.94441275716775,-36.89347659596974,100 174.94448125471467,-36.89347943682017,100 174.94449414509327,-36.89348174496681,100 174.9445322850144,-36.89348507013907,100 174.94455342852646,-36.89348286618593,100 174.94459394500007,-36.89350070599994,100 174.9446833720001,-36.89350557099993,100 174.94469656396237,-36.893497888156176,100 174.94470547953088,-36.893501359610696,100 174.9447122914844,-36.89350509308312,100 174.94472063456982,-36.89350858156627,100 174.9447333613742,-36.89351558640238,100 174.94473807979065,-36.89351677098729,100 174.9447440949747,-36.89351926467821,100 174.9447674287728,-36.893534642093194,100 174.9447805298501,-36.893538928745706,100 174.94478344162542,-36.89353918571476,100 174.9447881425086,-36.893540386808354,100 174.94479491694995,-36.893540961788496,100 174.9448015447706,-36.893539960068736,100 174.94480709911534,-36.89353893085931,100 174.94481523421044,-36.89353621359682,100 174.94482123709022,-36.8935320323621,100 174.9448262525135,-36.89352966541435,100 174.94483372553313,-36.893525488949756,100 174.9448460381514,-36.89351949010402,100 174.94485194997623,-36.8935157447915,100 174.94486282633324,-36.89350718539689,100 174.94486648020708,-36.89350493628029,100 174.94487009543718,-36.893501960436794,100 174.9448800353693,-36.8934908151846,100 174.94489263180344,-36.893472654778996,100 174.9448970588286,-36.8934615628397,100 174.94489793060472,-36.89345748995336,100 174.94489742089883,-36.8934534568124,100 174.94489869358685,-36.893446433673674,100 174.9448986023513,-36.8934394346705,100 174.94489946046323,-36.893436105591014,100 174.94490113278306,-36.8934235616765,100 174.94490222461312,-36.89336975434769,100 174.94490352227953,-36.89336420174246,100 174.94490472487894,-36.893352781344355,100 174.94490563142045,-36.89335056459321,100 174.94490556686134,-36.89334576615922,100 174.94490644216324,-36.893342451219176,100 174.9449087781066,-36.89331405225898,100 174.94490968467045,-36.893311836408735,100 174.9449109584773,-36.89330481325147,100 174.94491128735552,-36.893304130885554,100 174.94496150400005,-36.89329430099997,100 174.9449852020001,-36.893289661999965,100 174.94504757200002,-36.89326332499996,100 174.94508670739137,-36.89328297474114,100 174.94508754298855,-36.89328459937228,100 174.94509757054803,-36.8932921161527,100 174.94511299652643,-36.893301038004246,100 174.94511979361448,-36.89330423000777,100 174.9451256918909,-36.89330561066992,100 174.9451383685554,-36.89331201060162,100 174.9451415343842,-36.89331272757771,100 174.94514426259343,-36.89331450625623,100 174.9451478676734,-36.89331484469805,100 174.94514834053072,-36.893316276351094,100 174.94515196088145,-36.893318409957885,100 174.9451632674126,-36.89332158309156,100 174.94516689002822,-36.89332190502197,100 174.94517856962761,-36.89332107562355,100 174.9451885444106,-36.893317441001784,100 174.94521988700012,-36.89332590299995,100 174.94530690300007,-36.89333924499993,100 174.94532367938493,-36.89334783679871,100 174.94532708646665,-36.89335123573575,100 174.94533471692174,-36.89335348952166,100 174.9453787550001,-36.89337604299993,100 174.94542151300004,-36.89340487799995,100 174.9455586260001,-36.893425838999974,100 174.94568071598565,-36.8934411815418,100 174.94569207892084,-36.893446464068965,100 174.9457052753204,-36.893449818902745,100 174.94571074843887,-36.8934520438195,100 174.94572395111862,-36.893455027207466,100 174.94572531622362,-36.89345686154992,100 174.94573029851966,-36.893459466748084,100 174.94573619256732,-36.89346315480948,100 174.945753986711,-36.89346652084761,100 174.9457589896524,-36.89346799455885,100 174.94576353583287,-36.89346986421802,100 174.9457727282211,-36.89347441405921,100 174.9458072430001,-36.893493493999976,100 174.94586577765247,-36.89352990954984,100 174.94586703800178,-36.89353153005239,100 174.9458675574011,-36.89353218671226,100 174.94587177864065,-36.893540350149244,100 174.94587187805155,-36.89354391140981,100 174.9458736569312,-36.89354387776116,100 174.94587890728477,-36.893556685026645,100 174.9458812252137,-36.893559849417635,100 174.94588170712322,-36.89356163693773,100 174.945883606121,-36.8935658915696,100 174.9458846872989,-36.893573027576295,100 174.94588657892064,-36.893577654571104,100 174.9458889109359,-36.893581903911624,100 174.94589259901966,-36.893586482548365,100 174.94589410965492,-36.89359289858104,100 174.9458982874838,-36.89359891039336,100 174.9459019294121,-36.89360242263168,100 174.9459052357778,-36.89360880564031,100 174.9459076073084,-36.893614478407144,100 174.9459139011036,-36.89362071517257,100 174.94592956700012,-36.89365604499994,100 174.94593324900006,-36.89365903399993,100 174.94598052200004,-36.89369740399996,100 174.94603587200004,-36.89370493599994,100 174.94606721700006,-36.893698092999955,100 174.94611383400002,-36.893672012999964,100 174.94619983200005,-36.89364528799995,100 174.94625780800004,-36.89365277699993,100 174.94633244700003,-36.893695856999955,100 174.9463514670001,-36.89372086199995,100 174.94634187700012,-36.89375688299998,100 174.94631851500003,-36.89376781499994,100 174.94631680000012,-36.89380370699996,100 174.9463306513035,-36.89381638424529,100 174.946329004394,-36.893826067593935,100 174.94632997008497,-36.89382781563873,100 174.94633009170943,-36.89383030667644,100 174.94633243587347,-36.893833796002085,100 174.94633560177422,-36.89383513304773,100 174.94633868470802,-36.893834705781416,100 174.9463470011425,-36.89383232523768,100 174.94634796047714,-36.89383222625797,100 174.94644239541205,-36.8939186565298,100 174.94644224217802,-36.89392373584468,100 174.9464434508504,-36.893931117616866,100 174.94644000031275,-36.89398029028842,100 174.9464422217932,-36.89398615027155,100 174.94644216130234,-36.89398770061911,100 174.94644656345505,-36.89400174573906,100 174.9464493093322,-36.89400536638004,100 174.946453975495,-36.89400656797585,100 174.94645643644625,-36.894009264933885,100 174.94645894661974,-36.89401124904831,100 174.94646239821589,-36.89401292120348,100 174.94646531013353,-36.89401565673814,100 174.94647434945352,-36.8940205730827,100 174.9464864827194,-36.89402606964331,100 174.94648810890942,-36.8940279763095,100 174.94649402146027,-36.89403234542096,100 174.946500534218,-36.894035295043324,100 174.9465082733452,-36.89403943142546,100 174.94652010486723,-36.89404343043939,100 174.94653002817898,-36.89404842422682,100 174.94653405576236,-36.89404904862858,100 174.94654095969395,-36.894052377599934,100 174.94654882343076,-36.894055411434636,100 174.94657230343552,-36.89406053275926,100 174.9465878873311,-36.89406333371639,100 174.9465979844983,-36.89406651301063,100 174.94660358001565,-36.89406940104781,100 174.94662748487318,-36.894074902061774,100 174.9466327548544,-36.89407668141039,100 174.94665239832378,-36.89407937797241,100 174.94666050193737,-36.89407988329193,100 174.94667139923487,-36.8940794856768,100 174.94668123721206,-36.89408081070534,100 174.94669436114378,-36.89408528243944,100 174.946721368979,-36.89409171861462,100 174.9467275892918,-36.89409282983325,100 174.94673247703304,-36.89409391872756,100 174.9467581712885,-36.894097281316185,100 174.9467750697372,-36.8940976280608,100 174.94678471618343,-36.89409887870703,100 174.94678652005075,-36.894098458873245,100 174.9467916055538,-36.89409982302932,100 174.94680439201184,-36.894100242573494,100 174.94681267232752,-36.894101519213834,100 174.94684012266086,-36.89410271328616,100 174.9468516438897,-36.89410611437447,100 174.94686310990875,-36.894106944922044,100 174.9468726972988,-36.89410671026477,100 174.94689651249956,-36.89410837220117,100 174.94690616874598,-36.89410996427426,100 174.94691671252744,-36.89411119930008,100 174.9469235533707,-36.894111028585286,100 174.94692768566662,-36.89411166657955,100 174.9469386581191,-36.89411215099417,100 174.94696595812812,-36.894108576854435,100 174.94697089264147,-36.894107001593845,100 174.9469768041954,-36.89410576543487,100 174.9469826609235,-36.89410378478887,100 174.94699854078323,-36.894100478954975,100 174.9470131107793,-36.894099766935994,100 174.94702497886774,-36.894099506598344,100 174.94703277367574,-36.89410004759895,100 174.9470660377887,-36.89409779163365,100 174.9470742437079,-36.894097597631976,100 174.9470820381726,-36.8940981692796,100 174.94709724891226,-36.89410182892804,100 174.94710869812974,-36.89410266062859,100 174.94712023731643,-36.894106061396286,100 174.9471248081033,-36.894106335275836,100 174.94712986584392,-36.894107313209396,100 174.94714407211694,-36.89410845032078,100 174.94716156317253,-36.89411206897425,100 174.9471781980608,-36.89411719062873,100 174.94719338069632,-36.89412049470701,100 174.94720077740283,-36.894122900729066,100 174.94720630174697,-36.89412387010874,100 174.94722242816533,-36.8941275291507,100 174.94722936843675,-36.89413029957333,100 174.9472390520943,-36.89413226341185,100 174.94724965455947,-36.8941349683878,100 174.9472556103221,-36.894135913567574,100 174.94726302388025,-36.89413832021074,100 174.94727632827693,-36.89414057439671,100 174.94729190938932,-36.89414202784436,100 174.94731166114937,-36.89414487754707,100 174.94733445073487,-36.89414322856431,100 174.94735555585265,-36.89414568202717,100 174.94736810617084,-36.89415124827049,100 174.94737132248304,-36.89415191839168,100 174.9473754849383,-36.89415365457564,100 174.94738329312779,-36.89415529583615,100 174.9473970981723,-36.89415755622132,100 174.94740534203171,-36.89415810425602,100 174.94741270042297,-36.89415975288918,100 174.94744119207544,-36.89416421142767,100 174.9474498845905,-36.89416475120201,100 174.94745769941892,-36.894166035429066,100 174.94746593272404,-36.89416621229191,100 174.94749022320806,-36.89416820611084,100 174.9475057566151,-36.89416857693497,100 174.94751267729944,-36.89417062030289,100 174.94752866675307,-36.894170611404604,100 174.94754192928215,-36.89417139440394,100 174.94758165524624,-36.89417083316456,100 174.94759539495647,-36.89417197967439,100 174.9476211678679,-36.8941768892402,100 174.94762669499647,-36.89417858591359,100 174.94763309778958,-36.894178796385226,100 174.94764416646328,-36.8941814765562,100 174.94766069458333,-36.89418402935022,100 174.9476662283715,-36.89418536989422,100 174.9476983755589,-36.894190118138184,100 174.94770483591677,-36.89419179860375,100 174.94771041117693,-36.89419459408503,100 174.94771485810801,-36.89419538101679,100 174.94771953088903,-36.89419617956723,100 174.94772903246496,-36.894198440179075,100 174.9477490897617,-36.894205450663996,100 174.94775411783914,-36.89420782158474,100 174.9477586386676,-36.89420877855242,100 174.94776731652516,-36.894212493867116,100 174.94777289780836,-36.89421738029127,100 174.94779120596837,-36.89422550643461,100 174.9478086571731,-36.894235104050054,100 174.94781503199764,-36.89423743665964,100 174.94781872908536,-36.89423984743039,100 174.94783058106,-36.89424455891492,100 174.94783471112282,-36.894246962584845,100 174.9478457084864,-36.894252045903514,100 174.94786341890267,-36.89425731656603,100 174.94788626827386,-36.89426711226161,100 174.94789756672725,-36.89426933978687,100 174.94790302276567,-36.89427097632383,100 174.9479098849241,-36.89427402739394,100 174.94791485400114,-36.894274959879574,100 174.94792943807926,-36.89428031875649,100 174.94793127454136,-36.89428171090984,100 174.94793490465386,-36.894282325558514,100 174.94794430173636,-36.89428206419211,100 174.9479555516715,-36.89428317758416,100 174.94796192691646,-36.89428552640247,100 174.94796372339167,-36.89428547801274,100 174.94798130746372,-36.89428749969602,100 174.94799791248838,-36.89428848560191,100 174.94800693602036,-36.89428968597618,100 174.9480150118652,-36.89428980409391,100 174.94803390700835,-36.89429109042789,100 174.94805898749783,-36.89429038976904,100 174.94806297435875,-36.89428954384483,100 174.94806671962905,-36.89428906394927,100 174.94821287600007,-36.894330038999954,100 174.94850669400012,-36.89424384799998,100 174.9487366730001,-36.894096163999954,100 174.94905459500012,-36.89404093499996,100 174.94989381800008,-36.89426487999998,100 174.9501676640001,-36.89441934299999,100 174.95040593500005,-36.89464849599994,100 174.95051855500003,-36.89484571699997,100 174.95057432900012,-36.89489942399995,100 174.95064244800005,-36.89490376799995,100 174.95073345800006,-36.89487222999997,100 174.9507483271118,-36.89486568508237,100 174.95075380693802,-36.89486548488559,100 174.95076054670554,-36.89486601412549,100 174.95080307503616,-36.89487356264978,100 174.95080624014236,-36.894873629639115,100 174.9508178491341,-36.894876455662455,100 174.9508236260951,-36.89487839594268,100 174.9508414783133,-36.894883184328805,100 174.95085139757492,-36.89488306737789,100 174.95087481943153,-36.89488363627276,100 174.9508838004768,-36.89488457394147,100 174.95089405190768,-36.894887718786386,100 174.95090513466258,-36.89489270667826,100 174.95090946951603,-36.89489750706883,100 174.95091737126936,-36.89490312584934,100 174.95092565930932,-36.894910209225316,100 174.95092651259014,-36.894911680571894,100 174.95094418364954,-36.89493346164465,100 174.95095156581127,-36.894940886172826,100 174.9509562869567,-36.89494715115738,100 174.9509715631196,-36.89496055060696,100 174.9509732770588,-36.894963121837804,100 174.95097982237928,-36.89496905942556,100 174.95098773117783,-36.8949743373896,100 174.95099386489144,-36.8949791821371,100 174.95100082106921,-36.894986226996366,100 174.95100562866574,-36.89498998130692,100 174.95100646361178,-36.89499143763178,100 174.95101382402683,-36.894999946791074,100 174.95101990897732,-36.89500552059802,100 174.9510282465364,-36.89501185957089,100 174.9510343315449,-36.89501805257728,100 174.95104212529256,-36.895025378405,100 174.951047141548,-36.89502860111768,100 174.9510512629282,-36.89503255326971,100 174.95105861672485,-36.895040846219985,100 174.9510631780937,-36.89504444954708,100 174.95106867682773,-36.89504947687138,100 174.95107967055822,-36.89505810660679,100 174.95108515400344,-36.89506315040504,100 174.95109066966393,-36.89506998818549,100 174.9510979924596,-36.89507719556179,100 174.95111638923694,-36.89509772628388,100 174.95112461203547,-36.89510493419666,100 174.95113109058371,-36.895114682717086,100 174.95113383068713,-36.89511683239987,100 174.95115995442706,-36.89514166793454,100 174.95116546655825,-36.89514779373301,100 174.95117007756264,-36.895155020414734,100 174.95117420843104,-36.89515934464812,100 174.95117703120445,-36.895166944104936,100 174.95118299074585,-36.8951723514179,100 174.95118572589956,-36.89517558455738,100 174.95119034354937,-36.89518245511096,100 174.95121927384582,-36.895213061593125,100 174.95123485011075,-36.89522854712012,100 174.95124680819728,-36.895242611228724,100 174.9512565227296,-36.895257411610814,100 174.9512606902191,-36.89526427513568,100 174.95127859383575,-36.89528447323672,100 174.95128366751106,-36.89529096315173,100 174.9512965740795,-36.895308649366996,100 174.95130114849442,-36.89531333674806,100 174.95130807293245,-36.895322349672966,100 174.9513099491012,-36.89532886687974,100 174.95131143739758,-36.89533755901443,100 174.95131748638494,-36.89534987070059,100 174.95132115176324,-36.89535420257576,100 174.95132625473295,-36.89536360504675,100 174.95132813148606,-36.895368294383545,100 174.95133831945026,-36.89538454259878,100 174.95134064227528,-36.89539035575311,100 174.95134207562583,-36.89539649357146,100 174.95134270287767,-36.895407772194815,100 174.95134192517807,-36.89541830237683,100 174.9513393575275,-36.895428477105256,100 174.9513344357709,-36.895464482441916,100 174.9513349485731,-36.89546919598892,100 174.95133342491798,-36.89549137075368,100 174.95133173462116,-36.8954982773332,100 174.95133123023757,-36.8955284408025,100 174.9513321975628,-36.8955327593183,100 174.95133226099512,-36.89553749737269,100 174.95133563988026,-36.89555199443973,100 174.95133767592205,-36.89556976820395,100 174.95133861139422,-36.89557230715253,100 174.95133961088058,-36.89557775628595,100 174.95134348181375,-36.89559623988198,100 174.95134402974293,-36.89560347832687,100 174.95134362956978,-36.895607109075186,100 174.95134459186198,-36.89561184678338,100 174.95134469545306,-36.895619836110235,100 174.95134393174365,-36.89562963780235,100 174.95134442478263,-36.89563181267907,100 174.9513449576607,-36.89563727037946,100 174.9513445874605,-36.895643796549514,100 174.95134332448384,-36.895651795708915,100 174.95134217234306,-36.89566560109935,100 174.9513391958622,-36.895679066923506,100 174.95133968152874,-36.895681613261736,100 174.95134021018788,-36.89568813908564,100 174.95133770276092,-36.895702309239944,100 174.9513286387526,-36.895733633615954,100 174.951330069688,-36.8957390594376,100 174.95132784521837,-36.8957423524213,100 174.95132652693596,-36.895745271795576,100 174.95132522731961,-36.89575073075927,100 174.95132202960133,-36.89578163969546,100 174.95131853364495,-36.895790747198554,100 174.95131675612356,-36.89579330367826,100 174.9513118939855,-36.895802436329404,100 174.95130790178592,-36.89580862632728,100 174.95130345662434,-36.89581412705262,100 174.9513021281553,-36.895816690575906,100 174.95128783862813,-36.89582988078163,100 174.95128739522076,-36.895831329263274,100 174.95128292323852,-36.89583463122818,100 174.95127486282053,-36.895841250385786,100 174.95127217229435,-36.89584272316499,100 174.95126911877782,-36.895844792266494,100 174.95126208236306,-36.89585513871872,100 174.95123469400005,-36.89586087699996,100 174.95123282089563,-36.89587750759302,100 174.95122643201069,-36.89588163341262,100 174.9512183933864,-36.89588721389745,100 174.9512148333429,-36.895889090326186,100 174.9512117561294,-36.89589278488031,100 174.9512086307803,-36.895895382427625,100 174.95119722547628,-36.89590972759141,100 174.9511936710756,-36.89591305954502,100 174.9511690053834,-36.895942186834276,100 174.95116815753465,-36.89594401420103,100 174.9511650518182,-36.895947338783145,100 174.95116286247605,-36.895950645607755,100 174.95116066013935,-36.895952869269266,100 174.9511518996138,-36.895965355740884,100 174.95114115335974,-36.89598844000601,100 174.9511160476316,-36.89601791611005,100 174.95109515965044,-36.89603498757504,100 174.95109169630086,-36.896041587087126,100 174.95108911797257,-36.89604706975715,100 174.951086591778,-36.89605437943062,100 174.95107919949274,-36.89606758339825,100 174.9510769893864,-36.896070163203916,100 174.9510739251754,-36.89607494181883,100 174.9510616559447,-36.89609114614599,100 174.9510603439218,-36.89609369497548,100 174.9510525071862,-36.89610583908927,100 174.95105081045634,-36.89611130457309,100 174.95105051685545,-36.896117490590726,100 174.95105139132846,-36.896134556982176,100 174.95104933000837,-36.89614368507593,100 174.95104679321076,-36.89615062268102,100 174.95104599917795,-36.896155004381264,100 174.95104526990417,-36.89616228183317,100 174.95104360059494,-36.89616811910813,100 174.95104367236343,-36.896170673147566,100 174.95104240075378,-36.89617467693122,100 174.95104000255972,-36.896187806973906,100 174.95103828963317,-36.896210000165084,100 174.9510337347562,-36.89622824903098,100 174.95103201486938,-36.8962322764016,100 174.95103055275425,-36.89624611842627,100 174.9510293128402,-36.896251234808915,100 174.95102764030588,-36.89625632855454,100 174.95102180233093,-36.89627751333791,100 174.9510187785235,-36.896283746905894,100 174.95101320110774,-36.896296919255555,100 174.950999815232,-36.89632330330502,100 174.95097800432896,-36.89635745984955,100 174.9509772036479,-36.89636219767655,100 174.95096779779246,-36.8963856141244,100 174.95096561507265,-36.896388564818565,100 174.9509647700462,-36.89639112039726,100 174.95096218263663,-36.896396247195604,100 174.95095799273992,-36.89641084966607,100 174.95095729085543,-36.896418498007755,100 174.95094558187475,-36.89642202338409,100 174.950950690014,-36.89644022168398,100 174.95093604469324,-36.89647223527515,100 174.95093347469503,-36.89647553392704,100 174.9509223928447,-36.89649342041305,100 174.95091068355003,-36.8965055722441,100 174.95090588760294,-36.896509639322026,100 174.95089504936132,-36.896521403701385,100 174.95089023375547,-36.896524742841834,100 174.9508715335136,-36.89654281394185,100 174.95086034102385,-36.8965567526922,100 174.95085867191776,-36.89656074768036,100 174.95085565566336,-36.89656476659768,100 174.95084568646053,-36.89657544774341,100 174.9508418289851,-36.89658093789793,100 174.9508336457311,-36.89659119944119,100 174.95082816690933,-36.89660176717514,100 174.95082373549377,-36.896616978387776,100 174.95082478879021,-36.89662128017285,100 174.95082778795302,-36.89663020887746,100 174.95083510454552,-36.896647701234635,100 174.950837862894,-36.89666347935535,100 174.95084079390784,-36.896670612864924,100 174.95084510574952,-36.896682615112496,100 174.95084827259637,-36.89669138603668,100 174.95085043755435,-36.89670144426578,100 174.95085248642167,-36.896707912675105,100 174.9508560533518,-36.89673098624964,100 174.950859154789,-36.896741771777705,100 174.95085976999334,-36.89674645299962,100 174.95086771880733,-36.89677846140798,100 174.95086978504852,-36.8967979525817,100 174.95086993454836,-36.896826169288516,100 174.95086857853468,-36.89683884687589,100 174.95086668176933,-36.89684831295901,100 174.95086644630206,-36.89685409423331,100 174.9508648837055,-36.896860641788884,100 174.95085758181492,-36.89688326206186,100 174.9508438883343,-36.89691471561516,100 174.9508414673185,-36.8969227202694,100 174.95083311055606,-36.89694102165709,100 174.9508314197795,-36.89694359292853,100 174.950829762017,-36.89694798971479,100 174.95082298501913,-36.89695971262013,100 174.95081828859142,-36.896966719940856,100 174.95080276521975,-36.89698589433322,100 174.95079816054917,-36.89699615297933,100 174.95079302128718,-36.89700278090966,100 174.95078299805218,-36.89701279686853,100 174.95077869266098,-36.89701832592355,100 174.95077484765685,-36.897024218757295,100 174.950767927455,-36.89703825136901,100 174.9507618109469,-36.897038980942334,100 174.95075801252756,-36.897045337185865,100 174.95074703700243,-36.897060837039035,100 174.95074660072103,-36.89706318310783,100 174.95074471784753,-36.89706755384686,100 174.95073728244725,-36.89708850256972,100 174.95073163808092,-36.897101164961924,100 174.95072571128907,-36.89711115329457,100 174.95072594815667,-36.8971233216161,100 174.95072919160935,-36.89713977316255,100 174.95073229515373,-36.897148746121275,100 174.95074198756913,-36.897167079142434,100 174.950749744627,-36.897188558881446,100 174.95074862998652,-36.897207411894335,100 174.95074971555047,-36.89721408269761,100 174.95074982390918,-36.897219176031754,100 174.95075204783467,-36.89723052474541,100 174.9507515470001,-36.89731906799994,100 174.95078554199554,-36.89737518119966,100 174.9507851008124,-36.897398178442806,100 174.9507867394473,-36.897401756775196,100 174.95079032552962,-36.897413152643466,100 174.95079769211063,-36.8974299168207,100 174.95080568854192,-36.89744140338837,100 174.95081423608931,-36.89744972090573,100 174.95082502828592,-36.89745668113365,100 174.95083919260918,-36.89746866125895,100 174.9508539963397,-36.89747932818472,100 174.9508895340001,-36.897529833999954,100 174.9509774894892,-36.89758003932207,100 174.95097969819557,-36.897582822668554,100 174.95099113773023,-36.89760180565608,100 174.95099900195464,-36.897627092557535,100 174.95099975236462,-36.8976310451,100 174.95100143407092,-36.897634948095025,100 174.95100345548744,-36.89764355396056,100 174.95101253675412,-36.897672784836985,100 174.95101278330347,-36.89767603271856,100 174.95102603990887,-36.89772970526994,100 174.95102801220523,-36.897743344864416,100 174.95103007785437,-36.89775232134298,100 174.95103221416065,-36.89776812679839,100 174.95103456479617,-36.89777489759317,100 174.95103529370581,-36.89777871078521,100 174.95103607583079,-36.89778690527894,100 174.95103778692464,-36.897791829877626,100 174.95104228984283,-36.89785822041248,100 174.95104312641516,-36.897860312133815,100 174.95104462497014,-36.89788421282752,100 174.95104587608563,-36.89788878986517,100 174.95104585914382,-36.897891253427396,100 174.95105307572317,-36.89791133327079,100 174.95106037030772,-36.897926147272734,100 174.95106981410567,-36.89794237798208,100 174.95107198014244,-36.89794379441364,100 174.95107543084438,-36.89794912216354,100 174.9510975078887,-36.89797387544726,100 174.951106629561,-36.89798168688803,100 174.95111966269292,-36.89799092934924,100 174.95112702915608,-36.8979983856629,100 174.9511335465448,-36.89800334757469,100 174.95113917730876,-36.89800936416429,100 174.95114570844964,-36.89801539480469,100 174.95116474366725,-36.89803523091786,100 174.95117300585053,-36.89804198932001,100 174.95117648710323,-36.89804410969923,100 174.9511803930681,-36.8980458977279,100 174.95118345267872,-36.89804838285414,100 174.95118867781179,-36.89805160302669,100 174.9511943209107,-36.898056208858705,100 174.95119867062465,-36.898059072973126,100 174.9512142805414,-36.89807325644255,100 174.95121599423146,-36.89807643155036,100 174.95121999828035,-36.89808114542545,100 174.95122513262186,-36.89808670508937,100 174.95122940742374,-36.898090593421585,100 174.95123944126684,-36.89810196536824,100 174.95124131304584,-36.898103372209704,100 174.95124278430976,-36.898105885230706,100 174.9512469838948,-36.898108318278894,100 174.95125937338673,-36.89812110443824,100 174.95127158428542,-36.89813057940866,100 174.95127590725423,-36.89813556564624,100 174.95129001569666,-36.89815666790213,100 174.95129058846453,-36.898159196584864,100 174.95129250845412,-36.898161703134534,100 174.95129454040165,-36.898166358373516,100 174.95129652819298,-36.89817068986582,100 174.95130582740924,-36.898186087414544,100 174.95131670956056,-36.89820617912366,100 174.95131856246513,-36.898217419579794,100 174.95131507975563,-36.89825172572347,100 174.95131392341918,-36.89825611427778,100 174.9513331383934,-36.89825757950927,100 174.9513358410001,-36.89836370399996,100 174.95130116200005,-36.89847078999997,100 174.95124136700008,-36.89852639599995,100 174.95109326400006,-36.89858618299995,100 174.9509590350001,-36.898656667999944,100 174.95081759000004,-36.89871088299998,100 174.95077777300003,-36.89874977399994,100 174.95074968300003,-36.89884855799994,100 174.95068024600005,-36.89892617099997,100 174.95063057900006,-36.89897887899997,100 174.95061115700003,-36.89901743399997,100 174.95060339300005,-36.899113152999966,100 174.9506539700001,-36.89922976299993,100 174.95060659700005,-36.89937256299993,100 174.95063670900004,-36.899486776999936,100 174.95063394300007,-36.899645230999965,100 174.95063797500006,-36.89980357299993,100 174.95061009200003,-36.89991054699994,100 174.9506302860001,-36.90003584899995,100 174.95066303400006,-36.900119976999974,100 174.95078409300004,-36.90019992499997,100 174.95088787800012,-36.90026923099998,100 174.95121456100003,-36.900411347999984,100 174.95208223400004,-36.90083134699996,100 174.95278368900006,-36.90113390099999,100 174.95346676000008,-36.90138212899995,100 174.95374509600003,-36.90149499199998,100 174.95402252800014,-36.90157236299995,100 174.95423481700004,-36.90162895599997,100 174.9543207050001,-36.901663047999925,100 174.95436982800004,-36.90172232599997,100 174.95439238200004,-36.90180662099993,100 174.95439093400012,-36.90188311699995,100 174.95438430545468,-36.9019436024585,100 174.95438024961754,-36.90195310968012,100 174.95437938294498,-36.901956749912834,100 174.95436030849183,-36.90199725321379,100 174.95435988428116,-36.902001256604095,100 174.95434787350055,-36.902024255590725,100 174.9543438439978,-36.90202973336341,100 174.95432871171536,-36.90205856561806,100 174.95432697015508,-36.902063676764,100 174.95432479154292,-36.9020735197701,100 174.95432172321057,-36.902081876734755,100 174.95431105868653,-36.90210415414845,100 174.9543079135319,-36.90210853219059,100 174.954305705321,-36.90211365191615,100 174.9542936981049,-36.90213736377513,100 174.95429195614997,-36.90214245960478,100 174.9542906508366,-36.90214830625158,100 174.95427957759827,-36.902176383108866,100 174.9542764908728,-36.902182215804885,100 174.95427472227888,-36.90218697137732,100 174.95424628982732,-36.902244618339495,100 174.95423974162736,-36.902262923805644,100 174.95416182466425,-36.902383737211366,100 174.95415125065725,-36.902394983920956,100 174.95414617003792,-36.90239938118567,100 174.95411753181983,-36.90243361456079,100 174.95411338108082,-36.90244098436816,100 174.9541055111111,-36.902451302265135,100 174.95409583115952,-36.90246123443723,100 174.95408750941294,-36.902471528220254,100 174.95407966971845,-36.90248294521595,100 174.9540722575337,-36.9024991546546,100 174.9540708351021,-36.90250577835273,100 174.95406723606717,-36.90253040009931,100 174.9540477370001,-36.90256063399993,100 174.954042720387,-36.902585189420925,100 174.95404250844692,-36.90258570932377,100 174.95404017391252,-36.90259309341154,100 174.95403184931558,-36.902608203839684,100 174.9540244509432,-36.90261998400945,100 174.95400688845248,-36.90264537534616,100 174.95399946730274,-36.90265938663203,100 174.95399668648642,-36.90266749009639,100 174.95399160435994,-36.902677416917875,100 174.95398973656665,-36.90268294834364,100 174.95398416457934,-36.90269509774339,100 174.95397671260403,-36.902719780147095,100 174.9539715724063,-36.90274485354065,100 174.9539696998667,-36.90274962704225,100 174.95396876991654,-36.90275404343975,100 174.95395299302973,-36.90279197776853,100 174.95394881768593,-36.902805247951896,100 174.9539474027249,-36.902815200965584,100 174.95394551986854,-36.90282700575776,100 174.9539454753601,-36.90283032060779,100 174.95394683947842,-36.90284138518286,100 174.95394818064676,-36.902845434336555,100 174.953949528059,-36.90285465600701,100 174.95395271083112,-36.9028664459597,100 174.9539595494892,-36.902877907175494,100 174.95396230499566,-36.90288121832137,100 174.95396595194373,-36.90288674284009,100 174.95399292903278,-36.90292218557818,100 174.95399521016245,-36.902925862347914,100 174.95399978063588,-36.902931030074846,100 174.9540034521659,-36.90293619817033,100 174.95400482527478,-36.902939519440416,100 174.9540097437797,-36.90294601177489,100 174.95401673108645,-36.90295538040302,100 174.95402365865047,-36.90296319885875,100 174.9540262447117,-36.9029648389318,100 174.95402772800003,-36.90297610099997,100 174.95405798800005,-36.90309577499994,100 174.95413306600005,-36.90323929199996,100 174.9541858670001,-36.90330943299994,100 174.95419468600005,-36.90338849199997,100 174.95426429889278,-36.90342827123835,100 174.95427211918985,-36.90343685114817,100 174.95427965685775,-36.903443638364074,100 174.9542842934845,-36.903446822108215,100 174.9543007487348,-36.90346213589281,100 174.95432354901834,-36.903483019014075,100 174.95432738614784,-36.903487285767376,100 174.95433543236152,-36.903494342214884,100 174.95433765546176,-36.90349654896163,100 174.95438312800002,-36.903576572999945,100 174.9544468250001,-36.90367384699993,100 174.95447262773854,-36.90370800651345,100 174.95447257981178,-36.9037089657836,100 174.95447418963843,-36.903713381848874,100 174.9544762323892,-36.90372763940458,100 174.9544781449621,-36.903759148654395,100 174.95445815100004,-36.903851187999976,100 174.9544495560001,-36.903914145999984,100 174.95444768800007,-36.903974261999956,100 174.95444920947477,-36.90399218118581,100 174.95444888689565,-36.90399315387521,100 174.95444721388068,-36.90399699394809,100 174.95442965485924,-36.9040379662335,100 174.9544267876214,-36.904042990450876,100 174.95442261772195,-36.90404842366812,100 174.9544192346714,-36.90405170602951,100 174.95441258931544,-36.90406071582169,100 174.95439573755675,-36.90407816489055,100 174.95437873514848,-36.904092085103485,100 174.95436689818158,-36.904103389435356,100 174.95436101225138,-36.90410992164504,100 174.9543568419759,-36.904115340445266,100 174.95435221276426,-36.904120410779896,100 174.95434416161513,-36.904127371589574,100 174.9543354059803,-36.90413821601906,100 174.9543341794961,-36.90414073102735,100 174.95433170481573,-36.90414433823266,100 174.95432685086834,-36.90415436856815,100 174.95432136033835,-36.90417006419755,100 174.95431948649704,-36.90417720636794,100 174.95431784794482,-36.90418908375458,100 174.95431424029275,-36.90421423568752,100 174.95429092500012,-36.90422810899997,100 174.95427199100004,-36.90428577599994,100 174.9542849060001,-36.904392078999926,100 174.95436513810694,-36.904604173823124,100 174.95436516659313,-36.904604359706,100 174.95436553427464,-36.90464956065828,100 174.9543663402594,-36.9046524261792,100 174.9543669627005,-36.90468944535389,100 174.95436770878374,-36.90469444976765,100 174.95436491743115,-36.90473552693443,100 174.95436460125768,-36.90474336902709,100 174.95436838489172,-36.90476489043357,100 174.95437552143218,-36.90479065591357,100 174.95437599183447,-36.90479448865429,100 174.9543792988373,-36.904812548761655,100 174.9543806831547,-36.90483482529014,100 174.95438209551304,-36.9048463685587,100 174.95437774230697,-36.904900173586874,100 174.95437666059286,-36.90490906658596,100 174.95437728200923,-36.90491644259467,100 174.95437846939313,-36.90492365516596,100 174.9543743448917,-36.9049424378366,100 174.9543748252143,-36.90494476793041,100 174.95437303621236,-36.904956819041196,100 174.95437275403384,-36.90496216664974,100 174.95436766723432,-36.904975608670746,100 174.95436281633133,-36.90499807613219,100 174.95435969212394,-36.90500750206732,100 174.95435857943193,-36.90501284982277,100 174.954347316805,-36.90503910374208,100 174.95433644682768,-36.90506209656907,100 174.9543342027214,-36.90507579735475,100 174.95433456483823,-36.90507947685207,100 174.95433133447307,-36.905104888362736,100 174.95433267251596,-36.90513164155726,100 174.95433348972983,-36.90513367137913,100 174.95433426030567,-36.905137700172425,100 174.95433586983083,-36.90514271921961,100 174.95433790082035,-36.90514609004606,100 174.9543394809495,-36.9051531240045,100 174.95435124198045,-36.90517798508187,100 174.9543643495038,-36.905197819928006,100 174.95436686826395,-36.90520376858528,100 174.9543672197886,-36.9052046136372,100 174.95436715411606,-36.905207186154925,100 174.9543684749265,-36.90521052270053,100 174.95440136545548,-36.9052786459455,100 174.95440484075021,-36.905287905595685,100 174.95442947493075,-36.90533533272404,100 174.95443384432542,-36.90534567635634,100 174.95444753884598,-36.90536977644482,100 174.95445465992643,-36.905378350587476,100 174.95445731189247,-36.90538353724623,100 174.95446395920882,-36.905394304861126,100 174.95446526129575,-36.905397611069056,100 174.95448338955455,-36.90542876935182,100 174.9544846306374,-36.90543191298353,100 174.9544758730001,-36.90547867399994,100 174.95452202654204,-36.905503130868475,100 174.95453743258383,-36.9055373043832,100 174.95454096994578,-36.90554323356885,100 174.95454358419607,-36.9055495366676,100 174.9545501852608,-36.90556174533127,100 174.9545549921559,-36.905572871305644,100 174.95456696997795,-36.90561347917891,100 174.95456816281447,-36.90562086020236,100 174.9545731775665,-36.90564373763708,100 174.9545748263776,-36.90565258209374,100 174.95457694490526,-36.90566034986656,100 174.95457740798494,-36.90568241081506,100 174.954576101278,-36.90569933097712,100 174.95456907400745,-36.905728651769216,100 174.9545632524296,-36.90576462601559,100 174.9545592855139,-36.90577854443203,100 174.95455394588734,-36.90579281081242,100 174.95455241872563,-36.90579942091464,100 174.95455177061461,-36.9058089881682,100 174.9545375414224,-36.905873145934564,100 174.9542170012628,-36.90591999634652,100 174.953888005025,-36.90613099456114,100 174.95376300455368,-36.906080999442956,100 174.95353499584763,-36.905989003102576,100 174.95352600458935,-36.9059970023087,100 174.95341799408203,-36.90611100460267,100 174.95334300253765,-36.90606499857862,100 174.95328399604094,-36.90602799687304,100 174.95320100838495,-36.90597799967482,100 174.95296999285748,-36.90583600284263,100 174.95283299679562,-36.905980000055955,100 174.9528160059457,-36.90596900134261,100 174.95252199679913,-36.90578900456506,100 174.95239499772492,-36.905921995070386,100 174.95222700606305,-36.90598400422804,100 174.9521920065737,-36.9059849923393,100 174.95191500846232,-36.90580299832478,100 174.95190400146288,-36.905760002864675,100 174.9518569928245,-36.905566005020795,100 174.95165500129195,-36.90544599913444,100 174.9515099960504,-36.90539399234083,100 174.95142900326593,-36.90529099199103,100 174.95120899752007,-36.90501400626103,100 174.95117499800415,-36.904971007211685,100 174.95111699601787,-36.904900006690745,100 174.95093600395677,-36.90479199528597,100 174.95090700148165,-36.90477500340195,100 174.95075499486413,-36.90468400010013,100 174.95073799730082,-36.90467399263135,100 174.95057300095303,-36.90457600728454,100 174.95056500477543,-36.90455900740185,100 174.95048100528672,-36.90437499908453,100 174.9502720000054,-36.904526998897545,100 174.95006300380578,-36.90468000496433,100 174.94976899488162,-36.904420998596734,100 174.94958800350446,-36.9042609956735,100 174.94950400409653,-36.90418699430042,100 174.94939299722787,-36.904090000276994,100 174.94969299573876,-36.90386699287725,100 174.94963400404131,-36.90381800162376,100 174.94974999809915,-36.90373099298478,100 174.9496729957993,-36.90366299765265,100 174.94952400492386,-36.90356100579852,100 174.94949999353244,-36.903545005992804,100 174.9493789961403,-36.90337199532747,100 174.9493249960189,-36.90329500477721,100 174.9492139961192,-36.90313700611173,100 174.94912699325928,-36.90301300393477,100 174.94910299741971,-36.90297899199082,100 174.94901299569287,-36.90285100106392,100 174.9489929948016,-36.902821997918345,100 174.94898900036952,-36.90281700530994,100 174.9488819974246,-36.90266399887214,100 174.94887699567033,-36.902656995740415,100 174.94877100051556,-36.90250599970485,100 174.94871399105827,-36.902423999169365,100 174.9486600029529,-36.902348000434834,100 174.94854900698013,-36.9021900010253,100 174.94832099354983,-36.902294004404226,100 174.94830100125714,-36.90230300658139,100 174.94805700768956,-36.902412995827156,100 174.9479429919707,-36.90246499770293,100 174.94788799701408,-36.90289700131509,100 174.94783499203936,-36.903130994752935,100 174.94747800211164,-36.90316499422819,100 174.9471769993742,-36.903289002625364,100 174.94724200506604,-36.90334600292081,100 174.94723699453823,-36.90343900123997,100 174.94685199673967,-36.90355600463661,100 174.94678699723588,-36.903575992228916,100 174.94675700639564,-36.903608994119345,100 174.94662700195622,-36.90375099858772,100 174.94653500046473,-36.90385100087372,100 174.94645100406584,-36.903943006152936,100 174.946254994127,-36.90415699360604,100 174.94612600390573,-36.90427900155136,100 174.94600299232985,-36.90439599294324,100 174.945957004619,-36.90443999857312,100 174.9458870056376,-36.90450700338004,100 174.94586300066283,-36.90458600273598,100 174.94583000544597,-36.904695998559895,100 174.94579999276635,-36.9047970063051,100 174.94576699740387,-36.90490700301404,100 174.9456989983169,-36.90496700240471,100 174.9453649967522,-36.90526200558569,100 174.94535400246957,-36.90527199283782,100 174.94511799681462,-36.90548099767066,100 174.94498999515446,-36.90559400484878,100 174.94486100036156,-36.90570800427505,100 174.94483799395755,-36.905727993551935,100 174.94446199562884,-36.90594199521652,100 174.94437100143006,-36.90599399626204,100 174.9441339919188,-36.90612999497812,100 174.9441120071662,-36.90614200611036,100 174.94387599532786,-36.90627600330081,100 174.94385900213993,-36.90628600388108,100 174.94361600637023,-36.90642500538657,100 174.94356300387062,-36.906454996852595,100 174.94345200007172,-36.90651799708626,100 174.94333299286762,-36.90658600427215,100 174.94308600512352,-36.906494996783806,100 174.9428819946115,-36.906504997800994,100 174.9428479972531,-36.906505997410626,100 174.9427459932367,-36.90651100359695,100 174.94261900340516,-36.90666300317738,100 174.94244700567182,-36.906866996344846,100 174.94240599163876,-36.90691399365271,100 174.94230000237002,-36.90704100486942,100 174.94228599493675,-36.90705700690146,100 174.94223700478148,-36.90711500531262,100 174.9421100033497,-36.90714499402059,100 174.94203100152967,-36.90716400657904,100 174.94213900696712,-36.90740599197347,100 174.94221300649616,-36.90757299357382,100 174.94225500358922,-36.90766799718177,100 174.94211599986366,-36.90775499455074,100 174.94201999327942,-36.907814006878255,100 174.94195000356953,-36.90785799427419,100 174.9417849984821,-36.90795999964021,100 174.94184900293337,-36.908026994034955,100 174.9415519938269,-36.908211007252305,100 174.9416680041328,-36.90833200082732,100 174.94149899764335,-36.908453004172536,100 174.94139500769808,-36.90834399786501,100 174.94099200532224,-36.90859299275536,100 174.94086300070444,-36.90845799899668,100 174.94082700077533,-36.90842000488017,100 174.94065099867814,-36.90853199467852,100 174.9404639979208,-36.90865200263592,100 174.94025600593594,-36.90878499324099,100 174.9398189932238,-36.90906400642288,100 174.9396289910075,-36.909184994970296,100 174.93944100275968,-36.90930500395231,100 174.93925700253203,-36.909423004293224,100 174.9388830046248,-36.90966100201374,100 174.93860599769818,-36.90938100435581,100 174.93847799257728,-36.909251998909966,100 174.93822799569375,-36.90899999762983,100 174.93809499445132,-36.90886600160403,100 174.9379440070833,-36.9087149973361,100 174.9377770004518,-36.90854499861707,100 174.93763700570753,-36.90840499444706,100 174.93750400655017,-36.90827099768649,100 174.9373640023525,-36.90813000278822,100 174.93722099944094,-36.907985003429076,100 174.9372070030176,-36.90797100542446,100 174.93705599149854,-36.90781899358979,100 174.93683200377245,-36.90759300677104,100 174.93676300336668,-36.90752399282308,100 174.9366220056725,-36.90738199201368,100 174.93687499941663,-36.90724200608369,100 174.93628300734122,-36.90682099957401,100 174.93608000171656,-36.9066780026934,100 174.9358370045422,-36.90650499556615,100 174.93564700699048,-36.906368998189684,100 174.93545500348606,-36.906233005247074,100 174.93523899955233,-36.90608000322496,100 174.93499137130803,-36.90590385568267,100 174.93463777147704,-36.90565884397192,100 174.93470207497234,-36.90542985898475,100 174.9347987581024,-36.905085610252755,100 174.9346231573462,-36.90496293595377,100 174.9342737860622,-36.905353539346976,100 174.93419652042542,-36.905301135340075,100 174.9340456220242,-36.905249382380326,100 174.93382099702654,-36.90509391508057,100 174.93376919026807,-36.90505802921349,100 174.93325834636357,-36.904701082326945,100 174.93339300604686,-36.90457700391556,100 174.93322599839067,-36.90444799468685,100 174.93340899592934,-36.90384900085339,100 174.9335780050778,-36.90347499403481,100 174.93363800238643,-36.903345003272065,100 174.9337110073407,-36.90321400664044,100 174.9338309975858,-36.902999992898906,100 174.93406499711966,-36.902668000038105,100 174.93430900814997,-36.9023810039763,100 174.93408200540773,-36.902313996366246,100 174.93384400646633,-36.90218899930108,100 174.9340499927222,-36.90193599761641,100 174.93396200443237,-36.90166400525497,100 174.93401499394264,-36.90157999804391,100 174.93412199865554,-36.90141399480433,100 174.93427899695777,-36.90117000143042,100 174.93403200877003,-36.901214998191136,100 174.93395199510513,-36.90103600324041,100 174.93387399186287,-36.90087399319239,100 174.93379799471012,-36.90071199368548,100 174.93378199414897,-36.90067800698939,100 174.93374500554322,-36.90060099980794,100 174.93373799607824,-36.900587001162435,100 174.93372015818417,-36.90055033682459,100 174.93372039973434,-36.90055034731294,100 174.93375959961452,-36.90054441117124,100 174.9340231067828,-36.90050480175438,100 174.93441658062906,-36.9004457977978,100 174.93463220378197,-36.90035090340595,100 174.93459391330606,-36.90022014713926,100 174.9352038952559,-36.90012816342784,100 174.93517329830496,-36.89999621664811,100 174.93516610421673,-36.89996625342733,100 174.93509050590376,-36.89964243634082,100 174.93488710537085,-36.899673120240436,100 174.93468370268045,-36.89970372541414,100 174.9345692002183,-36.89921331102234,100 174.93441340518606,-36.89923445341875,100 174.93436369595437,-36.899057253552705,100 174.93431619360624,-36.899030614620735,100 174.93427439415703,-36.89885061079111,100 174.93478129372892,-36.898774644354596,100 174.93478380651285,-36.89872812177479,100 174.93478780736086,-36.898650536415204,100 174.934791693173,-36.8985781724362,100 174.93479930075904,-36.89843561480738,100 174.93480140141682,-36.89839854741025,100 174.93488060209887,-36.898284240594755,100 174.93490729844356,-36.898237084297705,100 174.9349656068582,-36.898134303977706,100 174.93505059444607,-36.897984366679104,100 174.93513590692052,-36.89783433119191,100 174.93518629388936,-36.89774513643911,100 174.93519849689528,-36.897723900051794,100 174.93526190096748,-36.897611673717364,100 174.93532269374055,-36.89750438943969,100 174.93461750292124,-36.89761149091613,100 174.93458149640205,-36.8974565034045,100 174.93457609716037,-36.897433292382196,100 174.93477769611903,-36.89740268709702,100 174.93476829161455,-36.8973621874302,100 174.93463980106517,-36.897258337246946,100 174.93459189249353,-36.89705321332026,100 174.93449109736932,-36.897068337762576,100 174.9344634070339,-36.8969495340983,100 174.93444760342842,-36.89688212263546,100 174.93442560386043,-36.89678771858078,100 174.93440619850801,-36.896703923097796,100 174.93438780755855,-36.896625546013034,100 174.93436479494272,-36.89652572441774,100 174.93435000236892,-36.896463636755705,100 174.93432299571498,-36.896347624994924,100 174.9343125921051,-36.89630162821355,100 174.93428159142738,-36.89616942538186,100 174.93427480062562,-36.89613962586175,100 174.93416780660363,-36.896007962901635,100 174.93409479970768,-36.895383628865524,100 174.93356630745797,-36.8954082821049,100 174.93355330036658,-36.895200566940545,100 174.93355260654857,-36.89485902155399,100 174.93355259200482,-36.89464356258459,100 174.93358640152277,-36.89464221364229,100 174.93374299976594,-36.89463600405035,100 174.93375529332957,-36.894685946730235,100 174.93377579386828,-36.89468406271173,100 174.93383920365108,-36.89467794062792,100 174.93407960263275,-36.894654804103624,100 174.93407529765025,-36.89462735977931,100 174.93409839519134,-36.89462682234359,100 174.93408650368323,-36.89454591300719,100 174.93441339138172,-36.89451549721486,100 174.93453250104562,-36.89447337585837,100 174.93472939488305,-36.894403704194914,100 174.93478959833845,-36.89438238359584,100 174.93484030339872,-36.89436447143504,100 174.93482049142142,-36.89434260109845,100 174.9347726090042,-36.89428968616215,100 174.93498399518896,-36.89420660531071,100 174.93501670339782,-36.89430318727598,100 174.93509810312773,-36.89427510656012,100 174.93510099669874,-36.89427410943398,100 174.93512540652566,-36.89426546382924,100 174.93525940528548,-36.89421858359576,100 174.9353352958315,-36.89418635900697,100 174.9354025918574,-36.89415774086539,100 174.93555019998394,-36.89410482417579,100 174.9357367046168,-36.89403335258737,100 174.93580980330265,-36.89400518855237,100 174.93588760881903,-36.89397531367758,100 174.936071501888,-36.893908163572746,100 174.9361136003681,-36.893892867068914,100 174.93619279639586,-36.89386389588188,100 174.9362666038913,-36.89383697284143,100 174.9362731084643,-36.893834640561906,100 174.93639770352442,-36.89378910569152,100 174.9365905967644,-36.893718635440855,100 174.93668639735267,-36.893721780123315,100 174.9368614053837,-36.89372745474062,100 174.93683829735363,-36.893427756154516,100 174.93683440152523,-36.893375912100815,100 174.9368080987369,-36.893032115612506,100 174.93692829491525,-36.89287685293807,100 174.93706399713304,-36.892390053844935,100 174.9371944030506,-36.891923032873294,100 174.93747230112896,-36.89193338284202,100 174.93771530840345,-36.89204480778861,100 174.93791650188328,-36.89209782066874,100 174.9379709059102,-36.89211231668398,100 174.93812170567665,-36.89215325539544,100 174.93825169855856,-36.89217017542609,100 174.93843819495197,-36.89231310617562,100 174.93855910191706,-36.89241354027533,100 174.93856089621485,-36.89242334342555,100 174.9385627010271,-36.89242668668699,100 174.93856600776198,-36.89242938443091,100 174.9385975991071,-36.89244836155644,100 174.9385993971015,-36.89244899557883,100 174.9386299914499,-36.892465111973145,100 174.9386433935041,-36.89247213439282,100 174.93865380241326,-36.89247537057209,100 174.93865809551562,-36.89247744743296,100 174.93867000358236,-36.89248418688532,100 174.93867179377824,-36.892484556948865,100 174.93867900626444,-36.89248967766724,100 174.93871789181287,-36.89250866459534,100 174.93872000829,-36.892508935596,100 174.93875210506468,-36.89252189627116,100 174.9387545955007,-36.89252253341006,100 174.93879420269195,-36.89253828543533,100 174.93880139733324,-36.89254088185706,100 174.93880429386832,-36.89254124828136,100 174.93882479851783,-36.89254944542896,100 174.93882949443034,-36.89255231877922,100 174.93886010674535,-36.89256222296419,100 174.93886259371396,-36.892562767322026,100 174.93886480354192,-36.89256455460891,100 174.9388745000215,-36.892567617628195,100 174.9388762983652,-36.89256888616558,100 174.9388882063767,-36.892571941025224,100 174.93889209422883,-36.892573745085144,100 174.93889679852373,-36.892574465958276,100 174.9389155054661,-36.89257707274242,100 174.93891949662105,-36.892576351436254,100 174.93894320233426,-36.89257535157979,100 174.93894499653962,-36.89257463819442,100 174.93894759762605,-36.89257428207773,100 174.93894939691657,-36.89257310443266,100 174.93895660124974,-36.892570495598974,100 174.93896339618667,-36.892564922717256,100 174.93897599135116,-36.892551052294834,100 174.9389842916723,-36.892544305662874,100 174.9389871973183,-36.89254250427407,100 174.93898900162597,-36.892542145840835,100 174.93899800140846,-36.89253630082081,100 174.93900520306582,-36.89253296556895,100 174.93903109276727,-36.892534683557,100 174.9390329008972,-36.892536294431494,100 174.93903790557906,-36.89253846511599,100 174.93907819814743,-36.8925564663523,100 174.93907999957634,-36.89255781234917,100 174.93909950470805,-36.89256491174192,100 174.93910310381096,-36.892565637129444,100 174.93910560560437,-36.892566722929786,100 174.93910779832638,-36.89256663665983,100 174.93910990703182,-36.892567265601976,100 174.93913120140263,-36.89256968590169,100 174.9391735966199,-36.89256878557588,100 174.93917980401667,-36.89256762158685,100 174.939202100874,-36.89256753067079,100 174.93920640577204,-36.892568166118124,100 174.93928489481684,-36.89256545610265,100 174.93930220514574,-36.89256014325013,100 174.93930649451775,-36.89255834720262,100 174.93931440839495,-36.89255078666174,100 174.93931659845938,-36.892549353868446,100 174.93932199707288,-36.89254394436905,100 174.93933850469412,-36.892531522435206,100 174.9396337720545,-36.89276161423801,100 174.93974890043233,-36.89246663506401,100 174.9399536709107,-36.89237042222022,100 174.9399545589194,-36.892338966287916,100 174.94005425314924,-36.89223858377575,100 174.94061799616284,-36.892234795308994,100 174.94077350717293,-36.892179809765636,100 174.9407735927657,-36.89217977772248,100 174.9407790799277,-36.89218748443032,100 174.9408057847121,-36.89221412265536,100 174.9408156478039,-36.89222690886897,100 174.94082334280404,-36.89223942406062,100 174.9408247686443,-36.892243440450834,100 174.94083642756394,-36.892264882377845,100 174.94085011605532,-36.89230203799136,100 174.94085809455777,-36.892321005558934,100 174.94086330174113,-36.89233794899279,100 174.9408703654545,-36.892355710226894,100 174.94087179594158,-36.89236177071979,100 174.94088019598365,-36.892373545224146,100 174.94088252527376,-36.892379604550115,100 174.94088999021844,-36.892388174841,100 174.94089047197684,-36.8923905815882,100 174.94090772446282,-36.89241856757842,100 174.94093980203013,-36.892404130741966,100 174.94096201518224,-36.89241779400784,100 174.9409701257544,-36.89241295571682,100 174.9409787173635,-36.89240925513428,100 174.94098458984604,-36.8924059901542,100 174.94102667153004,-36.89239010274212,100 174.9410298248234,-36.89239037208098,100 174.94103346501296,-36.892389485189724,100 174.94107020185555,-36.89238901104019,100 174.94107383187773,-36.892389627704894,100 174.9410937842995,-36.892391654076384,100 174.94110603309224,-36.89239389556682,100 174.94111647184306,-36.892395072441005,100 174.94112915286877,-36.892397322187804,100 174.941133212335,-36.89239907740225,100 174.9411373202511,-36.89240008733976,100 174.941141828341,-36.89240183341977,100 174.94114816727785,-36.89240351623085,100 174.9411531356831,-36.89240562612902,100 174.94115720811712,-36.89240665286932,100 174.94116084316295,-36.89240804367764,100 174.94117899353978,-36.89241552268812,100 174.94118223041545,-36.89241692090416,100 174.94118544542084,-36.89241754434789,100 174.94120207447824,-36.89242375032551,100 174.94124802854918,-36.89244883455354,100 174.9412546225688,-36.89245535955293,100 174.94125699616643,-36.89245864841044,100 174.94125980469192,-36.89246081162964,100 174.94127862536095,-36.89248115042721,100 174.9412842389239,-36.89248471891678,100 174.94128450350811,-36.892484930907806,100 174.9412892721732,-36.89248916665798,100 174.94129602531117,-36.892493334823435,100 174.94129990734677,-36.89249490726129,100 174.941304561973,-36.89249756487199,100 174.94134475887606,-36.8925158454016,100 174.94135122129492,-36.89251823822109,100 174.94136096701206,-36.89252430430923,100 174.9413655641755,-36.89252801559085,100 174.9413685716345,-36.892529216558394,100 174.94137361938883,-36.892532952021135,100 174.941386076839,-36.892537714651056,100 174.9413902988729,-36.89254034958536,100 174.9414117244748,-36.89254936494505,100 174.94142103799066,-36.89255542367121,100 174.94143045670987,-36.892559699681605,100 174.94149032991808,-36.892593640647405,100 174.94150216876088,-36.89259790323269,100 174.9415623465612,-36.892627255102155,100 174.9415865580394,-36.89264196625902,100 174.94164032587992,-36.89266771666399,100 174.94164486680316,-36.892668764571155,100 174.94165853727787,-36.89267485390548,100 174.94167397695279,-36.892678712408774,100 174.94167806689867,-36.89267905655033,100 174.94168217451363,-36.89268009801955,100 174.94168895233625,-36.89268076595837,100 174.94170182999838,-36.892683244967536,100 174.94171439382941,-36.89268560562557,100 174.94175493842633,-36.89269709614314,100 174.94176954954588,-36.892703462112884,100 174.94177322139737,-36.89270559588394,100 174.94179333242406,-36.89271516173443,100 174.94179699139454,-36.89271621143525,100 174.94180108600668,-36.89271797957151,100 174.9418047578597,-36.892720113341525,100 174.94181159622346,-36.89272294884368,100 174.94183539236195,-36.89273574694089,100 174.94185412125532,-36.89274351021643,100 174.9418641828081,-36.89274848681873,100 174.9418714862387,-36.892751297589335,100 174.94188200660426,-36.89275662270805,100 174.94189202680212,-36.89276014436287,100 174.9418966139026,-36.89276226136437,100 174.94191120314372,-36.892767187375135,100 174.94191576561303,-36.89276966079738,100 174.94197422157075,-36.892793668775646,100 174.9419788023786,-36.8927961572179,100 174.94198976236427,-36.89280111731793,100 174.9419956875177,-36.89280285371636,100 174.94200070797922,-36.89280497895085,100 174.94203076270855,-36.89281407123195,100 174.94203489102705,-36.89281584061149,100 174.94203898141757,-36.89281686612613,100 174.94204768425146,-36.89282149538891,100 174.94205313379348,-36.89282288444318,100 174.94206272177314,-36.89282639782779,100 174.942068670756,-36.892829605677655,100 174.942103369608,-36.89284408216456,100 174.94212200518433,-36.892847851400624,100 174.94212747537668,-36.89284996657235,100 174.94213294806605,-36.89285098480464,100 174.94213749914715,-36.89285238854537,100 174.9421411381918,-36.892852695879014,100 174.9421629661354,-36.89285752242778,100 174.9421697834425,-36.8928596146697,100 174.94217253732177,-36.89286103697927,100 174.9421757292975,-36.89286207898174,100 174.94219210884273,-36.892865517359155,100 174.94220804757015,-36.89287113240345,100 174.942221713481,-36.89287460343102,100 174.94222992354858,-36.892877056855326,100 174.94229491502827,-36.89288933176667,100 174.9423683243852,-36.892914603827045,100 174.9423706116743,-36.89291603466323,100 174.94237332650593,-36.89291671312179,100 174.94237455242066,-36.89291726540875,100 174.94238089491213,-36.89292032530156,100 174.94239551159717,-36.89292438373971,100 174.94240217065672,-36.892925146414804,100 174.9424079281906,-36.892927706629884,100 174.94241632938034,-36.8929295539371,100 174.94244689421842,-36.89293835836242,100 174.94248238969834,-36.89294543364411,100 174.94251558768528,-36.8929556776504,100 174.94254033406648,-36.8929666006539,100 174.94255049535522,-36.892972055965814,100 174.94261630755,-36.892995807218746,100 174.94262154646106,-36.89299769541369,100 174.94262989880647,-36.892999651662045,100 174.9426827414917,-36.89301513363338,100 174.9426892325383,-36.89301670481415,100 174.94272075842252,-36.89302711941883,100 174.942725844943,-36.893027909598075,100 174.94277305592252,-36.893047829771234,100 174.94279066145967,-36.89305248461444,100 174.94279297533004,-36.89305363560042,100 174.94280086070071,-36.89305558505352,100 174.94282558214647,-36.89306375128709,100 174.94283456563716,-36.89306665619479,100 174.9428414107369,-36.89306851540417,100 174.94286840463297,-36.8930781902112,100 174.94287570540067,-36.89308151290843,100 174.9428958162655,-36.893088584637454,100 174.94290221862275,-36.8930900653232,100 174.9429264461347,-36.89309786917506,100 174.942931940615,-36.89309899336861,100 174.9429492960568,-36.89310458243409,100 174.94298904853656,-36.893120531659136,100 174.94303482193976,-36.89313168022789,100 174.9430503477366,-36.893134901715136,100 174.94306505673543,-36.893139190197076,100 174.94307052817913,-36.89314011376814,100 174.94313390916906,-36.893157853985194,100 174.9431394720847,-36.8931602163551,100 174.94317763409887,-36.893171811152676,100 174.94319228602413,-36.89317464493156,100 174.9431973553744,-36.893176660255875,100 174.94320512632729,-36.89317825643623,100 174.94321112884938,-36.89318025378955,100 174.943217524592,-36.89318151734982,100 174.94322525523745,-36.893181656764895,100 174.943231185505,-36.89318292884087,100 174.9432407868644,-36.89318444369866,100 174.94325543533444,-36.89318780479441,100 174.94326042886735,-36.8931889542931,100 174.94327670222825,-36.89319169663994,100 174.9432835231189,-36.89319330835845,100 174.9432975623216,-36.893196494647604,100 174.94331672055782,-36.89320352240311,100 174.94333356602039,-36.89320877905887,100 174.94335457817704,-36.893217183426316,100 174.94339399426732,-36.893225393934884,100 174.94341184295396,-36.89323317316437,100 174.94343364877815,-36.89323902282901,100 174.9434681178995,-36.89325269779644,100 174.94348425254773,-36.89325912875473,100 174.94349958142863,-36.89326334484893,100 174.94350548981828,-36.89326570064736,100 174.9435117756996,-36.893267322007866,100 174.94351814213397,-36.893269995684996,100 174.94354567502947,-36.89327852856578,100 174.94355153578763,-36.89327980266423,100 174.94356106842238,-36.89328382787599,100 174.94356831645752,-36.89328648532236,100 174.94357507911005,-36.89328845489683,100 174.94358684981245,-36.893292765254046,100 174.94359325376098,-36.893296165672915,100 174.94360048536154,-36.89329883870851,100 174.94360857636596,-36.89330075319651,100 174.94361132719973,-36.89330209800896,100 174.94362129278744,-36.893306115230025,100 174.9436317918521,-36.89331192003772,100 174.94364235423632,-36.89331876121968,100 174.94364825447,-36.89332145874198,100 174.943655026154,-36.89332378418269,100 174.9436611393078,-36.893324789159514,100 174.94366814192105,-36.893326087830296,100 174.94367152071587,-36.89332639757263,100 174.9436961011871,-36.89332820265881,100 174.94372077154233,-36.89332709232386,100 174.94372345867134,-36.89332738544248,100 174.94372749043504,-36.893326894046396,100 174.94373960738668,-36.89332689314969,100 174.94376217606802,-36.89332910518849,100 174.94376711569328,-36.89332896937408,100 174.94377210334605,-36.89332988640846,100 174.94377744745722,-36.8933293726334,100 174.943782413668,-36.89332957707962,100 174.94379133035412,-36.89332820898064,100 174.9437949232935,-36.89332811322942,100 174.94380853736754,-36.893330950395914,100 174.94381354456272,-36.89333259356705,100 174.94381634112213,-36.893334325191,100 174.94382000094436,-36.89333602556268,100 174.9438218720606,-36.893337416312676,100 174.94384033634017,-36.893348049775376,100 174.94385262329826,-36.89335165404103,100 174.94385715139725,-36.89335223789617,100 174.94386747496046,-36.89335174267271,100 174.9438699723862,-36.89334542201781,100 174.94403628346655,-36.89339731347239,100</coordinates></LinearRing></outerBoundaryIs>
    </Polygon>
  </Placemark>

  <Placemark>
    <name>Cockle Bay</name>
    <Point>
      <altitudeMode>relativeToGround</altitudeMode>
      <coordinates>174.94259597960811,-36.90020770110343,100</coordinates>
    </Point>
  </Placemark>

</Document>
</kml>