<?xml version="1.0" encoding="utf-8"?>
<kml xmlns="http://www.opengis.net/kml/2.2">
<Document>
  <name>Dannemora (polygon: official_shp)</name>
  <open>1</open>

  <Placemark>
    <name>Dannemora (polygon: official_shp)</name>
    <Style>
      <LineStyle><color>ffff0000</color><width>2</width></LineStyle>
      <PolyStyle><color>66ff0000</color><fill>1</fill><outline>1</outline></PolyStyle>
    </Style>
    <Polygon>
      <tessellate>1</tessellate>
      <altitudeMode>relativeToGround</altitudeMode>
      <outerBoundaryIs><LinearRing><coordinates>174.91533099528917,-36.93160399385268,100 174.91535400737567,-36.93139500403212,100 174.91544499261406,-36.93060600575242,100 174.91545400330233,-36.93060600099743,100 174.9155470000628,-36.92979399927503,100 174.91548899371512,-36.92965000583041,100 174.91575799329607,-36.929267998095206,100 174.91594899829818,-36.92921300692598,100 174.91687100355648,-36.92858100014954,100 174.91720600059557,-36.92834400033917,100 174.91738600694677,-36.92822000515538,100 174.91741899334258,-36.92819200680214,100 174.91758900416664,-36.92804799324426,100 174.91774400696772,-36.927916001090566,100 174.9177850079694,-36.92788200655326,100 174.91788100535013,-36.92777899983027,100 174.91802799931054,-36.92761999996163,100 174.91815600433003,-36.927483003958045,100 174.91828699473353,-36.927342004631264,100 174.91844100548414,-36.927176003074706,100 174.91857599380114,-36.927032005972755,100 174.91858899962799,-36.927017000787046,100 174.91871999870915,-36.92687699229552,100 174.91885400691493,-36.92673200485692,100 174.9189829913108,-36.92659299304252,100 174.91867299800003,-36.926406999954565,100 174.9187960076818,-36.92627399478607,100 174.91880899832015,-36.926254001959656,100 174.91889999210846,-36.926111992579635,100 174.918918001207,-36.926083997908826,100 174.91897599643497,-36.925993993883026,100 174.91900499974935,-36.925855998414754,100 174.91932099212715,-36.925881993688236,100 174.91932500370905,-36.925704996730545,100 174.91936899889794,-36.92572699595988,100 174.91945500399572,-36.925778000814944,100 174.91946599456148,-36.925783999846225,100 174.91954399404443,-36.92570200300912,100 174.91957000133158,-36.92567999795492,100 174.91957899581254,-36.92566500162834,100 174.91960599667152,-36.92563700119859,100 174.91977700420313,-36.925738996066826,100 174.9199440003835,-36.92556000024572,100 174.92001999271847,-36.92547799229266,100 174.9200779945003,-36.92541400581703,100 174.9198079921125,-36.92525400455523,100 174.91986199728066,-36.925135993243906,100 174.9199210086835,-36.92507099727338,100 174.9199950040855,-36.92498999954779,100 174.9200839937117,-36.92489399312054,100 174.92012800275242,-36.924844999083504,100 174.92020999188054,-36.924755991790754,100 174.92026100202045,-36.924699997562236,100 174.92033799190037,-36.92461600391062,100 174.92039399966785,-36.92455499592122,100 174.92041100496618,-36.92453700740861,100 174.92050199651655,-36.924438996226414,100 174.92055399180424,-36.92438299855964,100 174.92062999191944,-36.92430199776556,100 174.92068600258108,-36.92424300222485,100 174.92075700125844,-36.92416500069874,100 174.92084699174757,-36.92406900456106,100 174.92092199908993,-36.923988996665884,100 174.92107099213348,-36.92382899636327,100 174.92108900735988,-36.92383699157339,100 174.92124499867398,-36.923611000918086,100 174.92135199118462,-36.923674996167634,100 174.92160099289205,-36.92340799644338,100 174.92175300515333,-36.92326099654434,100 174.92178499943375,-36.92322600084953,100 174.9219819946254,-36.9230140063743,100 174.92218900532893,-36.92313800017725,100 174.92232999993766,-36.92298599265201,100 174.9225020001643,-36.92280199473773,100 174.92262100345215,-36.92267399605118,100 174.9227289932073,-36.922557995388026,100 174.92291000786815,-36.92236299462685,100 174.92309199994065,-36.922168998952976,100 174.92327299594405,-36.92197399795186,100 174.92329700572174,-36.921948000992266,100 174.92329729815447,-36.921947934065294,100 174.92373789560648,-36.922072504886145,100 174.92383329723867,-36.92213631705288,100 174.9239276018368,-36.922199218562945,100 174.92413360830585,-36.9222361116305,100 174.9247336922452,-36.92234357418234,100 174.92499110694737,-36.9223897551056,100 174.9251965959431,-36.92242665470185,100 174.9254007951031,-36.92246318999326,100 174.92562719104,-36.922503867033605,100 174.92593900230662,-36.92255976228162,100 174.92623379915173,-36.922612584331716,100 174.92631549859942,-36.92262726540915,100 174.92672520589008,-36.92270069357483,100 174.92697290251996,-36.922689261884585,100 174.92719389359476,-36.922728870845575,100 174.92744660241408,-36.92277423138002,100 174.9273534055287,-36.92290589437992,100 174.92734220758828,-36.922943696876104,100 174.92733610335057,-36.922964310704764,100 174.92733610570977,-36.92296440440288,100 174.927291800019,-36.9231181157358,100 174.9272676995852,-36.923201465409015,100 174.92724109642015,-36.92329371558852,100 174.9271993074955,-36.92343843060584,100 174.9271903023796,-36.92346920962965,100 174.92713989237242,-36.92364480557213,100 174.92713599877436,-36.92365785305534,100 174.9270892045736,-36.923820389776154,100 174.92707509341696,-36.92386854421724,100 174.92703839193192,-36.92399588404906,100 174.92701429208557,-36.92407923275596,100 174.92698760087245,-36.924171486105685,100 174.9269526971402,-36.92429252270607,100 174.92693689561685,-36.924347071424165,100 174.92689399991733,-36.92449620358689,100 174.92688649788644,-36.92452257331489,100 174.92683570579433,-36.92469815999588,100 174.92682529686417,-36.924733253814146,100 174.92682019659208,-36.92475081480515,100 174.92676079498233,-36.92488212183003,100 174.92674070468465,-36.924927299776485,100 174.92667879607436,-36.92506427342464,100 174.92664780597,-36.92513241155932,100 174.92658979619327,-36.92526092258046,100 174.92656570348512,-36.92531394735801,100 174.92656820518658,-36.92536191241151,100 174.92657439862919,-36.925477646649526,100 174.92658340089469,-36.92564685517522,100 174.92658440841564,-36.92566449281198,100 174.92658910446866,-36.92575115340612,100 174.92656359828425,-36.925839993987175,100 174.92654199840953,-36.925913788687176,100 174.92651139116975,-36.92602079322357,100 174.92647320052782,-36.92615246529263,100 174.92644550324317,-36.92618963317087,100 174.92631550625552,-36.92636469566724,100 174.92628059234463,-36.92641167057837,100 174.9262067939128,-36.92651085109721,100 174.92607760815392,-36.926684644651964,100 174.92625319554378,-36.92671793982234,100 174.92646099638327,-36.92675735205978,100 174.9265088050729,-36.92676644214848,100 174.92666829497617,-36.926796694566896,100 174.9268472048075,-36.926830704661015,100 174.92699410594903,-36.926858517374306,100 174.92712049313855,-36.92688245281722,100 174.92738039941605,-36.92693177491161,100 174.9273934048503,-36.926934299287005,100 174.92768599211468,-36.92698974370187,100 174.92769939594413,-36.9269922615757,100 174.92808490719025,-36.92706534382909,100 174.93001880363732,-36.927431911153406,100 174.9303028930794,-36.92739456207631,100 174.93043790626487,-36.9274545016856,100 174.9306099983736,-36.92744891868324,100 174.93095049915993,-36.92743775594934,100 174.93097280830233,-36.92743712456424,100 174.93184909319206,-36.92740859511829,100 174.932017901646,-36.927403114874224,100 174.93248769517115,-36.927387715039785,100 174.93228680779643,-36.92809106884935,100 174.93160539536188,-36.9279247428082,100 174.93130299790042,-36.92838158587866,100 174.93126980623126,-36.92843136702253,100 174.93109339654586,-36.92869803435287,100 174.93104340408757,-36.929042636834716,100 174.93099370565585,-36.92938724982401,100 174.93097500697897,-36.92951693337395,100 174.93172199579945,-36.92958659675225,100 174.93194480553814,-36.92960739356626,100 174.93179329598647,-36.930654904030106,100 174.93175800828357,-36.93159090428088,100 174.93172339245965,-36.93251061581897,100 174.93160210538,-36.932576218777456,100 174.9315289959849,-36.932600431178834,100 174.93119679426934,-36.9327103174119,100 174.9307198008486,-36.93286835371511,100 174.9304678033824,-36.93295170063547,100 174.93034610560204,-36.932991926320945,100 174.93039289684162,-36.93326309342412,100 174.93041630678658,-36.93339828240721,100 174.9304649000586,-36.93367953015061,100 174.93050339524774,-36.933902819296364,100 174.93053690415923,-36.934095966783175,100 174.9309779089142,-36.934353896629894,100 174.93092819099564,-36.934495192304375,100 174.92936150154836,-36.934830004041956,100 174.92901700155448,-36.93483099682846,100 174.9285453979987,-36.93541239481422,100 174.92821880410776,-36.93581477393787,100 174.92741860480902,-36.935673757283475,100 174.92711979946364,-36.93562110132911,100 174.92666000135168,-36.93554009268711,100 174.9261935079967,-36.93545774696959,100 174.92513110117858,-36.93527117816938,100 174.92504260133887,-36.935255610781724,100 174.92499859713735,-36.935247953769064,100 174.92413280435073,-36.93509298314218,100 174.9237454934745,-36.934958605208074,100 174.92318860374706,-36.93492386830815,100 174.92243689397037,-36.934789405076565,100 174.92241199725802,-36.934875538153385,100 174.9221711971125,-36.934829999884435,100 174.92204519874386,-36.93480614588241,100 174.92191700647118,-36.9348538498693,100 174.9218677080646,-36.935021602147685,100 174.9217607959579,-36.935046362948285,100 174.92165709456583,-36.93510414708758,100 174.92149300145542,-36.935032944005314,100 174.92129210457068,-36.935105945703256,100 174.9211686039172,-36.935109984680864,100 174.92096409544175,-36.93511665641665,100 174.92076470127444,-36.935076775278986,100 174.92054149995752,-36.93503214413132,100 174.92041299651743,-36.934999643882755,100 174.9202736067258,-36.93497120962003,100 174.92018000628406,-36.93496382837198,100 174.919947102843,-36.934945557719516,100 174.9195741959942,-36.93491612965811,100 174.91934989430334,-36.93481398155263,100 174.91870149390476,-36.93469940184821,100 174.91829540446173,-36.93424328441194,100 174.9167266070124,-36.93330071797942,100 174.9154385064353,-36.93307527555447,100 174.91514719972284,-36.933021001781455,100 174.91518719842543,-36.932879343644245,100 174.91528979862414,-36.93183407477322,100 174.91533099528917,-36.93160399385268,100</coordinates></LinearRing></outerBoundaryIs>
    </Polygon>
  </Placemark>

  <Placemark>
    <name>Dannemora</name>
    <Point>
      <altitudeMode>relativeToGround</altitudeMode>
      <coordinates>174.92380178012345,-36.92980832740567,100</coordinates>
    </Point>
  </Placemark>

</Document>
</kml>