<?xml version="1.0" encoding="utf-8"?>
<kml xmlns="http://www.opengis.net/kml/2.2">
<Document>
  <name>Eastern Beach (polygon: official_shp)</name>
  <open>1</open>

  <Placemark>
    <name>Eastern Beach (polygon: official_shp)</name>
    <Style>
      <LineStyle><color>ffff0000</color><width>2</width></LineStyle>
      <PolyStyle><color>66ff0000</color><fill>1</fill><outline>1</outline></PolyStyle>
    </Style>
    <Polygon>
      <tessellate>1</tessellate>
      <altitudeMode>relativeToGround</altitudeMode>
      <outerBoundaryIs><LinearRing><coordinates>174.92124292772814,-36.8788592697032,100 174.92122999708917,-36.87890300258436,100 174.92101599541036,-36.87965799243722,100 174.9207070060275,-36.879718005945314,100 174.9201770023111,-36.8794300022345,100 174.92002599265444,-36.87960899594415,100 174.9195679929064,-36.879882995654675,100 174.91891199690366,-36.87976300255084,100 174.91880499590923,-36.880140006587524,100 174.91888000713323,-36.88033900126193,100 174.91877999734405,-36.88069000195458,100 174.9197640078826,-36.88087100532955,100 174.91992899648645,-36.881053003755554,100 174.9205850064907,-36.88117300705196,100 174.92050300038795,-36.88146400026254,100 174.92037000647775,-36.881932997875786,100 174.92032500727584,-36.88209000304225,100 174.9196059938544,-36.88188600057467,100 174.91887300038374,-36.881751007228885,100 174.9184199984989,-36.8833410061225,100 174.91926000416788,-36.88390300491159,100 174.91915999221035,-36.884254005808906,100 174.91926600139624,-36.884529002218336,100 174.91961499379232,-36.884594007556615,100 174.91949899564707,-36.88500400500427,100 174.91935700188986,-36.88550500298954,100 174.9174940010584,-36.88487900606214,100 174.91610299854983,-36.884554997886504,100 174.91526900588372,-36.884359995711634,100 174.9145090070028,-36.88369899498563,100 174.91393499744052,-36.882058995001636,100 174.91380200818168,-36.881723994655005,100 174.91356400786742,-36.88112300471757,100 174.91332000561545,-36.88051100120634,100 174.91318899443368,-36.880407004265656,100 174.91197000076858,-36.879429992757814,100 174.9118779981791,-36.87937500215911,100 174.91162500078963,-36.879242994966425,100 174.91127199357416,-36.879040001259135,100 174.91140199640472,-36.87889399140883,100 174.91160000104549,-36.87867099878865,100 174.91147699744317,-36.87860099227534,100 174.91143300019453,-36.87857600085184,100 174.9112660083101,-36.87847999575484,100 174.91109899815538,-36.87838400603256,100 174.91101900626674,-36.878338992015436,100 174.91093200709744,-36.87828800043899,100 174.91077199612326,-36.87819699642579,100 174.91076500786585,-36.8781930006084,100 174.91059799968846,-36.878096994806924,100 174.91054400623614,-36.878066000582194,100 174.910430992306,-36.87800100407343,100 174.91031499623418,-36.877935007172034,100 174.91026399544916,-36.87790600438115,100 174.91009700533155,-36.87780999756435,100 174.91008700638528,-36.87780399510264,100 174.90992999918652,-36.87771400608602,100 174.90985900086565,-36.87767299815724,100 174.90976299307326,-36.87761799904308,100 174.90959599673675,-36.87752299837607,100 174.90952899563413,-36.87748399542416,100 174.90929699626395,-36.87735099213207,100 174.9092690049011,-36.87789199172653,100 174.90920800603732,-36.877857002153945,100 174.90905000684256,-36.87776800493558,100 174.90900200188733,-36.87768500672624,100 174.9090549955085,-36.87767700678543,100 174.90907800606874,-36.8772259975613,100 174.90908100575075,-36.877156997445354,100 174.9090930047481,-36.876928997691444,100 174.9091030024849,-36.876743996035636,100 174.9091120051167,-36.87655800539329,100 174.90899900714018,-36.876599993048806,100 174.90895099403153,-36.87651600257153,100 174.9089170000892,-36.87645800171895,100 174.9088349985551,-36.87631500256056,100 174.9088310040349,-36.87630799588237,100 174.9087529985026,-36.876172005117425,100 174.9087180056383,-36.87611099992509,100 174.9087159912266,-36.87609299325888,100 174.90869099247314,-36.87592999898728,100 174.90868299536123,-36.875880999185945,100 174.9086660001915,-36.87576599782597,100 174.9086440085203,-36.87562000190038,100 174.90864100170384,-36.87560300443025,100 174.9086170050803,-36.875440006645704,100 174.90859199634087,-36.87527600571716,100 174.90856800777712,-36.87512400479722,100 174.90856599488515,-36.875112997757626,100 174.9085410032361,-36.87494899743433,100 174.9085240036156,-36.874842001635564,100 174.90851600531175,-36.87478600217392,100 174.90849499544154,-36.87464999327864,100 174.90848999416463,-36.87462200378571,100 174.90846499612695,-36.87445899408454,100 174.90844000494593,-36.874294992809666,100 174.90843600433504,-36.874272003088734,100 174.90843499583877,-36.87426799398984,100 174.9084080009806,-36.874086991725605,100 174.90840300354856,-36.874055998061394,100 174.90840699992472,-36.87404099717544,100 174.90846599539566,-36.873869996368384,100 174.90846100829023,-36.87385699831385,100 174.90845099935459,-36.87382600043054,100 174.90841000668536,-36.87369799445189,100 174.9083610061869,-36.87354699369455,100 174.90835799460214,-36.87353800272122,100 174.90830599168984,-36.8733790013657,100 174.90827899479237,-36.87329499744226,100 174.90825399650774,-36.87321899398243,100 174.9082029961926,-36.87306000530729,100 174.90818799747385,-36.87301399491732,100 174.90815100146938,-36.87289999785844,100 174.90809899947388,-36.872740996371434,100 174.90809499744316,-36.8727279959965,100 174.9080470055927,-36.87258100417286,100 174.90802899182978,-36.87252400369865,100 174.90800899520423,-36.87246400392217,100 174.90799600692637,-36.87242200003387,100 174.90798300757197,-36.8724250019937,100 174.90793099585073,-36.87226499469501,100 174.90794399518055,-36.87226199274152,100 174.9078869945496,-36.8720870035555,100 174.90782900777216,-36.871912001327736,100 174.90778200154512,-36.87176499173611,100 174.90773500634728,-36.871619004041655,100 174.90768999633033,-36.87148300173296,100 174.90788899642234,-36.871442993553735,100 174.90808800420012,-36.87140199526895,100 174.9081499993954,-36.87159399321182,100 174.9081669981181,-36.87159000585088,100 174.90855700769274,-36.87151099831942,100 174.90867099467022,-36.871134004788146,100 174.908870004231,-36.87106099204835,100 174.90905700336864,-36.87099299223415,100 174.90922099548442,-36.87093300415209,100 174.90924299931453,-36.87092499473025,100 174.90941499679633,-36.8708619998182,100 174.909462001,-36.87084499897079,100 174.90963200361412,-36.87078299932149,100 174.90967299730934,-36.87076799408346,100 174.90965799276233,-36.87074199329304,100 174.90958600649873,-36.870624991635594,100 174.9095340081822,-36.8705380062491,100 174.90908200696487,-36.87070299954723,100 174.9090300024466,-36.87061700638879,100 174.90894299617767,-36.87047400369751,100 174.90896399706574,-36.870465996922995,100 174.90935899317202,-36.87032200616306,100 174.9093949948643,-36.87030899475325,100 174.90980599859577,-36.87015900474561,100 174.91001099914922,-36.870083994740604,100 174.91040199213697,-36.86994099957605,100 174.9104070007464,-36.86993900643598,100 174.91059600662052,-36.86986999313469,100 174.91063400271875,-36.86985600109114,100 174.91046999910856,-36.869586004966315,100 174.91017200259503,-36.86909299575234,100 174.9098170001942,-36.86850599741409,100 174.90985400771729,-36.86847300363195,100 174.91006799468477,-36.86828099909523,100 174.91041600398975,-36.86830500500724,100 174.91050000687991,-36.86825600319785,100 174.91070599276844,-36.86813400113146,100 174.91076012418776,-36.868102238696096,100 174.91076151772904,-36.86810387111078,100 174.91077874142982,-36.868132681555885,100 174.91078093068424,-36.86813815612481,100 174.91078498094967,-36.86814218839333,100 174.91079206350008,-36.868155320306684,100 174.91079609142983,-36.86816043722363,100 174.91080409484965,-36.86817248355639,100 174.91080626578463,-36.868182310900266,100 174.91081163471122,-36.86818780643644,100 174.91082318287113,-36.86820750295748,100 174.91083424066963,-36.86823012043435,100 174.91085602108137,-36.868266268245605,100 174.91085959415219,-36.86826992242063,100 174.9108622722078,-36.868274303935436,100 174.9108670969126,-36.86828704222682,100 174.9108702242684,-36.86829144716013,100 174.910879958557,-36.868311144906976,100 174.9108844217539,-36.868316982186386,100 174.91088528235025,-36.86832063672289,100 174.91089021881328,-36.868326108565775,100 174.91093247722083,-36.86839254488845,100 174.91094542551755,-36.86840972311794,100 174.9109565021583,-36.8684305277217,100 174.9109614242523,-36.8684367280601,100 174.91096900761747,-36.868447311081674,100 174.91097974871155,-36.868459015030865,100 174.91101091386327,-36.86850721665573,100 174.91101359388952,-36.86850978557795,100 174.91107320585104,-36.86860468856042,100 174.9110799174624,-36.86861310439897,100 174.91110253564227,-36.86865396160788,100 174.91113101845428,-36.86869886514616,100 174.91115105596717,-36.86872880378978,100 174.91115191619997,-36.86873244300731,100 174.91116480397224,-36.868754346008814,100 174.9111701905256,-36.86875982592147,100 174.9111878012798,-36.86877881108105,100 174.91119140718143,-36.86878427637285,100 174.911193216683,-36.86878535859416,100 174.911260457926,-36.868857237077115,100 174.91126677386947,-36.868861972865496,100 174.91127443327062,-36.868872182397,100 174.9112965273423,-36.868897717424105,100 174.91129923868226,-36.86890208216882,100 174.9113136208582,-36.86893123657691,100 174.91135369833796,-36.86899246122902,100 174.9113649313822,-36.86901323172801,100 174.91139738374832,-36.86906170456141,100 174.91139872013395,-36.8690657236846,100 174.91140050884223,-36.86906790675023,100 174.91141264823503,-36.86909340000694,100 174.9114297947299,-36.869113106443265,100 174.91143653937175,-36.86912838078247,100 174.91144859846546,-36.86917171697877,100 174.91145173511947,-36.86917644712263,100 174.91145488545075,-36.869184831903574,100 174.91148641329605,-36.86922856691749,100 174.91149406617888,-36.869244228629746,100 174.9115098260958,-36.869265011907295,100 174.91152644751062,-36.869303977192516,100 174.9115372449257,-36.8693214882942,100 174.91154086245083,-36.86932548243125,100 174.9115606566822,-36.8693623001903,100 174.9115642204564,-36.869375029894094,100 174.91160197446467,-36.86945481668795,100 174.9116073386717,-36.86947082887546,100 174.9116477769888,-36.869554610381044,100 174.91165126072767,-36.86959027728614,100 174.91165887935543,-36.86961032266146,100 174.9116701243823,-36.86963471714656,100 174.91167550643164,-36.86964820354157,100 174.91168496601662,-36.869661680209276,100 174.9116876491688,-36.86967004275633,100 174.9117173412614,-36.86972180105562,100 174.91172185616767,-36.86972763656711,100 174.91173894643572,-36.869757859571116,100 174.91174886243206,-36.86976844826721,100 174.91175066603074,-36.86977244274264,100 174.91175922029362,-36.86978632244063,100 174.91176685851448,-36.869802696412115,100 174.91176956544768,-36.86980562180603,100 174.91181998030248,-36.86989088401585,100 174.9118244755996,-36.869895977150115,100 174.91183389524082,-36.86992184490699,100 174.91184472468674,-36.86993424407042,100 174.9118460686577,-36.869937890819934,100 174.91184511092956,-36.869952078602445,100 174.9118491384416,-36.86996410230952,100 174.91185588203768,-36.86997685293906,100 174.9118594483191,-36.86999030995751,100 174.9118652710912,-36.870008513073564,100 174.91186788686116,-36.87003581705866,100 174.91187012305176,-36.8700423589143,100 174.91187367184526,-36.87006019933733,100 174.91191507445484,-36.8701268815824,100 174.91191868891968,-36.870134530612376,100 174.91193178790584,-36.87014585221887,100 174.9119412520012,-36.870158245403445,100 174.91195434145376,-36.870171749258695,100 174.9119592810849,-36.87018049009313,100 174.91196736185177,-36.87019724269328,100 174.91202010627634,-36.87027162262457,100 174.91202324106285,-36.870278164436634,100 174.91202955405888,-36.87028655508501,100 174.91203806786623,-36.870305872179195,100 174.91204123296498,-36.87030912999085,100 174.91204257452517,-36.870312049410565,100 174.91209214476473,-36.87038095619465,100 174.912097526304,-36.87039698159653,100 174.91211940675623,-36.87044177120599,100 174.9121411232328,-36.87048623717172,100 174.91214383626783,-36.870488775791465,100 174.91214564028726,-36.870492785575664,100 174.9121638589778,-36.87052064961925,100 174.91219787654862,-36.87057259504331,100 174.91220465155885,-36.870579537033414,100 174.91223704254168,-36.87063202237773,100 174.91224199673067,-36.87064255929708,100 174.91224545727113,-36.870646462199964,100 174.91225917042803,-36.870661938885995,100 174.91226550476694,-36.87067361268882,100 174.91229490236796,-36.8707083090566,100 174.91229667975944,-36.87071453471334,100 174.91232735631715,-36.8707769468315,100 174.91236354728403,-36.87081423329071,100 174.91237439414851,-36.87082664744358,100 174.9123784401412,-36.87083868705577,100 174.91238159859572,-36.870846715655425,100 174.91238562419537,-36.8708580273284,100 174.91240688784214,-36.870887246575684,100 174.91241184536193,-36.870893461600396,100 174.91244342657924,-36.87095296137656,100 174.9124782062102,-36.871008098640445,100 174.9124840616915,-36.871018696750994,100 174.91251166738678,-36.87104792655275,100 174.9125170887351,-36.87105780518548,100 174.9125189083282,-36.871059244145854,100 174.91252747727,-36.87107239618012,100 174.91252928724936,-36.87107349459586,100 174.91254693004535,-36.87109359395416,100 174.91255187657993,-36.87110382092783,100 174.91255822201222,-36.87111148275618,100 174.91257269442693,-36.87112501024237,100 174.91258083678497,-36.871137070429675,100 174.912585366209,-36.871142177404366,100 174.91258989076772,-36.87114582972558,100 174.9126211074449,-36.87117945659797,100 174.91263465126906,-36.87120320558052,100 174.91264686443628,-36.87121561213206,100 174.91265045246686,-36.871229843006105,100 174.91268930240824,-36.871287185102155,100 174.91269202341294,-36.87128936665719,100 174.91275032479274,-36.87136973437638,100 174.91275075741027,-36.87137228175412,100 174.9127566293974,-36.87138286426162,100 174.91276387138691,-36.87138981312034,100 174.91276522053525,-36.87139236016325,100 174.91277155642055,-36.8713996823351,100 174.91277424295828,-36.87140880280931,100 174.91279865493544,-36.87144131158686,100 174.91281858238835,-36.87145522170405,100 174.9128194771395,-36.871458845929745,100 174.9128185251414,-36.87147015300188,100 174.9128230441997,-36.871476731990256,100 174.91284069360924,-36.87149645985094,100 174.9128465487756,-36.87150704172303,100 174.91290219826206,-36.87156698216546,100 174.91291392544835,-36.87158998973323,100 174.91291483738624,-36.87159362810246,100 174.91295546686027,-36.871657892435394,100 174.91296361882584,-36.87166776944089,100 174.91296451830948,-36.87167032372153,100 174.9129748990316,-36.87168711312021,100 174.91299384335392,-36.87171998209049,100 174.91300519115663,-36.871729847292485,100 174.91300562134796,-36.871731667342395,100 174.91300787986555,-36.87173460082738,100 174.91301648433725,-36.87174336912903,100 174.91302324852094,-36.87175432211974,100 174.91302456171488,-36.871765635982,100 174.91302773069893,-36.87177219343733,100 174.91303767734414,-36.8717813394106,100 174.91304309630502,-36.87179556963076,100 174.9130525825373,-36.87180433725114,100 174.91308064065964,-36.87183868633693,100 174.91310818518133,-36.871881407039105,100 174.91317103349508,-36.87195994374026,100 174.91317373712252,-36.87196650868498,100 174.9132505465176,-36.87207389802123,100 174.91325553842788,-36.872077573434154,100 174.9132614171543,-36.872085228316564,100 174.91327629504494,-36.87211225276459,100 174.91331206051203,-36.87214660385566,100 174.91332563613543,-36.872165226429544,100 174.91335907450681,-36.872207968420355,100 174.91336178607924,-36.8722141763094,100 174.91341058043335,-36.872282461359994,100 174.91343231653943,-36.87230185291234,100 174.91344454171207,-36.87231720109238,100 174.9134467641364,-36.8723244867246,100 174.9134765674339,-36.872372696949746,100 174.91353812559439,-36.872431912785814,100 174.9135530758708,-36.872441419769466,100 174.91358022795458,-36.8724692027812,100 174.91361410769815,-36.87252359706587,100 174.91362132645654,-36.87253347373146,100 174.91362810611568,-36.87254625431284,100 174.91363670281103,-36.872555378713216,100 174.9136398743343,-36.87255758363345,100 174.91365432601364,-36.872579117741616,100 174.91367099488227,-36.8726134356136,100 174.913673259889,-36.87261599763639,100 174.91369401628558,-36.87265506001107,100 174.9136989636397,-36.87266782683885,100 174.91369986771215,-36.872673665450435,100 174.91370436556662,-36.87268388427524,100 174.91372243170753,-36.87271309798785,100 174.91373774122644,-36.87274886543681,100 174.9137522077281,-36.87276784404982,100 174.91376348628611,-36.87278647743259,100 174.9137818806151,-36.87280874568223,100 174.91379831300605,-36.872828773304576,100 174.91381152194617,-36.87284662839193,100 174.91382340191453,-36.8728619829918,100 174.91385061662982,-36.87290588594233,100 174.91386336023504,-36.87292374942085,100 174.9138695004802,-36.872933382061014,100 174.91392984675554,-36.87300127618568,100 174.91393556834865,-36.873009506802966,100 174.91393990481478,-36.873015145004175,100 174.9139865596923,-36.87307722622625,100 174.91399104836975,-36.873080197670674,100 174.91401190106959,-36.873109532285405,100 174.91401457819717,-36.87311139003981,100 174.91402750461754,-36.87312646186924,100 174.91403459275452,-36.87313599991274,100 174.91404666480742,-36.87314704578719,100 174.91405508254726,-36.87315843445048,100 174.91406266740222,-36.87316652327861,100 174.91406577041226,-36.873171285434715,100 174.91409479221366,-36.87319853886568,100 174.914107799893,-36.873207785946796,100 174.91412971127582,-36.87322658597716,100 174.91414268194362,-36.873237630883054,100 174.9142363999128,-36.873330749599226,100 174.9142583961726,-36.87334445307421,100 174.9142632928217,-36.87335032919848,100 174.9142686057145,-36.87335876827949,100 174.9142717206218,-36.87336207370475,100 174.9142898253706,-36.87339138043849,100 174.9143169375348,-36.87342589857736,100 174.91432219947944,-36.87343688019944,100 174.91433423779867,-36.87345048092782,100 174.91433281092733,-36.87345264365339,100 174.91433774460504,-36.87345672194533,100 174.91434043497026,-36.87345964844443,100 174.91434311965043,-36.87346113382417,100 174.9143466806515,-36.87346554609092,100 174.91435159562346,-36.8734695940388,100 174.91436765541886,-36.873486143978205,100 174.91438954902102,-36.87350678744414,100 174.91441003067717,-36.87352956184558,100 174.91442454898674,-36.87355666944294,100 174.91442581532218,-36.873562501308555,100 174.9144417863973,-36.87358524743991,100 174.9144520679409,-36.87359336669479,100 174.91449440951257,-36.87363934031525,100 174.91452524926973,-36.873667320546645,100 174.91453546927343,-36.87368016370282,100 174.91454485470052,-36.87368901123569,100 174.9145591001517,-36.87370554622117,100 174.91456259226038,-36.87371250041245,100 174.91460127737818,-36.87376061406494,100 174.91460530811293,-36.87376393356399,100 174.9146243968717,-36.87378815896556,100 174.91462664984547,-36.8737896521972,100 174.9146457291573,-36.873816059843115,100 174.91465768431416,-36.87383293006311,100 174.91470138481736,-36.87387926656784,100 174.9147084691779,-36.8738899051407,100 174.91478652265988,-36.87397012198668,100 174.91481578705134,-36.874011201174994,100 174.91482767942452,-36.87403206884121,100 174.9148370282854,-36.87404272859203,100 174.91485143833177,-36.87405017017381,100 174.91485410224604,-36.87405275458522,100 174.91486442942644,-36.87405941743515,100 174.91487202522345,-36.87406605040015,100 174.9148755661024,-36.87407226020623,100 174.91489106843105,-36.87409428556108,100 174.91489819117217,-36.874103808570275,100 174.91491379661815,-36.8741189110239,100 174.91491820024564,-36.874126963641665,100 174.91495295846838,-36.874164848293546,100 174.91497731478586,-36.874201523384684,100 174.91498670635409,-36.87420998321391,100 174.9150200215447,-36.87425256985658,100 174.9150374733706,-36.87426694220516,100 174.91504326197477,-36.87427322032702,100 174.91504730785857,-36.87427579687843,100 174.91505520653124,-36.874291546306324,100 174.91509221674946,-36.87433087818619,100 174.9151056047879,-36.87434451656088,100 174.91510914757234,-36.874348914675636,100 174.91511579630094,-36.87435881665562,100 174.9151622887554,-36.87440044184035,100 174.91517526448595,-36.874410417580094,100 174.91517793847856,-36.874413359645324,100 174.91518234103017,-36.87442141226972,100 174.91520908734927,-36.87445010004131,100 174.91521441438297,-36.87445779525944,100 174.91522066023666,-36.87446369375573,100 174.91523564948085,-36.8744896940421,100 174.91524407003206,-36.8745018108358,100 174.91524534002934,-36.87450836999694,100 174.91525646720862,-36.87452087218398,100 174.91532785839766,-36.87459189894121,100 174.91533729213407,-36.874597462120676,100 174.91535472469408,-36.87461366260733,100 174.91536045803173,-36.874623564909406,100 174.91537839026256,-36.874636503572106,100 174.91538154792448,-36.87463760905669,100 174.91538601447766,-36.874641665090245,100 174.91542201733378,-36.87468646608676,100 174.9154308183373,-36.874702942725406,100 174.91547987786186,-36.874753722556314,100 174.91548438992245,-36.87475632131945,100 174.9156136623961,-36.8748658140417,100 174.9156189798711,-36.874873168695565,100 174.91563331049545,-36.87488460700961,100 174.91569013486364,-36.87493179506915,100 174.91570168490648,-36.874946488712126,100 174.91571334264572,-36.874954984945504,100 174.91572402390315,-36.874968223444284,100 174.91573292254503,-36.87497885973505,100 174.91574276226652,-36.874986614653125,100 174.91580387286533,-36.8750495381793,100 174.9158150777278,-36.875057284596714,100 174.9158266744467,-36.87507052184271,100 174.91584182338838,-36.875085972227794,100 174.91584711431727,-36.87509549587399,100 174.91586096627236,-36.87510838308853,100 174.9158689761033,-36.87511685160681,100 174.91589536509284,-36.875140063150695,100 174.91591760798792,-36.87516652321053,100 174.91595378039017,-36.875201114757154,100 174.91596178592255,-36.87521066762568,100 174.91597297858075,-36.87521989959911,100 174.91601884621306,-36.87527208355217,100 174.91604794121838,-36.875295695768855,100 174.91605104195136,-36.87529972963936,100 174.91605867571096,-36.87530455025963,100 174.91606089856808,-36.87530748425726,100 174.91608458244667,-36.87532848157955,100 174.91608814253829,-36.875332894706446,100 174.91609263353754,-36.87533657897405,100 174.9161020530674,-36.87534286968429,100 174.91610381697703,-36.87534544064084,100 174.9161158584835,-36.875357213249266,100 174.9161363114599,-36.8753832884287,100 174.91616724396863,-36.875405813730154,100 174.91617846291672,-36.87541286316449,100 174.91619005838317,-36.87542537212678,100 174.91622384018373,-36.87546795088259,100 174.91628996231734,-36.875527656718155,100 174.91629529596077,-36.87553498043395,100 174.91640327318746,-36.8756442614344,100 174.91640366687923,-36.87564789371067,100 174.91641936800158,-36.87565827059613,100 174.9164274828044,-36.875667388133884,100 174.91642883893752,-36.875669578095824,100 174.9164396424699,-36.87567908128808,100 174.91644504279114,-36.87568566033245,100 174.91648971275237,-36.875722578836346,100 174.9164915071154,-36.8757262326815,100 174.9164996187234,-36.87573463822316,100 174.91655152368446,-36.8757719537404,100 174.91655287304036,-36.87577450073267,100 174.9165663982847,-36.87578620158677,100 174.91660105646142,-36.87581225481869,100 174.91660340319902,-36.87581399436131,100 174.9166142442886,-36.87582674889169,100 174.91664094146319,-36.8758460678986,100 174.91664363009227,-36.87584896282408,100 174.91669021522966,-36.87588322931441,100 174.91669881983177,-36.87589196668548,100 174.916738595398,-36.875921847237336,100 174.91677564373714,-36.87596627220412,100 174.91685929114456,-36.876037299435765,100 174.91692390739465,-36.87611450037298,100 174.91696730280722,-36.87614839009074,100 174.91696956974198,-36.876151648735316,100 174.91704733701854,-36.87621686256051,100 174.91706312850104,-36.87623869817477,100 174.91707716766922,-36.87625147315931,100 174.91707941778998,-36.87625473207296,100 174.91708438390756,-36.8762587484317,100 174.9171341224149,-36.87630900373314,100 174.917147222453,-36.876320293167325,100 174.91715265325774,-36.87632611277473,100 174.91717932637962,-36.876345803386876,100 174.91718248593781,-36.876349448709284,100 174.9171919860901,-36.8763549169264,100 174.91720193656852,-36.87636547303349,100 174.9172105000449,-36.87638149008381,100 174.917301369596,-36.876463088281525,100 174.91730453340423,-36.876468159418984,100 174.91730994567303,-36.876473281696796,100 174.9173357262758,-36.87649258558936,100 174.91734067694782,-36.87650168112024,100 174.9173582917114,-36.87652315918614,100 174.91737458933636,-36.87653700901048,100 174.91739402071477,-36.87655921395851,100 174.91741165957723,-36.87657088707616,100 174.91748398343648,-36.87663862922863,100 174.91748577538772,-36.87664155573168,100 174.9174957341514,-36.87665427935171,100 174.91749752820246,-36.87665791786287,100 174.91752917294542,-36.876692511679195,100 174.9175323275476,-36.87669470144117,100 174.91758746744256,-36.87675406011132,100 174.9176019295567,-36.87676462898479,100 174.91764938629962,-36.87681670459945,100 174.9176688368567,-36.87683020515076,100 174.91767651580102,-36.876838571624226,100 174.9176814844804,-36.87684766684896,100 174.91771537815748,-36.87688043969826,100 174.91771675660854,-36.87688154589845,100 174.91772674280034,-36.876889576787455,100 174.9178055569855,-36.8769664029122,100 174.9178078351529,-36.87697006334662,100 174.9178274191518,-36.87698651894469,100 174.91783015743317,-36.87699054329437,100 174.91784426969588,-36.87700407681541,100 174.91787158867223,-36.87702274916365,100 174.9178711267771,-36.87702419782961,100 174.91791212955167,-36.87706407632016,100 174.9179317189345,-36.87707504908915,100 174.9179330755422,-36.87707725524867,100 174.9179431062383,-36.87708567296733,100 174.91794719174558,-36.877089689083924,100 174.9180014036931,-36.87712408157182,100 174.91801004840636,-36.87713176455295,100 174.91801233305642,-36.87713249919673,100 174.91802964368034,-36.87714857775782,100 174.9180729205262,-36.87717127097858,100 174.91808976004947,-36.877185917730074,100 174.9181084561541,-36.87719396388733,100 174.91810889971902,-36.87719250019406,100 174.9181362298603,-36.87720968512248,100 174.91814351445996,-36.877216276924734,100 174.91820774492953,-36.87724737997901,100 174.91822961132047,-36.87726824035553,100 174.9182924731123,-36.87732055366992,100 174.91830979091867,-36.877329336796315,100 174.9183184328126,-36.87733627711272,100 174.91839175799495,-36.87737945238927,100 174.91839907239384,-36.877384588063805,100 174.91840499102238,-36.87738676020726,100 174.91840727063996,-36.877388593632396,100 174.91843868612753,-36.87740726999692,100 174.9184664822107,-36.877424462644996,100 174.91852021333898,-36.87745517896222,100 174.918526153549,-36.87746067932192,100 174.91853023448314,-36.87746325518371,100 174.9185398058049,-36.877466895166194,100 174.91855757011626,-36.87747751334065,100 174.91856030370738,-36.87747825424325,100 174.9185703405421,-36.87748372900135,100 174.91857899064254,-36.87748592912918,100 174.91858218686826,-36.87748776216899,100 174.9185853429043,-36.87749067924315,100 174.91860857880008,-36.87750604822635,100 174.91862770951036,-36.877521055377635,100 174.91863228019403,-36.87752325108158,100 174.9186340940504,-36.87752507760321,100 174.91864547748352,-36.877532401745086,100 174.91869922654274,-36.877577009717925,100 174.9187238254014,-36.87758725880509,100 174.9187470751189,-36.87760810935862,100 174.9187730124321,-36.87762494799196,100 174.91878212529318,-36.877632637774454,100 174.91879214460334,-36.87763812811866,100 174.9188003665963,-36.87764361864935,100 174.91881948574468,-36.87765130183789,100 174.91883634106622,-36.877661548886564,100 174.91889556935274,-36.877690448410824,100 174.91892105750247,-36.877711662057166,100 174.91892926269026,-36.87771715285008,100 174.91893337189745,-36.8777182572885,100 174.91898392689305,-36.87774788362293,100 174.91899258760498,-36.87775485422931,100 174.91916931356656,-36.87787009740648,100 174.91917112879835,-36.87787265036029,100 174.91917341597943,-36.87787411230463,100 174.9191820711594,-36.877877767935416,100 174.91918937272416,-36.87788180415798,100 174.91919346359413,-36.87788289265969,100 174.919194837813,-36.87788508319695,100 174.91920303941845,-36.87788984666391,100 174.9192203379951,-36.87789605940316,100 174.9192504080552,-36.87791547202767,100 174.91926771926768,-36.87793594882694,100 174.91928091809038,-36.8779432724194,100 174.91931099035097,-36.877954614584056,100 174.9193419569049,-36.87798205066174,100 174.9193620019014,-36.877988259567445,100 174.9193715723698,-36.877993743593215,100 174.91939844963824,-36.87801643358296,100 174.91942668870132,-36.87803145026902,100 174.9194399026106,-36.87804058525023,100 174.91945766717717,-36.87805120328166,100 174.91948081803784,-36.87806473026552,100 174.9195086406431,-36.87807592756238,100 174.9195150248913,-36.87807993442136,100 174.9195282343768,-36.878090818923575,100 174.91956425575708,-36.878108546280764,100 174.9195779300077,-36.878116170408255,100 174.9195847663077,-36.87811905322513,100 174.91961806429464,-36.878140793978496,100 174.9196212308344,-36.87814408309889,100 174.91967003930057,-36.8781705187446,100 174.9196809706796,-36.87817958602852,100 174.9196905531732,-36.87818429379809,100 174.9196996662407,-36.87818571212868,100 174.91970195377937,-36.878187187576515,100 174.9197139253204,-36.878195184407495,100 174.9197210378234,-36.87820681275489,100 174.91972979307687,-36.878215314019506,100 174.91974130962686,-36.87822243490771,100 174.91974499271961,-36.87822565258505,100 174.9197619541429,-36.87823595997465,100 174.91976606007347,-36.87823881389614,100 174.9198069664004,-36.87827387841834,100 174.91982099557586,-36.87828501102278,100 174.91983224499194,-36.87829311234692,100 174.91983569279407,-36.878296566363915,100 174.91985277477747,-36.87830622103971,100 174.91985802798462,-36.878309952328,100 174.91991294641713,-36.878339826805515,100 174.9199230106782,-36.87834692608011,100 174.9199300388362,-36.87834985264449,100 174.9199329111832,-36.87835187655274,100 174.9199465285359,-36.87835807657125,100 174.91995120268362,-36.878359651345,100 174.91996389530595,-36.8783655274106,100 174.91997231433047,-36.878368754166,100 174.9199775018923,-36.87837138690105,100 174.91998169378195,-36.87837296856632,100 174.91999116407374,-36.878377943112,100 174.92001461629462,-36.878387995041436,100 174.92001938407853,-36.87839102392868,100 174.92002785641333,-36.87839494563642,100 174.92004471977356,-36.878401692558135,100 174.92004989166188,-36.878404326444574,100 174.92005641640387,-36.87840654909595,100 174.92008470846906,-36.878420356096214,100 174.92008934857267,-36.878421915190934,100 174.92009313636493,-36.87842389185177,100 174.92013901914666,-36.878442621443284,100 174.92015011944162,-36.8784453037153,100 174.92018921149315,-36.878457819394804,100 174.9201948394637,-36.87846007275707,100 174.92020642526936,-36.878463460119214,100 174.92025265555137,-36.87848033905007,100 174.92025502450593,-36.878481659946765,100 174.92028438953992,-36.87849176226078,100 174.92029426432794,-36.878496356196166,100 174.92032737237378,-36.87850807985654,100 174.920337109464,-36.87851084904141,100 174.9203427363436,-36.87851310331548,100 174.92034510682836,-36.87851444040935,100 174.9203529775795,-36.878516560167576,100 174.9203595291966,-36.878519138388405,100 174.92036284083449,-36.87852078294033,100 174.92036618977113,-36.878523155154625,100 174.92038027334115,-36.87852933226359,100 174.92038503962021,-36.878532344936374,100 174.92039107101022,-36.87853422042461,100 174.92039914890682,-36.87853887674685,100 174.92040382457935,-36.878540466800246,100 174.92043539475037,-36.87855591880791,100 174.92048588008214,-36.878575462560285,100 174.9204878016235,-36.87857683755365,100 174.92052104597883,-36.87859037240832,100 174.92052988668846,-36.878593187614364,100 174.9205369857838,-36.87859679439212,100 174.92054069228342,-36.87859771961254,100 174.9205453865065,-36.87860000517826,100 174.9205491206024,-36.87860127065068,100 174.92055665183193,-36.87860488486223,100 174.92056641580032,-36.87860800961426,100 174.92057857711958,-36.87861282704105,100 174.92058459807794,-36.8786143304434,100 174.9205879481243,-36.878616701732,100 174.92059256817694,-36.87861754908926,100 174.92060752127577,-36.87862332274359,100 174.92061271040353,-36.87862597164869,100 174.92061593958675,-36.878626518819196,100 174.92062163212498,-36.87862987072553,100 174.9206520205426,-36.87864136426136,100 174.92065816127115,-36.87864469269613,100 174.92067594945564,-36.878651762568914,100 174.92068487122827,-36.878655663442714,100 174.92072827515682,-36.87867158561426,100 174.92076952922565,-36.878682885416836,100 174.92077654812326,-36.87868543983534,100 174.92078254223145,-36.87868658764082,100 174.92079185803092,-36.878689735843956,100 174.92079783381214,-36.87869086862257,100 174.92082250473325,-36.87869868434258,100 174.9208487586145,-36.87871003376906,100 174.92089037513307,-36.87872567833275,100 174.92090304030967,-36.878731214942626,100 174.92090916384987,-36.87873452831965,100 174.92092072735645,-36.87874338156656,100 174.920961261285,-36.878769282587314,100 174.92096734757126,-36.87877187010099,100 174.92097115263127,-36.8787738626777,100 174.92099672962647,-36.87878197196045,100 174.92102910536212,-36.878795938026364,100 174.92103479683152,-36.87879929083101,100 174.92104915254967,-36.87880907143581,100 174.92105341579523,-36.87881139459504,100 174.92106644742967,-36.878815794106586,100 174.92109280405836,-36.87882206198589,100 174.92111740300004,-36.87882915144356,100 174.9211197903074,-36.87883048734823,100 174.92112255373115,-36.87883107268156,100 174.92112769770154,-36.87883335095072,100 174.92114440859402,-36.87883830385133,100 174.92115428949185,-36.87884251094931,100 174.9211719516091,-36.87884812805722,100 174.92117791887387,-36.87884892025581,100 174.92119175584654,-36.87885183307407,100 174.92119678154552,-36.878852301602926,100 174.92120414824356,-36.87885373544024,100 174.92120869734222,-36.87885385475411,100 174.92124292772814,-36.8788592697032,100</coordinates></LinearRing></outerBoundaryIs>
    </Polygon>
  </Placemark>

  <Placemark>
    <name>Eastern Beach</name>
    <Point>
      <altitudeMode>relativeToGround</altitudeMode>
      <coordinates>174.91404804426188,-36.87733742767647,100</coordinates>
    </Point>
  </Placemark>

</Document>
</kml>