<?xml version="1.0" encoding="utf-8"?>
<kml xmlns="http://www.opengis.net/kml/2.2">
<Document>
  <name>Ellerslie (polygon: official_shp)</name>
  <open>1</open>

  <Placemark>
    <name>Ellerslie (polygon: official_shp)</name>
    <Style>
      <LineStyle><color>ffff0000</color><width>2</width></LineStyle>
      <PolyStyle><color>66ff0000</color><fill>1</fill><outline>1</outline></PolyStyle>
    </Style>
    <Polygon>
      <tessellate>1</tessellate>
      <altitudeMode>relativeToGround</altitudeMode>
      <outerBoundaryIs><LinearRing><coordinates>174.80142900132591,-36.89195700303684,100 174.80146799280794,-36.89191699639113,100 174.80162600171323,-36.89175300527637,100 174.8009960035955,-36.89168900256235,100 174.8008880021073,-36.89162100110457,100 174.80088699572087,-36.89156699941677,100 174.80048999171655,-36.89131299977843,100 174.8006970073857,-36.890938992616015,100 174.8012569952289,-36.891245004126176,100 174.80129299612324,-36.89142500622622,100 174.80154699141505,-36.89141600688131,100 174.8018849993737,-36.89149300429666,100 174.8024079915366,-36.89095399233766,100 174.80484699390897,-36.89180200255855,100 174.80508899730054,-36.89188599443135,100 174.80655900827387,-36.89240000343863,100 174.80673600266434,-36.892461993869546,100 174.80771400261426,-36.892798994021305,100 174.8078360011188,-36.8928419921915,100 174.8078469913097,-36.89282200011316,100 174.80786800399187,-36.89278200003607,100 174.80794900593773,-36.8926310044407,100 174.80806600225537,-36.89241599807545,100 174.80820399236114,-36.89215899529464,100 174.80824800884884,-36.892153996156274,100 174.808806996897,-36.89209499744086,100 174.809105007777,-36.89206300006775,100 174.8094959939594,-36.89202099688594,100 174.80946900739104,-36.891235001436826,100 174.80976099734377,-36.89133599659012,100 174.81055800379684,-36.89127200399952,100 174.81087800235312,-36.89109800643279,100 174.81093799330918,-36.89106600581933,100 174.8112399951963,-36.89083900478002,100 174.8115780027849,-36.89058700434116,100 174.8116000033399,-36.89057100636503,100 174.81183100580057,-36.89039799573571,100 174.8120809928489,-36.89021199528792,100 174.81245200367462,-36.8899340055718,100 174.81258900368107,-36.890051005560395,100 174.81271699696467,-36.890159994780085,100 174.81279000828061,-36.890237993268094,100 174.81283199429572,-36.89031600460628,100 174.81312200731128,-36.89015700167419,100 174.81356300413916,-36.88982300408077,100 174.81340100460213,-36.889684003170366,100 174.8130750022788,-36.88940800154459,100 174.81291200135928,-36.88926900079947,100 174.81278199573455,-36.889158992417386,100 174.81283399469314,-36.88914600475592,100 174.8129989931061,-36.889106997090856,100 174.81321500496915,-36.88905500199211,100 174.8134310074444,-36.889003998112415,100 174.81364800386967,-36.88895200072157,100 174.81367800063327,-36.88894500537469,100 174.81368999479793,-36.888978006609506,100 174.81383100383312,-36.88894700736188,100 174.81387699566764,-36.88893700064229,100 174.81405800769454,-36.888896992578985,100 174.81424000510137,-36.88885699983766,100 174.81430599476624,-36.88884300018215,100 174.814422997034,-36.888822006642584,100 174.81458099766203,-36.888794994056255,100 174.8146430031753,-36.88878400423386,100 174.81488700797453,-36.88874099561294,100 174.8147890024322,-36.889148993809705,100 174.81501100735545,-36.88918399243089,100 174.81523300357355,-36.88921799930166,100 174.81515499662265,-36.88877300204834,100 174.81570600377583,-36.888676997881696,100 174.81576399486084,-36.88891200636193,100 174.81576999884385,-36.8889360026931,100 174.81603099317954,-36.88889100056974,100 174.81628500419365,-36.88884599288425,100 174.81616200133652,-36.88834300036007,100 174.81626799356013,-36.88832400304801,100 174.81643499708028,-36.888294991813716,100 174.8166030028404,-36.888265994763145,100 174.81692200704325,-36.88956999712796,100 174.8171469982618,-36.88955200721646,100 174.81704400803432,-36.88912900657413,100 174.81698099550283,-36.88887599486055,100 174.81687200277165,-36.88842700126237,100 174.81731299501305,-36.88834900170719,100 174.817532999247,-36.8883109930994,100 174.8175569974915,-36.888399002431086,100 174.81782899857612,-36.888351998271844,100 174.8182800063224,-36.888273005438506,100 174.81873099473796,-36.88819399497336,100 174.8191820004864,-36.88811499876314,100 174.81975499999496,-36.88801499502591,100 174.81975300491658,-36.88796399939089,100 174.81974600198507,-36.88784400239734,100 174.82008999666422,-36.8878479953064,100 174.82023600128255,-36.887830996168645,100 174.82033199507433,-36.88781899406543,100 174.82034600429319,-36.8878179979367,100 174.82051800235368,-36.887796996607044,100 174.8205330053481,-36.88779499195882,100 174.82070399266757,-36.887774998217004,100 174.82071899453015,-36.887772993562734,100 174.82089000832892,-36.88775199326198,100 174.82090599572425,-36.88775000322148,100 174.82107599840268,-36.88772999429507,100 174.82109200375587,-36.887728004855646,100 174.8212040010956,-36.887713996412266,100 174.82126199623605,-36.88770700435543,100 174.8212780011932,-36.88770499867313,100 174.82144800403796,-36.88768500543747,100 174.82146400786291,-36.88768299974756,100 174.82163399375273,-36.88766300560522,100 174.82165100067047,-36.88766099802808,100 174.82182000880275,-36.887639999208105,100 174.82183699776252,-36.88763799187982,100 174.82200599715563,-36.88761799881617,100 174.8220230055158,-36.88761600558513,100 174.82219199549954,-36.88759500741737,100 174.82221000436473,-36.8875929979112,100 174.82229000305173,-36.887584006674665,100 174.82237800155917,-36.88757300617328,100 174.82239999483335,-36.88757000083308,100 174.82256400862158,-36.88755100462346,100 174.82259299223622,-36.8875469978775,100 174.82275000511333,-36.887527997059614,100 174.8227909938486,-36.887522996662206,100 174.8229359939887,-36.88750599520828,100 174.8229920016459,-36.88749900576875,100 174.82309399185297,-36.887486993243286,100 174.82312200071343,-36.88748399369409,100 174.82320200662187,-36.88747399494726,100 174.82330799718173,-36.8874609996811,100 174.82341799902215,-36.88744799863156,100 174.82349400366627,-36.88743899758998,100 174.82363999757797,-36.88742100298159,100 174.82368000101127,-36.88741600298302,100 174.82386600613398,-36.887394000332186,100 174.82386700808976,-36.88739399756737,100 174.82394399781055,-36.88738499643714,100 174.82407500771737,-36.88736900427917,100 174.82410299853987,-36.88736600477635,100 174.82425999264214,-36.887347002257435,100 174.82432299110334,-36.887338995393094,100 174.82457800083472,-36.88730799927281,100 174.8246689988082,-36.887411006363884,100 174.8248249963445,-36.887585992086294,100 174.82492699219935,-36.88770100069669,100 174.82493399590933,-36.88770899697089,100 174.82499000350916,-36.88777100078342,100 174.82504399783224,-36.88783200077055,100 174.8250900025005,-36.887882991620536,100 174.82516900214995,-36.88797200109933,100 174.82519400582655,-36.88799999443519,100 174.8252610037322,-36.88807500670845,100 174.82553799746728,-36.888386003428735,100 174.82554099758678,-36.88838900292119,100 174.82557000525998,-36.88842199290985,100 174.8257050058713,-36.88857399616672,100 174.82592399622726,-36.88882000239214,100 174.8259080027215,-36.8888289929387,100 174.82607399344315,-36.88901700256763,100 174.8261270043555,-36.88907800362689,100 174.8264009970466,-36.88938900287298,100 174.82651999710583,-36.889523993371114,100 174.8265360015231,-36.88954300241132,100 174.82658600354242,-36.889599996233464,100 174.8266989959078,-36.88972799626232,100 174.82688499865392,-36.889939994112325,100 174.8269050066609,-36.88996200244571,100 174.8270449937419,-36.89012200331052,100 174.8266549922128,-36.89037400398465,100 174.82721899864245,-36.89024199615473,100 174.82602899345306,-36.891011994764376,100 174.8259300044714,-36.89121500523573,100 174.82561200049489,-36.891873997542504,100 174.82559999245098,-36.891996995577585,100 174.8251170058667,-36.89209099389004,100 174.82546199620975,-36.89215699607313,100 174.8253959956122,-36.89238600456575,100 174.8253319979936,-36.89261299931265,100 174.82555199818466,-36.89265400537537,100 174.82549700220235,-36.892847997550206,100 174.82549099482253,-36.89286800025896,100 174.8254460011761,-36.89302499591272,100 174.82533600466346,-36.893004995728944,100 174.82524899606653,-36.893309999936015,100 174.82523599722975,-36.893355999874245,100 174.82519700287588,-36.89349399964647,100 174.825191005202,-36.8935170063244,100 174.82514499148354,-36.89367799871037,100 174.82509699513434,-36.893848998364405,100 174.82506700201486,-36.89395399728576,100 174.82505199162102,-36.89400700079951,100 174.82522700610383,-36.89403899936675,100 174.8254020027527,-36.89407099704669,100 174.8255770006806,-36.89410299534835,100 174.82551400191477,-36.89432399356694,100 174.8255080043038,-36.89434700115798,100 174.82546400366778,-36.89450100624166,100 174.82538300571795,-36.89457800328009,100 174.82533000240204,-36.89476700740503,100 174.82528200302605,-36.89493199798764,100 174.8252930069735,-36.894935000675474,100 174.8253029988228,-36.894938997759354,100 174.8253129917734,-36.894942993924126,100 174.82532299411537,-36.894947996729435,100 174.82533199326127,-36.89495300142999,100 174.82533999933702,-36.894958998432166,100 174.82534799681318,-36.894966000548976,100 174.8253549922579,-36.8949730063463,100 174.82536100094674,-36.89497999756294,100 174.82536700220084,-36.89498799567921,100 174.82537099926108,-36.89499599575161,100 174.82537500461294,-36.89500500338344,100 174.82537800638133,-36.89501399669362,100 174.82538100024595,-36.8950219986621,100 174.8253819978627,-36.89503099573074,100 174.8253819922598,-36.89503999379494,100 174.82538200497038,-36.8950490069003,100 174.8253799948489,-36.89505799340611,100 174.8253780018757,-36.89506699316833,100 174.82537500570317,-36.895075994827025,100 174.8253709980831,-36.89508399262456,100 174.82536600667686,-36.89509200644137,100 174.8253609958344,-36.89510000523403,100 174.82535399876286,-36.89510800660794,100 174.8253469923206,-36.895115002241084,100 174.82533900840562,-36.89512100701034,100 174.82533100617596,-36.89512699673788,100 174.825387005206,-36.89521599428966,100 174.82552299150757,-36.89529599758894,100 174.8256579939578,-36.8953760023296,100 174.82574600037594,-36.895428000282884,100 174.8258329937419,-36.89542900026846,100 174.82599299377952,-36.895428993282245,100 174.82609600555682,-36.89552299932336,100 174.8259709915043,-36.89565299743238,100 174.82594400221544,-36.895681007436494,100 174.82580300352635,-36.89582699642201,100 174.825786993389,-36.895862995566596,100 174.82572299405152,-36.89600199271415,100 174.82568600808872,-36.89608299767909,100 174.82552599561382,-36.896036001906744,100 174.8253600024263,-36.895987000428924,100 174.82521099537513,-36.89630100161668,100 174.82514499833778,-36.896440992678805,100 174.82512699762847,-36.896425006573274,100 174.8249179940289,-36.89623800384996,100 174.82489300707516,-36.896261998978005,100 174.82474900434772,-36.89640100611906,100 174.82518000527048,-36.89669000057012,100 174.82506800233935,-36.89674900105971,100 174.82505400345238,-36.89675699823381,100 174.82498299620437,-36.896793993705884,100 174.82484100805533,-36.89686900532637,100 174.82478600490927,-36.89689800156893,100 174.82464399917689,-36.89697299790467,100 174.82458899587937,-36.897001994059565,100 174.82444700696905,-36.89707700612853,100 174.82439200349862,-36.89710600129478,100 174.82424999700496,-36.89718099807891,100 174.82419400810488,-36.897209994769156,100 174.82405200156202,-36.89728500574184,100 174.82399699780973,-36.89731400163332,100 174.82385499835152,-36.89738800638066,100 174.82380000343446,-36.89741799260812,100 174.82365800356595,-36.897491996228105,100 174.82360299093182,-36.89752199886157,100 174.8234519960207,-36.89760100301231,100 174.82320600169345,-36.897731005001404,100 174.82324899376408,-36.89785000475765,100 174.82300700304563,-36.8978889997889,100 174.82298900725866,-36.897841001648686,100 174.82291799636718,-36.897800995334066,100 174.82257600595398,-36.89819399557294,100 174.8226059929937,-36.898227992387184,100 174.822184005167,-36.898328004149775,100 174.82231900374285,-36.89849599331688,100 174.8222809962114,-36.89854099216733,100 174.82209199773092,-36.898762001742995,100 174.82189199857706,-36.89899800303198,100 174.8218380067763,-36.899061004922125,100 174.82176399632903,-36.899147003006796,100 174.82163400573663,-36.899300000995005,100 174.8216190071843,-36.89931800344387,100 174.82147099222777,-36.89949100509307,100 174.82134899341753,-36.8996349931059,100 174.82113500173384,-36.89988600393834,100 174.82063300875166,-36.90047499888857,100 174.82030199345098,-36.900861006807396,100 174.8199670076184,-36.90124999226461,100 174.81963299631425,-36.90163800014503,100 174.81951599283732,-36.901774994776524,100 174.81967499691171,-36.90186299382904,100 174.81997099479298,-36.90202700555853,100 174.81977800445193,-36.90333500521376,100 174.81973400263047,-36.90362999867902,100 174.81966999827398,-36.90406200233828,100 174.8196119978569,-36.904458005892224,100 174.8195840066787,-36.904652993921175,100 174.81877699335396,-36.90483099558265,100 174.81875699245657,-36.90521200006364,100 174.8185770015244,-36.90520400328723,100 174.81839699211795,-36.90549000673016,100 174.81852300503687,-36.905836003226874,100 174.8186189990692,-36.9060110056108,100 174.81868999637393,-36.90610300417923,100 174.81856199878476,-36.90612700611112,100 174.81759999752651,-36.90613900188065,100 174.81754200298883,-36.90613999844755,100 174.81727099717054,-36.906142999757,100 174.81719400099243,-36.90620000709362,100 174.81658799340613,-36.9059739989017,100 174.81649000507622,-36.90595299769255,100 174.81636199436142,-36.90592700609915,100 174.81577700697989,-36.905705997294184,100 174.81560099377407,-36.905639992302454,100 174.81527799696232,-36.9055159941209,100 174.81450000195295,-36.905225992604365,100 174.814207007683,-36.90508099538651,100 174.81413100830522,-36.90504399481202,100 174.8136039999496,-36.90488699521887,100 174.81289599848787,-36.90459299840719,100 174.81259900196238,-36.90449700408436,100 174.8123730036616,-36.904424001094526,100 174.81193000672116,-36.90423000396397,100 174.8117309937643,-36.9041409959346,100 174.8115630047265,-36.9040470041225,100 174.8110770072915,-36.90384999658603,100 174.81059699454806,-36.90365499228802,100 174.81028200722753,-36.903509999573174,100 174.8101500023128,-36.90344200686648,100 174.81010500675188,-36.90347000744317,100 174.809624008799,-36.903294000695524,100 174.8091970081791,-36.903149994159236,100 174.808886994992,-36.90304900602031,100 174.80841699336483,-36.90290400118221,100 174.8083910080396,-36.902895998217055,100 174.80800900868428,-36.90277899738353,100 174.80761700854984,-36.90265900456233,100 174.8074389916568,-36.9025090064479,100 174.80735100414992,-36.90243300569418,100 174.80733599899395,-36.90244299994841,100 174.8073039945257,-36.90246399583828,100 174.8072489985521,-36.9027369924302,100 174.80695400009915,-36.90303799895766,100 174.80600400592323,-36.904009999932704,100 174.80600599459225,-36.904011994986014,100 174.80600299593394,-36.904017002412324,100 174.8058550032705,-36.90430599322926,100 174.80576300175383,-36.90448399620861,100 174.80562999316246,-36.90474100322162,100 174.80558699611467,-36.90472699942113,100 174.8054210051236,-36.90467100015829,100 174.8052020073707,-36.90459699912725,100 174.80515399335667,-36.904707002710786,100 174.80514999331896,-36.90471800386779,100 174.8051290019346,-36.904765001962765,100 174.80511500273747,-36.90479899843523,100 174.8050479935837,-36.904950996177675,100 174.80495500845072,-36.905165004563294,100 174.80469799904833,-36.905079994552665,100 174.80447799375548,-36.90511999260659,100 174.80439799379374,-36.904807001986015,100 174.80439299404043,-36.90478500162579,100 174.8031070019783,-36.90598499490645,100 174.80284200609026,-36.9058069936693,100 174.80265500459768,-36.90568100378668,100 174.80257700266736,-36.905627999568985,100 174.80269099286454,-36.90551599155391,100 174.80279900076926,-36.90540999959027,100 174.8029070004386,-36.90530300267018,100 174.80312400093055,-36.90509100241033,100 174.8032320083848,-36.90498499384275,100 174.80334000571494,-36.90487799567008,100 174.80344899833887,-36.9047720016946,100 174.80350000220153,-36.90472099962057,100 174.8035570049206,-36.904665993751294,100 174.8036650013318,-36.90455899440095,100 174.80377300767893,-36.904453001590895,100 174.80378200431647,-36.90444399225042,100 174.80388199764522,-36.90434699284415,100 174.80398999428067,-36.90423999320012,100 174.80398500673274,-36.904236995412205,100 174.80393499725963,-36.90420399558793,100 174.80380599475913,-36.90411900333593,100 174.80395299739718,-36.90397500203494,100 174.80375400747783,-36.90384399611603,100 174.8036129981652,-36.90375200326667,100 174.8035389939191,-36.903537003842075,100 174.8036189939548,-36.90345900186864,100 174.80373400771165,-36.90334599938263,100 174.80384999778397,-36.90323200581717,100 174.80396499403494,-36.9031190033773,100 174.80350399379094,-36.90281600279299,100 174.80344000112683,-36.90287800274967,100 174.80329100517247,-36.902779993574846,100 174.80314199433545,-36.90268200336088,100 174.80299199697598,-36.90258399638251,100 174.80288200637085,-36.90251200189984,100 174.80284399777753,-36.90248699360856,100 174.802857999389,-36.90247300692358,100 174.80302299527054,-36.902311002631855,100 174.8030780078631,-36.90225799841355,100 174.80313800032482,-36.902203003239656,100 174.80319000483684,-36.90215399787929,100 174.80322599494605,-36.90212000395325,100 174.8033129947041,-36.90203999500495,100 174.80335000485348,-36.902005999976524,100 174.8033910070812,-36.90196800370006,100 174.8034929943512,-36.90187400642468,100 174.80361600127247,-36.901760002983146,100 174.8035949974041,-36.90167700638141,100 174.8036130023924,-36.901587003552066,100 174.80367500876235,-36.90128600125793,100 174.80371800679305,-36.90107100428174,100 174.80369300166845,-36.90108599730181,100 174.80330600320175,-36.90103599987324,100 174.80326700102674,-36.901011999156594,100 174.8033050070384,-36.90082699241799,100 174.80334600127063,-36.900624000175355,100 174.8033660019486,-36.90052699616401,100 174.80338799938855,-36.90042099267296,100 174.80340699703413,-36.900324004783236,100 174.80319899707686,-36.90022099472362,100 174.80303100204566,-36.90013800312226,100 174.8030919963239,-36.90001000376043,100 174.80312599343074,-36.899940005746785,100 174.80317999248533,-36.89986999790857,100 174.8029179952342,-36.899738003591644,100 174.80300199803,-36.89960599381249,100 174.80311799932687,-36.89966399576653,100 174.80317499290797,-36.89965399555562,100 174.80302999157934,-36.89958099314621,100 174.80304000048582,-36.89957300412621,100 174.80267000138775,-36.899400002086175,100 174.80280499453465,-36.89920399818974,100 174.80286999369864,-36.89910899541986,100 174.80292199423405,-36.89903400301354,100 174.80306599276005,-36.89882400144001,100 174.8030580057888,-36.898820000887184,100 174.8028060051408,-36.89870399197074,100 174.80265200199355,-36.89855599960391,100 174.80243900375896,-36.89845799606459,100 174.80223199657308,-36.89836099184667,100 174.80222700062296,-36.898359000893116,100 174.80212099291612,-36.89850700556716,100 174.80201500125398,-36.89865499368062,100 174.80199800146696,-36.898677997620155,100 174.80180999369634,-36.89859100396066,100 174.8017410081206,-36.89855799714736,100 174.80146999472495,-36.89843200576799,100 174.80156299675153,-36.898300992556415,100 174.80143299662163,-36.89824099397599,100 174.8020410027124,-36.89739500536198,100 174.80201800139537,-36.89737200618425,100 174.80199099704498,-36.89734399502826,100 174.8017010053714,-36.89774299764845,100 174.80156300137975,-36.89767899880391,100 174.80143300858595,-36.897585996882185,100 174.801564000631,-36.897405005436205,100 174.80144399415929,-36.89734900500438,100 174.80138999694125,-36.89732400162457,100 174.80123799223085,-36.89725199816133,100 174.8012100080505,-36.896930993587986,100 174.80082299401235,-36.89669200274754,100 174.80086999929168,-36.896627007014274,100 174.80074199696304,-36.89654199417585,100 174.80061699497284,-36.896457999286284,100 174.8006109968569,-36.89645399455258,100 174.80044300132988,-36.896341993306876,100 174.80042099586495,-36.89632800556583,100 174.80029800749915,-36.89624499921626,100 174.8002849994717,-36.896236002767374,100 174.800271005813,-36.89622699241259,100 174.80024900817753,-36.89621199773053,100 174.80013900243577,-36.89613899393686,100 174.80008299470992,-36.89611300190478,100 174.79997899802558,-36.89606500092006,100 174.79995700122828,-36.89605400268229,100 174.79994900543323,-36.89605099261242,100 174.79990899548758,-36.896031995784725,100 174.79989399993295,-36.89602499882228,100 174.7998790032803,-36.896018002775854,100 174.7998300047164,-36.895995005001396,100 174.79980999513288,-36.89598600192142,100 174.79976599236198,-36.89596499608227,100 174.79987500394412,-36.89589800034384,100 174.79984700693274,-36.895868998732816,100 174.7998429963122,-36.89586499268628,100 174.79927999488837,-36.89528300438762,100 174.7990969936499,-36.89539700174162,100 174.79906399639043,-36.89524400438101,100 174.7990319934181,-36.895089997776125,100 174.79903199365765,-36.89508800041689,100 174.7990000074352,-36.894935991801496,100 174.79910199191283,-36.894871995578086,100 174.79890800100824,-36.89467199738683,100 174.79890699914847,-36.89467000078217,100 174.79890199489344,-36.89467299598816,100 174.7987859952004,-36.89461799476452,100 174.79867900312323,-36.89456699234883,100 174.79871699366547,-36.894475000189935,100 174.79877499890426,-36.89433899925502,100 174.7987870033971,-36.89431200639101,100 174.79879699425928,-36.89430000706279,100 174.79880800491878,-36.89429000406782,100 174.79881899762677,-36.8942800013437,100 174.79883099353034,-36.89426999694662,100 174.79884400057043,-36.894260998447315,100 174.7988580018992,-36.894253005199275,100 174.7988720028443,-36.89424499573141,100 174.79888299657244,-36.89423900482317,100 174.7988939989396,-36.8942340034477,100 174.79890599525893,-36.89422999290725,100 174.79891799985768,-36.894227004352835,100 174.79892999626986,-36.894225005585795,100 174.7989429944612,-36.89422299254743,100 174.79895499993657,-36.89422200133192,100 174.798968006907,-36.89422299140237,100 174.79898099743153,-36.89422399794447,100 174.79910299199105,-36.894029995826685,100 174.79923900040404,-36.89413000644024,100 174.7994450012964,-36.89427799999004,100 174.79946600261528,-36.89425599755572,100 174.7994699975558,-36.89429599411355,100 174.79963199759874,-36.89441500541184,100 174.7996809953441,-36.894431994106505,100 174.79992699808346,-36.89412499676138,100 174.80003400058638,-36.89418699326512,100 174.80013599893465,-36.89424600728036,100 174.8002470079511,-36.89410699502674,100 174.80040399149968,-36.89416200457937,100 174.8005220060456,-36.89410300544385,100 174.80062700270025,-36.89401600530319,100 174.8007239924516,-36.89400799765499,100 174.80073799352976,-36.894000004191504,100 174.8008310082476,-36.89413099459336,100 174.8008430057862,-36.894149007025916,100 174.80041000512878,-36.894686007404665,100 174.80043099838792,-36.89469299541946,100 174.80068999811348,-36.89437199560911,100 174.800698995638,-36.894377001321324,100 174.80083099459236,-36.89444500501005,100 174.80091599927775,-36.89434099578783,100 174.800967998935,-36.894275992791286,100 174.80117100170057,-36.89402399528128,100 174.80135299568897,-36.893797003552415,100 174.801344991389,-36.893793003136764,100 174.80137399473196,-36.89376299866304,100 174.80138100332556,-36.893756005287955,100 174.8013129940721,-36.89376299985073,100 174.8011730083743,-36.893674998217534,100 174.8015090058994,-36.89332800365943,100 174.80151299882255,-36.89332400337332,100 174.80169100556847,-36.89343499961008,100 174.8019360076511,-36.89318299201103,100 174.80231599629812,-36.892790995782924,100 174.80223400821518,-36.892452003409836,100 174.80142900132591,-36.89195700303684,100</coordinates></LinearRing></outerBoundaryIs>
    </Polygon>
  </Placemark>

  <Placemark>
    <name>Ellerslie</name>
    <Point>
      <altitudeMode>relativeToGround</altitudeMode>
      <coordinates>174.81373704290826,-36.89637740960602,100</coordinates>
    </Point>
  </Placemark>

</Document>
</kml>