<?xml version="1.0" encoding="UTF-8"?>
<kml xmlns="http://www.opengis.net/kml/2.2">
  <Document>
    <name>Farm Cove (polygon: official_shp)</name>
    <Style id="icon-1899-0288D1-nodesc-normal">
      <IconStyle>
        <color>ffd18802</color>
        <scale>1</scale>
        <Icon>
          <href>https://www.gstatic.com/mapspro/images/stock/503-wht-blank_maps.png</href>
        </Icon>
        <hotSpot x="32" xunits="pixels" y="64" yunits="insetPixels"/>
      </IconStyle>
      <LabelStyle>
        <scale>0</scale>
      </LabelStyle>
      <BalloonStyle>
        <text><![CDATA[<h3>$[name]</h3>]]></text>
      </BalloonStyle>
    </Style>
    <Style id="icon-1899-0288D1-nodesc-highlight">
      <IconStyle>
        <color>ffd18802</color>
        <scale>1</scale>
        <Icon>
          <href>https://www.gstatic.com/mapspro/images/stock/503-wht-blank_maps.png</href>
        </Icon>
        <hotSpot x="32" xunits="pixels" y="64" yunits="insetPixels"/>
      </IconStyle>
      <LabelStyle>
        <scale>1</scale>
      </LabelStyle>
      <BalloonStyle>
        <text><![CDATA[<h3>$[name]</h3>]]></text>
      </BalloonStyle>
    </Style>
    <StyleMap id="icon-1899-0288D1-nodesc">
      <Pair>
        <key>normal</key>
        <styleUrl>#icon-1899-0288D1-nodesc-normal</styleUrl>
      </Pair>
      <Pair>
        <key>highlight</key>
        <styleUrl>#icon-1899-0288D1-nodesc-highlight</styleUrl>
      </Pair>
    </StyleMap>
    <Style id="poly-0000FF-2000-102-nodesc-normal">
      <LineStyle>
        <color>ffff0000</color>
        <width>2</width>
      </LineStyle>
      <PolyStyle>
        <color>66ff0000</color>
        <fill>1</fill>
        <outline>1</outline>
      </PolyStyle>
      <BalloonStyle>
        <text><![CDATA[<h3>$[name]</h3>]]></text>
      </BalloonStyle>
    </Style>
    <Style id="poly-0000FF-2000-102-nodesc-highlight">
      <LineStyle>
        <color>ffff0000</color>
        <width>3</width>
      </LineStyle>
      <PolyStyle>
        <color>66ff0000</color>
        <fill>1</fill>
        <outline>1</outline>
      </PolyStyle>
      <BalloonStyle>
        <text><![CDATA[<h3>$[name]</h3>]]></text>
      </BalloonStyle>
    </Style>
    <StyleMap id="poly-0000FF-2000-102-nodesc">
      <Pair>
        <key>normal</key>
        <styleUrl>#poly-0000FF-2000-102-nodesc-normal</styleUrl>
      </Pair>
      <Pair>
        <key>highlight</key>
        <styleUrl>#poly-0000FF-2000-102-nodesc-highlight</styleUrl>
      </Pair>
    </StyleMap>
    <Placemark>
      <name>Farm Cove (polygon: official_shp)</name>
      <styleUrl>#poly-0000FF-2000-102-nodesc</styleUrl>
      <Polygon>
        <outerBoundaryIs>
          <LinearRing>
            <tessellate>1</tessellate>
            <coordinates>
              174.896903,-36.898318,0
              174.897166,-36.89818,0
              174.896964,-36.897931,0
              174.896845,-36.897613,0
              174.897285,-36.897564,0
              174.897242,-36.897552,0
              174.897253,-36.897515,0
              174.897256,-36.897502,0
              174.897325,-36.897258,0
              174.897359,-36.897138,0
              174.897371,-36.897095,0
              174.897413,-36.896947,0
              174.897674,-36.89693,0
              174.897819,-36.896817,0
              174.897963,-36.896703,0
              174.898108,-36.89659,0
              174.898268,-36.896466,0
              174.898348,-36.896403,0
              174.898412,-36.896353,0
              174.898466,-36.896311,0
              174.898562,-36.896237,0
              174.898604,-36.896205,0
              174.898709,-36.896126,0
              174.898753,-36.896092,0
              174.898856,-36.896014,0
              174.898903,-36.895979,0
              174.899002,-36.895903,0
              174.899052,-36.895865,0
              174.899149,-36.895791,0
              174.899248,-36.895716,0
              174.899296,-36.89568,0
              174.899345,-36.895633,0
              174.899376,-36.895524,0
              174.89939,-36.895472,0
              174.899436,-36.895312,0
              174.899441,-36.895296,0
              174.899487,-36.895135,0
              174.899532,-36.894975,0
              174.899539,-36.894951,0
              174.899578,-36.894814,0
              174.899615,-36.894683,0
              174.899438,-36.894488,0
              174.899418,-36.894466,0
              174.899223,-36.894252,0
              174.899087,-36.894227,0
              174.899091,-36.894212,0
              174.898809,-36.894161,0
              174.898611,-36.89417,0
              174.898217,-36.894098,0
              174.898247,-36.893992,0
              174.898033,-36.893953,0
              174.898,-36.893947,0
              174.897982,-36.893944,0
              174.897715,-36.893908,0
              174.897703,-36.893907,0
              174.897351,-36.893859,0
              174.897334,-36.893737,0
              174.897295,-36.893744,0
              174.897097,-36.893708,0
              174.897165,-36.893469,0
              174.896869,-36.893419,0
              174.896772,-36.893403,0
              174.89672,-36.893394,0
              174.89621,-36.893299,0
              174.895573,-36.893202,0
              174.895524,-36.893236,0
              174.895478,-36.893267,0
              174.895476,-36.893321,0
              174.895465,-36.893389,0
              174.895436,-36.893459,0
              174.89541,-36.893518,0
              174.895356,-36.893556,0
              174.895276,-36.893611,0
              174.895211,-36.893659,0
              174.895161,-36.893697,0
              174.8951,-36.893705,0
              174.89505,-36.893698,0
              174.894992,-36.893705,0
              174.894947,-36.893739,0
              174.894903,-36.893792,0
              174.89487,-36.89382,0
              174.894846,-36.893863,0
              174.894827,-36.893897,0
              174.894818,-36.893925,0
              174.894813,-36.893938,0
              174.89481,-36.893945,0
              174.894792,-36.89395,0
              174.894754,-36.893951,0
              174.894715,-36.893953,0
              174.894686,-36.893942,0
              174.894647,-36.893931,0
              174.89462,-36.893934,0
              174.894584,-36.893925,0
              174.894557,-36.893908,0
              174.89451,-36.8939,0
              174.894466,-36.89389,0
              174.894425,-36.893873,0
              174.894418,-36.893864,0
              174.89438,-36.893833,0
              174.894344,-36.893817,0
              174.894316,-36.893812,0
              174.894294,-36.893808,0
              174.894259,-36.893794,0
              174.894212,-36.893777,0
              174.894161,-36.89375,0
              174.894103,-36.893702,0
              174.894051,-36.893654,0
              174.894022,-36.893611,0
              174.893987,-36.893553,0
              174.893951,-36.893492,0
              174.893911,-36.893448,0
              174.893868,-36.893398,0
              174.893834,-36.893349,0
              174.893835,-36.893316,0
              174.893851,-36.89327,0
              174.893879,-36.893231,0
              174.893928,-36.893168,0
              174.893931,-36.893108,0
              174.893894,-36.893057,0
              174.893824,-36.893014,0
              174.893748,-36.89299,0
              174.893685,-36.892996,0
              174.893629,-36.893011,0
              174.893559,-36.89303,0
              174.893486,-36.893046,0
              174.89342,-36.893064,0
              174.893349,-36.893061,0
              174.89328,-36.893091,0
              174.893205,-36.89311,0
              174.893128,-36.893127,0
              174.893056,-36.893149,0
              174.892977,-36.893199,0
              174.892942,-36.893259,0
              174.892911,-36.89333,0
              174.892915,-36.89341,0
              174.892927,-36.893476,0
              174.89294,-36.893533,0
              174.892954,-36.8936,0
              174.892963,-36.893661,0
              174.892966,-36.893716,0
              174.892963,-36.893779,0
              174.892955,-36.893824,0
              174.89294,-36.893877,0
              174.89292,-36.893919,0
              174.892891,-36.893966,0
              174.892866,-36.894007,0
              174.892846,-36.894043,0
              174.892819,-36.894062,0
              174.892788,-36.89406,0
              174.892772,-36.894051,0
              174.892762,-36.894046,0
              174.892746,-36.894035,0
              174.892742,-36.894012,0
              174.892747,-36.893987,0
              174.892744,-36.893936,0
              174.892727,-36.893884,0
              174.892698,-36.893823,0
              174.892672,-36.893765,0
              174.892662,-36.893706,0
              174.892658,-36.893652,0
              174.892652,-36.89359,0
              174.892642,-36.893493,0
              174.892647,-36.893431,0
              174.892647,-36.893395,0
              174.892619,-36.893375,0
              174.892569,-36.893356,0
              174.892503,-36.893321,0
              174.892431,-36.893282,0
              174.89237,-36.893242,0
              174.89232,-36.893211,0
              174.89226,-36.893188,0
              174.89221,-36.893177,0
              174.892143,-36.893153,0
              174.892074,-36.893135,0
              174.892012,-36.893118,0
              174.891883,-36.893073,0
              174.891794,-36.893048,0
              174.891735,-36.893028,0
              174.891682,-36.893014,0
              174.891632,-36.893002,0
              174.89158,-36.892987,0
              174.891529,-36.89297,0
              174.891495,-36.892956,0
              174.891468,-36.892948,0
              174.891459,-36.892937,0
              174.891438,-36.892908,0
              174.891401,-36.89287,0
              174.891352,-36.892835,0
              174.891298,-36.892827,0
              174.891241,-36.892832,0
              174.891188,-36.89284,0
              174.89114,-36.892831,0
              174.891096,-36.892816,0
              174.891025,-36.892785,0
              174.890955,-36.892761,0
              174.890875,-36.892733,0
              174.890806,-36.892708,0
              174.890743,-36.892697,0
              174.890695,-36.89268,0
              174.890634,-36.892665,0
              174.89057,-36.892654,0
              174.89049,-36.892667,0
              174.890431,-36.892693,0
              174.890378,-36.892742,0
              174.890348,-36.89281,0
              174.890356,-36.89285,0
              174.890342,-36.892918,0
              174.890328,-36.89298,0
              174.890315,-36.893042,0
              174.890295,-36.89308,0
              174.890264,-36.893141,0
              174.890218,-36.893206,0
              174.890086,-36.893264,0
              174.890076,-36.893272,0
              174.890062,-36.89328,0
              174.890055,-36.893282,0
              174.890045,-36.893288,0
              174.890038,-36.893296,0
              174.890031,-36.893301,0
              174.890015,-36.893313,0
              174.890009,-36.893316,0
              174.890004,-36.893321,0
              174.889993,-36.89333,0
              174.889984,-36.893335,0
              174.88997,-36.893341,0
              174.889961,-36.893347,0
              174.889949,-36.893358,0
              174.889934,-36.89337,0
              174.889925,-36.89338,0
              174.889911,-36.8934,0
              174.889897,-36.893417,0
              174.889893,-36.893425,0
              174.889885,-36.89344,0
              174.889876,-36.893459,0
              174.889865,-36.893475,0
              174.889858,-36.893487,0
              174.889855,-36.893436,0
              174.889858,-36.8934,0
              174.889864,-36.893391,0
              174.889873,-36.893383,0
              174.889884,-36.893365,0
              174.889887,-36.893361,0
              174.889897,-36.893355,0
              174.889907,-36.893352,0
              174.88992,-36.893343,0
              174.889931,-36.893338,0
              174.889934,-36.893331,0
              174.889939,-36.893323,0
              174.88994,-36.893316,0
              174.889945,-36.893309,0
              174.889953,-36.893298,0
              174.889958,-36.893288,0
              174.889964,-36.893276,0
              174.889968,-36.893269,0
              174.889971,-36.893259,0
              174.889979,-36.893247,0
              174.889983,-36.893235,0
              174.889986,-36.893228,0
              174.889989,-36.89322,0
              174.889991,-36.893209,0
              174.889997,-36.893196,0
              174.889999,-36.893177,0
              174.889999,-36.893165,0
              174.89,-36.893147,0
              174.890001,-36.893137,0
              174.890002,-36.893129,0
              174.890001,-36.89312,0
              174.89,-36.893119,0
              174.890005,-36.893095,0
              174.890005,-36.893087,0
              174.890002,-36.893069,0
              174.890002,-36.893059,0
              174.890006,-36.893047,0
              174.890007,-36.893037,0
              174.890009,-36.893022,0
              174.890012,-36.89301,0
              174.890014,-36.892997,0
              174.890013,-36.892988,0
              174.890017,-36.892973,0
              174.890019,-36.892966,0
              174.890023,-36.892954,0
              174.890028,-36.892945,0
              174.890039,-36.892931,0
              174.890048,-36.892914,0
              174.890058,-36.892901,0
              174.890067,-36.892893,0
              174.890077,-36.892877,0
              174.890083,-36.892866,0
              174.890088,-36.892855,0
              174.890099,-36.892838,0
              174.890111,-36.892823,0
              174.890122,-36.892798,0
              174.89013,-36.892785,0
              174.890135,-36.892772,0
              174.890147,-36.892745,0
              174.890187,-36.892714,0
              174.890199,-36.892694,0
              174.890207,-36.892639,0
              174.890206,-36.892584,0
              174.890188,-36.892531,0
              174.890148,-36.892509,0
              174.890145,-36.892496,0
              174.890139,-36.892473,0
              174.890136,-36.892456,0
              174.89013,-36.892434,0
              174.890131,-36.892421,0
              174.890128,-36.892407,0
              174.890161,-36.892383,0
              174.890158,-36.892365,0
              174.890154,-36.892351,0
              174.890141,-36.892322,0
              174.890121,-36.892308,0
              174.890105,-36.892298,0
              174.89008,-36.892263,0
              174.890058,-36.892252,0
              174.890039,-36.892237,0
              174.890004,-36.892234,0
              174.889986,-36.892234,0
              174.889966,-36.89223,0
              174.889934,-36.892232,0
              174.889931,-36.892233,0
              174.889904,-36.892238,0
              174.889874,-36.892242,0
              174.88985,-36.892248,0
              174.88983,-36.892251,0
              174.889783,-36.892252,0
              174.889755,-36.892256,0
              174.889726,-36.892259,0
              174.889704,-36.892266,0
              174.889685,-36.89227,0
              174.889644,-36.89227,0
              174.889606,-36.892271,0
              174.889583,-36.892272,0
              174.889548,-36.892278,0
              174.889538,-36.892278,0
              174.889505,-36.892285,0
              174.88949,-36.892287,0
              174.889457,-36.892287,0
              174.889431,-36.892294,0
              174.889402,-36.892296,0
              174.889377,-36.892291,0
              174.889353,-36.892288,0
              174.889328,-36.892282,0
              174.889299,-36.892278,0
              174.889279,-36.892277,0
              174.889231,-36.892275,0
              174.889198,-36.892274,0
              174.889171,-36.89227,0
              174.889141,-36.892263,0
              174.889131,-36.892261,0
              174.889101,-36.892252,0
              174.889058,-36.892248,0
              174.889038,-36.892237,0
              174.888985,-36.892238,0
              174.888957,-36.892223,0
              174.888914,-36.892224,0
              174.888908,-36.892217,0
              174.888906,-36.892214,0
              174.88889,-36.892202,0
              174.888842,-36.892189,0
              174.888825,-36.892186,0
              174.888816,-36.892173,0
              174.888789,-36.892166,0
              174.888783,-36.892162,0
              174.888763,-36.892158,0
              174.888747,-36.892148,0
              174.888731,-36.892141,0
              174.888714,-36.892136,0
              174.888709,-36.892127,0
              174.888688,-36.892123,0
              174.888677,-36.892115,0
              174.888663,-36.892112,0
              174.888655,-36.892104,0
              174.888642,-36.892096,0
              174.888618,-36.892092,0
              174.888584,-36.892087,0
              174.888573,-36.892076,0
              174.88854,-36.892071,0
              174.88853,-36.892063,0
              174.888492,-36.892048,0
              174.888453,-36.892035,0
              174.888425,-36.892026,0
              174.888415,-36.892013,0
              174.888408,-36.892007,0
              174.88839,-36.891997,0
              174.888352,-36.891984,0
              174.888326,-36.891982,0
              174.888317,-36.891978,0
              174.888287,-36.891967,0
              174.888273,-36.891957,0
              174.888242,-36.891953,0
              174.888212,-36.891939,0
              174.88821,-36.891937,0
              174.888182,-36.891932,0
              174.888164,-36.891928,0
              174.888127,-36.891916,0
              174.888109,-36.891901,0
              174.888095,-36.891896,0
              174.888081,-36.891884,0
              174.888057,-36.891875,0
              174.888025,-36.891862,0
              174.888005,-36.891847,0
              174.887999,-36.891844,0
              174.887953,-36.89182,0
              174.887939,-36.891814,0
              174.887926,-36.891805,0
              174.88792,-36.891801,0
              174.887885,-36.891784,0
              174.887872,-36.89178,0
              174.887843,-36.891772,0
              174.887821,-36.891761,0
              174.8878,-36.891751,0
              174.887787,-36.891742,0
              174.887776,-36.891731,0
              174.887758,-36.891717,0
              174.887714,-36.8917,0
              174.887684,-36.891685,0
              174.887678,-36.891677,0
              174.88763,-36.891663,0
              174.887608,-36.891648,0
              174.887564,-36.891638,0
              174.887548,-36.891631,0
              174.887507,-36.891621,0
              174.887499,-36.891622,0
              174.887475,-36.891615,0
              174.887437,-36.89161,0
              174.887409,-36.891602,0
              174.887367,-36.891586,0
              174.887357,-36.891579,0
              174.887317,-36.891559,0
              174.887291,-36.891551,0
              174.887257,-36.891554,0
              174.887249,-36.891553,0
              174.887226,-36.891554,0
              174.887195,-36.89156,0
              174.887181,-36.891557,0
              174.887144,-36.891551,0
              174.887118,-36.891554,0
              174.887092,-36.891549,0
              174.887082,-36.891544,0
              174.887072,-36.891543,0
              174.887052,-36.891542,0
              174.887049,-36.891541,0
              174.887016,-36.891539,0
              174.886988,-36.891543,0
              174.886964,-36.89154,0
              174.88695,-36.891536,0
              174.886944,-36.891531,0
              174.886925,-36.891528,0
              174.886908,-36.891526,0
              174.886887,-36.891526,0
              174.88687,-36.891528,0
              174.886844,-36.891531,0
              174.886804,-36.891538,0
              174.886795,-36.891542,0
              174.886777,-36.891549,0
              174.886753,-36.891555,0
              174.886735,-36.89156,0
              174.886709,-36.891561,0
              174.886702,-36.891564,0
              174.886672,-36.891562,0
              174.886652,-36.891563,0
              174.886639,-36.891564,0
              174.886636,-36.891574,0
              174.886603,-36.891579,0
              174.886576,-36.891581,0
              174.886556,-36.89158,0
              174.886551,-36.891579,0
              174.886526,-36.891579,0
              174.886519,-36.891573,0
              174.886493,-36.891583,0
              174.886491,-36.891584,0
              174.886466,-36.891594,0
              174.88646,-36.891597,0
              174.886436,-36.891606,0
              174.886411,-36.891616,0
              174.886404,-36.891617,0
              174.886372,-36.891635,0
              174.886348,-36.891649,0
              174.886333,-36.891659,0
              174.886318,-36.891666,0
              174.886305,-36.891669,0
              174.886281,-36.891677,0
              174.886247,-36.891688,0
              174.886239,-36.891698,0
              174.886211,-36.891706,0
              174.8862,-36.891714,0
              174.886184,-36.891724,0
              174.886135,-36.891746,0
              174.886116,-36.891758,0
              174.886082,-36.891765,0
              174.886067,-36.891773,0
              174.886045,-36.89178,0
              174.886011,-36.891782,0
              174.885982,-36.89178,0
              174.885951,-36.89177,0
              174.885933,-36.891763,0
              174.885914,-36.891758,0
              174.885893,-36.891758,0
              174.88588,-36.891749,0
              174.885856,-36.891741,0
              174.885839,-36.891731,0
              174.885832,-36.891728,0
              174.885816,-36.89172,0
              174.885796,-36.891709,0
              174.88578,-36.8917,0
              174.885762,-36.891698,0
              174.885736,-36.891688,0
              174.885713,-36.891675,0
              174.88569,-36.891665,0
              174.885661,-36.891656,0
              174.885642,-36.891649,0
              174.885628,-36.891639,0
              174.88561,-36.891636,0
              174.885587,-36.89163,0
              174.885573,-36.891625,0
              174.88555,-36.891617,0
              174.885533,-36.891608,0
              174.885519,-36.891602,0
              174.885482,-36.891599,0
              174.885455,-36.891594,0
              174.885413,-36.891581,0
              174.885368,-36.891577,0
              174.885321,-36.891565,0
              174.885297,-36.891554,0
              174.885262,-36.891555,0
              174.885223,-36.891551,0
              174.885199,-36.891549,0
              174.885154,-36.891538,0
              174.885111,-36.891537,0
              174.885096,-36.891537,0
              174.885069,-36.891528,0
              174.885025,-36.891535,0
              174.884999,-36.891532,0
              174.885004,-36.89153,0
              174.88497,-36.891527,0
              174.884939,-36.891525,0
              174.884899,-36.891526,0
              174.884872,-36.891526,0
              174.884836,-36.891526,0
              174.884802,-36.891528,0
              174.88477,-36.891525,0
              174.884743,-36.89152,0
              174.8847,-36.89152,0
              174.884683,-36.891519,0
              174.884648,-36.891522,0
              174.884613,-36.891523,0
              174.88457,-36.891524,0
              174.884542,-36.891526,0
              174.8845,-36.891532,0
              174.884452,-36.891528,0
              174.884421,-36.891532,0
              174.884401,-36.891531,0
              174.884372,-36.89153,0
              174.884346,-36.891527,0
              174.884328,-36.891527,0
              174.884309,-36.891525,0
              174.884295,-36.891528,0
              174.884267,-36.891531,0
              174.884233,-36.89153,0
              174.884207,-36.89153,0
              174.884177,-36.891523,0
              174.884138,-36.891525,0
              174.884109,-36.891525,0
              174.884062,-36.89152,0
              174.884021,-36.891531,0
              174.883984,-36.891533,0
              174.883945,-36.891531,0
              174.883914,-36.891535,0
              174.883863,-36.891541,0
              174.88382,-36.891543,0
              174.883776,-36.891543,0
              174.88373,-36.891549,0
              174.883697,-36.891553,0
              174.883666,-36.891551,0
              174.883629,-36.891559,0
              174.883611,-36.891563,0
              174.88357,-36.89157,0
              174.883528,-36.891577,0
              174.88349,-36.891579,0
              174.883442,-36.891578,0
              174.883411,-36.891583,0
              174.883382,-36.891594,0
              174.883345,-36.891597,0
              174.883306,-36.891592,0
              174.883269,-36.891591,0
              174.883228,-36.8916,0
              174.883195,-36.89161,0
              174.883153,-36.891621,0
              174.883113,-36.891632,0
              174.883077,-36.89164,0
              174.883048,-36.891649,0
              174.882995,-36.891648,0
              174.882948,-36.891658,0
              174.882912,-36.891658,0
              174.882882,-36.89166,0
              174.88285,-36.891666,0
              174.882817,-36.891668,0
              174.882787,-36.891665,0
              174.882747,-36.891667,0
              174.882695,-36.891659,0
              174.882678,-36.89166,0
              174.882648,-36.891649,0
              174.882597,-36.891643,0
              174.882566,-36.891641,0
              174.882536,-36.891634,0
              174.8825,-36.89162,0
              174.882469,-36.891613,0
              174.882435,-36.891605,0
              174.882411,-36.891597,0
              174.882404,-36.891594,0
              174.882362,-36.891586,0
              174.882326,-36.891571,0
              174.882289,-36.891554,0
              174.882263,-36.891545,0
              174.882213,-36.891535,0
              174.882189,-36.891532,0
              174.88214,-36.891542,0
              174.882112,-36.891541,0
              174.882083,-36.891542,0
              174.882043,-36.891541,0
              174.882006,-36.891545,0
              174.881964,-36.891551,0
              174.881907,-36.891567,0
              174.881868,-36.891573,0
              174.881832,-36.891586,0
              174.8818,-36.891592,0
              174.881765,-36.891597,0
              174.881731,-36.891604,0
              174.881709,-36.891601,0
              174.881702,-36.8916,0
              174.881677,-36.891593,0
              174.881647,-36.89159,0
              174.881606,-36.891582,0
              174.881575,-36.891575,0
              174.881537,-36.891566,0
              174.881503,-36.891559,0
              174.881473,-36.891547,0
              174.881443,-36.891538,0
              174.881416,-36.891526,0
              174.881379,-36.891515,0
              174.881346,-36.891502,0
              174.88131,-36.891493,0
              174.881272,-36.891477,0
              174.881237,-36.891465,0
              174.881216,-36.891473,0
              174.881199,-36.891469,0
              174.881188,-36.891463,0
              174.881174,-36.891457,0
              174.88115,-36.891451,0
              174.881129,-36.891445,0
              174.881096,-36.891437,0
              174.881086,-36.891435,0
              174.88107,-36.891428,0
              174.881055,-36.891422,0
              174.88104,-36.891408,0
              174.881017,-36.8914,0
              174.880982,-36.891388,0
              174.880961,-36.891382,0
              174.880938,-36.891372,0
              174.880915,-36.891362,0
              174.880896,-36.891351,0
              174.88087,-36.891345,0
              174.880859,-36.891339,0
              174.880834,-36.891329,0
              174.880812,-36.891322,0
              174.880801,-36.891311,0
              174.880788,-36.891307,0
              174.88077,-36.891294,0
              174.880746,-36.891281,0
              174.880713,-36.891268,0
              174.880678,-36.891251,0
              174.880641,-36.891231,0
              174.880611,-36.891217,0
              174.880586,-36.891205,0
              174.880566,-36.891194,0
              174.880548,-36.891181,0
              174.880523,-36.891171,0
              174.880501,-36.89116,0
              174.880483,-36.891153,0
              174.880468,-36.891143,0
              174.880452,-36.891137,0
              174.880436,-36.891131,0
              174.880424,-36.891126,0
              174.880405,-36.89112,0
              174.880376,-36.891109,0
              174.880348,-36.891098,0
              174.880329,-36.89109,0
              174.880308,-36.891085,0
              174.880285,-36.891074,0
              174.880267,-36.891071,0
              174.880245,-36.891063,0
              174.880224,-36.891056,0
              174.880198,-36.891057,0
              174.880178,-36.891053,0
              174.880163,-36.891051,0
              174.880148,-36.891051,0
              174.880123,-36.891057,0
              174.880098,-36.891056,0
              174.880054,-36.891047,0
              174.880041,-36.891046,0
              174.880026,-36.891047,0
              174.880011,-36.891049,0
              174.88,-36.891051,0
              174.879976,-36.891052,0
              174.879962,-36.891046,0
              174.879948,-36.891044,0
              174.879932,-36.891047,0
              174.879909,-36.891051,0
              174.879897,-36.891052,0
              174.879885,-36.891057,0
              174.879862,-36.891066,0
              174.879847,-36.891076,0
              174.879825,-36.891092,0
              174.879807,-36.891111,0
              174.879798,-36.891118,0
              174.879783,-36.891139,0
              174.879768,-36.891154,0
              174.879756,-36.891171,0
              174.879749,-36.89118,0
              174.879737,-36.891197,0
              174.879725,-36.891218,0
              174.879721,-36.891231,0
              174.879709,-36.891252,0
              174.879703,-36.891273,0
              174.879689,-36.891291,0
              174.879678,-36.891322,0
              174.879662,-36.891355,0
              174.879648,-36.891385,0
              174.879635,-36.891427,0
              174.879634,-36.891438,0
              174.879631,-36.891463,0
              174.879627,-36.891471,0
              174.879621,-36.891487,0
              174.879614,-36.891511,0
              174.879612,-36.891533,0
              174.879605,-36.891549,0
              174.879596,-36.891566,0
              174.879587,-36.891593,0
              174.879584,-36.891613,0
              174.879581,-36.891622,0
              174.879578,-36.891642,0
              174.879573,-36.891655,0
              174.879563,-36.891674,0
              174.87955,-36.891691,0
              174.879544,-36.891703,0
              174.87954,-36.891713,0
              174.879536,-36.891726,0
              174.879533,-36.891739,0
              174.879529,-36.891763,0
              174.879529,-36.891786,0
              174.879522,-36.891811,0
              174.879521,-36.891814,0
              174.879504,-36.89186,0
              174.879489,-36.8919,0
              174.879477,-36.891942,0
              174.879477,-36.891976,0
              174.879465,-36.892021,0
              174.879449,-36.89204,0
              174.879439,-36.892052,0
              174.879424,-36.892072,0
              174.879409,-36.892105,0
              174.879398,-36.892128,0
              174.879388,-36.892157,0
              174.879385,-36.89219,0
              174.879382,-36.892211,0
              174.879377,-36.892239,0
              174.879368,-36.892271,0
              174.879362,-36.892307,0
              174.879345,-36.892345,0
              174.879343,-36.892367,0
              174.879339,-36.892397,0
              174.879324,-36.892462,0
              174.879317,-36.892481,0
              174.879298,-36.892515,0
              174.879278,-36.89256,0
              174.879267,-36.892595,0
              174.879252,-36.892624,0
              174.879241,-36.892654,0
              174.879228,-36.892688,0
              174.879225,-36.89276,0
              174.879227,-36.8928,0
              174.87923,-36.892825,0
              174.879235,-36.892873,0
              174.879238,-36.892895,0
              174.879252,-36.892931,0
              174.879276,-36.892978,0
              174.879288,-36.89301,0
              174.879297,-36.893032,0
              174.879305,-36.893057,0
              174.879308,-36.893082,0
              174.879314,-36.893105,0
              174.879321,-36.893133,0
              174.87933,-36.893164,0
              174.879343,-36.893208,0
              174.879352,-36.89324,0
              174.879369,-36.893281,0
              174.879402,-36.89333,0
              174.879425,-36.893364,0
              174.879453,-36.893402,0
              174.879482,-36.89344,0
              174.879509,-36.893472,0
              174.879533,-36.893499,0
              174.879568,-36.893527,0
              174.8796,-36.893545,0
              174.879633,-36.893564,0
              174.87967,-36.893587,0
              174.879694,-36.893599,0
              174.879718,-36.89361,0
              174.879781,-36.893626,0
              174.879856,-36.893643,0
              174.879895,-36.893657,0
              174.879907,-36.89366,0
              174.879945,-36.893674,0
              174.880006,-36.893692,0
              174.880049,-36.893715,0
              174.880074,-36.893728,0
              174.880103,-36.893755,0
              174.88013,-36.893772,0
              174.880154,-36.893782,0
              174.880178,-36.893795,0
              174.880226,-36.893828,0
              174.880264,-36.89386,0
              174.880281,-36.893879,0
              174.880287,-36.893885,0
              174.880309,-36.89392,0
              174.880332,-36.893961,0
              174.880357,-36.893999,0
              174.880374,-36.894028,0
              174.880405,-36.894081,0
              174.880416,-36.894106,0
              174.88043,-36.894138,0
              174.880449,-36.894183,0
              174.880462,-36.894225,0
              174.880481,-36.894272,0
              174.880498,-36.894313,0
              174.880516,-36.894346,0
              174.880523,-36.894393,0
              174.880525,-36.894426,0
              174.880533,-36.89446,0
              174.880538,-36.894493,0
              174.880541,-36.894543,0
              174.880537,-36.894582,0
              174.880535,-36.89462,0
              174.880533,-36.894658,0
              174.880536,-36.894689,0
              174.880529,-36.894712,0
              174.880524,-36.894744,0
              174.880513,-36.894779,0
              174.880509,-36.894786,0
              174.880497,-36.894804,0
              174.88049,-36.894814,0
              174.880482,-36.894824,0
              174.880458,-36.894842,0
              174.880431,-36.894861,0
              174.880408,-36.894872,0
              174.880367,-36.894894,0
              174.880335,-36.894913,0
              174.880306,-36.894933,0
              174.880273,-36.894972,0
              174.880245,-36.895003,0
              174.88023,-36.895021,0
              174.880218,-36.895039,0
              174.880212,-36.895054,0
              174.880195,-36.895081,0
              174.880159,-36.895118,0
              174.880133,-36.895144,0
              174.880104,-36.895173,0
              174.880072,-36.895201,0
              174.880042,-36.895223,0
              174.880007,-36.895256,0
              174.87998,-36.895274,0
              174.879945,-36.895293,0
              174.879912,-36.895315,0
              174.87988,-36.895338,0
              174.87984,-36.895362,0
              174.879813,-36.895376,0
              174.879759,-36.895416,0
              174.87974,-36.895444,0
              174.87971,-36.895489,0
              174.879693,-36.895527,0
              174.879681,-36.89557,0
              174.879668,-36.895601,0
              174.879658,-36.895641,0
              174.879652,-36.89568,0
              174.879651,-36.895721,0
              174.879647,-36.895766,0
              174.879641,-36.895792,0
              174.879636,-36.895805,0
              174.879625,-36.895824,0
              174.879617,-36.89584,0
              174.879583,-36.89587,0
              174.87956,-36.895885,0
              174.879547,-36.895892,0
              174.879508,-36.895916,0
              174.879473,-36.895941,0
              174.879433,-36.895961,0
              174.879384,-36.895981,0
              174.879347,-36.895997,0
              174.879336,-36.896,0
              174.879415,-36.895991,0
              174.879437,-36.895988,0
              174.879498,-36.895981,0
              174.879556,-36.895976,0
              174.879626,-36.895972,0
              174.879676,-36.895964,0
              174.879703,-36.895953,0
              174.879737,-36.895935,0
              174.879739,-36.895934,0
              174.879757,-36.895925,0
              174.879785,-36.895916,0
              174.879798,-36.895926,0
              174.879799,-36.895949,0
              174.879789,-36.895976,0
              174.879761,-36.895998,0
              174.879742,-36.896018,0
              174.879729,-36.896026,0
              174.879711,-36.896038,0
              174.8797,-36.896047,0
              174.879689,-36.896054,0
              174.879667,-36.896062,0
              174.879656,-36.896069,0
              174.879654,-36.896072,0
              174.879657,-36.896075,0
              174.879662,-36.896078,0
              174.879675,-36.896081,0
              174.879687,-36.896088,0
              174.879707,-36.896099,0
              174.879723,-36.896105,0
              174.879737,-36.896112,0
              174.879749,-36.896115,0
              174.879762,-36.896119,0
              174.879775,-36.89612,0
              174.879785,-36.896125,0
              174.879802,-36.896128,0
              174.879811,-36.896131,0
              174.87983,-36.896136,0
              174.879842,-36.896139,0
              174.879844,-36.896139,0
              174.879846,-36.896139,0
              174.879852,-36.896138,0
              174.879857,-36.896137,0
              174.879864,-36.896135,0
              174.879882,-36.89613,0
              174.879893,-36.896128,0
              174.879909,-36.896125,0
              174.87992,-36.896123,0
              174.879931,-36.896121,0
              174.879943,-36.896118,0
              174.879961,-36.896112,0
              174.880001,-36.896111,0
              174.880065,-36.896127,0
              174.880118,-36.896153,0
              174.880149,-36.896165,0
              174.88018,-36.89618,0
              174.880231,-36.896215,0
              174.880261,-36.896236,0
              174.880332,-36.89628,0
              174.880358,-36.896302,0
              174.8804,-36.896338,0
              174.880441,-36.896378,0
              174.880461,-36.896404,0
              174.880483,-36.896443,0
              174.880498,-36.896469,0
              174.880516,-36.896502,0
              174.880537,-36.896527,0
              174.880556,-36.896544,0
              174.880567,-36.89656,0
              174.880659,-36.896726,0
              174.88105,-36.896993,0
              174.881202,-36.897222,0
              174.881403,-36.897523,0
              174.881388,-36.897625,0
              174.88165,-36.897782,0
              174.88167,-36.89776,0
              174.881842,-36.897931,0
              174.881908,-36.897997,0
              174.8821,-36.898032,0
              174.882151,-36.897986,0
              174.882219,-36.897923,0
              174.882397,-36.897759,0
              174.882628,-36.897855,0
              174.882705,-36.897886,0
              174.882858,-36.89795,0
              174.883089,-36.898045,0
              174.883141,-36.897886,0
              174.883489,-36.897955,0
              174.883804,-36.898017,0
              174.883778,-36.898273,0
              174.883645,-36.898249,0
              174.883616,-36.898315,0
              174.884101,-36.898403,0
              174.884151,-36.898412,0
              174.884354,-36.898449,0
              174.884495,-36.898475,0
              174.884795,-36.898531,0
              174.884826,-36.898263,0
              174.884853,-36.898185,0
              174.884866,-36.898144,0
              174.884933,-36.897943,0
              174.884988,-36.897782,0
              174.885057,-36.897574,0
              174.885141,-36.897326,0
              174.885146,-36.897309,0
              174.885292,-36.897329,0
              174.885653,-36.897398,0
              174.885701,-36.897099,0
              174.885705,-36.897071,0
              174.886187,-36.897139,0
              174.886249,-36.897142,0
              174.886303,-36.897113,0
              174.886605,-36.897118,0
              174.886654,-36.897119,0
              174.88672,-36.896911,0
              174.886759,-36.896787,0
              174.886965,-36.896818,0
              174.886991,-36.896722,0
              174.887016,-36.89663,0
              174.887069,-36.896437,0
              174.887283,-36.896471,0
              174.887586,-36.89652,0
              174.887593,-36.896495,0
              174.888024,-36.896555,0
              174.888033,-36.89642,0
              174.888258,-36.896551,0
              174.888248,-36.896587,0
              174.888228,-36.896654,0
              174.888524,-36.89671,0
              174.888622,-36.896728,0
              174.888569,-36.896913,0
              174.889049,-36.897002,0
              174.889069,-36.897054,0
              174.889087,-36.89705,0
              174.889292,-36.896999,0
              174.889625,-36.896917,0
              174.889681,-36.896928,0
              174.889734,-36.896938,0
              174.889913,-36.897196,0
              174.890022,-36.897354,0
              174.89005,-36.897393,0
              174.890075,-36.897303,0
              174.89031,-36.897347,0
              174.890382,-36.89736,0
              174.890426,-36.897368,0
              174.890556,-36.897392,0
              174.890637,-36.897407,0
              174.890803,-36.897437,0
              174.890848,-36.897446,0
              174.891051,-36.897483,0
              174.89114,-36.897171,0
              174.891142,-36.897163,0
              174.891213,-36.897176,0
              174.891358,-36.897203,0
              174.891395,-36.89721,0
              174.891573,-36.897243,0
              174.891655,-36.897258,0
              174.891789,-36.897282,0
              174.891929,-36.897308,0
              174.891838,-36.897628,0
              174.892078,-36.897672,0
              174.892209,-36.897494,0
              174.89229,-36.897384,0
              174.892463,-36.897416,0
              174.89268,-36.897456,0
              174.8927,-36.897459,0
              174.892908,-36.897497,0
              174.893058,-36.897525,0
              174.892969,-36.897619,0
              174.893307,-36.897815,0
              174.893358,-36.897759,0
              174.893497,-36.897605,0
              174.893597,-36.897623,0
              174.893943,-36.897733,0
              174.89383,-36.897808,0
              174.894059,-36.897942,0
              174.894073,-36.897926,0
              174.894119,-36.897953,0
              174.894363,-36.897687,0
              174.894374,-36.897675,0
              174.894385,-36.897661,0
              174.894394,-36.897648,0
              174.894403,-36.897633,0
              174.89441,-36.897619,0
              174.894417,-36.897604,0
              174.894423,-36.897589,0
              174.894427,-36.897574,0
              174.894646,-36.89762,0
              174.894974,-36.897789,0
              174.895046,-36.897826,0
              174.895247,-36.897938,0
              174.895438,-36.897973,0
              174.89563,-36.898008,0
              174.895601,-36.898108,0
              174.895545,-36.898301,0
              174.89554,-36.898321,0
              174.895502,-36.89845,0
              174.895491,-36.898487,0
              174.895459,-36.898599,0
              174.895441,-36.898663,0
              174.895416,-36.898748,0
              174.89539,-36.898839,0
              174.89537,-36.898908,0
              174.895339,-36.899014,0
              174.895317,-36.899092,0
              174.895289,-36.89919,0
              174.895264,-36.899276,0
              174.895238,-36.899365,0
              174.895129,-36.899742,0
              174.895359,-36.899666,0
              174.895701,-36.899552,0
              174.895887,-36.89949,0
              174.896095,-36.899421,0
              174.896361,-36.899409,0
              174.89696,-36.899381,0
              174.896949,-36.899217,0
              174.897017,-36.899181,0
              174.896822,-36.898942,0
              174.89701,-36.898844,0
              174.897235,-36.898725,0
              174.897125,-36.898589,0
              174.897069,-36.898522,0
              174.897014,-36.898454,0
              174.896903,-36.898318,0
            </coordinates>
          </LinearRing>
        </outerBoundaryIs>
      </Polygon>
    </Placemark>
    <Placemark>
      <name>Farm Cove</name>
      <styleUrl>#icon-1899-0288D1-nodesc</styleUrl>
      <Point>
        <coordinates>
          174.888605,-36.89494,100
        </coordinates>
      </Point>
    </Placemark>
  </Document>
</kml>
