<?xml version="1.0" encoding="utf-8"?>
<kml xmlns="http://www.opengis.net/kml/2.2">
<Document>
  <name>Flat Bush (polygon: official_shp)</name>
  <open>1</open>

  <Placemark>
    <name>Flat Bush (polygon: official_shp)</name>
    <Style>
      <LineStyle><color>ffff0000</color><width>2</width></LineStyle>
      <PolyStyle><color>66ff0000</color><fill>1</fill><outline>1</outline></PolyStyle>
    </Style>
    <Polygon>
      <tessellate>1</tessellate>
      <altitudeMode>relativeToGround</altitudeMode>
      <outerBoundaryIs><LinearRing><coordinates>174.96842600178667,-36.98294700414185,100 174.96796400716255,-36.98321899256148,100 174.9669809997712,-36.983796993810984,100 174.9653419985758,-36.983544004038826,100 174.964679999367,-36.98344100377654,100 174.96378199237458,-36.98554099279416,100 174.96307299531435,-36.98557100442196,100 174.95788699462594,-36.98559300032694,100 174.95779000381617,-36.98559300340211,100 174.9562150034508,-36.985596004707986,100 174.95492100497708,-36.98559100076687,100 174.9525410077359,-36.985610002165544,100 174.95204899184216,-36.985615992921346,100 174.95127900741923,-36.98762600412196,100 174.9501040004013,-36.99044599660608,100 174.95083999846915,-36.99066899659903,100 174.9526169943061,-36.991223998381656,100 174.9528189955946,-36.99329599941893,100 174.95319200768918,-36.997072996928644,100 174.95346799282308,-36.99985699586794,100 174.9538285055486,-37.00015839688508,100 174.9504305053483,-36.99914256558274,100 174.94919680209975,-36.998774638852105,100 174.9454279046662,-36.997641537184684,100 174.94504239683096,-36.99752571224082,100 174.94185240767413,-36.996566225756276,100 174.9418535053878,-36.99653481282856,100 174.94091600510467,-36.996287399229615,100 174.94019210250823,-36.99609930635813,100 174.93893099990106,-36.99577187769512,100 174.93891080785588,-36.995766570909815,100 174.93869880074794,-36.995795194759175,100 174.9379356040026,-36.995564969580904,100 174.9373409008984,-36.99542303700899,100 174.93724909733965,-36.99539774830036,100 174.9366910984171,-36.99524358641362,100 174.93639299333933,-36.995161324634225,100 174.93670940735376,-36.994207764571236,100 174.93688399506416,-36.99368090780736,100 174.93694160230564,-36.993506760044404,100 174.93712380526253,-36.99295820777902,100 174.93736639665312,-36.99222678501501,100 174.937465096458,-36.99192896286619,100 174.93776319835723,-36.990972629921195,100 174.938036408473,-36.99009611543656,100 174.9380656007869,-36.99000260638868,100 174.9385490044674,-36.9884518183869,100 174.93866890582407,-36.98806787832505,100 174.93869920051344,-36.987970494435494,100 174.93895039464445,-36.987163737582584,100 174.93745820512115,-36.986725072087914,100 174.93636460791774,-36.98640360237804,100 174.93595060871004,-36.98628192420159,100 174.93561579563877,-36.98618345307512,100 174.93513369313013,-36.98604180317002,100 174.93477049366166,-36.98593505619471,100 174.9348878007493,-36.98556623529411,100 174.93489789274253,-36.985534554020326,100 174.93489540243868,-36.985532755968094,100 174.93487850775315,-36.985521427167434,100 174.93486159234214,-36.98550998964468,100 174.9348540079124,-36.98550485961517,100 174.9348370925315,-36.98549342298959,100 174.93482019203836,-36.98548190860683,100 174.93480359790826,-36.98547020265714,100 174.93479779917993,-36.98546579970226,100 174.93478160263317,-36.98545346717146,100 174.93476619837932,-36.98544096579586,100 174.93475030388717,-36.985428271420425,100 174.93473479481273,-36.98541575642737,100 174.9347189996821,-36.985403524598176,100 174.9347132087739,-36.98539938559299,100 174.9346963035958,-36.98538768469877,100 174.93467940275914,-36.98537615497865,100 174.9346624921341,-36.98536490391795,100 174.93464520667348,-36.98535384643636,100 174.93462759481923,-36.985342854660416,100 174.93461029681345,-36.985331966822876,100 174.934596200412,-36.98532359189524,100 174.9345782039602,-36.98531307325596,100 174.9345602059795,-36.98530253841536,100 174.93454260594748,-36.98529201240684,100 174.93452500354695,-36.98528139269882,100 174.93450730527522,-36.98527040321451,100 174.93449039469854,-36.98525915212767,100 174.93448249658846,-36.98525268064168,100 174.93446700754689,-36.98523962270188,100 174.93445189417255,-36.98522640361227,100 174.93443679838413,-36.985213168911855,100 174.934421299564,-36.98520038962753,100 174.93440509644785,-36.98518841406602,100 174.93438819642873,-36.985177534128425,100 174.93438670301896,-36.98517672476715,100 174.93436729480436,-36.9851683516735,100 174.93434749695112,-36.98516096284052,100 174.93432659288638,-36.98515421213109,100 174.93430609259173,-36.985147655826985,100 174.93428520302933,-36.98514081203967,100 174.93426500293523,-36.98513324408077,100 174.9342650009729,-36.985133166600775,100 174.9342466998041,-36.98512290073451,100 174.93422900089604,-36.98511192744122,100 174.93421179922163,-36.98510075766873,100 174.93419410379676,-36.985089877147416,100 174.93417580622477,-36.9850797968795,100 174.9341570057484,-36.98507088658368,100 174.93415490666158,-36.985070072670176,100 174.93413470027605,-36.985062876127614,100 174.93411379858028,-36.9850568382714,100 174.93409259518114,-36.985051796760914,100 174.93407099767725,-36.9850474745996,100 174.93406739463143,-36.98504676541147,100 174.93404579478025,-36.98504235044967,100 174.93402380090458,-36.98503874676824,100 174.93400189971175,-36.98503596355982,100 174.93397990418612,-36.98503415799489,100 174.93395800795778,-36.985033434172855,100 174.9339517916107,-36.98503334440285,100 174.93392990626572,-36.98503362715277,100 174.93390759827102,-36.98503487757441,100 174.93388560639357,-36.98503694302534,100 174.93386360272902,-36.98503982975057,100 174.9338532063835,-36.985041270004494,100 174.93383160060824,-36.9850447847566,100 174.93380999243058,-36.98504882590441,100 174.933788399494,-36.985053424706,100 174.9337671926755,-36.98505818665666,100 174.93374590642912,-36.98506322840019,100 174.9337448065571,-36.98506349598327,100 174.93372320107767,-36.985068265323584,100 174.93370199894952,-36.98507321285449,100 174.93368079916794,-36.98507825317752,100 174.93365989831798,-36.98508347429418,100 174.93363860105583,-36.98508870276766,100 174.9336174036147,-36.98509383587545,100 174.9335334999128,-36.98509886675627,100 174.9335184067377,-36.98510130463803,100 174.9334387928207,-36.9851230775487,100 174.9334122001443,-36.98513459501854,100 174.93333980143828,-36.98517248456771,100 174.93326570504632,-36.985199766363806,100 174.93319150304166,-36.98519265163415,100 174.93310729580577,-36.985184275781855,100 174.9330850042426,-36.985189861946935,100 174.9330047051527,-36.98520938616473,100 174.9329671946442,-36.98519921487822,100 174.93288950035387,-36.985170418332736,100 174.93281240030078,-36.98517428967379,100 174.9328027061988,-36.98517608883377,100 174.93272500601842,-36.98520255112081,100 174.93264939777217,-36.985235851719075,100 174.93257089865338,-36.98525600878823,100 174.93249020413282,-36.98525258743515,100 174.9324416014857,-36.985202549042285,100 174.93238579976583,-36.98515998067947,100 174.93234700329367,-36.98510346443654,100 174.93233179249899,-36.985084825323845,100 174.9323200017261,-36.98507591415864,100 174.93227960324006,-36.98503587274626,100 174.93226669759102,-36.985029211353364,100 174.9322015074064,-36.98499509586102,100 174.93211039276383,-36.98498097329603,100 174.93210070022104,-36.98498718605125,100 174.93202759325052,-36.98502956400811,100 174.93194300254862,-36.98507592515949,100 174.93185090519208,-36.98509877269666,100 174.93177200170166,-36.98507753899806,100 174.93170149763301,-36.98501282218227,100 174.9316557944309,-36.984938758008624,100 174.9316648022596,-36.984878553091725,100 174.93163380024257,-36.984802227987565,100 174.93164709193854,-36.98472176596736,100 174.93159560783766,-36.98462519389669,100 174.93152000632088,-36.98458821279584,100 174.9314411997505,-36.98459477706745,100 174.93135079675687,-36.98464751357308,100 174.93127379189826,-36.98470529377428,100 174.93120969132264,-36.98473419078915,100 174.9312004083772,-36.98473643197572,100 174.93119099668382,-36.98473904659341,100 174.93118160728665,-36.98474183209504,100 174.93117190568552,-36.98474462267649,100 174.93116260077858,-36.98474732838835,100 174.93115320360434,-36.984749850833936,100 174.93114419493952,-36.98475200913945,100 174.93113520749756,-36.98475371825022,100 174.93112620524127,-36.984754885918505,100 174.93111790846345,-36.98475525076233,100 174.93110959572599,-36.98475507328112,100 174.9311013972599,-36.98475461633863,100 174.9310931002175,-36.98475372657178,100 174.93108520469727,-36.98475236519844,100 174.9310775947786,-36.98475065758344,100 174.93107000376057,-36.98474840887883,100 174.93106279778405,-36.9847457032569,100 174.9310555930042,-36.98474237842015,100 174.9310492025519,-36.98473851216873,100 174.93104269157604,-36.98473401155848,100 174.9310362074176,-36.98472861641926,100 174.93102940236716,-36.98472221614098,100 174.93102250402475,-36.98471501431966,100 174.93101569567705,-36.984707283771506,100 174.9310096014206,-36.984699090952034,100 174.93100419230223,-36.98469062380345,100 174.93099950704678,-36.98468208088358,100 174.93099590005824,-36.98467370428401,100 174.9309941010587,-36.9846656056095,100 174.93099370119984,-36.98465805559446,100 174.9309955040805,-36.984650666221086,100 174.93099880714715,-36.98464311183386,100 174.93100339191145,-36.98463554920931,100 174.93100960243063,-36.984627988972306,100 174.93101640527362,-36.98462052725307,100 174.93102430207998,-36.98461323069699,100 174.9310321925473,-36.98460630558026,100 174.93104050870105,-36.98459973135336,100 174.9310491992781,-36.98459361340148,100 174.93105709237392,-36.98458803658911,100 174.9310654055867,-36.98458325690193,100 174.9310744003027,-36.984579303434664,100 174.9310841027504,-36.9845759693621,100 174.93109379851828,-36.98457299321456,100 174.9311041945988,-36.98457029859371,100 174.93111429608,-36.98456759434503,100 174.9311239922556,-36.98456463441188,100 174.93113340161088,-36.98456130600602,100 174.93114199488832,-36.98455725000864,100 174.9311495960362,-36.98455239087146,100 174.93115679696902,-36.98454681089527,100 174.93116400225577,-36.984540781097785,100 174.93117079952572,-36.9845343884055,100 174.93117699695918,-36.98452755572409,100 174.931183098633,-36.98452044609817,100 174.93118849876916,-36.98451296213075,100 174.93119280183595,-36.98450523463832,100 174.93119640654797,-36.984497303098976,100 174.931199292529,-36.984489028142484,100 174.93120070189624,-36.98448056180412,100 174.9312014015543,-36.98447210881772,100 174.93120180773712,-36.98446364618631,100 174.931201395031,-36.98445501121267,100 174.93119999361753,-36.984446285974926,100 174.9311977996028,-36.98443709504373,100 174.93119460824752,-36.984427472395126,100 174.93119030854288,-36.984417204424176,100 174.93118450254332,-36.984406326448294,100 174.93117770244353,-36.98439452278801,100 174.9311694050662,-36.984381754763646,100 174.93115969895578,-36.984367525217536,100 174.9311485030074,-36.98435195894756,100 174.93113589086872,-36.9843353026131,100 174.93112190817305,-36.98431785019702,100 174.93110709611148,-36.98429985517135,100 174.93109129496443,-36.984281754562666,100 174.93107440881747,-36.98426384285471,100 174.9310567061107,-36.984246472594755,100 174.93103869809866,-36.98422991306456,100 174.93101959522988,-36.98421444119313,100 174.93099980720825,-36.984199864645035,100 174.93097820686125,-36.98418545998856,100 174.93095559547112,-36.98417141427402,100 174.93093219800747,-36.9841577382612,100 174.9309079996066,-36.98414451060481,100 174.93088360592031,-36.984131734969516,100 174.93085910887166,-36.98411958110714,100 174.93083499172494,-36.9841080555756,100 174.93081189721352,-36.98409716233869,100 174.93078960317737,-36.984087090679914,100 174.93076800672156,-36.984077192434505,100 174.93074680782166,-36.984067287717046,100 174.93072549345518,-36.98405757054263,100 174.9307046070547,-36.98404829434916,100 174.93068379653442,-36.98403993083845,100 174.93066360288051,-36.984032547820114,100 174.93064379761603,-36.984026706917895,100 174.9306246944659,-36.984022463415485,100 174.93060599561272,-36.984020302552615,100 174.93058799855913,-36.98402039344112,100 174.93056999364936,-36.984023284802504,100 174.93055199826617,-36.98402904214909,100 174.93053399793985,-36.98403713755287,100 174.93051670400752,-36.98404695556923,100 174.93049980785247,-36.984058020824506,100 174.93048400516764,-36.984069810061825,100 174.93046919587113,-36.984081875159575,100 174.93045550169958,-36.984093565199814,100 174.93044400059443,-36.98410445616051,100 174.93043389805052,-36.984114006665216,100 174.93042669791708,-36.98412273032918,100 174.93042169661183,-36.984131460586134,100 174.93041880622079,-36.984140186248176,100 174.93041769564888,-36.984148831584015,100 174.93041740834317,-36.984157200347575,100 174.93041739297513,-36.984165393440044,100 174.93041740189338,-36.98417321389938,100 174.93041629417223,-36.98418068298865,100 174.93041409768824,-36.984187614586,100 174.93041020784344,-36.98419400230271,100 174.93040510358895,-36.98420030432124,100 174.93039969837304,-36.98420696724979,100 174.93039399657795,-36.984213542168234,100 174.93038780223404,-36.984219832175036,100 174.93038060598627,-36.98422559859857,100 174.9303730936373,-36.984230549076656,100 174.930364804759,-36.984234335985384,100 174.93035509148459,-36.98423666342,100 174.93034460403754,-36.984237298181725,100 174.9303330944711,-36.984236031596,100 174.93031910496765,-36.98423270441081,100 174.93030250053135,-36.9842274873647,100 174.93028450490073,-36.98422074630926,100 174.93026470415143,-36.98421255106771,100 174.93024490784666,-36.98420328680536,100 174.93022510071287,-36.984193015960514,100 174.93020639700612,-36.98418195114333,100 174.93018909719777,-36.98417033442419,100 174.93017440050522,-36.9841583617102,100 174.93016210734905,-36.98414631565228,100 174.93015350769565,-36.984133893162756,100 174.9301481016128,-36.984120561591844,100 174.93014449459164,-36.984106532894536,100 174.93014270236904,-36.98409185188016,100 174.93014200490396,-36.98407665644226,100 174.9301412065851,-36.98406098225021,100 174.9301402064013,-36.984044877814675,100 174.93013760600692,-36.98402849206122,100 174.93013370040924,-36.984011850835934,100 174.93012679583262,-36.983995015936216,100 174.93011780741338,-36.98397792290592,100 174.93010700054913,-36.983960181670454,100 174.9300951952381,-36.98394200872511,100 174.93008220093924,-36.9839233774255,100 174.93006849222988,-36.983904572976236,100 174.93005410239155,-36.98388557861235,100 174.93003970828042,-36.983866414871116,100 174.93002570028378,-36.9838474142934,100 174.9300116074306,-36.98382852325028,100 174.92999829862774,-36.98380980422132,100 174.92969230075835,-36.98411588670098,100 174.92868900296133,-36.98788679978232,100 174.92682309531838,-36.98754902640005,100 174.9196000910414,-36.98624573297151,100 174.9194149995759,-36.98607852005779,100 174.9193312076776,-36.986378848705,100 174.91877529753543,-36.988391346415604,100 174.91869039323282,-36.98869923556776,100 174.91855680601506,-36.989183072042195,100 174.91842110371448,-36.98925876456354,100 174.917597008754,-36.98916785394782,100 174.91664020704138,-36.98906220682836,100 174.91591189440388,-36.98898183559873,100 174.9157843263804,-36.9889676806761,100 174.9157840062089,-36.98896799589365,100 174.9156989945955,-36.989136005045566,100 174.91562400017142,-36.989280001216386,100 174.91550500162396,-36.98944700141697,100 174.91553664250668,-36.98947665642357,100 174.9140476555065,-36.989364650381496,100 174.913974663785,-36.98951866188645,100 174.91378266280017,-36.98946065366207,100 174.9138556552478,-36.98930665758037,100 174.91228866302959,-36.988828656166135,100 174.91040769191056,-36.98880366812156,100 174.91039468034288,-36.98942965640674,100 174.9103796750761,-36.990157662088286,100 174.91037767224364,-36.990253656267,100 174.90981268101302,-36.99024665054853,100 174.90980567952215,-36.99055966116981,100 174.908746692116,-36.99054565788322,100 174.90867368421124,-36.99063265266548,100 174.90797868386733,-36.99145965468506,100 174.90740869832203,-36.990413662568415,100 174.90650570812483,-36.98875266629911,100 174.90607270414927,-36.98874766715868,100 174.9045027218672,-36.989079667839306,100 174.90461472497628,-36.98945966883413,100 174.9046367168805,-36.98991766863515,100 174.90462770710016,-36.990385662143574,100 174.90339831095346,-36.990473545548525,100 174.90342670280126,-36.99017465513276,100 174.90342770583425,-36.990155665652544,100 174.90345971027526,-36.9898186614286,100 174.90349069732494,-36.989478668547605,100 174.90351069530786,-36.98926265802164,100 174.9033317289635,-36.988933674025816,100 174.9038909934352,-36.9888280032876,100 174.90397199299505,-36.988392998840396,100 174.90398899737724,-36.98830100009105,100 174.9040280070211,-36.98808600213617,100 174.90407899238363,-36.987809000434815,100 174.9041209963714,-36.987581993160326,100 174.9041460039866,-36.98744599308315,100 174.9041700086697,-36.98731699601782,100 174.90420599313026,-36.9871230064035,100 174.90423899867304,-36.986940991561674,100 174.90424299295609,-36.98691999913615,100 174.90427499813327,-36.98674500258175,100 174.90430199979576,-36.986600993001396,100 174.90431700651928,-36.986552997375824,100 174.9043699929643,-36.986382000286646,100 174.90445299644347,-36.98611900641883,100 174.90454900682053,-36.985813997549606,100 174.90454999808566,-36.985810992007686,100 174.90469899786868,-36.985856004843036,100 174.9048369939268,-36.98569699775593,100 174.90511400130114,-36.98578700440623,100 174.90514900350186,-36.98579800174204,100 174.90513600389406,-36.985766993692614,100 174.90534600352078,-36.98557600539772,100 174.9054990043934,-36.985435998632994,100 174.90561699720368,-36.98532899274648,100 174.90572700209324,-36.98522799694558,100 174.90586300500757,-36.98510500084345,100 174.90599899694817,-36.984980997104266,100 174.90613099660206,-36.984860997847626,100 174.9062909980598,-36.98498600588337,100 174.90633699637624,-36.98493599167133,100 174.90653599372934,-36.985009994429994,100 174.90674299428605,-36.985088006156374,100 174.90694899227046,-36.98517300432695,100 174.90706399364464,-36.98495700418037,100 174.90720000093285,-36.98479699166187,100 174.9074750056075,-36.98435199437131,100 174.90742999961782,-36.984334002135576,100 174.90746299402713,-36.98428000543216,100 174.90760499153282,-36.98422999973519,100 174.90759600748092,-36.984223003099366,100 174.90743000381192,-36.984088004970154,100 174.90730599297865,-36.983987993687975,100 174.9071919985575,-36.98389599885037,100 174.90693199369298,-36.983884991855355,100 174.90684900214623,-36.983881004977526,100 174.90676500028798,-36.98387799596825,100 174.906681991502,-36.98387399302678,100 174.90659899328924,-36.98387099841899,100 174.90651499812844,-36.98386699678642,100 174.90640900626875,-36.98386299694699,100 174.90615599342652,-36.98385200481231,100 174.90590900327885,-36.983840997431166,100 174.90569000123614,-36.98383200607461,100 174.90548700728837,-36.98382299432424,100 174.90528300270051,-36.983814991691034,100 174.9050440014766,-36.98380500431149,100 174.90497100669157,-36.983802001201674,100 174.90481399891883,-36.983794996394394,100 174.90438099665542,-36.98377699655704,100 174.90364599212205,-36.98374500530732,100 174.90364000763554,-36.98374199810458,100 174.9036310048388,-36.98374500596858,100 174.90339200352204,-36.983734999932345,100 174.9030950052493,-36.98383999918773,100 174.90291199482235,-36.98391300685871,100 174.9027320023155,-36.983985000563976,100 174.9025439918922,-36.984060002215834,100 174.9024540072418,-36.98407300044251,100 174.9023530069063,-36.98408699807718,100 174.90220100585398,-36.98410799608269,100 174.90212699899894,-36.98411800158868,100 174.90191399620878,-36.98414800309707,100 174.90168100017584,-36.9841070059849,100 174.9016073091065,-36.98420261855732,100 174.90160748407618,-36.98420332868749,100 174.901592713428,-36.98433089210877,100 174.90128160535983,-36.98433269699137,100 174.90098399858118,-36.984232002655105,100 174.90076000066426,-36.984164996584774,100 174.90060800236822,-36.984118995644806,100 174.90067999427512,-36.983976997177095,100 174.9007009987238,-36.98393499874589,100 174.90075200279196,-36.98383499930121,100 174.9008229999152,-36.98369399459845,100 174.90083500154452,-36.98365000244166,100 174.9008690000393,-36.983529997717326,100 174.90087900641316,-36.983493999662535,100 174.90091599388393,-36.98336499256023,100 174.90126700658308,-36.98342900276612,100 174.90131600072726,-36.98325299740575,100 174.90096500711388,-36.98318900054766,100 174.90101199307372,-36.98302500313701,100 174.90105799996897,-36.98285999930733,100 174.90109499587638,-36.982729999669914,100 174.9008009924695,-36.98267799425449,100 174.90060600732866,-36.98264399317496,100 174.90061100174788,-36.98262600240853,100 174.9006490053498,-36.98248599576696,100 174.90065499789364,-36.982464007037024,100 174.90069900280614,-36.98230300294529,100 174.90078299665677,-36.98234499795078,100 174.9009839961599,-36.98237999299162,100 174.90118300519333,-36.982414993438525,100 174.90121199872772,-36.98231200344951,100 174.9015630064204,-36.98237599940627,100 174.9016009993541,-36.98224200166393,100 174.90167399586392,-36.98198499320787,100 174.9015920055173,-36.98202699741393,100 174.9014349992835,-36.98199900291738,100 174.90140899939072,-36.98199500037484,100 174.90147699371212,-36.981743005925686,100 174.90136899601404,-36.981725005729245,100 174.9014150040045,-36.981561999027576,100 174.9014609979275,-36.98140100695398,100 174.90150600493547,-36.9812400009307,100 174.90151199674492,-36.9812179959458,100 174.90155099377742,-36.98107899427853,100 174.90159700401026,-36.980918001886266,100 174.90177599474765,-36.9807209993335,100 174.9018140023777,-36.980680001778964,100 174.90193200455863,-36.98075000082152,100 174.90199300504543,-36.98054799740303,100 174.90194899399742,-36.9805219951939,100 174.90190500094684,-36.980495992679536,100 174.90120700552941,-36.980081994557956,100 174.89995599262946,-36.97934100239452,100 174.90001100448114,-36.979142000690324,100 174.89987700647592,-36.97904000513338,100 174.89980600114464,-36.97902099755978,100 174.89973800698016,-36.97889299974333,100 174.89972499546212,-36.97886900699907,100 174.8996920010208,-36.97884900424378,100 174.89954499486726,-36.978763002924,100 174.89949099307773,-36.978730997436045,100 174.89934400171992,-36.97864299742307,100 174.8992820065936,-36.97860600393611,100 174.89929000281325,-36.97857499805519,100 174.89895299131794,-36.978514003239034,100 174.898989999555,-36.978372992675965,100 174.89902899404086,-36.978222996722174,100 174.8990680052079,-36.97807299958584,100 174.89907699319983,-36.97803900172691,100 174.89872600876404,-36.977976997727836,100 174.8986639931482,-36.978200993365284,100 174.8983530071428,-36.97807900081866,100 174.89839600413438,-36.977919006810815,100 174.898033995267,-36.977854995023876,100 174.8980180004384,-36.97791699225041,100 174.8975839963702,-36.9778489938918,100 174.89766500477768,-36.97781100636439,100 174.89767199199082,-36.977801993319524,100 174.89767799331665,-36.97779299874217,100 174.89768400218574,-36.977782996381045,100 174.89768800366514,-36.97777299907801,100 174.8976919958662,-36.97776199516165,100 174.89781300830492,-36.97731800709025,100 174.89739100137973,-36.977244996834585,100 174.89752600790214,-36.976749995643,100 174.89758300414437,-36.97673200456361,100 174.89787100641934,-36.976903002286214,100 174.8979179921618,-36.97693099815746,100 174.89793400620314,-36.97687099883059,100 174.89794199881814,-36.97684299714702,100 174.89795400119448,-36.976799004316135,100 174.89763199516807,-36.97660899839542,100 174.89738800055787,-36.97646400410138,100 174.89715100364026,-36.97632300559814,100 174.89706900135306,-36.97627499675939,100 174.8970140049103,-36.97624199923371,100 174.8967869957444,-36.97610799673066,100 174.89672600704276,-36.97607100018888,100 174.89627200542907,-36.975900003917346,100 174.8964199935661,-36.975648001111615,100 174.89638900191298,-36.975636000566865,100 174.89624099572669,-36.97588800362371,100 174.89617099915876,-36.97586200607501,100 174.89598700832624,-36.97579199804548,100 174.89576199463167,-36.9757070045822,100 174.89566599300124,-36.97564499210072,100 174.89543899580048,-36.9754979925894,100 174.89521200058985,-36.975350992597704,100 174.89542300029922,-36.97514100155484,100 174.8953710080934,-36.97510700618572,100 174.89515900410254,-36.975316999654495,100 174.89494099753122,-36.975176005228555,100 174.89472199626823,-36.97503400598634,100 174.89437499154542,-36.97481000240666,100 174.8943799922398,-36.97478900590295,100 174.89446600354015,-36.97448000171126,100 174.8945279983562,-36.974253004297864,100 174.8945489974698,-36.97417899426438,100 174.8945909970395,-36.97402600434373,100 174.89465499264242,-36.973795007354816,100 174.89471899661842,-36.97356300343177,100 174.8947599956563,-36.973413994278296,100 174.89479999771837,-36.973268999234556,100 174.894801003701,-36.97326399532766,100 174.89480299631683,-36.97325900541268,100 174.89484499452433,-36.97310599829022,100 174.89488900204495,-36.97294800186969,100 174.8949329949064,-36.97279200296726,100 174.8949719992567,-36.97265300307665,100 174.8950469921191,-36.97238300185794,100 174.8951390007143,-36.972052999105394,100 174.89519399487398,-36.97185499195273,100 174.89527600717003,-36.971561992436875,100 174.89532800501695,-36.971375994343,100 174.89537800474497,-36.97119599300012,100 174.89541799592504,-36.97105200466493,100 174.89562200683991,-36.97032200157796,100 174.89567099554668,-36.97014499237205,100 174.89600999640734,-36.968915993569,100 174.8965459952833,-36.967033992585456,100 174.90026299634638,-36.96771999679961,100 174.90024499339358,-36.96775200029955,100 174.90020999435373,-36.96781299972595,100 174.90017599299034,-36.96787500435382,100 174.90014299347558,-36.967937007354536,100 174.9001109980128,-36.967999006891,100 174.9000790032643,-36.96806099198653,100 174.90004900731586,-36.96812399420066,100 174.9000189945002,-36.968186997578535,100 174.89998999506733,-36.96825100500923,100 174.8999620072598,-36.968314002996365,100 174.89993499695433,-36.96837800741468,100 174.89990900865791,-36.968442007184535,100 174.89988400651026,-36.968506005584516,100 174.8998589963993,-36.96857099554691,100 174.89983599384226,-36.968635998435715,100 174.89981299760166,-36.9686999917523,100 174.89979099154138,-36.96876599806284,100 174.8997699960036,-36.96883099495189,100 174.89975000387315,-36.96889600642132,100 174.89973100785758,-36.96896200419978,100 174.89971299917622,-36.969028002395845,100 174.89969599233868,-36.969093997172436,100 174.89968000800647,-36.96916000622546,100 174.8996640052807,-36.96922599934684,100 174.8996500021706,-36.969292995165155,100 174.89963600696453,-36.9693589994147,100 174.89962300795554,-36.96942599267827,100 174.89961200648187,-36.96949200669411,100 174.8996009966621,-36.969558996058765,100 174.89959099137636,-36.969625999088116,100 174.89958200706664,-36.96969299929568,100 174.89957400780506,-36.96975999725667,100 174.89956599283468,-36.96982699636932,100 174.89955999432888,-36.969894997010634,100 174.89955500677118,-36.969962003551124,100 174.89955000090598,-36.97002899686418,100 174.89954699579616,-36.970096991957696,100 174.89954399858814,-36.9701639945826,100 174.89954300751032,-36.97023099484359,100 174.8995419931226,-36.97029900043672,100 174.8995420061815,-36.97036599724431,100 174.89954299791214,-36.97043399957168,100 174.89955300375922,-36.97083899682821,100 174.89967999377623,-36.97086299868055,100 174.90008400522456,-36.970935991922495,100 174.90013400809488,-36.97076100624087,100 174.90030599985317,-36.970160999302664,100 174.9003740083044,-36.96992500223248,100 174.90044000099593,-36.969695004062366,100 174.90074799226375,-36.96862399379967,100 174.90081599820158,-36.96838799739676,100 174.90088200412455,-36.96815799784711,100 174.90103699819448,-36.967618997607985,100 174.9011889981299,-36.967087004118184,100 174.90125800198976,-36.96684900677339,100 174.9013229970902,-36.96662199927307,100 174.90149500446728,-36.96602200463794,100 174.90160300718037,-36.96564799390549,100 174.90204780738208,-36.96454779394921,100 174.9021838022781,-36.96408780072011,100 174.90233779680085,-36.964017797655536,100 174.90157581290845,-36.96382980570288,100 174.9017288186907,-36.96350779862867,100 174.90152480689815,-36.96349879930672,100 174.90124480951638,-36.96344881111509,100 174.90123181388586,-36.96344681016061,100 174.90113481911894,-36.963434811622776,100 174.90104080820024,-36.96342179991383,100 174.9013878226701,-36.96233080317372,100 174.90144481919037,-36.96222781680417,100 174.90171381971413,-36.96138081405901,100 174.9025168032426,-36.96140881208302,100 174.90286280937048,-36.9602378215411,100 174.90285581751044,-36.9602358236575,100 174.9026008088429,-36.96013881314892,100 174.9024198192067,-36.959938826351895,100 174.9021958158646,-36.959934827162805,100 174.90160481475598,-36.95992682001793,100 174.9013488251992,-36.95991982103623,100 174.9005148261673,-36.95989582929732,100 174.90032782867127,-36.959903828092116,100 174.90020483007532,-36.95978582819398,100 174.90016183030707,-36.9595088236498,100 174.90009583615748,-36.95908483277616,100 174.90005583259676,-36.95882883841701,100 174.90012783819105,-36.958669833876954,100 174.90034283435068,-36.958187840367664,100 174.90039183849652,-36.95807983772878,100 174.90022783977776,-36.95764583213838,100 174.9001038361158,-36.95756884426155,100 174.8998718456046,-36.95742483803389,100 174.89977684611648,-36.957417836559245,100 174.89931284544215,-36.957381845417935,100 174.89901684261582,-36.9574608311518,100 174.89855984917705,-36.957102844232686,100 174.898937836777,-36.9567918458728,100 174.8992188369094,-36.956757834264444,100 174.8993778399841,-36.956203851867116,100 174.89944583817584,-36.95596783979412,100 174.89947383739897,-36.95586485410872,100 174.8994958470738,-36.955790839563925,100 174.89888885172647,-36.955683845445584,100 174.89905785251253,-36.95507785192003,100 174.9000558498608,-36.95484685266928,100 174.90012284825852,-36.954830852754476,100 174.90019784695073,-36.954813844158714,100 174.90091183195736,-36.95522785534154,100 174.90172583231222,-36.9556998500429,100 174.901659833934,-36.955913835716565,100 174.9024718259745,-36.95607283567954,100 174.90304582549328,-36.95618584463108,100 174.90337281250558,-36.956377837687235,100 174.90361081021973,-36.95651683668269,100 174.90414381232586,-36.95661083289953,100 174.90429882308618,-36.95611083918761,100 174.9043108085716,-36.95606583916882,100 174.90438181400577,-36.955746837619415,100 174.90444581912965,-36.955462836253545,100 174.90449481888882,-36.95528484617897,100 174.90456580904208,-36.95497484343011,100 174.90467081378338,-36.95452084408535,100 174.9046348136274,-36.95435784193545,100 174.90486082291935,-36.95396684842042,100 174.90507281844168,-36.95320185337693,100 174.90510381111332,-36.95320785805545,100 174.90518081884133,-36.95292886165642,100 174.90523881993556,-36.95272085284122,100 174.9055068174892,-36.95175285543307,100 174.9058968160524,-36.95034585937418,100 174.9060628211697,-36.949749864695995,100 174.90619482283446,-36.949272869667006,100 174.906453818145,-36.948340881240945,100 174.90700682601778,-36.94809187192573,100 174.9072048145055,-36.94812687720627,100 174.90726880890094,-36.948137872593406,100 174.90740081409126,-36.94816186994509,100 174.9075318233291,-36.94818487818992,100 174.9075978170103,-36.948196876880026,100 174.90779482081393,-36.948231867247465,100 174.9078828148412,-36.9482298789954,100 174.90805980823967,-36.948261877285844,100 174.90814080298813,-36.94827587162034,100 174.90823480258962,-36.94829287273783,100 174.90835881351092,-36.948314872223676,100 174.9084098139083,-36.94832386765692,100 174.90858381517833,-36.94835587179882,100 174.90859181071608,-36.94832887517854,100 174.9089377993256,-36.94838187579798,100 174.9092038009623,-36.948301874598926,100 174.90944979316183,-36.94832986432553,100 174.9095758096086,-36.9483448739602,100 174.90962680741615,-36.94835187070382,100 174.90980379240997,-36.94837787279749,100 174.90983080184822,-36.94838187093432,100 174.90997979818712,-36.948407872370126,100 174.91005079305538,-36.948419873948225,100 174.91015579741452,-36.94843886322676,100 174.91027079350386,-36.948458867844046,100 174.91034279120066,-36.94847086662908,100 174.91048478947297,-36.948495875931265,100 174.91059978533806,-36.94851586490855,100 174.91069878525033,-36.94853286831036,100 174.91083079870396,-36.948555870246246,100 174.9109147871116,-36.948569871272326,100 174.91116278465233,-36.948784859679165,100 174.91135178668682,-36.948816873307024,100 174.9114435945013,-36.94880880565718,100 174.91150119620772,-36.94881878224618,100 174.9116822069269,-36.948850193054255,100 174.91174810258073,-36.94886172682208,100 174.91186330421718,-36.948881602189864,100 174.9119565914574,-36.94889780783972,100 174.91204440396473,-36.94891310384228,100 174.9121542024563,-36.948932098843315,100 174.91222579711265,-36.94894452207614,100 174.91235179565825,-36.94896638980192,100 174.91240729448495,-36.94897601586423,100 174.912549493418,-36.94900067874445,100 174.91258839344692,-36.94900742385761,100 174.9127467928462,-36.94903497377296,100 174.91276940498935,-36.94903883298095,100 174.91295050540177,-36.949070332327594,100 174.91296529174792,-36.94907267271028,100 174.91301890321526,-36.9490815889215,100 174.91313200463935,-36.94909806199886,100 174.9131762063823,-36.94910445018434,100 174.91331071597213,-36.94912566958055,100 174.91324430436308,-36.94937231805547,100 174.91337414330323,-36.94939476722465,100 174.91374110603968,-36.94945715432301,100 174.91565689166782,-36.94978758406024,100 174.9157332547013,-36.94949988764339,100 174.9158097585777,-36.949211693178896,100 174.91588047186093,-36.948945685916186,100 174.91588953554304,-36.948911716192356,100 174.91595869251506,-36.94865075428971,100 174.9160087057727,-36.94846293705631,100 174.9160086998021,-36.948462116059495,100 174.91605700855902,-36.9482814854167,100 174.9161047973407,-36.9481008613421,100 174.9161563034544,-36.94790699288626,100 174.9162063941593,-36.947717641182635,100 174.91688100802966,-36.947835457311676,100 174.9175337028508,-36.94794938385943,100 174.9180415924085,-36.948038124048146,100 174.91836709584874,-36.948093303688076,100 174.91872280652163,-36.94815359765304,100 174.91898659943584,-36.948198426366865,100 174.91953309812354,-36.948292654103184,100 174.9201934008646,-36.94840613734835,100 174.9205975988169,-36.948475708090534,100 174.92112139306698,-36.94856570179697,100 174.92159520207153,-36.94864716561773,100 174.92167010024053,-36.94866011370889,100 174.92186339232583,-36.94855221473587,100 174.92226746251555,-36.94849237190529,100 174.92358947494006,-36.948731543597056,100 174.9246306991618,-36.94871835034238,100 174.92427789196554,-36.949970966702544,100 174.9242267955253,-36.9501570886056,100 174.924190794384,-36.95028596256616,100 174.923890900816,-36.9513530139868,100 174.92383689185513,-36.951540208596995,100 174.92381499397615,-36.95161670238142,100 174.92367890210133,-36.9520889453972,100 174.92545939455132,-36.9524485739216,100 174.92592919997634,-36.952543706420236,100 174.92633570176824,-36.952625513681134,100 174.92706110022323,-36.95277213423605,100 174.929527799433,-36.953270282198154,100 174.92975639762912,-36.95331644281556,100 174.93009299944117,-36.95338449459531,100 174.93231130413147,-36.95383053692079,100 174.93483740432458,-36.954333894069656,100 174.93606860198523,-36.95457689154588,100 174.93671740805453,-36.952492767920184,100 174.9369625042162,-36.95167125275437,100 174.93715550883147,-36.95085971642879,100 174.9373912995659,-36.95032790222086,100 174.9374470032849,-36.9501499927784,100 174.93746699925669,-36.950083999054264,100 174.93777400311956,-36.95047700230023,100 174.9381089909387,-36.95115699327337,100 174.93783999462258,-36.95169900565738,100 174.9387590004604,-36.95276799264287,100 174.93986100043165,-36.953477994923674,100 174.94058799844797,-36.95350799258952,100 174.9419139953321,-36.94892900565055,100 174.94477999371728,-36.94978499431683,100 174.9460120056248,-36.950263002062954,100 174.94444099425624,-36.95520200059988,100 174.9466320046757,-36.955669005241674,100 174.94717900527021,-36.95574999477501,100 174.94999599825647,-36.956207001213265,100 174.94984399499876,-36.95675000090141,100 174.94954599584145,-36.956983994257,100 174.9488359944007,-36.95719999290139,100 174.9485980044049,-36.957299000066115,100 174.949044996973,-36.9576260028235,100 174.949097995382,-36.957560000800115,100 174.95091799935037,-36.95964099424387,100 174.95168000516395,-36.960513006410665,100 174.95391900794414,-36.963076992591816,100 174.95634299565913,-36.965806996849544,100 174.95343599436833,-36.96743700617423,100 174.95312700722187,-36.96830999771727,100 174.95197457208695,-36.971396830683936,100 174.94699367239343,-36.97057153956326,100 174.9469650913684,-36.97092531975869,100 174.9469613765719,-36.97097200325324,100 174.94718463454763,-36.97118882081373,100 174.94740492642137,-36.97147101567108,100 174.94756519691194,-36.9718270508526,100 174.9476034858503,-36.97213338344304,100 174.94759227080664,-36.97255742540207,100 174.94761235971302,-36.97272949855941,100 174.94766547292028,-36.97289376257543,100 174.94774908606044,-36.97305222637316,100 174.94793105845528,-36.97325711699011,100 174.9483669602461,-36.9736415801224,100 174.94896023280694,-36.97423018081136,100 174.9490725653463,-36.97451261374701,100 174.94911164177952,-36.974891953427466,100 174.9490621870657,-36.97527256224029,100 174.94885360056816,-36.97561561410632,100 174.94871716875062,-36.97577094577264,100 174.94846875309352,-36.97598314930089,100 174.94840102086542,-36.97603141916814,100 174.9482308511188,-36.97615179920078,100 174.9481490343786,-36.97623665501946,100 174.94834190960674,-36.97627105144766,100 174.94818451841138,-36.97674141410202,100 174.94803293784716,-36.97734297459755,100 174.9486530916664,-36.97745431697183,100 174.94914079719018,-36.97747617002231,100 174.94917148991397,-36.977650375905796,100 174.9491731353711,-36.97765908158545,100 174.94922969788936,-36.97798047761599,100 174.94927312289323,-36.978226284574795,100 174.94931762000425,-36.97830686996965,100 174.94934732988864,-36.97836055556047,100 174.94942926302286,-36.978508703092935,100 174.94952567485285,-36.978643643003736,100 174.9497461977022,-36.97895218936088,100 174.94986609534476,-36.97911991008363,100 174.94999509004978,-36.97924658108232,100 174.9502863595387,-36.97953274277538,100 174.95115192478877,-36.980383073195576,100 174.95117763957217,-36.98044418759072,100 174.95117951238672,-36.98044867591867,100 174.95125185270783,-36.980620520849136,100 174.9513105167262,-36.980760087912486,100 174.9521901561371,-36.980943009591314,100 174.95355854797515,-36.98122296268264,100 174.95544668421525,-36.981609267049,100 174.9555992307343,-36.98159288328394,100 174.95600691902115,-36.98133581680056,100 174.95610646645227,-36.98137286067983,100 174.9563991343039,-36.98147028599869,100 174.9565010423385,-36.98149649215895,100 174.95658571631168,-36.98148763611618,100 174.9566027138306,-36.98133360233124,100 174.95665056316034,-36.98089700005524,100 174.9567989999213,-36.98078980902018,100 174.95776036465287,-36.98028349619945,100 174.95850206819927,-36.97971552795809,100 174.9589284722423,-36.97962568614886,100 174.9593234783289,-36.97935531633485,100 174.95931398150046,-36.979340093355766,100 174.9597149399656,-36.97901314768535,100 174.96020083082556,-36.97884927866356,100 174.9607440521497,-36.977633132951645,100 174.96122391358608,-36.97682407161728,100 174.96155324813785,-36.97691440715241,100 174.96183459883454,-36.97703065417471,100 174.9620849604786,-36.97696996058908,100 174.96231043609333,-36.97686559542444,100 174.96247514843785,-36.976743234341996,100 174.96265541255016,-36.97655555918599,100 174.96390443960962,-36.97793932684124,100 174.9653293000368,-36.97951751159499,100 174.968083665979,-36.98256772617175,100 174.96842600178667,-36.98294700414185,100</coordinates></LinearRing></outerBoundaryIs>
    </Polygon>
  </Placemark>

  <Placemark>
    <name>Flat Bush</name>
    <Point>
      <altitudeMode>relativeToGround</altitudeMode>
      <coordinates>174.92774426599868,-36.97166326976983,100</coordinates>
    </Point>
  </Placemark>

</Document>
</kml>