<?xml version="1.0" encoding="utf-8"?>
<kml xmlns="http://www.opengis.net/kml/2.2">
<Document>
  <name>Glen Innes (polygon: official_shp)</name>
  <open>1</open>

  <Placemark>
    <name>Glen Innes (polygon: official_shp)</name>
    <Style>
      <LineStyle><color>ffff0000</color><width>2</width></LineStyle>
      <PolyStyle><color>66ff0000</color><fill>1</fill><outline>1</outline></PolyStyle>
    </Style>
    <Polygon>
      <tessellate>1</tessellate>
      <altitudeMode>relativeToGround</altitudeMode>
      <outerBoundaryIs><LinearRing><coordinates>174.8594089396838,-36.86938392134652,100 174.85943425139183,-36.86939063940319,100 174.85949898342952,-36.86936444859955,100 174.85951511676322,-36.869325232561074,100 174.859697326958,-36.8693736572596,100 174.85980730039546,-36.86940288477991,100 174.85984030364972,-36.86932273577699,100 174.86007418283089,-36.86938925824669,100 174.86007870490334,-36.8693782507294,100 174.8600887801095,-36.869353742701236,100 174.86009055440314,-36.86934942369782,100 174.86013934866838,-36.86923072633564,100 174.86037499146693,-36.86929300058191,100 174.8604920005478,-36.86925699991729,100 174.86060500280558,-36.86922300424862,100 174.86062300344423,-36.869216994413435,100 174.86063399925297,-36.8692229981197,100 174.86080600656283,-36.86931200277145,100 174.86093500391547,-36.8693409943866,100 174.8609839945801,-36.86935199568953,100 174.86111199768195,-36.86937999770245,100 174.8611310013509,-36.86938499622707,100 174.8613139910914,-36.86938400080096,100 174.86135499798095,-36.86938400463071,100 174.86149699875716,-36.86938300481195,100 174.86148000677872,-36.869485992728734,100 174.86170000777042,-36.86951000373644,100 174.86192000848888,-36.86953399811494,100 174.86214399397474,-36.86955900671777,100 174.8623200002934,-36.86953599969003,100 174.86252100601328,-36.86953599177946,100 174.86270200238755,-36.86953600430015,100 174.86288299723458,-36.86953600034487,100 174.86288300707122,-36.86950800043028,100 174.86306699174148,-36.86950800700195,100 174.8632519957196,-36.86950799640191,100 174.86344000746266,-36.86950799332087,100 174.86363800709347,-36.86950800542973,100 174.86379000639084,-36.869508006040874,100 174.86384300537114,-36.869508002958966,100 174.8638950014573,-36.86950800026402,100 174.86409999973762,-36.869507998250675,100 174.86429799890476,-36.86950799214059,100 174.86449599845182,-36.86950800191814,100 174.86469499933986,-36.86950799384718,100 174.86480099873623,-36.8695080012502,100 174.86488599182195,-36.869536000933294,100 174.86499899611007,-36.86953500319038,100 174.86508100149848,-36.869535998978506,100 174.86508100260934,-36.869688004300116,100 174.86516199653417,-36.86968799560488,100 174.8652540003907,-36.869719001752415,100 174.86531300530604,-36.86977599382696,100 174.865312993355,-36.86983800356488,100 174.86553900541983,-36.869838007139215,100 174.86553899752755,-36.86958600142252,100 174.86577800372356,-36.86958599520757,100 174.86589099833168,-36.86954600172272,100 174.86601199903106,-36.869503003550236,100 174.86606299413222,-36.869485006197145,100 174.86620999676015,-36.869435997682544,100 174.86623600466157,-36.86942699771026,100 174.86640000474785,-36.869371994937644,100 174.86643500408306,-36.86936000457967,100 174.86657699682263,-36.869313003157785,100 174.8666610043131,-36.86928500223827,100 174.86675999974665,-36.869252002255195,100 174.86683900571975,-36.869225000951126,100 174.86693099545332,-36.86919500326466,100 174.86697200573863,-36.86918100387798,100 174.8670169988382,-36.869166007214474,100 174.8671010070952,-36.869138005073495,100 174.867115007537,-36.86913299270026,100 174.86721400073472,-36.86908899618069,100 174.8672670037235,-36.86906599323487,100 174.8673999982993,-36.86900700399091,100 174.86743300765204,-36.868993004013284,100 174.86756499877652,-36.86893400241752,100 174.86757400768326,-36.868930994587835,100 174.86772099371677,-36.86886600214284,100 174.86773599461344,-36.86885900456941,100 174.8677599945548,-36.86884799612792,100 174.86787599246904,-36.86879699882699,100 174.8679089917089,-36.868781992094824,100 174.86802599113597,-36.868730992423885,100 174.8680830015713,-36.86870599817183,100 174.86817600787583,-36.868665001773465,100 174.86825100694716,-36.86863100695207,100 174.868343994708,-36.868589993590206,100 174.86841900361023,-36.868557007095006,100 174.86850500483644,-36.86851899583702,100 174.86857300889235,-36.8684889946419,100 174.86864000203715,-36.86846000166912,100 174.86866100535755,-36.86845000459796,100 174.86869099957642,-36.86843700169558,100 174.86869700214223,-36.86843400140706,100 174.8688250057417,-36.86839899409378,100 174.86883200199006,-36.868396997570116,100 174.86894499365346,-36.86836599921039,100 174.8690329961187,-36.868342000579375,100 174.8694490072035,-36.86846499439893,100 174.86973300512824,-36.86843599679567,100 174.8712210021941,-36.868813994312184,100 174.8715429999314,-36.86889599440259,100 174.87213800158563,-36.86904699708036,100 174.8727430077612,-36.869151006108154,100 174.87305299458652,-36.86920400281322,100 174.87388699285677,-36.86934800640668,100 174.87401442987596,-36.86937019702925,100 174.87403660375435,-36.8695594512404,100 174.87377779987503,-36.869514812822366,100 174.87371123035896,-36.86976599432843,100 174.8737397382294,-36.86977091754885,100 174.8737164749419,-36.86985797401732,100 174.873800990534,-36.86999508218271,100 174.87359151495838,-36.87007842260127,100 174.87324818333067,-36.87021501176365,100 174.87324182477883,-36.870238801583795,100 174.87326820097118,-36.870253768657825,100 174.87329400806937,-36.87026941077913,100 174.8733191578788,-36.87028569959489,100 174.8733436514991,-36.87030263418687,100 174.8733674710093,-36.87032016977169,100 174.87339056293462,-36.87033832161416,100 174.87341294484239,-36.8703570281475,100 174.87307974129197,-36.8707920305731,100 174.87328146490205,-36.87088265390935,100 174.8733799472187,-36.87092687585705,100 174.87349880817177,-36.87102254766428,100 174.8736867356381,-36.871173792938094,100 174.87370594015934,-36.87118939577792,100 174.87393176034044,-36.87130457856033,100 174.8740055801259,-36.87134224424577,100 174.87422848403963,-36.87169983457667,100 174.87423458871586,-36.87173144603033,100 174.87424808622316,-36.871801335554345,100 174.87426551756568,-36.87189153929952,100 174.87426135827772,-36.871903908918675,100 174.87424145999051,-36.87196326059116,100 174.87419324022093,-36.87210729337553,100 174.87418717732297,-36.872125317296835,100 174.87413788208482,-36.872272449558714,100 174.87412168138636,-36.87232083503293,100 174.87408255853276,-36.87243760697205,100 174.87405961993926,-36.872468778837586,100 174.87403289702812,-36.87250508125246,100 174.8739782024004,-36.87257947236147,100 174.87389850228226,-36.872687827742155,100 174.87387384547094,-36.872721320548266,100 174.87378377629702,-36.8728437964331,100 174.87376952336737,-36.87286318612229,100 174.8736794358796,-36.872985660415644,100 174.87367321754135,-36.87299411557958,100 174.87366186562122,-36.87300955315749,100 174.87357109475587,-36.873132952993494,100 174.87351918297702,-36.87320354778898,100 174.8734752060424,-36.87326334934087,100 174.8734480487825,-36.873300263265676,100 174.87348331679047,-36.87341234855548,100 174.87337358277634,-36.873499034316914,100 174.87347849063914,-36.87358469602242,100 174.8733803758643,-36.873753042580184,100 174.87383123527977,-36.873832053208375,100 174.8737861491701,-36.87399816213696,100 174.8737839021937,-36.87400455012154,100 174.87378071394028,-36.87401066182342,100 174.8737766523542,-36.874016431275415,100 174.873771733155,-36.87402176719559,100 174.8737660561047,-36.87402657427255,100 174.87375970641,-36.87403080429336,100 174.87375275170743,-36.87403437867715,100 174.8737453123649,-36.87403726488037,100 174.87373752515387,-36.87403941297554,100 174.873729439439,-36.87404077711777,100 174.87372121107973,-36.87404135394754,100 174.87371296193993,-36.874041126220355,100 174.8737048127412,-36.87404012177602,100 174.87366584534072,-36.87418512334889,100 174.87367380863554,-36.87418692119044,100 174.87368141253802,-36.87418948361592,100 174.87368858639564,-36.874192765772015,100 174.87369522479102,-36.87419672335374,100 174.87370120695724,-36.874201280751755,100 174.8737064596245,-36.874206377831555,100 174.87371091323953,-36.87421196882122,100 174.8737145135738,-36.87421794641699,100 174.87371717086447,-36.874224218296675,100 174.87371886644036,-36.874230709043474,100 174.8737195796942,-36.874237309921966,100 174.873719309854,-36.87424394343031,100 174.87371803406953,-36.874250500868435,100 174.87367651580473,-36.8744034608203,100 174.8732423062279,-36.87432742829738,100 174.873221000141,-36.87436470508266,100 174.87316076340554,-36.87447013564067,100 174.87314709105797,-36.874488648125244,100 174.8730858127402,-36.874571469981845,100 174.87305503132026,-36.874613075574466,100 174.87304814470164,-36.87462238037656,100 174.87300384142722,-36.87468227973714,100 174.872960687881,-36.874740611576605,100 174.87291650070574,-36.87480035494816,100 174.8728628921602,-36.87487279057842,100 174.87282914248027,-36.874918413246874,100 174.87275534073726,-36.87501817899104,100 174.87274180046074,-36.87503645680582,100 174.87265445817735,-36.87515450030587,100 174.87264175264752,-36.87517167975526,100 174.8725876432303,-36.87524480456095,100 174.87255304315073,-36.875291588845634,100 174.8725416753298,-36.87529877132373,100 174.87244322037964,-36.87536100666234,100 174.87230399999748,-36.87544897728974,100 174.87228088337287,-36.87546074607377,100 174.87212789284897,-36.87553862594149,100 174.87198351196332,-36.87561211299111,100 174.87183911320457,-36.87568561457051,100 174.87176427199378,-36.87572371293903,100 174.87167737724656,-36.87576793638937,100 174.8715214368532,-36.87584732210835,100 174.87137125771298,-36.87592374344798,100 174.8712268745829,-36.875997244047326,100 174.87120373967844,-36.876009012912576,100 174.87110615534326,-36.876058686987925,100 174.871068051889,-36.87607808875795,100 174.87112291100436,-36.876147648067565,100 174.87092073362794,-36.87625055575853,100 174.87071853852575,-36.87635344896808,100 174.87090152620138,-36.8765854719446,100 174.87063030670186,-36.87672374383544,100 174.870633030248,-36.87672800117815,100 174.8706348126417,-36.87673258610004,100 174.87063557975654,-36.87673731139122,100 174.87063529385833,-36.876742101934425,100 174.87063400235908,-36.876746785731214,100 174.87063170224778,-36.87675119337961,100 174.87062849177676,-36.87675521337075,100 174.87062445732354,-36.87675875331056,100 174.87061971279797,-36.8767616536733,100 174.87038863506524,-36.876879249268654,100 174.87035975528966,-36.876893952101746,100 174.87032316367043,-36.876847538437495,100 174.8702865735694,-36.87680113915841,100 174.87024996484433,-36.87675471041658,100 174.87021335761543,-36.87670829515895,100 174.8701767493541,-36.87666188170805,100 174.87015846337053,-36.87663870533746,100 174.87010358752232,-36.87656912962025,100 174.8699418470048,-36.87665146360201,100 174.86988405193722,-36.876680885827724,100 174.8696095843478,-36.876332886935366,100 174.86946809727507,-36.87640489501941,100 174.86951440118693,-36.87686901278406,100 174.86955453182978,-36.87727128940514,100 174.86956070729667,-36.87733319264817,100 174.86968934532672,-36.87751460522655,100 174.86973943918804,-36.87755415659673,100 174.86995182273552,-36.87772186480806,100 174.87006493692311,-36.877811181346075,100 174.87011669217262,-36.8778912795889,100 174.87011227246782,-36.87789273540114,100 174.87007375451478,-36.87790641365626,100 174.8700322874869,-36.87792029695333,100 174.87002525730637,-36.87792300613687,100 174.86998717615205,-36.877940702810676,100 174.86995022459308,-36.87796119833629,100 174.86994906250465,-36.87796166819205,100 174.86991013447192,-36.87797100124736,100 174.86987661959944,-36.877973426051476,100 174.8698371032052,-36.877956379319706,100 174.86983598309382,-36.87795585615372,100 174.86980978315574,-36.87794557878939,100 174.86978854589972,-36.87793605163139,100 174.8697519463302,-36.87792465354146,100 174.86971486110153,-36.87792089821655,100 174.86967102933357,-36.87791308042271,100 174.86966648309044,-36.87791238404058,100 174.86964430807953,-36.87790976495637,100 174.8696221735356,-36.87790604471199,100 174.86963884151547,-36.87792175389877,100 174.86965050161044,-36.877944704733615,100 174.86964993207178,-36.87797232762356,100 174.8696543346586,-36.87800108815278,100 174.86965964073485,-36.87803128830175,100 174.86965938411245,-36.87803203683572,100 174.8696571883782,-36.87804358132526,100 174.86965101270854,-36.87806518505687,100 174.8696412834929,-36.878077433966986,100 174.86963650350447,-36.878087350771416,100 174.8696349523213,-36.878091372564235,100 174.8696341998404,-36.878092950911075,100 174.86961457615087,-36.87812539561638,100 174.86961248703838,-36.87812935016309,100 174.86959955568776,-36.878163864445995,100 174.86959844552618,-36.87816756834038,100 174.86958940518898,-36.878200293546335,100 174.86958173009813,-36.878233012589085,100 174.869572705537,-36.878267581658434,100 174.86957090582152,-36.878286119612056,100 174.86956912216903,-36.8783014053285,100 174.8694999973878,-36.87896599254089,100 174.86924000193292,-36.879327993908745,100 174.86868599553478,-36.87922800513495,100 174.86861999894217,-36.87921600193612,100 174.8684959935175,-36.87934900337523,100 174.86844899812954,-36.87939900539122,100 174.86826299294205,-36.879598003352086,100 174.86812500095058,-36.87974500023331,100 174.8680250017971,-36.8797539978068,100 174.8676539975956,-36.8797869924366,100 174.8675980073584,-36.879766002873865,100 174.8673379993207,-36.87966800226812,100 174.86710000715277,-36.8795770071932,100 174.86618499592615,-36.87948199486589,100 174.8656820025592,-36.88134000170198,100 174.86547499596205,-36.88124899270779,100 174.86537500615677,-36.88123200088932,100 174.8653880002512,-36.88092799762688,100 174.8653480052619,-36.88087899229378,100 174.86412800411546,-36.88066799757929,100 174.86402400703625,-36.881054991546335,100 174.86389100237085,-36.88103200440807,100 174.86369199181746,-36.88099800099536,100 174.86352900504772,-36.880970001933235,100 174.8633210051733,-36.88093400095835,100 174.86315900372995,-36.880906000351075,100 174.86297200737118,-36.88087400293011,100 174.8627869992295,-36.880842001977825,100 174.86275299741538,-36.88083599239978,100 174.86257999604166,-36.88080700436852,100 174.86239100218936,-36.88077400262028,100 174.8621579926538,-36.88073400310429,100 174.86199999369697,-36.8807070008292,100 174.86198099660655,-36.88070299294244,100 174.86180699972402,-36.88067299817626,100 174.8616179995182,-36.8806410020699,100 174.8614410042429,-36.88061000640742,100 174.8612230085314,-36.88057299744359,100 174.86103299705488,-36.8805399959406,100 174.86087300241252,-36.880512004017,100 174.8606609962031,-36.880476006121604,100 174.8604939918828,-36.880447004022656,100 174.86032700562396,-36.8804180014042,100 174.86015899966543,-36.8803890009957,100 174.85999499548714,-36.88036100035794,100 174.8597869997918,-36.88032499307991,100 174.8596110007523,-36.88029499937514,100 174.8595559980266,-36.88050000644601,100 174.8595040044171,-36.88069799191867,100 174.85928700564995,-36.8806440044135,100 174.85939000729482,-36.88025700102471,100 174.85925700479677,-36.8802339923985,100 174.85912300085232,-36.88021100019542,100 174.8589889955109,-36.88018799344061,100 174.85885599360586,-36.88016499967509,100 174.85875599775397,-36.8801469955538,100 174.85863300410762,-36.880125997314735,100 174.85850600076242,-36.88010500579313,100 174.8584040001788,-36.880087004794156,100 174.85816999260035,-36.88004699858446,100 174.8580310075365,-36.87996700738986,100 174.8579169994459,-36.879901993047504,100 174.85779399259602,-36.87983199256497,100 174.85776400228335,-36.879814994724626,100 174.8576349950043,-36.87974099407636,100 174.85756399942295,-36.87970099283738,100 174.85749699734777,-36.879662997661164,100 174.85737900563242,-36.87959500129049,100 174.85704800654023,-36.87948700603514,100 174.85698699814913,-36.87957300535919,100 174.8569339970385,-36.879631995592206,100 174.85690499588708,-36.87969599159863,100 174.85687300640896,-36.87979299766172,100 174.85684200763313,-36.87988699582323,100 174.8567669988431,-36.879873995712806,100 174.85683600486595,-36.879784002999045,100 174.8568439972943,-36.879761005986474,100 174.85685699564942,-36.87972099568449,100 174.85682399475468,-36.87966700459776,100 174.85679100790838,-36.8796639959811,100 174.85670299164232,-36.879647999414075,100 174.85661500121205,-36.87962199493583,100 174.85655799555542,-36.87961199777177,100 174.85645099273611,-36.87959499621169,100 174.8561679947256,-36.879570001561056,100 174.8561429921941,-36.87966400501132,100 174.85619299770792,-36.87967200174063,100 174.85611300197172,-36.87996199556543,100 174.85608700843318,-36.88005900599089,100 174.85605400555673,-36.88017699796642,100 174.85600899520836,-36.88034300467874,100 174.85600199730683,-36.88036700640232,100 174.85599299414054,-36.880390996189895,100 174.85598399246126,-36.88041500127612,100 174.85597400421187,-36.88043899203082,100 174.85596300471386,-36.88046199540538,100 174.85595000027348,-36.88048500035757,100 174.8559370039879,-36.88050699839789,100 174.85592299655767,-36.88053000639778,100 174.85590800354746,-36.88055100180569,100 174.85589199936902,-36.88057300627149,100 174.85587500144698,-36.880594005055144,100 174.85585900416632,-36.88061300438227,100 174.85585100824588,-36.880620994278665,100 174.85584299474968,-36.88062899977165,100 174.85583400436224,-36.88063600022183,100 174.8558250053136,-36.88064199402359,100 174.85581500363605,-36.88064800528991,100 174.85580399854416,-36.88065400158501,100 174.85579300165833,-36.88065899277051,100 174.8557819953612,-36.88066299264157,100 174.85576999569938,-36.88066600214738,100 174.85575799456603,-36.880668997253714,100 174.85574499894688,-36.88067100201191,100 174.8557330063692,-36.88067300642295,100 174.85571999228878,-36.88067299699937,100 174.85570799846644,-36.880673003183794,100 174.8555399942153,-36.880666003014476,100 174.85553099736867,-36.880664996147324,100 174.8555229930146,-36.88066299673843,100 174.85551499834284,-36.88066000661857,100 174.85550700215762,-36.88065700029793,100 174.8554999995871,-36.88065300141834,100 174.85549400708408,-36.88064799440045,100 174.8554880051758,-36.88064199606862,100 174.85548300514517,-36.880635995608365,100 174.85522700393722,-36.880693993186696,100 174.85523299998937,-36.88070299574881,100 174.85523700798922,-36.880712002317466,100 174.85524100854772,-36.88072199956138,100 174.85524400612957,-36.88073199984974,100 174.8552459920169,-36.88074099383167,100 174.85524700264526,-36.88075099720844,100 174.8552470017102,-36.880761993421764,100 174.85524600741687,-36.88077199926632,100 174.85524499629992,-36.88078200537358,100 174.8552420038061,-36.88079099327787,100 174.85523800273174,-36.88080100461719,100 174.8552340083356,-36.8808099937464,100 174.8552290038879,-36.88081999191222,100 174.85522299632848,-36.88082799397941,100 174.85521599551836,-36.880837003919254,100 174.85513399108382,-36.88093099869077,100 174.85501699280883,-36.88090600574601,100 174.85496100235244,-36.880893991927415,100 174.85488600260626,-36.8808819972802,100 174.8547300002368,-36.88086300298283,100 174.85427699842725,-36.8807879987406,100 174.85277699424043,-36.880524997952286,100 174.85223600666836,-36.88041100197982,100 174.85262199690362,-36.88039200142846,100 174.85275099672668,-36.88032400613094,100 174.85279200103233,-36.880302998421435,100 174.85289300248863,-36.87995899596436,100 174.85290699436942,-36.87958299416454,100 174.85292100301535,-36.87920699208189,100 174.8529350056914,-36.878833995099775,100 174.85285700211108,-36.87823899556693,100 174.85285000501304,-36.87818399837438,100 174.85278800654055,-36.877715995963754,100 174.85276999684828,-36.8775759940585,100 174.85265300198822,-36.877170003440646,100 174.85258199553502,-36.87692400695952,100 174.8525049951502,-36.87665799614235,100 174.85235199868512,-36.876128001058895,100 174.85212199761165,-36.87533100406386,100 174.8511419939756,-36.87419600606063,100 174.85090399174948,-36.873920993400226,100 174.85062600120398,-36.87367900501311,100 174.8504020067593,-36.87348400492889,100 174.85017900772894,-36.87328999298191,100 174.85017300682594,-36.87328399434687,100 174.85007400424493,-36.87322500276354,100 174.84993199612958,-36.87314099644503,100 174.84966799982155,-36.872982999039785,100 174.849363004323,-36.87279999729924,100 174.84927599165582,-36.872748001092674,100 174.8490040018937,-36.872584998020834,100 174.84890300354343,-36.87252500176577,100 174.8510579993595,-36.87289699394982,100 174.85041300209295,-36.87240099711946,100 174.84911100433138,-36.87173600606761,100 174.8475859943277,-36.87138500387371,100 174.8477689929592,-36.871101005160256,100 174.84779899613804,-36.871043992691746,100 174.84789600023115,-36.87087999219857,100 174.84800199701488,-36.87069999465224,100 174.8481289921443,-36.87048700437297,100 174.84687400272557,-36.86989299541853,100 174.84671500077513,-36.87009099974421,100 174.84637400300952,-36.86992000731414,100 174.8463500014487,-36.869909004610534,100 174.84632599991636,-36.869898002802856,100 174.84630200049827,-36.869888999207156,100 174.84627700574433,-36.86987900518864,100 174.84625199591318,-36.86987099432625,100 174.8462260003942,-36.86986299967648,100 174.84619999733803,-36.86985599660165,100 174.84617400393333,-36.86985000015733,100 174.84614799259,-36.86984400398601,100 174.84612099841345,-36.869840006908895,100 174.84609400277105,-36.86983599542709,100 174.84606700857796,-36.86983199743656,100 174.8460399974459,-36.86982999885425,100 174.84601300423574,-36.86982799908599,100 174.84598500062097,-36.86982699295392,100 174.84585299805366,-36.86934800094151,100 174.84578999724403,-36.8691829996478,100 174.84578200530672,-36.86915600366487,100 174.84581599297965,-36.86915199832132,100 174.84637300088673,-36.86908100219985,100 174.84636199995137,-36.86902599459549,100 174.84633499276467,-36.868886999164424,100 174.84630099188507,-36.86871699395983,100 174.8463689926245,-36.86870800643491,100 174.84650400005305,-36.868691006634634,100 174.84657099750498,-36.8686820048429,100 174.84663900706826,-36.868673992266636,100 174.84670600485506,-36.868665005716466,100 174.84677399644377,-36.868656993342555,100 174.84684099531808,-36.86864800669963,100 174.84690899440818,-36.86863900266846,100 174.8469770042804,-36.86863100611852,100 174.84711199461057,-36.86861400679693,100 174.8472919939633,-36.86859099960328,100 174.8474729975521,-36.86856800626659,100 174.8476529966873,-36.86854499943268,100 174.8477569986048,-36.86854600043402,100 174.84786099939976,-36.86854700136167,100 174.84799299493991,-36.86861100331863,100 174.8481510059521,-36.868686993749385,100 174.84831699756475,-36.868784992884464,100 174.848615004486,-36.868439996196955,100 174.84870500060325,-36.86826800021411,100 174.84874399106118,-36.8682909939643,100 174.8487820074462,-36.8683149961243,100 174.84882000591273,-36.86833899855058,100 174.84885699403208,-36.8683639937284,100 174.84889300693683,-36.86838999643463,100 174.84892900194555,-36.86841600030935,100 174.84901599334458,-36.868359000221346,100 174.8491109986357,-36.868295992366846,100 174.8492960089167,-36.86817500256511,100 174.84938799282324,-36.86820300197287,100 174.84952299149023,-36.86811499209148,100 174.8495619911307,-36.86808900083052,100 174.84969399277995,-36.868002001835485,100 174.84985300558503,-36.86789699179305,100 174.8498640000532,-36.86789000475695,100 174.85001199439756,-36.867793004924664,100 174.85003299645695,-36.867778999319796,100 174.85018599793452,-36.86767799511452,100 174.85033500179782,-36.86758000212409,100 174.850410997213,-36.867530004357214,100 174.85041999595953,-36.86752399564979,100 174.85046150157967,-36.86754991864742,100 174.8506937641106,-36.86769723243135,100 174.85072307413594,-36.86771614907631,100 174.85099109763286,-36.867885798106784,100 174.85108356204887,-36.86794476111924,100 174.85121291141763,-36.86802678494664,100 174.85139572328077,-36.86814239376073,100 174.8514258021389,-36.86816163804793,100 174.85168247747458,-36.868324232733336,100 174.8517593784274,-36.868247255810594,100 174.85186649127505,-36.86814006856959,100 174.85188582829392,-36.86812067159924,100 174.85200780406598,-36.867998642013546,100 174.85204816066792,-36.86795813000086,100 174.85208857555688,-36.86791780364143,100 174.85213753711807,-36.8678707778501,100 174.85224880273944,-36.86776386173138,100 174.85231001378952,-36.867705071830315,100 174.85248779501666,-36.867534224595715,100 174.85259690487567,-36.867429404912784,100 174.85268156687997,-36.867348065633976,100 174.8529125396594,-36.86712624826312,100 174.85292657352937,-36.8671127501109,100 174.85323088974258,-36.86720473642528,100 174.85325059214156,-36.86721070056656,100 174.85340826408918,-36.86725836408272,100 174.8535374717421,-36.86729742659432,100 174.85360673568692,-36.86731838085205,100 174.85381583361686,-36.8673816195862,100 174.85385191398603,-36.86730454004405,100 174.85407783798783,-36.86737280117619,100 174.85430216188092,-36.86744061004165,100 174.85442265380843,-36.86718358559279,100 174.85459537911765,-36.867235868038385,100 174.85454718384267,-36.867338727449294,100 174.85477042968625,-36.86740819357455,100 174.85469901937202,-36.86756061001407,100 174.85492299519197,-36.8676282680956,100 174.85485080456507,-36.867782507573516,100 174.8549504149438,-36.86781260176553,100 174.85497875829623,-36.86782114281192,100 174.8551067128485,-36.86785980674029,100 174.85517808941583,-36.86796760533367,100 174.85526682735883,-36.86810175715669,100 174.8552779748529,-36.86811864705883,100 174.85535549571196,-36.868235847801806,100 174.8554093909747,-36.868317310175236,100 174.855418953602,-36.86833179572951,100 174.8554278863782,-36.86834533210437,100 174.85544901076727,-36.868377320285475,100 174.85552238966574,-36.868488227613774,100 174.85555386666383,-36.86853581834707,100 174.85562685189515,-36.868646206277475,100 174.85565384483303,-36.86868701330527,100 174.85572479386315,-36.86879427741737,100 174.85574094683298,-36.86881871523918,100 174.85574655189384,-36.86881572270913,100 174.85581880176758,-36.86893478016498,100 174.85583085830996,-36.8689546428163,100 174.85593376434892,-36.86889906740896,100 174.8561119435628,-36.86880279362241,100 174.85624407425618,-36.868960200666166,100 174.85615110507845,-36.86901057275704,100 174.85628279105075,-36.86916747744406,100 174.85641117570196,-36.8693204271489,100 174.85644318376782,-36.86930700557224,100 174.85647461537485,-36.869292756560945,100 174.85650549151433,-36.869277713136626,100 174.8565357407657,-36.869261890837016,100 174.8567347792758,-36.86915404339056,100 174.85674134187752,-36.86915001194006,100 174.85674724957462,-36.869145387734555,100 174.85675241603303,-36.86914021899248,100 174.85675677584538,-36.869134584250354,100 174.85685927452852,-36.86926747511973,100 174.8568516226378,-36.869270162593686,100 174.85684442120552,-36.869273570399805,100 174.85675262569472,-36.86932330269966,100 174.85690020675307,-36.869481294939916,100 174.8567558769349,-36.86960204379273,100 174.8568982608443,-36.86978476588631,100 174.85679586417226,-36.86989754332388,100 174.85681480227507,-36.86990201718956,100 174.85697921017422,-36.86994085742938,100 174.857138573855,-36.86997846575301,100 174.85715996558213,-36.869983548364715,100 174.85737120506104,-36.87003344179287,100 174.85739824953123,-36.870037961893104,100 174.85762985544466,-36.870073333322644,100 174.85786829252507,-36.870075923405984,100 174.8580734204168,-36.87007814432092,100 174.8581862444054,-36.87007938666193,100 174.85828449523163,-36.87008046294939,100 174.85835014418626,-36.86999452195568,100 174.8584545083186,-36.86985784434265,100 174.85887191551936,-36.86993133898284,100 174.85893147978268,-36.86971296600371,100 174.85893321601137,-36.86970489808493,100 174.8589340346054,-36.86969673816671,100 174.8589339190859,-36.869688546895865,100 174.85893290613808,-36.86968040301538,100 174.85893096358353,-36.86967236741772,100 174.85892812659293,-36.86966450264554,100 174.85892441498683,-36.869656885902955,100 174.85891988104837,-36.86964954521439,100 174.85919134999963,-36.86935868760539,100 174.8592825584226,-36.86935037597749,100 174.8593971249999,-36.86938078575071,100 174.8594089396838,-36.86938392134652,100</coordinates></LinearRing></outerBoundaryIs>
    </Polygon>
  </Placemark>

  <Placemark>
    <name>Glen Innes</name>
    <Point>
      <altitudeMode>relativeToGround</altitudeMode>
      <coordinates>174.8609563877597,-36.873941229636884,100</coordinates>
    </Point>
  </Placemark>

</Document>
</kml>