<?xml version="1.0" encoding="utf-8"?>
<kml xmlns="http://www.opengis.net/kml/2.2">
<Document>
  <name>Golflands (polygon: official_shp)</name>
  <open>1</open>

  <Placemark>
    <name>Golflands (polygon: official_shp)</name>
    <Style>
      <LineStyle><color>ffff0000</color><width>2</width></LineStyle>
      <PolyStyle><color>66ff0000</color><fill>1</fill><outline>1</outline></PolyStyle>
    </Style>
    <Polygon>
      <tessellate>1</tessellate>
      <altitudeMode>relativeToGround</altitudeMode>
      <outerBoundaryIs><LinearRing><coordinates>174.90761700544442,-36.91473100567492,100 174.90867900278212,-36.914924994591516,100 174.91031600037806,-36.91522300575737,100 174.91065199466027,-36.9152839948873,100 174.91195700480884,-36.91552099905215,100 174.91228699316522,-36.91558100674559,100 174.91298100455816,-36.91570499931221,100 174.91334100595446,-36.915794997626946,100 174.9135769983022,-36.91587000157401,100 174.9137979923278,-36.9160459992892,100 174.9139309995798,-36.91622100095364,100 174.91457799635475,-36.91648300383084,100 174.914684999175,-36.916314000129354,100 174.9147869988964,-36.9161529977531,100 174.91498100242256,-36.916238995940844,100 174.91498399690704,-36.91624100264927,100 174.91519500083368,-36.91633399363231,100 174.91532299241305,-36.916390012772446,100 174.9154920951938,-36.916464593686065,100 174.91548419940418,-36.91649186682437,100 174.9154697936712,-36.916543973421305,100 174.91545679473958,-36.9165962727391,100 174.9154449919785,-36.91664873572829,100 174.91543960614257,-36.91667735820503,100 174.91543489809595,-36.916706062584375,100 174.91543130062564,-36.91673496356316,100 174.91542879261485,-36.91676384516665,100 174.9154273041647,-36.91679274006836,100 174.91542699537834,-36.91682172139628,100 174.91542770577192,-36.91685070070624,100 174.9154291088532,-36.916879684165664,100 174.91543199549938,-36.91690856257742,100 174.91543519846243,-36.91694079688716,100 174.91543740407707,-36.916973187888445,100 174.91543879390912,-36.91700550011377,100 174.91543920130528,-36.917037892178556,100 174.9154385012835,-36.91707030390807,100 174.91543700378415,-36.917102605921734,100 174.91543490152088,-36.917134918591174,100 174.91543160617704,-36.91716723698466,100 174.91542730465065,-36.917199449028516,100 174.91542229172975,-36.91723158241516,100 174.91541649615078,-36.917263525629714,100 174.91540929995122,-36.91729547971805,100 174.9154018051248,-36.91732725295183,100 174.91539309461427,-36.9173588466028,100 174.9153833958672,-36.91739033361388,100 174.91537299824532,-36.91742156961399,100 174.91536140288846,-36.91745262574109,100 174.91534919660842,-36.91748349162888,100 174.91533620699087,-36.91751418538035,100 174.9153222057193,-36.917544509684696,100 174.915307403178,-36.91757466304271,100 174.9152920033809,-36.91760445469034,100 174.915275404698,-36.917634065580366,100 174.915258103252,-36.91766322542831,100 174.91524910742834,-36.917678795602754,100 174.91524119350836,-36.91769471696493,100 174.9152339937532,-36.91771082780155,100 174.9152279076489,-36.91772721270253,100 174.91522250396426,-36.917743864201896,100 174.91521819243547,-36.91776060354057,100 174.91521459361334,-36.91777751885793,100 174.91521240156337,-36.91779462419707,100 174.91520839227692,-36.91783367699822,100 174.91520590640212,-36.91787282600584,100 174.91520409871214,-36.91791207223326,100 174.91520379143608,-36.91795121314381,100 174.91520409277982,-36.91799045239609,100 174.91520589841286,-36.91802969622926,100 174.9152088084218,-36.9180688429353,100 174.91521280411638,-36.918107908137856,100 174.91521490551503,-36.91812518578401,100 174.9152185058008,-36.918142296848465,100 174.9152227949375,-36.918159303066304,100 174.91522820106732,-36.918176043407676,100 174.915234708424,-36.91819260555414,100 174.91524190237945,-36.91820897275854,100 174.9152501933707,-36.91822499419089,100 174.91525959899084,-36.91824065514619,100 174.91526930772446,-36.91825604802826,100 174.91528119302438,-36.91827386368777,100 174.9152922928759,-36.91829205073713,100 174.91530240038972,-36.91831059538843,100 174.91531140740867,-36.918329392130005,100 174.91531969656253,-36.918348479856455,100 174.91532690355658,-36.91836783470025,100 174.91533340532808,-36.91838735774663,100 174.91533879275906,-36.91840716285076,100 174.91534340001587,-36.91842696701833,100 174.915346995778,-36.91844703626276,100 174.91534960564255,-36.91846709256662,100 174.91535100716027,-36.9184872629979,100 174.9153516999079,-36.91850741511761,100 174.91535240299044,-36.91852479462901,100 174.91535419211684,-36.91854206198543,100 174.91535679204694,-36.91855925317218,100 174.91536039241151,-36.9185763651306,100 174.91536499239982,-36.91859336542639,100 174.91537039855027,-36.918610103956446,100 174.91537690372445,-36.918626575997,100 174.91538449336852,-36.9186428728153,100 174.91539280239343,-36.918658893944816,100 174.91541219284525,-36.91869245165818,100 174.91543270065094,-36.918725757003635,100 174.91545359566373,-36.918758700080524,100 174.91547589926586,-36.918791276130584,100 174.91549860609092,-36.91882341213994,100 174.9155224081097,-36.9188551726568,100 174.9155468044434,-36.91888650356944,100 174.91557240034805,-36.918917458206046,100 174.91559869341663,-36.918947966256,100 174.9156256981586,-36.91897793464947,100 174.91565379656475,-36.91900746628273,100 174.9156821941534,-36.91903652710331,100 174.91572759506113,-36.919082152858486,100 174.91577219945358,-36.91912833403618,100 174.91581579787928,-36.91917504427306,100 174.91585859598345,-36.91922220273947,100 174.91590069697455,-36.91926980686979,100 174.91594179350201,-36.91931795536027,100 174.91598240086142,-36.919366560582276,100 174.91602170366434,-36.9194155158178,100 174.91606060716552,-36.919465020073,100 174.9160980007994,-36.919514968689214,100 174.91613509259477,-36.91956527908329,100 174.91616842465945,-36.91961153743858,100 174.91617470033327,-36.919600800672086,100 174.91625860686733,-36.91973673028619,100 174.91621210645272,-36.91974797825318,100 174.9161657059271,-36.91975841881589,100 174.91611889879036,-36.91976795289092,100 174.91607169233913,-36.91977678225428,100 174.91601449377376,-36.919786315412324,100 174.91595650162432,-36.91979468513272,100 174.915898906691,-36.91980179288636,100 174.91584634698276,-36.91999942828167,100 174.91579418221258,-36.92000337399756,100 174.91574192202182,-36.92000642262026,100 174.91568958701586,-36.92000859004087,100 174.91563720894814,-36.92000984420107,100 174.91558482451651,-36.920010216054735,100 174.9155796044152,-36.92023532222545,100 174.91557850627092,-36.92028654266555,100 174.91557530461353,-36.92041721899016,100 174.9155673933801,-36.92046905496987,100 174.9155475968848,-36.92059613865959,100 174.91554290783415,-36.92062493465644,100 174.91552090543217,-36.92076614956628,100 174.91551950765245,-36.9207769536266,100 174.91549719507526,-36.92091941374078,100 174.91549250505275,-36.92094884517644,100 174.91544639888542,-36.921015902136176,100 174.91542370310566,-36.921048300908105,100 174.91527499408477,-36.921264119747576,100 174.9152289365002,-36.921431036872505,100 174.9151828412896,-36.9215978932954,100 174.9151050941906,-36.921879544017216,100 174.9151868070216,-36.92212056230223,100 174.9152602990916,-36.922337999553505,100 174.91533409939677,-36.922555355163574,100 174.91540750484984,-36.922772794597414,100 174.91548130563748,-36.92299013385982,100 174.91554680289627,-36.92318409535611,100 174.91571859240753,-36.923216220144916,100 174.91591765340408,-36.92325341980467,100 174.9162048941778,-36.92330711339738,100 174.91637199304486,-36.923338436849434,100 174.91630540116023,-36.92362256979952,100 174.9162478006353,-36.92386709722204,100 174.91621500355043,-36.92400686312227,100 174.9161479930842,-36.92429216541867,100 174.91610880379812,-36.92445920811975,100 174.91607350612358,-36.92461058628269,100 174.91566889883623,-36.92453517064777,100 174.91537620020216,-36.924480628294184,100 174.9151241916552,-36.924433648938184,100 174.91487110443146,-36.92438639441189,100 174.91451580849366,-36.92431998138621,100 174.91420400673266,-36.92426184143005,100 174.91382992674073,-36.92419149927552,100 174.91363083937532,-36.924154652579055,100 174.91319423544198,-36.924072577733234,100 174.91320429820016,-36.92427957168221,100 174.91321550371973,-36.92450358203416,100 174.91322487936688,-36.92469875459549,100 174.91323412021273,-36.92488776794373,100 174.91324129709386,-36.92503503235928,100 174.91324859583113,-36.92518483470828,100 174.9132594016363,-36.92540186628498,100 174.91326159220355,-36.925451370771505,100 174.91326369314172,-36.925575029545485,100 174.9132714892985,-36.926040591735,100 174.91334470276456,-36.926093794568885,100 174.9133374982523,-36.92632940485636,100 174.91325084020593,-36.92639168037938,100 174.91322919323733,-36.92654036998765,100 174.91319210444394,-36.92671866506255,100 174.9131550055501,-36.92689534963952,100 174.9131201054562,-36.927063353381,100 174.91307540075894,-36.92727666094505,100 174.91301286865018,-36.927575060247044,100 174.91294853123267,-36.927886454881616,100 174.91291441134425,-36.92807151234038,100 174.91288432166192,-36.92823208919376,100 174.91282239929612,-36.92853256959468,100 174.91282200536583,-36.92866050018216,100 174.91261000305204,-36.92916300463087,100 174.91207600592162,-36.92910300058993,100 174.9120250003866,-36.92900899840272,100 174.91194599602855,-36.92896099308347,100 174.91185899908,-36.92895000443917,100 174.9116499922907,-36.92893400484522,100 174.91143999437946,-36.92893100064618,100 174.91122899395592,-36.92894000057709,100 174.9112170018393,-36.92894100298173,100 174.91111200062906,-36.92895199909057,100 174.91102000067036,-36.92896099855726,100 174.91081399266338,-36.92899499914406,100 174.9106110007695,-36.929040003646655,100 174.91041199831972,-36.92909799282992,100 174.91008699688103,-36.92921800724987,100 174.90986200509897,-36.929308993364224,100 174.90974600684132,-36.92935100178517,100 174.90968100706192,-36.92937400409334,100 174.9096159967196,-36.92939599976927,100 174.90954999953394,-36.929417996859364,100 174.90948299713398,-36.929437999248506,100 174.9094169971691,-36.92945799809853,100 174.90934999469644,-36.92947800041448,100 174.90928200380523,-36.92949600595389,100 174.90921400236314,-36.92951300485735,100 174.90914600091173,-36.929530004623636,100 174.90907800572407,-36.929545996582256,100 174.90900899790066,-36.929561000719794,100 174.90893999746808,-36.92957499703034,100 174.90887099703113,-36.92958899420243,100 174.90880200439304,-36.92960199976461,100 174.90873200392264,-36.92961299443419,100 174.90868099785556,-36.92962100412992,100 174.908601998,-36.929632994225265,100 174.90852200230532,-36.92964399440904,100 174.90845100440555,-36.929652001769526,100 174.9083809921526,-36.92966000676588,100 174.9083100080203,-36.92966600118816,100 174.9081970050152,-36.92967600480434,100 174.90812499770448,-36.929680002926474,100 174.90809700046935,-36.92968200039504,100 174.908026003501,-36.929685005197406,100 174.9079550061209,-36.9296879937403,100 174.90788400649782,-36.9296890011898,100 174.9078130053445,-36.92968999239776,100 174.90774199519342,-36.929689992262965,100 174.90767000721672,-36.92968900283103,100 174.90759899443037,-36.92968700534219,100 174.9075279980977,-36.92968499222411,100 174.90745699949753,-36.929680996210124,100 174.9073860009029,-36.929677000153454,100 174.90731499184378,-36.929671998356355,100 174.90724400744924,-36.92966600377419,100 174.90717399825982,-36.92965900113938,100 174.9071030034175,-36.92965200077437,100 174.90703299275486,-36.92964300076869,100 174.90696199529847,-36.9296340021486,100 174.9068919977404,-36.929623003636486,100 174.90682300379754,-36.92961200158406,100 174.90675300629854,-36.92960100388975,100 174.90668300578307,-36.92958799176624,100 174.90661399921103,-36.92957400193938,100 174.90676800545012,-36.929051998183354,100 174.90660199274464,-36.928927996951614,100 174.90657499298453,-36.92892599603743,100 174.90641400663677,-36.92891099713176,100 174.9062290004934,-36.928878999981535,100 174.90603699156622,-36.92879400503201,100 174.90578199887304,-36.92864400664549,100 174.9055969978902,-36.92841699381328,100 174.9054870006403,-36.92819500604866,100 174.90533000538574,-36.927881002760145,100 174.90493100795118,-36.92768599861792,100 174.90481599939127,-36.92759800242401,100 174.9046400027259,-36.92730799670903,100 174.9045539929846,-36.92724200575918,100 174.90415700772587,-36.9271139919968,100 174.90395599945913,-36.926958994894726,100 174.90392699843534,-36.92691600303175,100 174.90382999308727,-36.92646700841289,100 174.90377000228207,-36.92633300200441,100 174.90362500064262,-36.92617700178066,100 174.9035949978611,-36.926110006752594,100 174.90358399201588,-36.92575000074292,100 174.90360900263576,-36.92563699855259,100 174.9037160086557,-36.92543199784447,100 174.90398999574785,-36.9252010062993,100 174.90429400459018,-36.925015002200034,100 174.90446000610186,-36.92494499819523,100 174.9046249932771,-36.92480699342484,100 174.90467900017939,-36.924715996594365,100 174.90467099230585,-36.924491001881755,100 174.9046409982116,-36.92440099369766,100 174.90434700124683,-36.92391000300852,100 174.90425999585605,-36.92382200680531,100 174.90394400504474,-36.92358000354519,100 174.90374500559355,-36.92349300582573,100 174.90340900367366,-36.92352199220888,100 174.90332400611857,-36.923501003821265,100 174.9028970029781,-36.92326100054775,100 174.90269499147513,-36.923083998009496,100 174.9025500061124,-36.92288399742899,100 174.90271400697088,-36.922745996667935,100 174.90271300059504,-36.92270099300142,100 174.90250999209238,-36.92250199957184,100 174.90219599383065,-36.922304001418496,100 174.9018090054703,-36.921546004308325,100 174.90166300512195,-36.92134600526817,100 174.90154900862558,-36.92127999416801,100 174.90126699646734,-36.92121700483768,100 174.90070399346948,-36.9211600017128,100 174.90050200153303,-36.92093899540814,100 174.9005440054873,-36.92048700730667,100 174.90068199880727,-36.920393992023854,100 174.901103996134,-36.92043199890222,100 174.9013350004027,-36.9206749959498,100 174.90171000366988,-36.92098400083791,100 174.9017659924078,-36.92100599760361,100 174.90187800254094,-36.92098099482706,100 174.90190499349353,-36.92093599338491,100 174.90190400232248,-36.92091299687126,100 174.90178699762862,-36.920735005150036,100 174.9017999920465,-36.92040499304232,100 174.9018029986862,-36.92032900634411,100 174.90172300070572,-36.92025099786604,100 174.9016010021849,-36.92012999407154,100 174.90098199766663,-36.92007300293515,100 174.90089700419276,-36.92005199735398,100 174.90075400384518,-36.919942002233,100 174.90072400510857,-36.91987500628964,100 174.90072099367416,-36.91978500131888,100 174.90074399954224,-36.91962699924555,100 174.900954997327,-36.919126997625085,100 174.90094599483248,-36.91881199300931,100 174.90076600482294,-36.918410003859634,100 174.90076300105025,-36.91831899287866,100 174.90078900506316,-36.918229002959144,100 174.90081600222263,-36.918182995782196,100 174.90095299208417,-36.91806800686155,100 174.90142499886244,-36.91787999407955,100 174.90164400832333,-36.91769499727526,100 174.90207600326033,-36.91710099484791,100 174.90218999378277,-36.917167004749274,100 174.90224900033317,-36.91727799940803,100 174.9024069915899,-36.917883998269595,100 174.9024370077771,-36.91795099442052,100 174.90284000776774,-36.918445006691435,100 174.90289700435278,-36.918349003669846,100 174.9028929921286,-36.91821300443441,100 174.90280500100542,-36.91805700498628,100 174.90271199804334,-36.9177430012772,100 174.90270300554604,-36.917427995755766,100 174.9027550072729,-36.91731499829583,100 174.90292000540296,-36.91717600428223,100 174.90308599797262,-36.91710499568738,100 174.9034530052223,-36.91699999411941,100 174.90391099646698,-36.91645999354266,100 174.9039870005815,-36.91621000730591,100 174.90417500736615,-36.91591299171884,100 174.90433899385417,-36.915752996912175,100 174.90442000616164,-36.915615992956084,100 174.90447100384867,-36.915456999585864,100 174.90455199128883,-36.915321002709064,100 174.9046620035253,-36.915229003982944,100 174.90476899312384,-36.915090999099185,100 174.90490200276588,-36.91481900443336,100 174.90499399227,-36.9144039978749,100 174.90503599304492,-36.91425999956203,100 174.90581199791498,-36.91440199279758,100 174.90613000761635,-36.91445999905471,100 174.90623299317255,-36.91447899515583,100 174.90761700544442,-36.91473100567492,100</coordinates></LinearRing></outerBoundaryIs>
    </Polygon>
  </Placemark>

  <Placemark>
    <name>Golflands</name>
    <Point>
      <altitudeMode>relativeToGround</altitudeMode>
      <coordinates>174.90873557732004,-36.92160650007856,100</coordinates>
    </Point>
  </Placemark>

</Document>
</kml>