<?xml version="1.0" encoding="utf-8"?>
<kml xmlns="http://www.opengis.net/kml/2.2">
<Document>
  <name>Goodwood Heights (polygon: official_shp)</name>
  <open>1</open>

  <Placemark>
    <name>Goodwood Heights (polygon: official_shp)</name>
    <Style>
      <LineStyle><color>ffff0000</color><width>2</width></LineStyle>
      <PolyStyle><color>66ff0000</color><fill>1</fill><outline>1</outline></PolyStyle>
    </Style>
    <Polygon>
      <tessellate>1</tessellate>
      <altitudeMode>relativeToGround</altitudeMode>
      <outerBoundaryIs><LinearRing><coordinates>174.90067259982771,-36.98671114206102,100 174.90068263263427,-36.986717268888306,100 174.90103314555066,-36.98661935609474,100 174.9011524647119,-36.98676068299239,100 174.90118678464015,-36.98680245222432,100 174.9011934237006,-36.98683445491399,100 174.90117256677237,-36.98686921897216,100 174.90123644701697,-36.98690146999882,100 174.90133125792954,-36.987044589978204,100 174.90144759584885,-36.98722302965411,100 174.90155591834224,-36.98731652331301,100 174.90158307498817,-36.98731533376192,100 174.9015760016101,-36.98718702443385,100 174.90156602747516,-36.98700773410861,100 174.90155595146928,-36.98682719259321,100 174.9018729947893,-36.986886998801744,100 174.90210800330442,-36.98693099605332,100 174.90246700667947,-36.98699800732049,100 174.90247399168703,-36.98699899944065,100 174.9025340030769,-36.987010006700004,100 174.90254099855713,-36.98701200540764,100 174.90277799746806,-36.98705599735092,100 174.9029249928063,-36.9870839954175,100 174.90317900117822,-36.98713100086319,100 174.90321500185382,-36.98713800258157,100 174.90340099223238,-36.98717299429538,100 174.90362700034882,-36.98721499497421,100 174.90366300107704,-36.98722199565331,100 174.9036509949665,-36.9872809957828,100 174.90360300376793,-36.98750999801047,100 174.90355599610737,-36.98773699976127,100 174.90383300516322,-36.987775003008224,100 174.90407899238363,-36.987809000434815,100 174.9040280070211,-36.98808600213617,100 174.90398899737724,-36.98830100009105,100 174.90397199299505,-36.988392998840396,100 174.9038909934352,-36.9888280032876,100 174.9033317289635,-36.988933674025816,100 174.90351069530786,-36.98926265802164,100 174.90349069732494,-36.989478668547605,100 174.90345971027526,-36.9898186614286,100 174.90342770583425,-36.990155665652544,100 174.90342670280126,-36.99017465513276,100 174.90339831095346,-36.990473545548525,100 174.90318671690372,-36.99048867070554,100 174.9031827186572,-36.990531655919746,100 174.9031647195465,-36.990736666315314,100 174.90314772350465,-36.99091565613859,100 174.90312372520356,-36.99117466623068,100 174.90312172553334,-36.99119266673424,100 174.9032057304049,-36.99126566457405,100 174.90350071760616,-36.99152565469976,100 174.90374371547583,-36.991737651701115,100 174.90398370883557,-36.99194864817014,100 174.9041807083527,-36.992121652719135,100 174.90435371470733,-36.99227364498275,100 174.9043697116134,-36.99228765772845,100 174.9047147026196,-36.99258964790199,100 174.9047577061001,-36.992839641308905,100 174.9048097100772,-36.9931426437912,100 174.90484670721048,-36.99336164573017,100 174.90487770181718,-36.99353965079428,100 174.90491171256164,-36.99373864839621,100 174.90494770234085,-36.993948638975134,100 174.90498370018813,-36.99415763796887,100 174.90501970878856,-36.99436764442919,100 174.90506670864352,-36.99464463876471,100 174.90510369270748,-36.9948586376214,100 174.90511469541255,-36.99492163164177,100 174.90565270114527,-36.995971635696314,100 174.90574869179176,-36.99615962855515,100 174.90587969152037,-36.99641363119403,100 174.9060056888084,-36.9966606279639,100 174.90618468947147,-36.99701062324535,100 174.90635168683804,-36.99733561779753,100 174.90648568736273,-36.99759662867576,100 174.90652799415196,-36.9977109977351,100 174.9064890004525,-36.99777999901788,100 174.90636799747602,-36.997997001584054,100 174.90623900746883,-36.998226999363,100 174.90611700239214,-36.99844600154577,100 174.90581200521223,-36.998244007113215,100 174.9056040033951,-36.998144003270355,100 174.90535500556652,-36.997941996961984,100 174.90511799091522,-36.997748992822466,100 174.90486499856075,-36.997632992586595,100 174.9045960045387,-36.997511002602906,100 174.9043030030061,-36.99737699803533,100 174.90293799877503,-36.99755499814979,100 174.9019889971268,-36.99767799259979,100 174.9018169912616,-36.99735399400831,100 174.901737998118,-36.997440996715355,100 174.90152300597038,-36.997486998228716,100 174.90128000255538,-36.99749299310054,100 174.90123000428645,-36.997493996112205,100 174.90116599358697,-36.99753199686883,100 174.900953994453,-36.99765900378744,100 174.9006989976082,-36.997711994400014,100 174.90044699639333,-36.99776499417302,100 174.90014999350544,-36.99782699255471,100 174.89985200133302,-36.99788899341888,100 174.89984100198478,-36.99789000684355,100 174.8998060060862,-36.997893998430186,100 174.89951900709212,-36.99792499960909,100 174.8992629964919,-36.997952993957234,100 174.89902999536568,-36.99797799670834,100 174.89878699130406,-36.99800500224255,100 174.89881599631633,-36.99805799993481,100 174.8989080000983,-36.99822599828696,100 174.89891099568462,-36.998232992247715,100 174.8987540071299,-36.99835199731453,100 174.89849900391394,-36.99854500205426,100 174.89835100246165,-36.998273000833656,100 174.8981919976869,-36.99832899199869,100 174.8983399987209,-36.99860099432915,100 174.89815099224793,-36.99866700574385,100 174.89796300645898,-36.99873299963299,100 174.89775099675776,-36.99880799574265,100 174.8976880012151,-36.998811006853565,100 174.8974829966376,-36.99882300095353,100 174.89726399756782,-36.99883599989737,100 174.8970990041609,-36.99889399974402,100 174.89693399476934,-36.99895199961913,100 174.89673800093868,-36.99869600104704,100 174.89658999830664,-36.998748002592485,100 174.89670699123238,-36.99903899562011,100 174.89652799158696,-36.99910199458646,100 174.89638000604208,-36.99915399740744,100 174.8963400036293,-36.99916800218583,100 174.89619200094853,-36.999220004147276,100 174.89615099354543,-36.99923399608105,100 174.8960030074262,-36.99928599664319,100 174.89596300489288,-36.99930000219901,100 174.89581399711992,-36.99935200533278,100 174.8956625881568,-36.99940479382548,100 174.8955897305834,-36.99927093135084,100 174.89539769742538,-36.99921208921024,100 174.89520566264568,-36.99915321523461,100 174.89514192906893,-36.99917553464619,100 174.89532997878317,-36.99952123726343,100 174.89521500730797,-36.99956200288345,100 174.89503099575165,-36.99962600260336,100 174.89502499176834,-36.999627996641735,100 174.89487299811103,-36.999680996268864,100 174.89463399177185,-36.99971899575926,100 174.89442860423244,-36.999878412832494,100 174.89434817433138,-36.99983497232469,100 174.89407917529792,-36.99987705926662,100 174.89412508482522,-37.000065800756026,100 174.89413499443455,-37.00017600387404,100 174.8941409970808,-37.00024699855706,100 174.89420399327096,-37.0004250030768,100 174.89424399225135,-37.00050799399771,100 174.89399000206424,-37.00060100198315,100 174.8937009933223,-37.000708004991495,100 174.89400100154415,-37.00140999355702,100 174.8940769954984,-37.00151100118098,100 174.8941759989116,-37.001642004621594,100 174.89429200601555,-37.00179600371844,100 174.89372499703015,-37.00198999172918,100 174.89250999744533,-37.000435998684154,100 174.8912289918259,-36.99881200059359,100 174.8910369959117,-36.998568003434436,100 174.89071000703933,-36.998097004292134,100 174.89009099163533,-36.997396997757676,100 174.88921000235976,-36.99696999278425,100 174.88967800428566,-36.99662499397778,100 174.88968400653698,-36.996429999749,100 174.8890640083308,-36.995102006359694,100 174.88900400522382,-36.994965995304874,100 174.88865999438758,-36.99445999542566,100 174.88809400775264,-36.99319600541593,100 174.88760199806933,-36.99225000038371,100 174.88750600187186,-36.99208099537692,100 174.88799100704372,-36.99197600256543,100 174.88819500260675,-36.9918300022229,100 174.8894380039231,-36.99154899386711,100 174.8892250039021,-36.991305004976724,100 174.88917799799896,-36.99125100337926,100 174.88916300224923,-36.99120299239804,100 174.88919800667009,-36.99124399442925,100 174.88926200078453,-36.99121999856734,100 174.8893129938496,-36.99120100372118,100 174.88961399679042,-36.991089991875555,100 174.88992200012956,-36.99110600535877,100 174.88989300588196,-36.99093400278326,100 174.89003000621423,-36.99074899774974,100 174.89039599850875,-36.99081999632392,100 174.89045500565385,-36.990976002824524,100 174.89070100299836,-36.99091600516535,100 174.89094700758554,-36.99085500012381,100 174.8911930040906,-36.99079500056414,100 174.8914264003503,-36.99073831625301,100 174.89154548285157,-36.99105218313474,100 174.8916080497194,-36.99103696677238,100 174.89175120007505,-36.99100208359464,100 174.89213799428833,-36.99090800054733,100 174.89205400448287,-36.9908719931584,100 174.89200924218326,-36.990754612135,100 174.89226294558424,-36.99069675427848,100 174.89220845046427,-36.990553116613626,100 174.89245600379226,-36.990492997696606,100 174.89269799231144,-36.99043399541558,100 174.89294700615554,-36.9903729959448,100 174.89319299939237,-36.99031299322218,100 174.89342299614577,-36.990255996020295,100 174.89343899372514,-36.99025300529803,100 174.89367600551415,-36.99019500158112,100 174.89368399969769,-36.99019300379797,100 174.89392800194608,-36.99013300339422,100 174.8941580063889,-36.990076995192105,100 174.8941379947535,-36.990040006800996,100 174.89396600158474,-36.989721000582044,100 174.89387599488114,-36.989554993088234,100 174.89384100268896,-36.989490993592455,100 174.89412499224818,-36.989436998173005,100 174.89447200801237,-36.98937000221873,100 174.89452699819986,-36.98947300269259,100 174.89496500436385,-36.98932099601573,100 174.89503199389443,-36.98944700067861,100 174.8951469965425,-36.989667005576926,100 174.8954849965234,-36.98955500416458,100 174.89558999902215,-36.98980299890578,100 174.89566800487665,-36.98982899572781,100 174.8958669990753,-36.98976499560261,100 174.8958700019406,-36.98981100171656,100 174.89587099637288,-36.989823992591816,100 174.89587100478568,-36.989837002825226,100 174.8958690050441,-36.98985000007617,100 174.89586700532428,-36.98986299822802,100 174.89586399228455,-36.989875006710186,100 174.89586000242272,-36.98988799339417,100 174.89585499962035,-36.98990000572448,100 174.89584899202026,-36.989912005265545,100 174.8958420044347,-36.98992300018303,100 174.8958349935154,-36.989935001331595,100 174.89617700543465,-36.98985899785234,100 174.896302992385,-36.989880001329276,100 174.89628199295174,-36.989823997096885,100 174.89625600188683,-36.989729006371576,100 174.8962349935363,-36.989613004964035,100 174.89621500232852,-36.9893819949329,100 174.89623000154535,-36.989218002176585,100 174.89626800159073,-36.989218992074456,100 174.89661000240875,-36.989229001997295,100 174.89667199205905,-36.98923000402407,100 174.89675100528962,-36.98902900427687,100 174.89682199705962,-36.988847999303545,100 174.8968759989716,-36.98871099728475,100 174.8968950081644,-36.98866299355317,100 174.89699199258033,-36.98853200472562,100 174.89702699193782,-36.98854799233283,100 174.89710599318207,-36.98844299706892,100 174.89698100165472,-36.98821099602204,100 174.89688600730716,-36.98803299755414,100 174.89679399287988,-36.98786399328359,100 174.89701300338254,-36.98780499807783,100 174.89723699844794,-36.98774599218109,100 174.89726299323306,-36.987738999747954,100 174.89750299916298,-36.98767500461071,100 174.89764599538364,-36.98763699654662,100 174.89776700246128,-36.98760499656648,100 174.897803006147,-36.98759499402056,100 174.89801200566018,-36.98753899169446,100 174.89807699951655,-36.98752200623925,100 174.8982529966876,-36.987474992816246,100 174.8982840009795,-36.98746699889305,100 174.89847099403062,-36.98741700438788,100 174.898500008177,-36.9874089980827,100 174.8987160075045,-36.987352004669454,100 174.89873199382075,-36.98734800666191,100 174.89896100257187,-36.98728700474368,100 174.89899799234766,-36.98727699957834,100 174.89924299447577,-36.98721099310341,100 174.89920599989384,-36.98715999255837,100 174.89920499635997,-36.98685900543361,100 174.89920499676862,-36.98664799232843,100 174.89920399859886,-36.98653100512914,100 174.8995719969519,-36.9865129979766,100 174.89963200653716,-36.986510006743046,100 174.89990499331532,-36.98649600702679,100 174.90004599476114,-36.98648900505692,100 174.90017700250118,-36.98648300025442,100 174.90064600597384,-36.986460006946785,100 174.90074155809805,-36.98645493440452,100 174.90071460931802,-36.986535925742686,100 174.90067259982771,-36.98671114206102,100</coordinates></LinearRing></outerBoundaryIs>
    </Polygon>
  </Placemark>

  <Placemark>
    <name>Goodwood Heights</name>
    <Point>
      <altitudeMode>relativeToGround</altitudeMode>
      <coordinates>174.89719234935168,-36.993772705135434,100</coordinates>
    </Point>
  </Placemark>

</Document>
</kml>