<?xml version="1.0" encoding="utf-8"?>
<kml xmlns="http://www.opengis.net/kml/2.2">
<Document>
  <name>Half Moon Bay (polygon: official_shp)</name>
  <open>1</open>

  <Placemark>
    <name>Half Moon Bay (polygon: official_shp)</name>
    <Style>
      <LineStyle><color>ffff0000</color><width>2</width></LineStyle>
      <PolyStyle><color>66ff0000</color><fill>1</fill><outline>1</outline></PolyStyle>
    </Style>
    <Polygon>
      <tessellate>1</tessellate>
      <altitudeMode>relativeToGround</altitudeMode>
      <outerBoundaryIs><LinearRing><coordinates>174.89606368300008,-36.893206832999965,100 174.89629752400006,-36.89316964599993,100 174.89647133100004,-36.893154705999955,100 174.8966280410001,-36.89306096499997,100 174.89669376200004,-36.89296259499997,100 174.8967541180001,-36.89280044299994,100 174.8967505060001,-36.89265451799998,100 174.89683053800002,-36.892522464999956,100 174.8968358510001,-36.89243114099998,100 174.89681201200005,-36.89238590199994,100 174.89662321800006,-36.89240716499994,100 174.89640224100003,-36.89250497299997,100 174.89622979000012,-36.89257463499997,100 174.89619682349368,-36.8925756028747,100 174.89620089468633,-36.89257324490614,100 174.8962171347471,-36.892546320997745,100 174.89618422182946,-36.89250249874734,100 174.89614857272034,-36.89246741159641,100 174.89611067354434,-36.892439844914975,100 174.8960668287783,-36.892397654567496,100 174.89603814187296,-36.892379542575895,100 174.89602147302455,-36.892385055231614,100 174.89596340834547,-36.89240936915859,100 174.89593357500007,-36.892371172999944,100 174.8958304150001,-36.892387285,100 174.89568424971839,-36.89238403050606,100 174.89565351580558,-36.89236753334894,100 174.89548759253304,-36.892333388398455,100 174.89541526221873,-36.89230266289042,100 174.8953959459126,-36.89229223909643,100 174.89536865883935,-36.892251228190766,100 174.8953597778441,-36.892219000781374,100 174.89534864625992,-36.89219618211311,100 174.8953388087916,-36.89216058009751,100 174.895326013415,-36.89212743000053,100 174.89530756599345,-36.89209623762198,100 174.8952945226229,-36.89206476523002,100 174.8952751183426,-36.89203608157744,100 174.89527202200009,-36.89202007899996,100 174.8951094890001,-36.89182014799996,100 174.89482213000008,-36.891488396999925,100 174.89460515070826,-36.891349407150635,100 174.89460314926362,-36.89134697156074,100 174.89457063650337,-36.891315917773056,100 174.89452378358817,-36.891267368221556,100 174.8944964339816,-36.89124181394251,100 174.89448045225743,-36.89121542579604,100 174.89446713535423,-36.89118662196926,100 174.89445605305642,-36.89116555278721,100 174.89445196993276,-36.89115780255611,100 174.89443620780727,-36.89112363700983,100 174.89442054530068,-36.891093092280165,100 174.89440891203128,-36.89106957037339,100 174.89439656746802,-36.89103583973384,100 174.89438209758558,-36.8909932559653,100 174.89436581378402,-36.89097861232097,100 174.89435008978649,-36.890982620690565,100 174.89433533854654,-36.89099570336426,100 174.89432389789906,-36.89102373482215,100 174.89432026089207,-36.89104442765961,100 174.89431906522447,-36.89105829461876,100 174.89431813473422,-36.89107172201106,100 174.8943212797221,-36.89109327200677,100 174.89432930042878,-36.891119319350196,100 174.89433687420342,-36.891155612823376,100 174.89433559336655,-36.89118219517023,100 174.89433359777613,-36.891199699997905,100 174.8943398877933,-36.89122373435043,100 174.8943469334322,-36.89124251997891,100 174.89434484188513,-36.89127823975257,100 174.89433969000004,-36.891279100999945,100 174.894345528213,-36.89130509130458,100 174.8943456288564,-36.89130636510297,100 174.8943485997323,-36.89131876495378,100 174.8943555996755,-36.89134992696043,100 174.89435955560742,-36.89138803158815,100 174.8943577572695,-36.89143689472173,100 174.89436135602645,-36.89147003657351,100 174.89437077995024,-36.89153491656456,100 174.8943711064301,-36.89153703589951,100 174.8943615930001,-36.89161870399993,100 174.89436200600005,-36.891817604999964,100 174.89435937058417,-36.89184473282164,100 174.8943540333519,-36.89185754455906,100 174.89434408454474,-36.89188578296308,100 174.89434386373793,-36.89193159700428,100 174.89434106582246,-36.891975522417184,100 174.894335937882,-36.89200177043416,100 174.89433224236447,-36.892012952185205,100 174.89418654702254,-36.892143871936106,100 174.89414756342333,-36.8921587722765,100 174.89410309434925,-36.89217490117533,100 174.8940697046882,-36.89219100571359,100 174.89403182823506,-36.89221885118342,100 174.89398939228292,-36.8922442366315,100 174.89394584359744,-36.892265645153856,100 174.89381513117212,-36.892306349019464,100 174.8937607457719,-36.892335428335215,100 174.89370713196016,-36.892350277893954,100 174.8936397809802,-36.89236976560244,100 174.89356579893158,-36.892397098621856,100 174.89350476112173,-36.892416089032594,100 174.89344436780505,-36.89244036439757,100 174.8933728728609,-36.89246381442152,100 174.89329661149546,-36.892478564216304,100 174.89323745520727,-36.89248923505498,100 174.89316990512597,-36.89250203607072,100 174.8930912467412,-36.89251823811037,100 174.8930340287889,-36.892536604077186,100 174.89297481695598,-36.89255793108429,100 174.89290698014108,-36.89257098528557,100 174.89285823926699,-36.892576285731835,100 174.89279997292735,-36.89257642556211,100 174.8927510498969,-36.89256040361879,100 174.89269481940403,-36.89255024040723,100 174.89262106320248,-36.89253062575623,100 174.89255524094537,-36.89251356878171,100 174.892512393523,-36.89250546177689,100 174.89246729139882,-36.89248879928911,100 174.89243472642974,-36.89246979460484,100 174.89238297179475,-36.89244497926871,100 174.8923459167681,-36.89242105097246,100 174.89232691472034,-36.89239098278862,100 174.8923163186597,-36.892360504883065,100 174.89229063987884,-36.89230930523604,100 174.89228429461485,-36.89228510220372,100 174.89227792016698,-36.89225603610861,100 174.89227209294188,-36.89222736328456,100 174.89226572934007,-36.892210733440685,100 174.89225494693537,-36.89217784205552,100 174.8922357652341,-36.89214308444037,100 174.89221376228014,-36.89211199958063,100 174.89218902338942,-36.89208458881968,100 174.89214988012247,-36.89205310910786,100 174.89211768862754,-36.89203004063618,100 174.8920768736656,-36.89201020555429,100 174.89203832156113,-36.891995394429834,100 174.8920301925847,-36.89199332971911,100 174.8918984380001,-36.891934079999935,100 174.8914727550001,-36.89176462499995,100 174.89134253222542,-36.89172223141191,100 174.89131279965696,-36.89170335037832,100 174.8912631491647,-36.89167959614225,100 174.8912153283132,-36.89164622359953,100 174.8911712257511,-36.89161414922725,100 174.89112255664142,-36.8915800943311,100 174.89106022561478,-36.89154640382994,100 174.89100926554315,-36.891513272258194,100 174.89097663006217,-36.89148592114885,100 174.8909274895171,-36.89145803871154,100 174.89087789572613,-36.89143634382746,100 174.89083058984232,-36.891415552580916,100 174.8907585674228,-36.8913808237382,100 174.89069468113343,-36.891355398575634,100 174.89064935498072,-36.89133366000158,100 174.8905961714264,-36.89131727773824,100 174.89053877552269,-36.89130553940249,100 174.890495170574,-36.89130003140655,100 174.89046604511623,-36.89129245696167,100 174.89045631418637,-36.8912899168794,100 174.89041528008056,-36.891267715127675,100 174.89036633038458,-36.89126275001489,100 174.89031153332087,-36.89124868806412,100 174.8902633752291,-36.891241649890794,100 174.89023119246872,-36.89123605016315,100 174.89014293030672,-36.891229590626814,100 174.8901289672565,-36.89122020202211,100 174.89010168573392,-36.89121745897146,100 174.89006807072667,-36.89119664515262,100 174.89004757681417,-36.89119116583373,100 174.8900390508187,-36.89118911579103,100 174.89001429979973,-36.891178368380935,100 174.889990376954,-36.89116693990937,100 174.88997671554137,-36.891160999448886,100 174.889953357748,-36.8911468201597,100 174.88993941210308,-36.89113995585621,100 174.8899072845883,-36.891137003242896,100 174.88986745804178,-36.89112740238694,100 174.88984471038964,-36.891129955412524,100 174.88981913902498,-36.89112721212769,100 174.88979553323924,-36.891126773791065,100 174.88978332575292,-36.89112791709577,100 174.8897574435985,-36.89112198986706,100 174.88972702494667,-36.89112085141785,100 174.88971164656772,-36.8911146777595,100 174.88968492782507,-36.89111423214063,100 174.8896752772538,-36.8911204100982,100 174.88964257995926,-36.891117467378585,100 174.88961732292577,-36.8911218286727,100 174.8895909022429,-36.89112596241175,100 174.88955481511806,-36.89113376506653,100 174.88950222363945,-36.891129002639374,100 174.88948374324238,-36.89113336877461,100 174.8894521798067,-36.89113017362289,100 174.88942348180169,-36.8911306454273,100 174.889386787717,-36.89111806258482,100 174.889355782901,-36.89111190038505,100 174.88932189888484,-36.89109773427039,100 174.8892857297987,-36.891073263629394,100 174.8892643866808,-36.891060689859884,100 174.88925267900214,-36.891049015580236,100 174.88924328378454,-36.89104170116633,100 174.88922878119837,-36.89104169207389,100 174.8891986455947,-36.891037604369735,100 174.88918468062215,-36.89103004356227,100 174.88916305685987,-36.89101541561933,100 174.88915820791368,-36.89101381267397,100 174.88915077623966,-36.89100558012395,100 174.88914111785857,-36.891004432221884,100 174.8891268747768,-36.89099619533273,100 174.88910185143527,-36.89099005240537,100 174.8890756848605,-36.89098569334267,100 174.88905462700407,-36.89098045626139,100 174.88901224825398,-36.89097110120517,100 174.88899034240018,-36.89096583163049,100 174.8889599461479,-36.89096678279201,100 174.8889377680182,-36.89096357795833,100 174.88890416537126,-36.89094575238919,100 174.888877706931,-36.890937062567225,100 174.88885150089325,-36.89091853530795,100 174.88882332119758,-36.890910758843106,100 174.88880169316167,-36.89090551455912,100 174.8887806415266,-36.89089155884656,100 174.88877035963995,-36.890881502251716,100 174.8887464560935,-36.89087075461761,100 174.8887293667221,-36.89085953179288,100 174.8886823772986,-36.89083187378494,100 174.88866418511202,-36.890827762787254,100 174.8886419691994,-36.890816784599835,100 174.88863001984933,-36.89080832100132,100 174.8886185792472,-36.89079504797275,100 174.88859921046645,-36.89077879954808,100 174.88859594901749,-36.89077709202301,100 174.8885809981692,-36.89076945488276,100 174.8885612259776,-36.89075618812804,100 174.88853849685825,-36.8907568496352,100 174.8885238023023,-36.890754876824325,100 174.88851170393866,-36.8907542994426,100 174.88849167368244,-36.89076143368657,100 174.88846314854086,-36.890777203344285,100 174.88844347053995,-36.89076994418336,100 174.88842839883912,-36.8907635951309,100 174.88840348156742,-36.89075246155305,100 174.88838107851277,-36.890737119387836,100 174.8883590229023,-36.8907250389857,100 174.88834560767324,-36.89071286899243,100 174.8883300792384,-36.8906960889822,100 174.8883175044172,-36.89068368840712,100 174.888303547676,-36.89065669036183,100 174.88828936102374,-36.89063201957664,100 174.88827891478493,-36.89060822940842,100 174.88827409018862,-36.890600553835306,100 174.88827042716906,-36.890594206371546,100 174.88825655909898,-36.89057873030771,100 174.8882469694629,-36.890560421877524,100 174.88823995891593,-36.890549874289015,100 174.88823188666,-36.8905288440811,100 174.88822119999253,-36.890509594982184,100 174.88821370507705,-36.890501041474,100 174.88811125000007,-36.89031547199993,100 174.88800833197612,-36.890164973302575,100 174.88800655768355,-36.89016086666664,100 174.8879952804776,-36.89013321940181,100 174.88798232524599,-36.89010555283881,100 174.8879776077288,-36.89009411343337,100 174.88796155142396,-36.89006614554181,100 174.88795076709977,-36.89005030586528,100 174.88794080957592,-36.89003559682418,100 174.88792203781946,-36.89001459964418,100 174.8879078125764,-36.88996748921291,100 174.88790359555315,-36.88991464323844,100 174.88790993086482,-36.88989587076713,100 174.88791339492494,-36.88987510333677,100 174.8879171284661,-36.88985411530609,100 174.8879221059455,-36.889828598191855,100 174.8879074232725,-36.88979967739377,100 174.88790016653581,-36.889783868173254,100 174.88790175666105,-36.889773030644584,100 174.8879111508825,-36.88976250532288,100 174.88791964231945,-36.889749951052195,100 174.88792640400152,-36.88973541432506,100 174.8879147727989,-36.88970619265878,100 174.8879060432432,-36.8896800632771,100 174.8878992732375,-36.88966178300782,100 174.88789055113844,-36.889651853864756,100 174.8878873306803,-36.88963190111116,100 174.88788084219848,-36.88962213385766,100 174.8878856870312,-36.88960066128067,100 174.8878872657979,-36.889581755299325,100 174.887891529283,-36.8895681595998,100 174.88788344943288,-36.88955259780295,100 174.88788276832148,-36.889532600184225,100 174.88788265278296,-36.889505406436335,100 174.8878813365637,-36.8894995759736,100 174.8878823085567,-36.88947999823618,100 174.8878893458732,-36.88945715505451,100 174.88788459300832,-36.88944127178729,100 174.88789166648795,-36.88941976018435,100 174.88789294990121,-36.88940016127345,100 174.88789697944148,-36.88938750035705,100 174.88789619044783,-36.88936480859886,100 174.88789615503163,-36.88936031877619,100 174.88789384870526,-36.88934731961272,100 174.88790012542296,-36.88932890319292,100 174.8879073373244,-36.88932080105839,100 174.8879141136605,-36.889294060200385,100 174.88791848953244,-36.889280153559966,100 174.88791612879092,-36.889261301176006,100 174.88792190188795,-36.8892460365699,100 174.88792458053393,-36.88923010098854,100 174.8879278107176,-36.88921282268493,100 174.88792828530075,-36.88919910874027,100 174.88792424954204,-36.88918095085745,100 174.8879261075056,-36.889163449203366,100 174.88792062260669,-36.889135203322944,100 174.88792131988947,-36.8891118534116,100 174.8879231244692,-36.88908917811681,100 174.88792269211567,-36.889069439729425,100 174.88792308196204,-36.88904048758047,100 174.88791985846123,-36.88901549061952,100 174.8879524242538,-36.888734599687666,100 174.8879542754227,-36.88873015158182,100 174.887959272431,-36.888718093593,100 174.88796611329735,-36.88868422675487,100 174.88795928333076,-36.88867543762266,100 174.88800438700002,-36.888286399999956,100 174.88828767591536,-36.8880060615912,100 174.8882969121131,-36.88799975682181,100 174.88831415775297,-36.887993213083114,100 174.88833107631146,-36.88798988054373,100 174.88834098040672,-36.88797970310557,100 174.88835202483037,-36.88797268019249,100 174.88835798717147,-36.887958636551396,100 174.8883627993348,-36.887955703763915,100 174.88837494959242,-36.887945516754414,100 174.88839053218874,-36.88791656193245,100 174.8884070344051,-36.887896650775126,100 174.8884022159126,-36.88787195544186,100 174.88840213190818,-36.88787141508276,100 174.8884154629674,-36.88783464733856,100 174.88841569228123,-36.88780806731257,100 174.88841883234576,-36.887784951662695,100 174.88843129721533,-36.88775447178907,100 174.88844372298104,-36.88772509214863,100 174.88844847286495,-36.88769189756002,100 174.88845872866816,-36.88767172336643,100 174.88847180634548,-36.8876459873186,100 174.88848722063693,-36.887617856263866,100 174.8885032198152,-36.88759470112075,100 174.88850759505988,-36.88758835080278,100 174.88883511300003,-36.887484264999955,100 174.88969630200006,-36.887175354999954,100 174.89097198800005,-36.88663383599992,100 174.89113780800005,-36.886540812999954,100 174.8917679440001,-36.886033080999944,100 174.89227946200003,-36.88585820199996,100 174.89260175200002,-36.88574801499993,100 174.8927955910001,-36.88565454299992,100 174.89293262000012,-36.885538545999964,100 174.8930632780001,-36.885220794999945,100 174.89333756400003,-36.884990598999934,100 174.8935313070001,-36.88489712599995,100 174.89381050300005,-36.88484707799994,100 174.89408838000008,-36.884751181999945,100 174.89419870400002,-36.88468165699993,100 174.894226171,-36.88465869099996,100 174.89438762300006,-36.884407942999935,100 174.89443940000012,-36.88424932799995,100 174.89443426800005,-36.88410153299997,100 174.89442966400009,-36.88393399399996,100 174.89445991700006,-36.88384781399998,100 174.89450770000008,-36.883707284999964,100 174.89516221200006,-36.883019819999944,100 174.89537671200003,-36.88269964799998,100 174.8956149830001,-36.88217724099997,100 174.8957417250001,-36.88172428899996,100 174.8959513200001,-36.881179810999974,100 174.896190143,-36.88072497899997,100 174.8963893890001,-36.88031592599997,100 174.89643382000008,-36.88018220799996,100 174.8965289580001,-36.87996657999997,100 174.89668043300003,-36.88000885799995,100 174.89679008300004,-36.88003954799996,100 174.89701173000003,-36.880079893999934,100 174.8972826790001,-36.88008620099998,100 174.8973931390001,-36.87995521299996,100 174.89742161300012,-36.87993728599997,100 174.89751958000014,-36.87987560599998,100 174.8977790130001,-36.87994742799999,100 174.89828856600002,-36.88008860499997,100 174.8989656990001,-36.880071126999944,100 174.89898410700005,-36.879226038999946,100 174.89903372100002,-36.879223497999924,100 174.8990940570001,-36.879220406999934,100 174.89909274900003,-36.88035484299996,100 174.89964459800012,-36.88057156599996,100 174.90019076200008,-36.88078604399994,100 174.90161989900005,-36.88134711299995,100 174.9017323700001,-36.88126384899992,100 174.9018219520001,-36.88109705599992,100 174.90197918,-36.88080419199997,100 174.90216797900007,-36.88045260999996,100 174.90234050800007,-36.88013138499997,100 174.901732583,-36.87991484299994,100 174.90168470100002,-36.879841895999945,100 174.90193746400007,-36.879424677999964,100 174.90215893700008,-36.87905896399995,100 174.90212528400002,-36.87866831999998,100 174.9014801090001,-36.87841155099994,100 174.9010997150001,-36.87827057299995,100 174.901095778,-36.87812672399997,100 174.90126651900005,-36.877990893999936,100 174.90261930000008,-36.87691668499997,100 174.90317695700003,-36.87662058399996,100 174.90325402700012,-36.87662861299998,100 174.90347600100006,-36.876899873999946,100 174.9035464970001,-36.87700710699995,100 174.90364712100006,-36.87698050399996,100 174.90379881,-36.87689778899995,100 174.90416381400007,-36.87673754699995,100 174.90445950700007,-36.87657223999998,100 174.9046650680001,-36.876337355999965,100 174.9048190640001,-36.87619284599999,100 174.90484965400003,-36.87603178799998,100 174.9050238560001,-36.87592709599994,100 174.90510776700012,-36.87590104799995,100 174.90525053400006,-36.875923460999964,100 174.90539341500005,-36.87586855899997,100 174.90566056600005,-36.87566651199995,100 174.90578303400002,-36.875464833999956,100 174.90584102400013,-36.875233464999944,100 174.90585352400012,-36.874966978999964,100 174.90586285200004,-36.874316479999955,100 174.90573147007458,-36.87346185367493,100 174.90597785387322,-36.87442495819322,100 174.90601645409131,-36.87504207742427,100 174.90602787922535,-36.87513242912924,100 174.90602676382665,-36.8751440641523,100 174.90602765523317,-36.87515076919997,100 174.90602728213966,-36.87515227858938,100 174.90602714867023,-36.87515751560384,100 174.90602643001125,-36.87516091970643,100 174.90602687250467,-36.87516761843644,100 174.90602620820763,-36.87517176525681,100 174.90602609543447,-36.8751777446278,100 174.90602479515374,-36.87518641005987,100 174.9060246241438,-36.875190904086644,100 174.90602326040366,-36.87519918296872,100 174.90601676945306,-36.87522153711974,100 174.90601681272813,-36.87522246568756,100 174.90601681805245,-36.87522520742098,100 174.906014106798,-36.87523727274011,100 174.90601322449547,-36.875246054045846,100 174.9060123017734,-36.875248966596914,100 174.90601231043755,-36.87525116568143,100 174.90601093602433,-36.87525337343551,100 174.90600907830571,-36.87525874987661,100 174.90600874718882,-36.875259916991794,100 174.9060079079617,-36.87526776834432,100 174.90599885174527,-36.8752929865877,100 174.90599097829428,-36.87532986156856,100 174.90599013906493,-36.87533771292095,100 174.9059863781992,-36.8753556203169,100 174.9059865864201,-36.87535880675176,100 174.9059854685963,-36.875369125884255,100 174.90598569715496,-36.87537304026027,100 174.9059850611007,-36.87537696940882,100 174.90598460112648,-36.875418854870716,100 174.905981566668,-36.87543425665692,100 174.9059680349388,-36.87547277989569,100 174.9059645408297,-36.875487833935125,100 174.905961337811,-36.87549329505068,100 174.90595914219853,-36.87550083016787,100 174.90595716846767,-36.87550447342618,100 174.90595427361103,-36.875514885061065,100 174.9059537107083,-36.87552022270201,100 174.90595258971888,-36.875523463810296,100 174.90595256685114,-36.87553021687475,100 174.90595181367115,-36.87553236779299,100 174.90595085084183,-36.8755451765912,100 174.9059504515448,-36.87556720677787,100 174.9059473613062,-36.87559571106117,100 174.90594581933075,-36.8755993473926,100 174.90594325590413,-36.875607972699555,100 174.90594126384607,-36.87561160092913,100 174.9059393532761,-36.87561629591686,100 174.90593771903826,-36.87561847719349,100 174.9059355406229,-36.87562602735676,100 174.90593233799981,-36.87563150468895,100 174.9059316215745,-36.875634367061025,100 174.90592650799874,-36.87564452406431,100 174.90591443040836,-36.87566418906153,100 174.9059026328669,-36.87567390709203,100 174.90589690810947,-36.875681953090506,100 174.9058961453179,-36.875683762561884,100 174.9058941444102,-36.875687034910854,100 174.9058859277358,-36.87570441711107,100 174.90588188044563,-36.87571062183877,100 174.90587940344892,-36.875713562027066,100 174.90587700681817,-36.87571756899152,100 174.90586749226267,-36.87572859336238,100 174.90585542833705,-36.87574118096142,100 174.905844924737,-36.87575014815852,100 174.9058376789563,-36.87575504590448,100 174.9058309379562,-36.87576066291843,100 174.90582340589287,-36.875767719413474,100 174.90581763437618,-36.875774697191545,100 174.90581469920795,-36.875777304029086,100 174.90580704925802,-36.87578259672624,100 174.90578018862087,-36.875806425912295,100 174.90577592461594,-36.87580910273693,100 174.90576453160304,-36.87581844201911,100 174.90575945124684,-36.87582221803054,100 174.9057560120772,-36.87582413713171,100 174.90574411527075,-36.875832074827365,100 174.90573641211486,-36.875836671652344,100 174.90573262269257,-36.875839665338134,100 174.90572918464292,-36.87584158442059,100 174.90571941587973,-36.87584838566174,100 174.9057095747055,-36.87585376307504,100 174.90569351806658,-36.87585940603237,100 174.90568002165358,-36.87586193621729,100 174.90567619794888,-36.87586242207466,100 174.90562082573163,-36.87586175819839,100 174.90561801033837,-36.87586245861848,100 174.90560683361443,-36.875862625276945,100 174.90560263587318,-36.875863319027474,100 174.90559143434965,-36.87586384210411,100 174.90558721180867,-36.87586489227372,100 174.90557743463452,-36.87586508064539,100 174.90557134565984,-36.87586610216598,100 174.90552144321873,-36.87586893506282,100 174.9055145134323,-36.87586767890842,100 174.9054949578136,-36.875867327391866,100 174.9054902755823,-36.875867982941905,100 174.90548463871966,-36.8758697714414,100 174.905481341965,-36.875871191622565,100 174.905475637385,-36.8758755824205,100 174.90546847315662,-36.87588218323448,100 174.90545231706867,-36.87589425417406,100 174.90543672416493,-36.87590293882848,100 174.90543149129095,-36.87590622154567,100 174.9054039160317,-36.87592667224101,100 174.9054001387182,-36.875928844618635,100 174.9053948777369,-36.87593361496487,100 174.90538965522674,-36.87593726975967,100 174.90537437498708,-36.87595045599702,100 174.90535444487983,-36.87596356899068,100 174.90535063986127,-36.87596724521473,100 174.90533353884038,-36.87597889956047,100 174.9053316054436,-36.87598150383981,100 174.90532826303564,-36.87598442815261,100 174.90531960711195,-36.87599398217498,100 174.9053062621075,-36.876004593838694,100 174.90526859380503,-36.87602376696162,100 174.90524550181095,-36.8760419690306,100 174.90522499636694,-36.876052382759724,100 174.90520820183917,-36.876065130882964,100 174.90520243565786,-36.87606912066666,100 174.90519481869288,-36.876073079742106,100 174.90517328884104,-36.876086469829154,100 174.90511605529346,-36.87611633357193,100 174.90510845201578,-36.876119534411366,100 174.9050941494929,-36.87612673999139,100 174.90508120197353,-36.876135425442236,100 174.90500300836803,-36.876174253587536,100 174.90498924892634,-36.87617920525576,100 174.90497737536955,-36.876184200590785,100 174.9049406477672,-36.87620177670858,100 174.90493296829996,-36.876207240173336,100 174.9049262747567,-36.87621084282444,100 174.9048986872513,-36.876222636411235,100 174.9048690575251,-36.8762381193966,100 174.90483925776235,-36.87624612593807,100 174.9048071070791,-36.876254111579705,100 174.90479048098683,-36.876259779770514,100 174.90477675807068,-36.87626733204165,100 174.90474692201755,-36.87628286607506,100 174.90473160635375,-36.87629535607794,100 174.90472923698096,-36.87629779879059,100 174.9047272685432,-36.87630165826122,100 174.90472659203482,-36.876306626373946,100 174.90472644000076,-36.87631053243346,100 174.9047283613428,-36.87631697131223,100 174.90473009459407,-36.87631841267681,100 174.90473332428562,-36.87632594371053,100 174.90473560848824,-36.876334886049584,100 174.9047358489528,-36.87633986920422,100 174.90473660078356,-36.87634272064751,100 174.904733321695,-36.87635614432018,100 174.90472702468531,-36.876366678071626,100 174.90472224714853,-36.87637334422795,100 174.90471982182888,-36.87637755442689,100 174.9047170123059,-36.876380343994214,100 174.90471600086457,-36.87638316512184,100 174.90471104300548,-36.87639336644639,100 174.90469826205023,-36.87642140686018,100 174.90469111549294,-36.87643373704344,100 174.90468596129966,-36.8764411384059,100 174.90468497351634,-36.876443602230786,100 174.90468022625905,-36.87645135218934,100 174.904678767111,-36.87645489343951,100 174.90467692456818,-36.87645700142652,100 174.90466136621518,-36.87648022824376,100 174.90465797490978,-36.87648764460528,100 174.90465280960447,-36.876494689221296,100 174.90463433925112,-36.87651251603716,100 174.9046302318529,-36.876515267824246,100 174.90462335087443,-36.8765208563701,100 174.90461835280647,-36.87652325199298,100 174.90461058077705,-36.87652846905794,100 174.90458485746456,-36.87654969205223,100 174.90458064517105,-36.876554273398575,100 174.90457738233258,-36.87655882239838,100 174.90456952950007,-36.87656616156479,100 174.9045654236433,-36.87656893045005,100 174.90454740057547,-36.87658606688055,100 174.90453069583407,-36.8766046522288,100 174.9045260746699,-36.87660885255985,100 174.90452057131958,-36.8766129931248,100 174.9044997362344,-36.87663471728663,100 174.9044946909492,-36.87663855487384,100 174.9044887458475,-36.876642345595876,100 174.90448322800688,-36.876647212856284,100 174.90445442417044,-36.876667003434186,100 174.90445165667933,-36.876669453424824,100 174.90444433278518,-36.87667464617014,100 174.9044411079631,-36.87667742886872,100 174.90442971860966,-36.876684352425826,100 174.90441029153254,-36.87670323286614,100 174.90440159722888,-36.87670948770146,100 174.9043928621973,-36.87671681305724,100 174.90437735815047,-36.8767268283033,100 174.9043661112339,-36.876729504348496,100 174.90434663341745,-36.876737669784625,100 174.9043179632422,-36.87675353924307,100 174.9043120192441,-36.87675732993868,100 174.90429596028494,-36.87676984802487,100 174.904254410198,-36.87679686325801,100 174.9042139488532,-36.87681820703817,100 174.90420674386337,-36.87682019276515,100 174.90419996641913,-36.8768225889505,100 174.90419272177587,-36.87682564337781,100 174.9041745526464,-36.87683491626407,100 174.9041700366598,-36.87683662184132,100 174.9041577774911,-36.87684208835818,100 174.9041523625132,-36.87684378040296,100 174.90414654770962,-36.876844732561956,100 174.9040831084162,-36.87687204269274,100 174.90407632381212,-36.87687546108408,100 174.9040704343139,-36.87687751675237,100 174.90406679291218,-36.87687956342897,100 174.90406225897695,-36.87688126928987,100 174.9040581599031,-36.87688368022466,100 174.904054567373,-36.87688502939633,100 174.90404954483657,-36.876887796732134,100 174.90404141949128,-36.8768908517457,100 174.9040383310148,-36.87689293642836,100 174.90412699552664,-36.877108004589886,100 174.90426100433365,-36.87728499691059,100 174.90434999777995,-36.877403993202286,100 174.9043540062729,-36.877409001581796,100 174.904596003018,-36.87772900105299,100 174.90472199288152,-36.87788000559408,100 174.90505199971304,-36.87831700489776,100 174.9049049937404,-36.87838899912834,100 174.90475899836127,-36.87845999994442,100 174.90490900133784,-36.87865800257261,100 174.90488700850113,-36.87866899981875,100 174.9047620025077,-36.87872900596615,100 174.90471699582324,-36.87875100234959,100 174.90461599842828,-36.87880099730356,100 174.90454799576878,-36.878833993379104,100 174.90437800029247,-36.87891599515564,100 174.90428900550958,-36.878960001034876,100 174.9042089987526,-36.878999001055774,100 174.9043370056974,-36.879169995569626,100 174.90446600621462,-36.879339998776686,100 174.9047019926353,-36.87939900412558,100 174.90491499298403,-36.879680996583446,100 174.90502099287872,-36.87982199572233,100 174.90512800652357,-36.87996399699365,100 174.90486700633173,-36.880166997420126,100 174.90495000524095,-36.880183001634265,100 174.90539999986004,-36.88026500308693,100 174.9053890031147,-36.880303993030594,100 174.90529400689374,-36.88063900343013,100 174.90527599650318,-36.88070399357642,100 174.90522299117836,-36.880890994293225,100 174.90516899413598,-36.881079002341345,100 174.90508399592522,-36.88137900356285,100 174.90500099971229,-36.88167200090103,100 174.90499000798258,-36.881708001945704,100 174.90477600732464,-36.882461004821515,100 174.90476500107061,-36.88249900340257,100 174.90473800601094,-36.882597003265325,100 174.90494500676385,-36.882636000135776,100 174.90591900197134,-36.882813997254694,100 174.90633400445347,-36.882890001031825,100 174.90672800271946,-36.882961991612866,100 174.90676899358718,-36.882970002567056,100 174.90720699149043,-36.883049995650985,100 174.9078989991408,-36.88317700543865,100 174.9081059927496,-36.88321500541502,100 174.908325001122,-36.8832549923123,100 174.90854300817466,-36.883294995790905,100 174.90876200050533,-36.8833349965543,100 174.9089809930701,-36.883374997808,100 174.90920000262503,-36.88341499657879,100 174.9094019920604,-36.88345200032936,100 174.90960399286087,-36.88348999319954,100 174.90962400253215,-36.883492999212635,100 174.90982100597103,-36.88352900531863,100 174.91001800060545,-36.883566001786654,100 174.91021476972887,-36.88360168562505,100 174.9104476313378,-36.88364441205268,100 174.91037793671754,-36.88389362732733,100 174.91029612584987,-36.88393500208969,100 174.9102467978112,-36.88411201135834,100 174.91029841399575,-36.88417778521873,100 174.91026104845966,-36.8843114199126,100 174.90987899162914,-36.884240995073036,100 174.90983099543118,-36.8844080069604,100 174.90978400056412,-36.88457500092601,100 174.90973700553002,-36.88474199577541,100 174.9096890072515,-36.88490899231164,100 174.90964199537152,-36.88507600181215,100 174.90959399670737,-36.885242998313004,100 174.90955000763643,-36.88539799867521,100 174.90954700088832,-36.88540999219207,100 174.90950000528375,-36.88557700227122,100 174.90945200716385,-36.88574399870118,100 174.90940899891154,-36.88589699943733,100 174.90940100397188,-36.88592500214307,100 174.90938500289084,-36.885922001971785,100 174.90933699952578,-36.88609200343487,100 174.90929000535073,-36.88626099540258,100 174.90925400491398,-36.88638399660121,100 174.90924199258816,-36.88643000462257,100 174.9092070029445,-36.88655399543192,100 174.90919399495047,-36.88659899825597,100 174.90915200784974,-36.88674699367854,100 174.9091459982608,-36.886767992754436,100 174.90910499274074,-36.88691400390233,100 174.90909800061252,-36.88693700166838,100 174.90905599634436,-36.88708499733004,100 174.90905000353078,-36.887105996131055,100 174.90900599562383,-36.887260996578256,100 174.90900299809232,-36.88727399670524,100 174.90895699661237,-36.8874369923244,100 174.90895500098023,-36.88744300554783,100 174.9089070021914,-36.88761199997521,100 174.90885300129057,-36.88780100096901,100 174.90896999114298,-36.88801999637508,100 174.9088870038421,-36.888312995899824,100 174.9087720027126,-36.888292000862116,100 174.9086789929227,-36.88827499941771,100 174.9084710001404,-36.88823700227677,100 174.90837300385073,-36.88821900543152,100 174.9083229997575,-36.88839500264255,100 174.90831699992495,-36.888416992969915,100 174.90827899609215,-36.888548995976464,100 174.9082619939701,-36.888610997742795,100 174.9082290058411,-36.88872799882094,100 174.9083709931633,-36.88885000518076,100 174.908482008631,-36.88894500703237,100 174.9083660088475,-36.88900299941943,100 174.9082419937847,-36.8890650033383,100 174.90837587687906,-36.88939011237149,100 174.90845044803424,-36.88976037844388,100 174.90836593330295,-36.890056486429465,100 174.90816400007148,-36.89001900166109,100 174.9080850048073,-36.890040996439765,100 174.90813900060408,-36.89016700591985,100 174.9081700023833,-36.89023799240306,100 174.90814500409618,-36.89032299535988,100 174.90810300201588,-36.89046999916965,100 174.9080610009079,-36.89061700294767,100 174.9080580005111,-36.89062800577162,100 174.90801700870412,-36.89077400006691,100 174.90798800617517,-36.890874995412084,100 174.90797699674096,-36.89091099516445,100 174.90794200368998,-36.891035000945976,100 174.90793500455857,-36.89105900642516,100 174.90789300132735,-36.89120599394922,100 174.9078799919313,-36.89125099844258,100 174.90785099949466,-36.89135299855977,100 174.90782199651488,-36.891453992065685,100 174.90780899636852,-36.891500002273716,100 174.90779399325194,-36.891553001027454,100 174.9074579999245,-36.89194299326341,100 174.90729600267514,-36.89207500499344,100 174.9071279975221,-36.89221299226902,100 174.9071049931102,-36.89223199908399,100 174.90706700027306,-36.89225100678551,100 174.9073739937057,-36.89260299433308,100 174.90743000392453,-36.892588003707516,100 174.90750458135346,-36.892566800436946,100 174.90786172528016,-36.89275988372427,100 174.90778300181245,-36.892830999426415,100 174.90775351271418,-36.89312244659523,100 174.90768583950685,-36.89333756956727,100 174.90763144864297,-36.89332652857049,100 174.9073049958618,-36.89326000438073,100 174.9072570006,-36.893412999624935,100 174.90722999892026,-36.893500003923315,100 174.90715799349178,-36.89352300532549,100 174.90697299681415,-36.8935810064044,100 174.90679300330797,-36.89363800483316,100 174.90661599625994,-36.89369300009462,100 174.90643800605213,-36.89374299323415,100 174.90625999805764,-36.89379300261838,100 174.90608200626508,-36.8938429961557,100 174.90589899539214,-36.8938940064325,100 174.9059110036523,-36.893937994588576,100 174.9059179932272,-36.89396599636609,100 174.90592399760223,-36.8939940004315,100 174.90592899990574,-36.894022005253035,100 174.90593300912744,-36.894051003939744,100 174.90593600474986,-36.89407899859758,100 174.90593799944156,-36.89410699489492,100 174.90593900030757,-36.89413600039201,100 174.90593999184765,-36.89416399926573,100 174.90593900507096,-36.89419299339279,100 174.90593699815076,-36.89422699178579,100 174.90593400487649,-36.894260991584446,100 174.90592900645308,-36.89429499832028,100 174.90592299549675,-36.89432799920747,100 174.90588100741397,-36.89454199970924,100 174.90587600393764,-36.89456700685752,100 174.90587000553776,-36.89459099435452,100 174.90586199551154,-36.894615992058995,100 174.90585399226157,-36.89463999910512,100 174.90584500341188,-36.89466399312264,100 174.90583499492746,-36.89468800440092,100 174.90582300630075,-36.894710998315055,100 174.9058099927001,-36.89473699834712,100 174.90579499821288,-36.894761996348365,100 174.90577900167452,-36.89478699690554,100 174.90572400445816,-36.89487000384214,100 174.90556599583738,-36.89510699163532,100 174.90543899859222,-36.8951880034031,100 174.90539799745835,-36.89521400170043,100 174.90539500403054,-36.89522399757193,100 174.9053920080458,-36.895231995261206,100 174.9053889957872,-36.89523500621614,100 174.90535900575293,-36.89530199198331,100 174.90535599604578,-36.895307001119654,100 174.90535499267904,-36.895312005111435,100 174.9053440009525,-36.89532599864376,100 174.9053289972647,-36.89535000528447,100 174.9053099916395,-36.89537499636389,100 174.9053060054648,-36.89538600141055,100 174.90526799562386,-36.89544800171738,100 174.90526699480316,-36.895455003890675,100 174.90525799822646,-36.89546800190259,100 174.90525699740465,-36.89547500407581,100 174.90522699218624,-36.89553199983922,100 174.90522400408375,-36.89553900684882,100 174.90521499960204,-36.89555299643464,100 174.90521499319385,-36.89555400240887,100 174.90516199585204,-36.89563999372485,100 174.90512600270702,-36.89570999689411,100 174.90511199597478,-36.895737006032924,100 174.90510200601062,-36.89575599931314,100 174.90509799962228,-36.89582500361953,100 174.9050959969164,-36.89582700602326,100 174.90510299388487,-36.89585400004979,100 174.90510199435602,-36.89585599988329,100 174.90511700515896,-36.89589600209012,100 174.90511700017774,-36.89589900626444,100 174.9051329976036,-36.89592200098862,100 174.9051339958016,-36.895925002592286,100 174.90515099664734,-36.895942994224576,100 174.90515300057598,-36.89594799143937,100 174.90516299662826,-36.89595699931774,100 174.90516699322868,-36.89595900373939,100 174.90518999592854,-36.89597899466311,100 174.90519300232148,-36.895984005541244,100 174.90522300275265,-36.89600199865692,100 174.90526799645914,-36.896041006156196,100 174.90528100494257,-36.896054002708226,100 174.9052850041055,-36.89605800530759,100 174.90530699181036,-36.89607499397348,100 174.90531300553525,-36.89607999806868,100 174.9053409968867,-36.89611300239138,100 174.90535299523273,-36.89613199358378,100 174.90536700314559,-36.89614799441163,100 174.9053869990148,-36.89615600363252,100 174.90542200504245,-36.896163005037934,100 174.90543000430245,-36.89616599257217,100 174.90544800514704,-36.89616999497907,100 174.90546900057535,-36.89617600525054,100 174.90554400189043,-36.896184003594406,100 174.9055619948609,-36.896188997560394,100 174.9056099912374,-36.89620699839789,100 174.90564499845016,-36.89621400061922,100 174.9056630030022,-36.89622000115645,100 174.90569099580213,-36.8962239982424,100 174.90577199176994,-36.89625400599495,100 174.90580899260968,-36.896289003573976,100 174.9058089962998,-36.89629100173744,100 174.90581400763162,-36.896295993047815,100 174.90583000042065,-36.89632199274261,100 174.90583399203342,-36.89634400738869,100 174.90583299508722,-36.89634800540926,100 174.9058349954031,-36.89635100534818,100 174.90583500801793,-36.896353993917224,100 174.9058370043866,-36.89636500123112,100 174.9058409995478,-36.89637899228445,100 174.9058379985012,-36.89639499737646,100 174.90583600460798,-36.89640299341764,100 174.9058390068491,-36.8964109931164,100 174.90583800490592,-36.89644700333851,100 174.90583699370174,-36.89645299981048,100 174.9058360031565,-36.896467992909976,100 174.9058400011095,-36.89647699782559,100 174.90584100560378,-36.89648399576683,100 174.905842991667,-36.89648899415679,100 174.90584300211626,-36.89649000076164,100 174.90584500612783,-36.896494998863574,100 174.9058560001868,-36.89650699295856,100 174.90590700174994,-36.896558996353995,100 174.90593000395017,-36.89658400477448,100 174.90594400649707,-36.89659599204654,100 174.905949999675,-36.89660400143275,100 174.90597899226194,-36.896630003412675,100 174.905985998833,-36.896633999189014,100 174.90598999548985,-36.89663600358114,100 174.90599699568708,-36.89664100623154,100 174.90600300276807,-36.89664700274821,100 174.90600900363356,-36.896661004872755,100 174.90601499901672,-36.896670997120175,100 174.9060159997074,-36.89668099921413,100 174.90600999652176,-36.896684001396814,100 174.9060039983335,-36.896696001358805,100 174.90600099743946,-36.896707004135344,100 174.90599599751374,-36.89672200659266,100 174.9059950068929,-36.89674200291117,100 174.90599000275927,-36.896759994206924,100 174.90598400720856,-36.89678599520265,100 174.90598000162262,-36.89679500055571,100 174.90595900103497,-36.89688100243117,100 174.90595499801444,-36.89689200596464,100 174.90595199158028,-36.896898997061385,100 174.905949001123,-36.896911006441414,100 174.9059509930538,-36.89694899207952,100 174.90595299636738,-36.89695400641397,100 174.90595499239134,-36.8969649984076,100 174.90596699653491,-36.8969880003048,100 174.90597299981806,-36.8969970009768,100 174.9059729919402,-36.896997992553224,100 174.90597399806452,-36.897000002571566,100 174.90598300747806,-36.897013999682464,100 174.90598899906422,-36.897026996084776,100 174.90599600450048,-36.89704799704803,100 174.90599700152225,-36.897056001879385,100 174.9060049934569,-36.897071998215694,100 174.9060089940163,-36.89708300040337,100 174.90600600186278,-36.897117001073596,100 174.90600600576377,-36.89712599977151,100 174.90600200153543,-36.89714200744405,100 174.90599399267592,-36.89715699959907,100 174.90599000631568,-36.89716100413052,100 174.90597500094557,-36.8971729936003,100 174.9059379918062,-36.897191999596366,100 174.9059210070671,-36.89719799821316,100 174.9059100012535,-36.89720200271288,100 174.90588799973034,-36.89722300494986,100 174.90587599400567,-36.897228993969904,100 174.90585600325733,-36.897254002743125,100 174.90583800723317,-36.89729500494354,100 174.9058360067304,-36.89731099217682,100 174.90583800069655,-36.897314998989216,100 174.90583599493854,-36.89733199307914,100 174.90583400140602,-36.89734000443612,100 174.90583900405437,-36.897351004971256,100 174.90586500206558,-36.89736799857797,100 174.90632300225175,-36.897439993547785,100 174.90611199264936,-36.89800099844225,100 174.9058450067636,-36.89793199385088,100 174.905777001393,-36.89791499737538,100 174.90576399406106,-36.897940006747746,100 174.90574899767137,-36.89795800423216,100 174.90574200333793,-36.898046002178944,100 174.90574399824544,-36.89805699419226,100 174.90574199166986,-36.89806200076197,100 174.90574699674087,-36.898067998945216,100 174.9057570031944,-36.898077997148015,100 174.9057609949928,-36.89808300661893,100 174.9057650069061,-36.89808999776537,100 174.90577000162804,-36.89811899504663,100 174.90577300136795,-36.89812499656223,100 174.9057830026964,-36.898227004996805,100 174.90578399676573,-36.89823299633147,100 174.90577900603867,-36.89824900540267,100 174.9057780010515,-36.89825899731598,100 174.90578099717982,-36.89827500442067,100 174.905790006727,-36.89830100258961,100 174.90579799240612,-36.89831800670974,100 174.90580700038208,-36.898360994747065,100 174.90580400824962,-36.898389993092074,100 174.90579900821209,-36.89840499644226,100 174.90579599839884,-36.89841000468899,100 174.90579199235543,-36.89841899562107,100 174.90576899349207,-36.89844399586261,100 174.9057219962954,-36.8984909929535,100 174.90567699831897,-36.898515003182524,100 174.90565099321788,-36.89853500695796,100 174.9056379957842,-36.89854900475493,100 174.9056200044724,-36.898582000436,100 174.90561199414722,-36.8985899938539,100 174.90560399664082,-36.89860599257227,100 174.90560099691876,-36.8986119939047,100 174.90558799692027,-36.898623994416745,100 174.9055779995888,-36.898632007092786,100 174.90557500732024,-36.89863699973015,100 174.90557100802278,-36.89864499999821,100 174.9055470069232,-36.89868200470799,100 174.90553399516108,-36.898698000044426,100 174.90551800415102,-36.89872199370207,100 174.90551499176635,-36.89872500466233,100 174.90545899296313,-36.8988049936981,100 174.90545300259953,-36.89881100064256,100 174.90541800536252,-36.89884099732658,100 174.90540900093632,-36.89885500224613,100 174.90538900541247,-36.898870996936914,100 174.90536599199558,-36.89889799465617,100 174.90535699377222,-36.89891599501512,100 174.90535599802536,-36.89892699264735,100 174.9053539939635,-36.89893399739215,100 174.90535300441258,-36.89897299617154,100 174.9053520074129,-36.8989769941881,100 174.90535400587896,-36.899049996828225,100 174.90534400550456,-36.899080001692965,100 174.90533199701966,-36.89909099211829,100 174.90530500640475,-36.89909899615871,100 174.90530200150195,-36.89910100022145,100 174.90527300807452,-36.899111005762286,100 174.9052639968514,-36.89911399937801,100 174.90523999698172,-36.89911699367355,100 174.9052339989293,-36.899117006965795,100 174.90517800697208,-36.899124004325465,100 174.90500999992423,-36.89917800121037,100 174.9050029943837,-36.8991810049995,100 174.90499800059496,-36.8991829985921,100 174.90498499661422,-36.89918600034406,100 174.9049580084313,-36.89919600068676,100 174.90495300825293,-36.89919900115222,100 174.9049310059855,-36.89920800037554,100 174.90491599383793,-36.89921599337927,100 174.90489100338763,-36.89923899923251,100 174.90488899382183,-36.89924199319277,100 174.90487899209285,-36.89925299465226,100 174.90487500820356,-36.899265996965454,100 174.9048700040693,-36.899284004436254,100 174.9048699973873,-36.89929199562912,100 174.90487199502908,-36.89929800061966,100 174.9048720062121,-36.89931799437824,100 174.90488899669148,-36.89941899578361,100 174.90488900017795,-36.899444998752394,100 174.90489100046375,-36.89946000155769,100 174.904887993738,-36.899478994582545,100 174.90489299501223,-36.8995070003428,100 174.90489500159856,-36.89951399663902,100 174.90489899961716,-36.89952300158057,100 174.90490000521282,-36.89954900199681,100 174.90489699719578,-36.89957299825855,100 174.90489399736063,-36.89957899867388,100 174.9048860020763,-36.899608998382696,100 174.9048559925726,-36.8996829992758,100 174.9048450042108,-36.89969900625211,100 174.90482900355445,-36.89972899283658,100 174.90482000377378,-36.899751994593814,100 174.90479800481677,-36.89978699766588,100 174.90478699845735,-36.89980300402425,100 174.9047859977514,-36.89980500387353,100 174.90473700595,-36.89988400141766,100 174.90472899906615,-36.89989399294401,100 174.90472299171276,-36.89989999922355,100 174.90469999713306,-36.89992899473612,100 174.9046859995984,-36.89995699512133,100 174.9046799984228,-36.89996699684225,100 174.90465500343527,-36.89999299239164,100 174.90463300198016,-36.900020994035685,100 174.90462799928451,-36.90002899684302,100 174.90460999727645,-36.900048998243754,100 174.9045890089316,-36.90008999055355,100 174.9045860052027,-36.90009899601775,100 174.90458199821722,-36.90010800314843,100 174.90456600796176,-36.900126994353286,100 174.90453799214555,-36.90017399666506,100 174.90453300481738,-36.90018000009878,100 174.90451799714842,-36.900208993690676,100 174.90451499220424,-36.90021099863594,100 174.90449900347116,-36.900237004765245,100 174.90449499720987,-36.90024599655901,100 174.90448599125764,-36.9002530008976,100 174.90447499979905,-36.900266993444276,100 174.90444299532328,-36.90029399454986,100 174.90443100101803,-36.90030800587644,100 174.90441799380756,-36.900327996562496,100 174.90441400720485,-36.900332001046074,100 174.9044110011314,-36.90033400600688,100 174.90440100673462,-36.9003440014385,100 174.90439600397232,-36.900352003335975,100 174.90439299222206,-36.90035499893579,100 174.90438199209433,-36.90036999838519,100 174.90437100841092,-36.90040200273591,100 174.9043680028969,-36.900415994314194,100 174.90436400704425,-36.90042599270886,100 174.90435199592196,-36.900447003932506,100 174.90434899464324,-36.900458005770716,100 174.90434599767,-36.900489993827016,100 174.90434000248717,-36.90052299436502,100 174.9043409980508,-36.900536001545674,100 174.90433999961178,-36.90054500099007,100 174.90432700510314,-36.90057299967249,100 174.90432599490455,-36.90058599574904,100 174.90432700592424,-36.90060400409514,100 174.90432400158278,-36.9006249961897,100 174.90431999262887,-36.90065099228485,100 174.90432100497637,-36.900656999561285,100 174.90431699346314,-36.90068099657411,100 174.90430900602433,-36.90070500415596,100 174.9043080008268,-36.90071499605933,100 174.90429799368218,-36.90074100540245,100 174.90429499238599,-36.90075200723932,100 174.90427799962038,-36.90078300290915,100 174.9042749946254,-36.900785006948034,100 174.90427099643878,-36.90078800484052,100 174.90426900110407,-36.9007890003404,100 174.90426199656994,-36.90079900460742,100 174.90423900074498,-36.90079699471571,100 174.90416739181455,-36.90070902135852,100 174.90399767896537,-36.90049979535254,100 174.90372383593575,-36.90064491038499,100 174.90339701308113,-36.90081812338677,100 174.90260167940704,-36.899830889869776,100 174.9024836171085,-36.89969087655776,100 174.90218833869108,-36.89934068380657,100 174.90082099824784,-36.90006799286573,100 174.8998679964306,-36.90056599590244,100 174.89953399564735,-36.90074200362269,100 174.89881600349878,-36.90112100601451,100 174.89877100464994,-36.90081499763482,100 174.8984953493903,-36.90047270461813,100 174.89844876948413,-36.90041476608593,100 174.89882768653075,-36.90021793130464,100 174.89882263520175,-36.90021150003164,100 174.89878399803388,-36.90016399990884,100 174.89783898210862,-36.89900490585918,100 174.89753918894962,-36.899163549082445,100 174.89723721338865,-36.89932334495742,100 174.89714530829966,-36.89937197989368,100 174.89696046556892,-36.899380651049164,100 174.89694854891442,-36.89921745563442,100 174.89701723157754,-36.89918129376343,100 174.89682238688283,-36.89894225263866,100 174.89701011719052,-36.89884356680628,100 174.8972353922994,-36.898725154978386,100 174.8971247539746,-36.898589451171176,100 174.8970694344006,-36.898521599232616,100 174.8970140981216,-36.898453748434434,100 174.89690349610464,-36.89831807356927,100 174.89716631225042,-36.89817982817378,100 174.8969637071507,-36.89793126074617,100 174.8969639934,-36.89793099208794,100 174.89684499785167,-36.89761299620553,100 174.89728499938744,-36.89756400140177,100 174.89724200831756,-36.897551994832675,100 174.89725299685074,-36.897515004018466,100 174.89725599559156,-36.897502004159065,100 174.89732500726416,-36.897257998019356,100 174.89735900583435,-36.897137994050894,100 174.89737100577952,-36.89709499239297,100 174.89741300493043,-36.896947001722204,100 174.89767400538761,-36.89693000540126,100 174.89781900156015,-36.89681700041833,100 174.8979630031939,-36.89670300528105,100 174.89810799963126,-36.896589999947544,100 174.89826799413055,-36.89646599659924,100 174.89834800740834,-36.896402996378335,100 174.8984120044296,-36.89635299314171,100 174.8984660035575,-36.89631100196533,100 174.89856200017283,-36.89623700240851,100 174.89860399770672,-36.89620499493819,100 174.89870900285064,-36.896126004873835,100 174.8987530020234,-36.8960919950708,100 174.8988559947443,-36.896014000559155,100 174.89890299227727,-36.89597899367885,100 174.89900199338558,-36.89590300519966,100 174.8990520037017,-36.89586500277953,100 174.89914900126985,-36.89579100117461,100 174.89924799504647,-36.89571600406258,100 174.8992960022375,-36.895680002953874,100 174.8993450059514,-36.895633003314934,100 174.89937599888577,-36.89552400058358,100 174.89938999963462,-36.89547199680355,100 174.89943600551345,-36.89531199257813,100 174.8994409967164,-36.89529600086997,100 174.89948699245795,-36.895135007136616,100 174.8995319948152,-36.89497500630046,100 174.89953899692767,-36.894951002147266,100 174.8995780066473,-36.89481399694911,100 174.89961500175417,-36.89468300511192,100 174.89943800883796,-36.89448799415017,100 174.8994179949943,-36.894465998424444,100 174.89922300733681,-36.89425199204502,100 174.899086992439,-36.89422700458895,100 174.8990910072568,-36.89421200463261,100 174.89880900865236,-36.89416099797453,100 174.89861099798114,-36.89416999741778,100 174.89821699993627,-36.894097992345905,100 174.89824700352418,-36.8939919971628,100 174.89803300865674,-36.893953003434,100 174.89800000179102,-36.89394700079316,100 174.8979819942099,-36.89394400412542,100 174.8977149951737,-36.89390800099202,100 174.89770300593216,-36.89390700369764,100 174.89735099558357,-36.89385900664089,100 174.89733399482384,-36.89373700334301,100 174.89729499759335,-36.893743992275134,100 174.8970970061447,-36.89370799858857,100 174.8971649936089,-36.89346899670172,100 174.89686900719715,-36.89341900555473,100 174.89677199293672,-36.89340299525538,100 174.896719993782,-36.89339399760165,100 174.8962100072224,-36.893298999265475,100 174.89590905996727,-36.89325332477987,100 174.89606368300008,-36.893206832999965,100</coordinates></LinearRing></outerBoundaryIs>
    </Polygon>
  </Placemark>

  <Placemark>
    <name>Half Moon Bay</name>
    <Point>
      <altitudeMode>relativeToGround</altitudeMode>
      <coordinates>174.9003933754076,-36.88889035171493,100</coordinates>
    </Point>
  </Placemark>

</Document>
</kml>