<?xml version="1.0" encoding="UTF-8"?>
<kml xmlns="http://www.opengis.net/kml/2.2">
  <Document>
    <name>Highland Park (polygon: official_shp)</name>
    <Style id="icon-1899-0288D1-nodesc-normal">
      <IconStyle>
        <color>ffd18802</color>
        <scale>1</scale>
        <Icon>
          <href>https://www.gstatic.com/mapspro/images/stock/503-wht-blank_maps.png</href>
        </Icon>
        <hotSpot x="32" xunits="pixels" y="64" yunits="insetPixels"/>
      </IconStyle>
      <LabelStyle>
        <scale>0</scale>
      </LabelStyle>
      <BalloonStyle>
        <text><![CDATA[<h3>$[name]</h3>]]></text>
      </BalloonStyle>
    </Style>
    <Style id="icon-1899-0288D1-nodesc-highlight">
      <IconStyle>
        <color>ffd18802</color>
        <scale>1</scale>
        <Icon>
          <href>https://www.gstatic.com/mapspro/images/stock/503-wht-blank_maps.png</href>
        </Icon>
        <hotSpot x="32" xunits="pixels" y="64" yunits="insetPixels"/>
      </IconStyle>
      <LabelStyle>
        <scale>1</scale>
      </LabelStyle>
      <BalloonStyle>
        <text><![CDATA[<h3>$[name]</h3>]]></text>
      </BalloonStyle>
    </Style>
    <StyleMap id="icon-1899-0288D1-nodesc">
      <Pair>
        <key>normal</key>
        <styleUrl>#icon-1899-0288D1-nodesc-normal</styleUrl>
      </Pair>
      <Pair>
        <key>highlight</key>
        <styleUrl>#icon-1899-0288D1-nodesc-highlight</styleUrl>
      </Pair>
    </StyleMap>
    <Style id="poly-0000FF-2000-102-nodesc-normal">
      <LineStyle>
        <color>ffff0000</color>
        <width>2</width>
      </LineStyle>
      <PolyStyle>
        <color>66ff0000</color>
        <fill>1</fill>
        <outline>1</outline>
      </PolyStyle>
      <BalloonStyle>
        <text><![CDATA[<h3>$[name]</h3>]]></text>
      </BalloonStyle>
    </Style>
    <Style id="poly-0000FF-2000-102-nodesc-highlight">
      <LineStyle>
        <color>ffff0000</color>
        <width>3</width>
      </LineStyle>
      <PolyStyle>
        <color>66ff0000</color>
        <fill>1</fill>
        <outline>1</outline>
      </PolyStyle>
      <BalloonStyle>
        <text><![CDATA[<h3>$[name]</h3>]]></text>
      </BalloonStyle>
    </Style>
    <StyleMap id="poly-0000FF-2000-102-nodesc">
      <Pair>
        <key>normal</key>
        <styleUrl>#poly-0000FF-2000-102-nodesc-normal</styleUrl>
      </Pair>
      <Pair>
        <key>highlight</key>
        <styleUrl>#poly-0000FF-2000-102-nodesc-highlight</styleUrl>
      </Pair>
    </StyleMap>
    <Placemark>
      <name>Highland Park (polygon: official_shp)</name>
      <styleUrl>#poly-0000FF-2000-102-nodesc</styleUrl>
      <Polygon>
        <outerBoundaryIs>
          <LinearRing>
            <tessellate>1</tessellate>
            <coordinates>
              174.917725,-36.900922,0
              174.917247,-36.900903,0
              174.917033,-36.900894,0
              174.91689,-36.900888,0
              174.916641,-36.900879,0
              174.916621,-36.900878,0
              174.916395,-36.900869,0
              174.916048,-36.900855,0
              174.915984,-36.900852,0
              174.915945,-36.900851,0
              174.915804,-36.900845,0
              174.915633,-36.900838,0
              174.914783,-36.900805,0
              174.914786,-36.900746,0
              174.914798,-36.900544,0
              174.91481,-36.900348,0
              174.914822,-36.900143,0
              174.914834,-36.899949,0
              174.914845,-36.899762,0
              174.914846,-36.899746,0
              174.914464,-36.89973,0
              174.914475,-36.899587,0
              174.914236,-36.899577,0
              174.913957,-36.899566,0
              174.91396,-36.89951,0
              174.913968,-36.899386,0
              174.91397,-36.899358,0
              174.913972,-36.899329,0
              174.913706,-36.899318,0
              174.91348,-36.899309,0
              174.913453,-36.899308,0
              174.913255,-36.899299,0
              174.913029,-36.89929,0
              174.913002,-36.899289,0
              174.912804,-36.899281,0
              174.912621,-36.899273,0
              174.912565,-36.899271,0
              174.912352,-36.899267,0
              174.912045,-36.899255,0
              174.91195,-36.899251,0
              174.911827,-36.899246,0
              174.911629,-36.899237,0
              174.911609,-36.899237,0
              174.911391,-36.899228,0
              174.911182,-36.899219,0
              174.911173,-36.899219,0
              174.910955,-36.89921,0
              174.910857,-36.899206,0
              174.910737,-36.899201,0
              174.910621,-36.899196,0
              174.910519,-36.899192,0
              174.910379,-36.899186,0
              174.910301,-36.899183,0
              174.910087,-36.899174,0
              174.909848,-36.899164,0
              174.909878,-36.899021,0
              174.909916,-36.898844,0
              174.909489,-36.898826,0
              174.909409,-36.898877,0
              174.90914,-36.898841,0
              174.909086,-36.89877,0
              174.909145,-36.898502,0
              174.909258,-36.898284,0
              174.909291,-36.898212,0
              174.909292,-36.89821,0
              174.909295,-36.898213,0
              174.909512,-36.897793,0
              174.909498,-36.897774,0
              174.90996,-36.896881,0
              174.90843,-36.896851,0
              174.908419,-36.896851,0
              174.908396,-36.89685,0
              174.908412,-36.896826,0
              174.908433,-36.896804,0
              174.908443,-36.896782,0
              174.908453,-36.89677,0
              174.908455,-36.896765,0
              174.908469,-36.896743,0
              174.908474,-36.896733,0
              174.908478,-36.896726,0
              174.908482,-36.896712,0
              174.908487,-36.896689,0
              174.90849,-36.896674,0
              174.90849,-36.896664,0
              174.90849,-36.896658,0
              174.908488,-36.896653,0
              174.908484,-36.896648,0
              174.90848,-36.896626,0
              174.908481,-36.896618,0
              174.90848,-36.896607,0
              174.908477,-36.896599,0
              174.908475,-36.896588,0
              174.908476,-36.896569,0
              174.90847,-36.896555,0
              174.908463,-36.896545,0
              174.908462,-36.896541,0
              174.908448,-36.89651,0
              174.908439,-36.896502,0
              174.908433,-36.896498,0
              174.908431,-36.896494,0
              174.908405,-36.89648,0
              174.908386,-36.896474,0
              174.908367,-36.896473,0
              174.908331,-36.896474,0
              174.908294,-36.896471,0
              174.908281,-36.896464,0
              174.908274,-36.896462,0
              174.908266,-36.896459,0
              174.908252,-36.896454,0
              174.90823,-36.896441,0
              174.908214,-36.896435,0
              174.908167,-36.896437,0
              174.908158,-36.896437,0
              174.908146,-36.896439,0
              174.908136,-36.896442,0
              174.908128,-36.896442,0
              174.908121,-36.896443,0
              174.908112,-36.896444,0
              174.908097,-36.896448,0
              174.908082,-36.89645,0
              174.908071,-36.89645,0
              174.908011,-36.896452,0
              174.907999,-36.89645,0
              174.907985,-36.896448,0
              174.907977,-36.896445,0
              174.907957,-36.89644,0
              174.907949,-36.896435,0
              174.907917,-36.896421,0
              174.907911,-36.896415,0
              174.907908,-36.896404,0
              174.907906,-36.8964,0
              174.907901,-36.896377,0
              174.907901,-36.896373,0
              174.907901,-36.896363,0
              174.907904,-36.896355,0
              174.907909,-36.896345,0
              174.907911,-36.896343,0
              174.907923,-36.896327,0
              174.907943,-36.896306,0
              174.907969,-36.896261,0
              174.907977,-36.896245,0
              174.90799,-36.896197,0
              174.907989,-36.896115,0
              174.90797,-36.896071,0
              174.90797,-36.896064,0
              174.907968,-36.896058,0
              174.907968,-36.896038,0
              174.90797,-36.896034,0
              174.907971,-36.89603,0
              174.907974,-36.896026,0
              174.907976,-36.896023,0
              174.907979,-36.89602,0
              174.907981,-36.896018,0
              174.907983,-36.896015,0
              174.907994,-36.896003,0
              174.907994,-36.896001,0
              174.907999,-36.895992,0
              174.908002,-36.895987,0
              174.908004,-36.895985,0
              174.908005,-36.895982,0
              174.908007,-36.89598,0
              174.908007,-36.895979,0
              174.908012,-36.895968,0
              174.908012,-36.895964,0
              174.908013,-36.895962,0
              174.908014,-36.895958,0
              174.908015,-36.895956,0
              174.908014,-36.895952,0
              174.908014,-36.895944,0
              174.908012,-36.89594,0
              174.90801,-36.895939,0
              174.908008,-36.895935,0
              174.908007,-36.895932,0
              174.908,-36.895924,0
              174.907998,-36.895923,0
              174.907996,-36.895921,0
              174.907993,-36.895918,0
              174.907988,-36.895915,0
              174.907984,-36.895914,0
              174.907973,-36.895909,0
              174.907971,-36.895909,0
              174.907967,-36.895908,0
              174.907958,-36.895905,0
              174.907954,-36.895903,0
              174.907928,-36.895898,0
              174.907912,-36.895897,0
              174.907907,-36.895898,0
              174.907887,-36.895902,0
              174.907878,-36.895903,0
              174.90785,-36.895912,0
              174.907845,-36.895913,0
              174.907838,-36.895917,0
              174.907835,-36.895917,0
              174.907814,-36.895925,0
              174.90781,-36.895928,0
              174.907807,-36.895928,0
              174.907797,-36.895934,0
              174.907787,-36.895939,0
              174.907783,-36.89594,0
              174.907763,-36.895955,0
              174.907747,-36.895962,0
              174.907744,-36.895965,0
              174.907741,-36.895968,0
              174.907737,-36.895971,0
              174.907734,-36.895974,0
              174.90773,-36.895977,0
              174.907727,-36.89598,0
              174.907723,-36.895983,0
              174.90772,-36.895986,0
              174.907716,-36.89599,0
              174.907712,-36.895994,0
              174.907708,-36.895997,0
              174.907704,-36.896001,0
              174.907701,-36.896006,0
              174.907697,-36.89601,0
              174.907693,-36.896014,0
              174.907689,-36.896019,0
              174.907684,-36.896023,0
              174.907679,-36.896028,0
              174.907673,-36.896033,0
              174.907667,-36.896038,0
              174.907661,-36.896043,0
              174.907654,-36.896049,0
              174.907647,-36.896054,0
              174.907639,-36.89606,0
              174.907631,-36.896066,0
              174.907623,-36.896072,0
              174.907614,-36.896078,0
              174.907604,-36.896084,0
              174.907594,-36.89609,0
              174.907582,-36.896095,0
              174.90757,-36.896101,0
              174.907557,-36.896106,0
              174.907543,-36.896112,0
              174.907528,-36.896117,0
              174.907513,-36.896123,0
              174.907497,-36.896128,0
              174.907481,-36.896134,0
              174.907464,-36.896139,0
              174.907448,-36.896144,0
              174.907431,-36.89615,0
              174.907414,-36.896155,0
              174.907396,-36.89616,0
              174.907378,-36.896166,0
              174.907359,-36.896171,0
              174.90734,-36.896177,0
              174.907321,-36.896182,0
              174.907303,-36.896187,0
              174.907285,-36.896192,0
              174.907268,-36.896196,0
              174.907253,-36.8962,0
              174.907238,-36.896203,0
              174.907224,-36.896206,0
              174.907211,-36.896209,0
              174.907198,-36.896211,0
              174.907186,-36.896213,0
              174.907174,-36.896215,0
              174.907163,-36.896217,0
              174.907153,-36.896219,0
              174.907143,-36.89622,0
              174.907134,-36.896222,0
              174.907126,-36.896224,0
              174.907118,-36.896225,0
              174.907112,-36.896227,0
              174.907107,-36.896228,0
              174.907101,-36.896229,0
              174.907097,-36.896231,0
              174.907092,-36.896232,0
              174.907087,-36.896233,0
              174.907082,-36.896234,0
              174.907077,-36.896235,0
              174.907071,-36.896235,0
              174.907065,-36.896236,0
              174.90706,-36.896236,0
              174.907054,-36.896237,0
              174.907048,-36.896237,0
              174.907043,-36.896237,0
              174.907037,-36.896237,0
              174.907031,-36.896238,0
              174.907025,-36.896238,0
              174.90702,-36.896238,0
              174.906843,-36.89681,0
              174.906671,-36.897521,0
              174.906597,-36.898127,0
              174.906112,-36.898001,0
              174.905845,-36.897932,0
              174.905777,-36.897915,0
              174.905764,-36.89794,0
              174.905749,-36.897958,0
              174.905742,-36.898046,0
              174.905744,-36.898057,0
              174.905742,-36.898062,0
              174.905747,-36.898068,0
              174.905757,-36.898078,0
              174.905761,-36.898083,0
              174.905765,-36.89809,0
              174.90577,-36.898119,0
              174.905773,-36.898125,0
              174.905783,-36.898227,0
              174.905784,-36.898233,0
              174.905779,-36.898249,0
              174.905778,-36.898259,0
              174.905781,-36.898275,0
              174.90579,-36.898301,0
              174.905798,-36.898318,0
              174.905807,-36.898361,0
              174.905804,-36.89839,0
              174.905799,-36.898405,0
              174.905796,-36.89841,0
              174.905792,-36.898419,0
              174.905769,-36.898444,0
              174.905722,-36.898491,0
              174.905677,-36.898515,0
              174.905651,-36.898535,0
              174.905638,-36.898549,0
              174.90562,-36.898582,0
              174.905612,-36.89859,0
              174.905604,-36.898606,0
              174.905601,-36.898612,0
              174.905588,-36.898624,0
              174.905578,-36.898632,0
              174.905575,-36.898637,0
              174.905571,-36.898645,0
              174.905547,-36.898682,0
              174.905534,-36.898698,0
              174.905518,-36.898722,0
              174.905515,-36.898725,0
              174.905459,-36.898805,0
              174.905453,-36.898811,0
              174.905418,-36.898841,0
              174.905409,-36.898855,0
              174.905389,-36.898871,0
              174.905366,-36.898898,0
              174.905357,-36.898916,0
              174.905356,-36.898927,0
              174.905354,-36.898934,0
              174.905353,-36.898973,0
              174.905352,-36.898977,0
              174.905354,-36.89905,0
              174.905344,-36.89908,0
              174.905332,-36.899091,0
              174.905305,-36.899099,0
              174.905302,-36.899101,0
              174.905273,-36.899111,0
              174.905264,-36.899114,0
              174.90524,-36.899117,0
              174.905234,-36.899117,0
              174.905178,-36.899124,0
              174.90501,-36.899178,0
              174.905003,-36.899181,0
              174.904998,-36.899183,0
              174.904985,-36.899186,0
              174.904958,-36.899196,0
              174.904953,-36.899199,0
              174.904931,-36.899208,0
              174.904916,-36.899216,0
              174.904891,-36.899239,0
              174.904889,-36.899242,0
              174.904879,-36.899253,0
              174.904875,-36.899266,0
              174.90487,-36.899284,0
              174.90487,-36.899292,0
              174.904872,-36.899298,0
              174.904872,-36.899318,0
              174.904889,-36.899419,0
              174.904889,-36.899445,0
              174.904891,-36.89946,0
              174.904888,-36.899479,0
              174.904893,-36.899507,0
              174.904895,-36.899514,0
              174.904899,-36.899523,0
              174.9049,-36.899549,0
              174.904897,-36.899573,0
              174.904894,-36.899579,0
              174.904886,-36.899609,0
              174.904856,-36.899683,0
              174.904845,-36.899699,0
              174.904829,-36.899729,0
              174.90482,-36.899752,0
              174.904798,-36.899787,0
              174.904787,-36.899803,0
              174.904786,-36.899805,0
              174.904737,-36.899884,0
              174.904729,-36.899894,0
              174.904723,-36.8999,0
              174.9047,-36.899929,0
              174.904686,-36.899957,0
              174.90468,-36.899967,0
              174.904655,-36.899993,0
              174.904633,-36.900021,0
              174.904628,-36.900029,0
              174.90461,-36.900049,0
              174.904589,-36.90009,0
              174.904586,-36.900099,0
              174.904582,-36.900108,0
              174.904566,-36.900127,0
              174.904538,-36.900174,0
              174.904533,-36.90018,0
              174.904518,-36.900209,0
              174.904515,-36.900211,0
              174.904499,-36.900237,0
              174.904495,-36.900246,0
              174.904486,-36.900253,0
              174.904475,-36.900267,0
              174.904443,-36.900294,0
              174.904431,-36.900308,0
              174.904418,-36.900328,0
              174.904414,-36.900332,0
              174.904411,-36.900334,0
              174.904401,-36.900344,0
              174.904396,-36.900352,0
              174.904393,-36.900355,0
              174.904382,-36.90037,0
              174.904371,-36.900402,0
              174.904368,-36.900416,0
              174.904364,-36.900426,0
              174.904352,-36.900447,0
              174.904349,-36.900458,0
              174.904346,-36.90049,0
              174.90434,-36.900523,0
              174.904341,-36.900536,0
              174.90434,-36.900545,0
              174.904327,-36.900573,0
              174.904326,-36.900586,0
              174.904327,-36.900604,0
              174.904324,-36.900625,0
              174.90432,-36.900651,0
              174.904321,-36.900657,0
              174.904317,-36.900681,0
              174.904309,-36.900705,0
              174.904308,-36.900715,0
              174.904298,-36.900741,0
              174.904295,-36.900752,0
              174.904278,-36.900783,0
              174.904275,-36.900785,0
              174.904271,-36.900788,0
              174.904269,-36.900789,0
              174.904262,-36.900799,0
              174.904239,-36.900797,0
              174.904258,-36.900814,0
              174.904251,-36.900826,0
              174.904244,-36.900841,0
              174.904232,-36.900863,0
              174.904225,-36.900884,0
              174.904222,-36.900889,0
              174.904218,-36.900902,0
              174.904215,-36.900907,0
              174.904207,-36.900929,0
              174.904195,-36.900942,0
              174.904179,-36.900965,0
              174.904158,-36.900993,0
              174.904153,-36.901007,0
              174.904144,-36.901031,0
              174.904131,-36.901062,0
              174.904123,-36.901089,0
              174.904117,-36.901099,0
              174.904114,-36.901113,0
              174.904113,-36.901125,0
              174.904103,-36.901177,0
              174.904098,-36.901186,0
              174.90409,-36.901198,0
              174.904086,-36.901211,0
              174.904088,-36.901226,0
              174.90408,-36.901293,0
              174.904081,-36.901304,0
              174.90406,-36.901453,0
              174.90405,-36.901489,0
              174.904049,-36.901497,0
              174.904046,-36.901513,0
              174.904039,-36.901527,0
              174.904039,-36.901533,0
              174.904042,-36.901552,0
              174.904041,-36.901579,0
              174.90403,-36.901609,0
              174.90403,-36.901632,0
              174.904031,-36.901657,0
              174.90403,-36.901667,0
              174.90403,-36.901685,0
              174.904028,-36.901694,0
              174.904028,-36.901703,0
              174.904018,-36.901794,0
              174.90402,-36.901814,0
              174.90402,-36.901823,0
              174.904017,-36.901855,0
              174.904018,-36.901867,0
              174.904018,-36.901883,0
              174.904019,-36.901889,0
              174.904017,-36.901911,0
              174.904017,-36.901917,0
              174.904018,-36.901922,0
              174.90402,-36.901978,0
              174.904016,-36.902008,0
              174.904018,-36.902031,0
              174.904017,-36.902037,0
              174.904017,-36.902052,0
              174.904016,-36.902057,0
              174.904014,-36.902094,0
              174.904003,-36.902155,0
              174.904005,-36.902193,0
              174.904007,-36.902198,0
              174.904015,-36.902214,0
              174.904019,-36.902244,0
              174.904018,-36.902259,0
              174.904019,-36.902267,0
              174.904021,-36.90227,0
              174.904022,-36.902274,0
              174.90403,-36.90229,0
              174.904032,-36.902291,0
              174.904035,-36.902296,0
              174.904038,-36.902299,0
              174.904048,-36.902323,0
              174.904049,-36.902329,0
              174.904057,-36.902356,0
              174.904079,-36.902398,0
              174.904083,-36.902402,0
              174.9041,-36.902442,0
              174.904107,-36.902452,0
              174.904111,-36.902467,0
              174.904127,-36.902509,0
              174.904127,-36.902514,0
              174.904129,-36.902516,0
              174.904143,-36.902553,0
              174.904149,-36.902566,0
              174.904158,-36.902599,0
              174.90416,-36.902603,0
              174.904164,-36.902627,0
              174.904164,-36.902632,0
              174.904168,-36.902638,0
              174.904184,-36.902631,0
              174.904203,-36.902717,0
              174.9042,-36.90272,0
              174.904199,-36.902732,0
              174.904183,-36.902762,0
              174.904185,-36.902812,0
              174.904196,-36.902822,0
              174.904196,-36.902836,0
              174.904223,-36.902946,0
              174.904224,-36.902955,0
              174.904236,-36.902998,0
              174.90424,-36.903017,0
              174.904253,-36.903062,0
              174.904257,-36.903078,0
              174.904263,-36.903099,0
              174.904267,-36.903106,0
              174.904274,-36.903125,0
              174.904278,-36.903131,0
              174.904284,-36.903153,0
              174.904325,-36.903264,0
              174.904334,-36.903277,0
              174.904342,-36.90329,0
              174.904344,-36.903294,0
              174.904353,-36.903319,0
              174.904354,-36.903324,0
              174.904355,-36.903331,0
              174.904358,-36.903344,0
              174.90436,-36.903357,0
              174.904364,-36.903364,0
              174.904366,-36.903397,0
              174.90436,-36.903451,0
              174.904366,-36.903506,0
              174.904366,-36.903524,0
              174.904391,-36.903671,0
              174.904405,-36.903706,0
              174.904424,-36.903792,0
              174.904418,-36.903852,0
              174.90441,-36.903886,0
              174.90441,-36.903889,0
              174.904403,-36.903917,0
              174.904401,-36.903922,0
              174.904383,-36.903973,0
              174.904306,-36.904103,0
              174.904262,-36.904205,0
              174.904256,-36.904213,0
              174.904239,-36.904257,0
              174.904226,-36.904301,0
              174.904224,-36.904304,0
              174.904191,-36.904399,0
              174.904191,-36.904406,0
              174.904183,-36.90443,0
              174.904179,-36.904437,0
              174.904158,-36.904554,0
              174.904156,-36.90456,0
              174.904151,-36.904598,0
              174.904127,-36.904681,0
              174.904128,-36.904697,0
              174.904123,-36.904729,0
              174.904123,-36.904791,0
              174.904119,-36.904816,0
              174.904118,-36.904831,0
              174.904116,-36.904841,0
              174.904118,-36.904847,0
              174.904114,-36.904916,0
              174.904092,-36.904986,0
              174.904092,-36.905024,0
              174.904092,-36.905026,0
              174.904083,-36.905059,0
              174.90408,-36.905075,0
              174.904059,-36.90513,0
              174.90405,-36.905157,0
              174.90404,-36.905181,0
              174.904039,-36.905189,0
              174.904003,-36.905266,0
              174.903995,-36.905277,0
              174.903973,-36.905303,0
              174.90396,-36.905342,0
              174.903952,-36.905359,0
              174.903948,-36.905372,0
              174.903942,-36.905383,0
              174.903941,-36.905388,0
              174.903939,-36.9054,0
              174.90394,-36.90545,0
              174.903969,-36.905599,0
              174.903971,-36.905605,0
              174.90398,-36.905636,0
              174.903997,-36.905675,0
              174.90401,-36.905712,0
              174.904018,-36.905748,0
              174.904025,-36.905769,0
              174.90403,-36.905793,0
              174.904032,-36.905801,0
              174.904036,-36.905842,0
              174.904051,-36.90591,0
              174.90407,-36.905956,0
              174.904102,-36.906127,0
              174.904104,-36.906147,0
              174.904119,-36.906231,0
              174.904139,-36.906283,0
              174.904143,-36.906288,0
              174.904144,-36.906293,0
              174.904149,-36.9063,0
              174.904172,-36.90634,0
              174.904192,-36.906375,0
              174.904195,-36.906383,0
              174.904206,-36.9064,0
              174.904208,-36.906405,0
              174.904237,-36.90645,0
              174.904238,-36.906456,0
              174.904245,-36.906475,0
              174.904246,-36.906496,0
              174.904249,-36.90651,0
              174.904248,-36.90655,0
              174.904218,-36.906659,0
              174.904214,-36.906668,0
              174.904213,-36.906674,0
              174.904213,-36.906697,0
              174.904207,-36.90673,0
              174.904209,-36.906767,0
              174.904201,-36.906811,0
              174.904201,-36.90684,0
              174.904208,-36.906876,0
              174.904231,-36.906924,0
              174.90426,-36.906963,0
              174.904284,-36.906985,0
              174.904299,-36.906996,0
              174.904308,-36.907,0
              174.904311,-36.907002,0
              174.904316,-36.907003,0
              174.904348,-36.907027,0
              174.904363,-36.90704,0
              174.904384,-36.90706,0
              174.904428,-36.907144,0
              174.904456,-36.90724,0
              174.904401,-36.907344,0
              174.904388,-36.907395,0
              174.904359,-36.907389,0
              174.904356,-36.907398,0
              174.904318,-36.907454,0
              174.904304,-36.907491,0
              174.904299,-36.9075,0
              174.904263,-36.907544,0
              174.904211,-36.907578,0
              174.9042,-36.907582,0
              174.904198,-36.907584,0
              174.904149,-36.907607,0
              174.904146,-36.907609,0
              174.904141,-36.907611,0
              174.904126,-36.907618,0
              174.904106,-36.907625,0
              174.903994,-36.907676,0
              174.903982,-36.907686,0
              174.903977,-36.907692,0
              174.903918,-36.907754,0
              174.903906,-36.907775,0
              174.903903,-36.907779,0
              174.903901,-36.907783,0
              174.903889,-36.907798,0
              174.90386,-36.907831,0
              174.903835,-36.907876,0
              174.903813,-36.907939,0
              174.903809,-36.907958,0
              174.903804,-36.907974,0
              174.903803,-36.90798,0
              174.903798,-36.907993,0
              174.903787,-36.908007,0
              174.903779,-36.908016,0
              174.903738,-36.908066,0
              174.903731,-36.908075,0
              174.903707,-36.908112,0
              174.903694,-36.908129,0
              174.903687,-36.908141,0
              174.903669,-36.908162,0
              174.903603,-36.908267,0
              174.903599,-36.908276,0
              174.903599,-36.908282,0
              174.903584,-36.908323,0
              174.903579,-36.908334,0
              174.90358,-36.908338,0
              174.903579,-36.90835,0
              174.903566,-36.908384,0
              174.903553,-36.908406,0
              174.903548,-36.908412,0
              174.903548,-36.908414,0
              174.903546,-36.908416,0
              174.903541,-36.908435,0
              174.903493,-36.908519,0
              174.903479,-36.908591,0
              174.90348,-36.908656,0
              174.903485,-36.908689,0
              174.903484,-36.908723,0
              174.903467,-36.908797,0
              174.903447,-36.908827,0
              174.903423,-36.908854,0
              174.903418,-36.908861,0
              174.903411,-36.908876,0
              174.90341,-36.908883,0
              174.90341,-36.9089,0
              174.903419,-36.908922,0
              174.903422,-36.908929,0
              174.903427,-36.908935,0
              174.90343,-36.908943,0
              174.903444,-36.908962,0
              174.903449,-36.908971,0
              174.903456,-36.908979,0
              174.903475,-36.908995,0
              174.9035,-36.909018,0
              174.903551,-36.909051,0
              174.903597,-36.909071,0
              174.903609,-36.909078,0
              174.903621,-36.909086,0
              174.903637,-36.909094,0
              174.903653,-36.909107,0
              174.903675,-36.909119,0
              174.903713,-36.909133,0
              174.903733,-36.909138,0
              174.903905,-36.909139,0
              174.903935,-36.909148,0
              174.903944,-36.909151,0
              174.903952,-36.909157,0
              174.903957,-36.909162,0
              174.903984,-36.909208,0
              174.903985,-36.909211,0
              174.903985,-36.909228,0
              174.903979,-36.909238,0
              174.903969,-36.909246,0
              174.903958,-36.909255,0
              174.903904,-36.909276,0
              174.903897,-36.90928,0
              174.903891,-36.909284,0
              174.903885,-36.90929,0
              174.903851,-36.909335,0
              174.903832,-36.909358,0
              174.903828,-36.909366,0
              174.90378,-36.909427,0
              174.903766,-36.909453,0
              174.903757,-36.909478,0
              174.903746,-36.90951,0
              174.903745,-36.909529,0
              174.903734,-36.90958,0
              174.903726,-36.909655,0
              174.903731,-36.909678,0
              174.903748,-36.909714,0
              174.903761,-36.909733,0
              174.903771,-36.909751,0
              174.903773,-36.909758,0
              174.903785,-36.909777,0
              174.903815,-36.90981,0
              174.903826,-36.909819,0
              174.903839,-36.909827,0
              174.903854,-36.909833,0
              174.903879,-36.909842,0
              174.903886,-36.909845,0
              174.903932,-36.909857,0
              174.903948,-36.909858,0
              174.904139,-36.909888,0
              174.904256,-36.909934,0
              174.904262,-36.909938,0
              174.904276,-36.909943,0
              174.904337,-36.909977,0
              174.904348,-36.909986,0
              174.904383,-36.910022,0
              174.904406,-36.910042,0
              174.904446,-36.910089,0
              174.904447,-36.910092,0
              174.904483,-36.910131,0
              174.904504,-36.91015,0
              174.904509,-36.910157,0
              174.904516,-36.910169,0
              174.904537,-36.910194,0
              174.904542,-36.910198,0
              174.904558,-36.910207,0
              174.904566,-36.910212,0
              174.904649,-36.910245,0
              174.904766,-36.910309,0
              174.904774,-36.91032,0
              174.904776,-36.910327,0
              174.904774,-36.91034,0
              174.904757,-36.910379,0
              174.904723,-36.910424,0
              174.904703,-36.910443,0
              174.904698,-36.910447,0
              174.904684,-36.910464,0
              174.904676,-36.910484,0
              174.904672,-36.910503,0
              174.904671,-36.910515,0
              174.904673,-36.910522,0
              174.904669,-36.910558,0
              174.904672,-36.910577,0
              174.90467,-36.910606,0
              174.904676,-36.910677,0
              174.904685,-36.910696,0
              174.904693,-36.910705,0
              174.904722,-36.910733,0
              174.904783,-36.910779,0
              174.90479,-36.910787,0
              174.904795,-36.910789,0
              174.904808,-36.910795,0
              174.904824,-36.910804,0
              174.904856,-36.910816,0
              174.904901,-36.910828,0
              174.904922,-36.910836,0
              174.904966,-36.910852,0
              174.904981,-36.910858,0
              174.90499,-36.910862,0
              174.905001,-36.910865,0
              174.90509,-36.910904,0
              174.905119,-36.910929,0
              174.905132,-36.910951,0
              174.905134,-36.910961,0
              174.905131,-36.910976,0
              174.905129,-36.91098,0
              174.905111,-36.911004,0
              174.905054,-36.911061,0
              174.905035,-36.911074,0
              174.905029,-36.911076,0
              174.905013,-36.911085,0
              174.904946,-36.91116,0
              174.90494,-36.911164,0
              174.904922,-36.911181,0
              174.9049,-36.911197,0
              174.904871,-36.911208,0
              174.904813,-36.911223,0
              174.904791,-36.911231,0
              174.904747,-36.911258,0
              174.904668,-36.91131,0
              174.904649,-36.911329,0
              174.904594,-36.911366,0
              174.904555,-36.911385,0
              174.904501,-36.911415,0
              174.904455,-36.911431,0
              174.904448,-36.911435,0
              174.904426,-36.911454,0
              174.904419,-36.911466,0
              174.904411,-36.91148,0
              174.904374,-36.911538,0
              174.904371,-36.911547,0
              174.904363,-36.911561,0
              174.904359,-36.911576,0
              174.904357,-36.91159,0
              174.904359,-36.911603,0
              174.904369,-36.911634,0
              174.904388,-36.911666,0
              174.904397,-36.911688,0
              174.904399,-36.911695,0
              174.9044,-36.911718,0
              174.904403,-36.91174,0
              174.904402,-36.911776,0
              174.904401,-36.911784,0
              174.904387,-36.911823,0
              174.904381,-36.911852,0
              174.904383,-36.911871,0
              174.904387,-36.911881,0
              174.904392,-36.91189,0
              174.9044,-36.9119,0
              174.904406,-36.91191,0
              174.904415,-36.911917,0
              174.904423,-36.911923,0
              174.904467,-36.911969,0
              174.904481,-36.911986,0
              174.904501,-36.912007,0
              174.904513,-36.912024,0
              174.904528,-36.912061,0
              174.904536,-36.912089,0
              174.904541,-36.912115,0
              174.904577,-36.912213,0
              174.904585,-36.91223,0
              174.904604,-36.912276,0
              174.904608,-36.912281,0
              174.904612,-36.912288,0
              174.904616,-36.912293,0
              174.904668,-36.912392,0
              174.904705,-36.912443,0
              174.904725,-36.912461,0
              174.904732,-36.912468,0
              174.904745,-36.912482,0
              174.904798,-36.912545,0
              174.904802,-36.912551,0
              174.904851,-36.912616,0
              174.904902,-36.912701,0
              174.904909,-36.91272,0
              174.90491,-36.912736,0
              174.904912,-36.912742,0
              174.904915,-36.912768,0
              174.904927,-36.912822,0
              174.904927,-36.912835,0
              174.904924,-36.912863,0
              174.904915,-36.912896,0
              174.904912,-36.912901,0
              174.904898,-36.912916,0
              174.904893,-36.91292,0
              174.904875,-36.912929,0
              174.904855,-36.912938,0
              174.904849,-36.912941,0
              174.904784,-36.912965,0
              174.904762,-36.91297,0
              174.904737,-36.912973,0
              174.904711,-36.912978,0
              174.904687,-36.912982,0
              174.904675,-36.912984,0
              174.904656,-36.912992,0
              174.904588,-36.913028,0
              174.904553,-36.913054,0
              174.904548,-36.913057,0
              174.904528,-36.913072,0
              174.904514,-36.913081,0
              174.904476,-36.913111,0
              174.904427,-36.913158,0
              174.904413,-36.913176,0
              174.904409,-36.913184,0
              174.904378,-36.913261,0
              174.904379,-36.913263,0
              174.904379,-36.913286,0
              174.904381,-36.91329,0
              174.904385,-36.913322,0
              174.904387,-36.913335,0
              174.904388,-36.913398,0
              174.904391,-36.913422,0
              174.904391,-36.913432,0
              174.904392,-36.91345,0
              174.904391,-36.913454,0
              174.904407,-36.913556,0
              174.904418,-36.913576,0
              174.904455,-36.913633,0
              174.904457,-36.913638,0
              174.904473,-36.913661,0
              174.904476,-36.913664,0
              174.904481,-36.913674,0
              174.904518,-36.913721,0
              174.904523,-36.913732,0
              174.904526,-36.913733,0
              174.904526,-36.913734,0
              174.904641,-36.913539,0
              174.904608,-36.913337,0
              174.904773,-36.913244,0
              174.905365,-36.913063,0
              174.905748,-36.912978,0
              174.905937,-36.912749,0
              174.905927,-36.912366,0
              174.905953,-36.912298,0
              174.90609,-36.91216,0
              174.906201,-36.912113,0
              174.906425,-36.912109,0
              174.906707,-36.912171,0
              174.906823,-36.912235,0
              174.906629,-36.912398,0
              174.906604,-36.912488,0
              174.906556,-36.912782,0
              174.905756,-36.91327,0
              174.905115,-36.913417,0
              174.905005,-36.91351,0
              174.905007,-36.913578,0
              174.905125,-36.913778,0
              174.90508,-36.914083,0
              174.904934,-36.914056,0
              174.904804,-36.914052,0
              174.904768,-36.914125,0
              174.904716,-36.914211,0
              174.904771,-36.914212,0
              174.905036,-36.91426,0
              174.905812,-36.914402,0
              174.90613,-36.91446,0
              174.906233,-36.914479,0
              174.907617,-36.914731,0
              174.907666,-36.914488,0
              174.907796,-36.91443,0
              174.907927,-36.914322,0
              174.908015,-36.914188,0
              174.90805,-36.914051,0
              174.908061,-36.913847,0
              174.908062,-36.913847,0
              174.908062,-36.913735,0
              174.908057,-36.913611,0
              174.908046,-36.913486,0
              174.908039,-36.913427,0
              174.908031,-36.913368,0
              174.908021,-36.913309,0
              174.90801,-36.91325,0
              174.908005,-36.913224,0
              174.908262,-36.9132,0
              174.908271,-36.9132,0
              174.90829,-36.913198,0
              174.90831,-36.913198,0
              174.908329,-36.9132,0
              174.908349,-36.913203,0
              174.908368,-36.913206,0
              174.908377,-36.913208,0
              174.908396,-36.913211,0
              174.908416,-36.913214,0
              174.908435,-36.913218,0
              174.908455,-36.913222,0
              174.908474,-36.913226,0
              174.908488,-36.913228,0
              174.908507,-36.913232,0
              174.908513,-36.913233,0
              174.908527,-36.913236,0
              174.908546,-36.913241,0
              174.908564,-36.913247,0
              174.908575,-36.91325,0
              174.908578,-36.913251,0
              174.908597,-36.913257,0
              174.908616,-36.913262,0
              174.908635,-36.913267,0
              174.908654,-36.913272,0
              174.908673,-36.913277,0
              174.908679,-36.913278,0
              174.908698,-36.913283,0
              174.908717,-36.913288,0
              174.908736,-36.913292,0
              174.908755,-36.913297,0
              174.908774,-36.913302,0
              174.908782,-36.913303,0
              174.908801,-36.913307,0
              174.90882,-36.913312,0
              174.908839,-36.913317,0
              174.908856,-36.913321,0
              174.908874,-36.913327,0
              174.908892,-36.913334,0
              174.90891,-36.913341,0
              174.908926,-36.913347,0
              174.908943,-36.913355,0
              174.90896,-36.913363,0
              174.908978,-36.913371,0
              174.908995,-36.913378,0
              174.909006,-36.913383,0
              174.909024,-36.91339,0
              174.909043,-36.913396,0
              174.909061,-36.913403,0
              174.909066,-36.913404,0
              174.909067,-36.913405,0
              174.909085,-36.913412,0
              174.909102,-36.91342,0
              174.909118,-36.91343,0
              174.909132,-36.913442,0
              174.909232,-36.913276,0
              174.909096,-36.913122,0
              174.909091,-36.913107,0
              174.90898,-36.912732,0
              174.908995,-36.91253,0
              174.90901,-36.912328,0
              174.909013,-36.912286,0
              174.909233,-36.912324,0
              174.909351,-36.912308,0
              174.909487,-36.912289,0
              174.909743,-36.912254,0
              174.909619,-36.91196,0
              174.909651,-36.911951,0
              174.909682,-36.91194,0
              174.909713,-36.91193,0
              174.909743,-36.911918,0
              174.909773,-36.911905,0
              174.909504,-36.911799,0
              174.909572,-36.911543,0
              174.909583,-36.911501,0
              174.909628,-36.911333,0
              174.909669,-36.911179,0
              174.909703,-36.910977,0
              174.909678,-36.910827,0
              174.909646,-36.910639,0
              174.909621,-36.910487,0
              174.909613,-36.910442,0
              174.909589,-36.910301,0
              174.909573,-36.910203,0
              174.909562,-36.91014,0
              174.909535,-36.909979,0
              174.909516,-36.909868,0
              174.909184,-36.909901,0
              174.909128,-36.909755,0
              174.909094,-36.909664,0
              174.909233,-36.909652,0
              174.909294,-36.909243,0
              174.90919,-36.909193,0
              174.909251,-36.909031,0
              174.909142,-36.909001,0
              174.909048,-36.908974,0
              174.90903,-36.908969,0
              174.908804,-36.908906,0
              174.908785,-36.908808,0
              174.908782,-36.908795,0
              174.908751,-36.908642,0
              174.908721,-36.908489,0
              174.908714,-36.908452,0
              174.909087,-36.908278,0
              174.908969,-36.908115,0
              174.908851,-36.907951,0
              174.908767,-36.907834,0
              174.908733,-36.907787,0
              174.908688,-36.907725,0
              174.908749,-36.907663,0
              174.908853,-36.907557,0
              174.908894,-36.907514,0
              174.908683,-36.907214,0
              174.908573,-36.907057,0
              174.908715,-36.907031,0
              174.908805,-36.907014,0
              174.908871,-36.907006,0
              174.909036,-36.906987,0
              174.90911,-36.906979,0
              174.909048,-36.906616,0
              174.90907,-36.906612,0
              174.908979,-36.906354,0
              174.909108,-36.90633,0
              174.909056,-36.906152,0
              174.909098,-36.90604,0
              174.909174,-36.905839,0
              174.909281,-36.90587,0
              174.909371,-36.905668,0
              174.909706,-36.905766,0
              174.909881,-36.905593,0
              174.909678,-36.90551,0
              174.909558,-36.905461,0
              174.909486,-36.905432,0
              174.909252,-36.905309,0
              174.909456,-36.905093,0
              174.909449,-36.905071,0
              174.909281,-36.905248,0
              174.909089,-36.905155,0
              174.909102,-36.90514,0
              174.909045,-36.905112,0
              174.908937,-36.90506,0
              174.908904,-36.904992,0
              174.908987,-36.90488,0
              174.909051,-36.904911,0
              174.90919,-36.904725,0
              174.909285,-36.90477,0
              174.909512,-36.904468,0
              174.909631,-36.904525,0
              174.909695,-36.904556,0
              174.909852,-36.904632,0
              174.909918,-36.904664,0
              174.910118,-36.90476,0
              174.91019,-36.904795,0
              174.910312,-36.904854,0
              174.91043,-36.904911,0
              174.910513,-36.904951,0
              174.91072,-36.905051,0
              174.910731,-36.905056,0
              174.910971,-36.905101,0
              174.91099,-36.905105,0
              174.911184,-36.905141,0
              174.91129,-36.905161,0
              174.911506,-36.905201,0
              174.911569,-36.905118,0
              174.911594,-36.905085,0
              174.911686,-36.904962,0
              174.911803,-36.904807,0
              174.911821,-36.90483,0
              174.912013,-36.904734,0
              174.912187,-36.904647,0
              174.912361,-36.904559,0
              174.912394,-36.904543,0
              174.912535,-36.904472,0
              174.912675,-36.904403,0
              174.912709,-36.904385,0
              174.912883,-36.904298,0
              174.913023,-36.904228,0
              174.913057,-36.904211,0
              174.913216,-36.904132,0
              174.913231,-36.904124,0
              174.913375,-36.904052,0
              174.913405,-36.904037,0
              174.913579,-36.903949,0
              174.913753,-36.903862,0
              174.913928,-36.903775,0
              174.914119,-36.903679,0
              174.914293,-36.903592,0
              174.914467,-36.903505,0
              174.914641,-36.903418,0
              174.914815,-36.90333,0
              174.914885,-36.903295,0
              174.914957,-36.903257,0
              174.914993,-36.903239,0
              174.915164,-36.903148,0
              174.915282,-36.903086,0
              174.915336,-36.903058,0
              174.915491,-36.902976,0
              174.915508,-36.902968,0
              174.915679,-36.902877,0
              174.915846,-36.902789,0
              174.915851,-36.902787,0
              174.916022,-36.902696,0
              174.916087,-36.902662,0
              174.916194,-36.902606,0
              174.916239,-36.902582,0
              174.916287,-36.902544,0
              174.916317,-36.902521,0
              174.916463,-36.902405,0
              174.916512,-36.902367,0
              174.916609,-36.90229,0
              174.916756,-36.902175,0
              174.916917,-36.902048,0
              174.916924,-36.902041,0
              174.917021,-36.901965,0
              174.917063,-36.901932,0
              174.917126,-36.901882,0
              174.917209,-36.901817,0
              174.917356,-36.901701,0
              174.917128,-36.901515,0
              174.917052,-36.901453,0
              174.917086,-36.901426,0
              174.917349,-36.901219,0
              174.917374,-36.901199,0
              174.917691,-36.900949,0
              174.917725,-36.900922,0
            </coordinates>
          </LinearRing>
        </outerBoundaryIs>
      </Polygon>
    </Placemark>
    <Placemark>
      <name>Highland Park</name>
      <styleUrl>#icon-1899-0288D1-nodesc</styleUrl>
      <Point>
        <coordinates>
          174.908447,-36.904535,100
        </coordinates>
      </Point>
    </Placemark>
  </Document>
</kml>
