<?xml version="1.0" encoding="utf-8"?>
<kml xmlns="http://www.opengis.net/kml/2.2">
<Document>
  <name>Hillpark (polygon: official_shp)</name>
  <open>1</open>

  <Placemark>
    <name>Hillpark (polygon: official_shp)</name>
    <Style>
      <LineStyle><color>ffff0000</color><width>2</width></LineStyle>
      <PolyStyle><color>66ff0000</color><fill>1</fill><outline>1</outline></PolyStyle>
    </Style>
    <Polygon>
      <tessellate>1</tessellate>
      <altitudeMode>relativeToGround</altitudeMode>
      <outerBoundaryIs><LinearRing><coordinates>174.89567000254968,-37.00570399159347,100 174.8957190054455,-37.0057919971096,100 174.8958170082788,-37.00584600027675,100 174.89581100656613,-37.00588999603322,100 174.8957241864844,-37.00590262341725,100 174.89570099403875,-37.00590600433363,100 174.89550499336656,-37.0059480054361,100 174.89549499602535,-37.00600800729341,100 174.89557199971432,-37.006068992357,100 174.895607002537,-37.006081000028466,100 174.89566800094022,-37.0061009934193,100 174.89577999582437,-37.006137992561236,100 174.89588099563315,-37.00614699970662,100 174.89600200322445,-37.00622500730024,100 174.89602261276724,-37.00622785055063,100 174.89648599953668,-37.00629199741893,100 174.8966289920112,-37.00625699616537,100 174.8966330009782,-37.006250994285004,100 174.89663699481022,-37.006247006161274,100 174.89664100019368,-37.00623900614531,100 174.89664299635942,-37.00621699501804,100 174.8966320021572,-37.0061559983091,100 174.8966330023171,-37.00614699811531,100 174.89663600020523,-37.0061420056351,100 174.89663600664912,-37.00614099877467,100 174.89663900697332,-37.00613800354681,100 174.89664999906054,-37.00613099594352,100 174.8966849925002,-37.00612299357711,100 174.8966949912973,-37.00612399642144,100 174.89669800446399,-37.00612400503556,100 174.8967240044849,-37.006128999932145,100 174.89674099771378,-37.00613700315452,100 174.89674900326207,-37.00614299593622,100 174.8967530080085,-37.006146998602084,100 174.896755008578,-37.00614800041683,100 174.8967599920565,-37.00615299329216,100 174.8967699926584,-37.00616799516653,100 174.89677499519405,-37.006187003025275,100 174.89677399790688,-37.00619299822407,100 174.89677499835696,-37.00620300113383,100 174.89677499131162,-37.00621099221425,100 174.89677500264332,-37.00621899922437,100 174.89677500754598,-37.00622299462989,100 174.89690600653057,-37.00623000261367,100 174.89695999744384,-37.00623300420849,100 174.89699199940583,-37.006318999778394,100 174.89712500662927,-37.006417996812864,100 174.89716000134374,-37.006442998258905,100 174.89733799246443,-37.00633099868072,100 174.89737899147661,-37.00636100542954,100 174.8975379949973,-37.00648000442006,100 174.89795500043704,-37.006789996135495,100 174.89799218992573,-37.006817733731374,100 174.89813599578875,-37.006924993061546,100 174.8981949921875,-37.00696800222685,100 174.89822600446215,-37.00699299585919,100 174.89824400123467,-37.00700599856423,100 174.89835100375407,-37.00707500382136,100 174.8986970051264,-37.00729700428795,100 174.89884700491046,-37.00739300455519,100 174.89907299332418,-37.007538005434135,100 174.89925600081298,-37.00765399412647,100 174.8994030046301,-37.0077480037775,100 174.89955000087502,-37.00784300389489,100 174.8996970050316,-37.007936997842094,100 174.89984399195455,-37.00803100719933,100 174.89999100690088,-37.00812599203198,100 174.90013899919973,-37.008219998431265,100 174.9002860040549,-37.00831400693577,100 174.90043299203703,-37.00840800020028,100 174.9005800076899,-37.00850299958989,100 174.90072699637022,-37.008596991565724,100 174.90087400268737,-37.00869100019568,100 174.90102199602924,-37.00878500544093,100 174.90102700582307,-37.00878900627355,100 174.90116899627964,-37.00888000432345,100 174.90131600327405,-37.00897399615349,100 174.90146299415832,-37.00906800337577,100 174.90160999549474,-37.00916300167646,100 174.90175800864162,-37.00925700655751,100 174.90190500022544,-37.00935099788086,100 174.9020989954282,-37.00947600280968,100 174.9022109926614,-37.009546991986134,100 174.90244000851987,-37.00969399177315,100 174.9026059966802,-37.009820991567324,100 174.90274199348679,-37.00992499495855,100 174.90287800861586,-37.01002899699237,100 174.9030139986593,-37.01013400602208,100 174.90317799544923,-37.010258996373864,100 174.90322199944873,-37.010293005085515,100 174.90332899216443,-37.0104100002564,100 174.90344900629856,-37.01054099906594,100 174.90356899652443,-37.01067300488552,100 174.90368900361722,-37.01080499408182,100 174.9038090021534,-37.0109359927541,100 174.90392899363772,-37.011067998165906,100 174.90397999684325,-37.011122992863726,100 174.90403500702507,-37.01123199780738,100 174.90411499497756,-37.01138699371644,100 174.90414900749167,-37.011455002741606,100 174.90418899753524,-37.01153199734533,100 174.90426400547923,-37.01167899559116,100 174.90433600135037,-37.01181900115206,100 174.9044140050589,-37.01197099669732,100 174.90450400589378,-37.01214700138188,100 174.9045689974332,-37.01227399715146,100 174.9045970022499,-37.012323001162365,100 174.9047540016647,-37.012604996707886,100 174.90484299445606,-37.01276500564136,100 174.9049179941331,-37.01300700264953,100 174.90498400776107,-37.01321799757016,100 174.9048699916555,-37.01353499935487,100 174.90466399696405,-37.01366899910268,100 174.90454999369632,-37.01367300503031,100 174.90455699224384,-37.013682003948304,100 174.90458800523902,-37.0137220034095,100 174.90461599209237,-37.01376400636853,100 174.9046409925027,-37.013806991915736,100 174.90466399661196,-37.01385100364296,100 174.90472699626113,-37.0140069964101,100 174.90477099309217,-37.013929992076854,100 174.90510100034686,-37.013689005384144,100 174.90528200671378,-37.01355800103734,100 174.9054980038157,-37.01394699428301,100 174.90563000787225,-37.01418600308118,100 174.90579100084722,-37.0144770027384,100 174.90593600728513,-37.01481700680981,100 174.90614000127434,-37.015198002327764,100 174.90635299638927,-37.015594000994746,100 174.90643099897042,-37.01574000138895,100 174.9065080045164,-37.01588499657228,100 174.9065859975497,-37.01603000557204,100 174.90678200384696,-37.016395995345924,100 174.90680299190396,-37.01643400209908,100 174.9068900036307,-37.01640400343874,100 174.90696700365083,-37.016376998436776,100 174.90719199305408,-37.01674100380485,100 174.90720000244232,-37.01675399529536,100 174.90775700188183,-37.017672995434495,100 174.90800999423564,-37.018087999561715,100 174.90780699468937,-37.01816799567104,100 174.90763099909645,-37.01823699756729,100 174.9072520013346,-37.01838599531916,100 174.9070490005168,-37.01846600458728,100 174.90700299695666,-37.01848499815311,100 174.90711600242147,-37.01880100212336,100 174.90716000377054,-37.019018997374495,100 174.90716099526642,-37.0190279935487,100 174.90719200501385,-37.01918199342239,100 174.90722800494348,-37.01936199942454,100 174.90724500211684,-37.01944700279829,100 174.90689199363572,-37.01957099321801,100 174.90668999694088,-37.01964099483313,100 174.9066660028477,-37.019649997814355,100 174.9064809929582,-37.0197150068479,100 174.90647800778763,-37.01971600479297,100 174.90628099617243,-37.01978599500604,100 174.9062629966454,-37.01979199578446,100 174.9060639944949,-37.01986200590925,100 174.90585600784348,-37.01993400140182,100 174.90564900017577,-37.02000700108083,100 174.90530899266446,-37.020126002899424,100 174.9052350079358,-37.0201519931427,100 174.90503699700056,-37.020220992408795,100 174.90482999557597,-37.02029300004242,100 174.904851994028,-37.02033500078505,100 174.9049350044958,-37.020495006264696,100 174.9050179917845,-37.02065600438335,100 174.90510099628975,-37.020817002159205,100 174.90477300449876,-37.02092600155425,100 174.9045510074778,-37.02099999170892,100 174.9042819955111,-37.02108899564847,100 174.90401299340888,-37.021179005579484,100 174.90407700031088,-37.021302007274514,100 174.9038700077907,-37.02137700184005,100 174.90383599375434,-37.021311006419836,100 174.90376299417767,-37.021336992567775,100 174.90370100281675,-37.02135899221682,100 174.90363800544569,-37.02138099355624,100 174.90358099624027,-37.02127699503857,100 174.90339200747306,-37.02134299871203,100 174.9033169928241,-37.021369996633624,100 174.9032349925849,-37.02139800067264,100 174.9032040052181,-37.02140899978018,100 174.90304099397818,-37.02146700258251,100 174.90301799320576,-37.021474996567086,100 174.90288800243826,-37.02152100489679,100 174.90283699944828,-37.02153900000976,100 174.90281500022036,-37.02149500161902,100 174.90267999607005,-37.0212369927033,100 174.90253200341022,-37.02095099468556,100 174.90241399665376,-37.02099200455636,100 174.90230200610037,-37.02103199760901,100 174.902282008632,-37.02103899331885,100 174.9022419949649,-37.02105300035097,100 174.9020719913873,-37.02111299856749,100 174.90235500323377,-37.0216569919571,100 174.902148004576,-37.021730000777765,100 174.90212600845663,-37.02173799200161,100 174.90207099849044,-37.02175700191008,100 174.9019160071529,-37.021811997637194,100 174.9018950046112,-37.021818995878014,100 174.90172600632937,-37.021493006666915,100 174.9016119964922,-37.02127500221181,100 174.90154800890494,-37.02115000063972,100 174.90132899985275,-37.02122699863083,100 174.9012919992994,-37.021240999414154,100 174.90107300766556,-37.021317995757,100 174.90110399412916,-37.021375992791654,100 174.90123499494462,-37.021628993389335,100 174.9011969972306,-37.021642005174094,100 174.90057199096967,-37.02186199279002,100 174.9005000016563,-37.021785002319916,100 174.9004099915791,-37.02197800522777,100 174.90038299955592,-37.022037005138586,100 174.90029800704272,-37.022220999284166,100 174.90018699299688,-37.02210300440995,100 174.90015599678682,-37.02207000310418,100 174.90001199169302,-37.0221900025581,100 174.89969500185026,-37.021854998022015,100 174.89954600896607,-37.02192300225279,100 174.8996148934856,-37.02204081793883,100 174.89961499680552,-37.02204099474219,100 174.89946600348932,-37.02210899888269,100 174.89946536411213,-37.02210905238275,100 174.89934700759503,-37.02211900415813,100 174.89930993377828,-37.022141740924496,100 174.89927171423622,-37.02216469160524,100 174.8992695241355,-37.02216237156631,100 174.89923800004328,-37.022128650215414,100 174.89919428470552,-37.022159760019484,100 174.8991125166168,-37.02221795023838,100 174.8989652155758,-37.022322849413385,100 174.89896499239802,-37.02232300530597,100 174.89883328809543,-37.02241678675094,100 174.8984411663167,-37.02211262792703,100 174.89835473283554,-37.022045583323134,100 174.8981948780798,-37.02201102924207,100 174.89804384978225,-37.02197838328451,100 174.89867711692767,-37.02169141717933,100 174.8986888499951,-37.021686100078966,100 174.89870725000503,-37.02167776686734,100 174.89871798383115,-37.0216729028889,100 174.89877680031688,-37.02164625004258,100 174.8988874830203,-37.02159546559768,100 174.89892333291448,-37.02157901621125,100 174.8991013998112,-37.02149731711439,100 174.89880158340807,-37.021174600203814,100 174.89878808312096,-37.02116008269793,100 174.8986283341312,-37.02098809958919,100 174.8985384328036,-37.02089146675655,100 174.89846873313243,-37.02081643294461,100 174.89826083415173,-37.02089221731033,100 174.89801216718965,-37.02062379989236,100 174.89798801607844,-37.020597682585006,100 174.8978683758159,-37.020468541842845,100 174.89773471598275,-37.020324266143376,100 174.89778610168315,-37.02030568755829,100 174.89774323809755,-37.020220843231584,100 174.8977010768474,-37.0201373882766,100 174.89774474954703,-37.02012161717094,100 174.897575633117,-37.01983039854989,100 174.8974823327219,-37.019669716777614,100 174.89746751180758,-37.019675063317344,100 174.89740706729722,-37.01969686730177,100 174.89703990055887,-37.01909685003274,100 174.89711735182038,-37.01898193556636,100 174.8972998326746,-37.018711183406246,100 174.89728223392206,-37.01868085030268,100 174.8970593162206,-37.0182972667601,100 174.89699008349103,-37.018178116565515,100 174.89696835078976,-37.01814081664463,100 174.89687506461055,-37.017979933094615,100 174.896857466926,-37.01794958367998,100 174.8968122706122,-37.01787176405912,100 174.89676208374516,-37.017785350067655,100 174.8965929334236,-37.01788529957154,100 174.8965701588329,-37.01789875959842,100 174.89643118392283,-37.01798089981518,100 174.89636810017078,-37.01801816674969,100 174.89614905027494,-37.01814759994116,100 174.89593718311144,-37.01827278276541,100 174.8957255834539,-37.018397767162185,100 174.89562276740875,-37.0182702830637,100 174.89550428326228,-37.01812334942433,100 174.89547933304357,-37.018092416963086,100 174.89544754945246,-37.01805299974744,100 174.89522296707588,-37.01822773442347,100 174.89521294933124,-37.01823553300569,100 174.89506908351126,-37.01834746665225,100 174.89486326660548,-37.01850735025608,100 174.8948143001347,-37.01839994981467,100 174.89480750075805,-37.01838504990989,100 174.8947605324984,-37.018282067262085,100 174.89444621592946,-37.01843879973706,100 174.89439968272876,-37.018381016670425,100 174.89427691595634,-37.018228782904195,100 174.89379863325513,-37.0184701836373,100 174.89374891773355,-37.018395392138416,100 174.89367750002143,-37.01828794941187,100 174.8937219830573,-37.01829789996958,100 174.89400378259995,-37.01815629957255,100 174.89417789984836,-37.01806881605338,100 174.89440966744618,-37.017952233357725,100 174.89430700028169,-37.01782089983547,100 174.89434030016687,-37.01780426632588,100 174.89450009976713,-37.01772383383144,100 174.89439951610984,-37.017568716861604,100 174.89460064998377,-37.01746774954713,100 174.8945285664527,-37.01734916702808,100 174.89440331673964,-37.01714214940919,100 174.89467921690687,-37.01701780066897,100 174.89490726943626,-37.01691502755005,100 174.89493467538966,-37.01690267637572,100 174.89492129219659,-37.01688353554815,100 174.89489681111326,-37.01684852156523,100 174.89466716656585,-37.016520799798535,100 174.8945657665229,-37.01637606726588,100 174.89448521666978,-37.01640618358092,100 174.8944262841136,-37.01625245011908,100 174.89442318383638,-37.01622935144187,100 174.894397866714,-37.01603885056606,100 174.8943011499046,-37.015654650402716,100 174.89425618289698,-37.01547595034226,100 174.8942152335115,-37.01531288321881,100 174.89417497735437,-37.01515246926132,100 174.89409752277712,-37.014843821361836,100 174.89407587716505,-37.01475759759464,100 174.8940723831449,-37.014743666942024,100 174.89406084696296,-37.01469771516975,100 174.89403043049032,-37.014576552665986,100 174.8939912333729,-37.01442041732656,100 174.89424608297045,-37.01431746558152,100 174.8941346838215,-37.0141401839128,100 174.89393351646055,-37.0142214168696,100 174.89386713411923,-37.014057316199896,100 174.89373711670856,-37.013735750439224,100 174.8935220499276,-37.0137916985511,100 174.89351554976417,-37.01379340030775,100 174.8933069993551,-37.01384763339916,100 174.89328748337334,-37.01385274969584,100 174.89324233359676,-37.013864467014756,100 174.89311149937282,-37.0138984997138,100 174.8930919331031,-37.01390358343275,100 174.89296868269005,-37.01388768258126,100 174.8928108168633,-37.01386731721139,100 174.89273666754607,-37.01368391667499,100 174.89244158315856,-37.01374068332067,100 174.89238301661368,-37.01354503311535,100 174.89237500026928,-37.01351823271003,100 174.8926416837045,-37.01344888375187,100 174.89277566667525,-37.01341408300159,100 174.89290238291392,-37.0133811673025,100 174.89309790011782,-37.013330317292,100 174.89331296669525,-37.0132743997043,100 174.89352803368536,-37.01321846640095,100 174.89369021718858,-37.01317632676759,100 174.8937234831374,-37.01316768314522,100 174.893750771384,-37.013160596846035,100 174.89368002546928,-37.01299918036463,100 174.89367599616307,-37.01298998557964,100 174.8936678339976,-37.01297136332289,100 174.89358543393993,-37.01281685021261,100 174.89346704447527,-37.012594820581974,100 174.89342115012332,-37.01250875021008,100 174.89336161592877,-37.01239708323431,100 174.89321515054672,-37.01244710044859,100 174.89304213301975,-37.01250615041382,100 174.89302323344694,-37.01251263312046,100 174.89290678257103,-37.01229318394277,100 174.89259075048278,-37.01240109976737,100 174.8925690837064,-37.0123287831303,100 174.89252121651793,-37.01216856559806,100 174.89251093366693,-37.01213398343391,100 174.89247335028801,-37.0120083327027,100 174.89244771665926,-37.01192243356083,100 174.8924254835742,-37.0118481169142,100 174.89237761705303,-37.01168790019566,100 174.89236803357014,-37.0116558169933,100 174.89232493369357,-37.01151154941377,100 174.89228183331474,-37.011367299847535,100 174.8922770168355,-37.01135123339937,100 174.89226723369728,-37.011318482799894,100 174.8922291163232,-37.01119093332206,100 174.89220996724785,-37.0111269333405,100 174.89218121714956,-37.01103063319773,100 174.89215216691025,-37.010933466270735,100 174.89213800036353,-37.01088601678499,100 174.89210138347488,-37.010763483418955,100 174.8920902334247,-37.01072618318145,100 174.8926031338708,-37.010551267404786,100 174.89250613281746,-37.01036938388479,100 174.89239918363893,-37.010208933349496,100 174.89230034983578,-37.01006064977547,100 174.8922814000252,-37.01003218326207,100 174.89224308257096,-37.01004523329859,100 174.89198700068013,-37.010132616750994,100 174.8919197329814,-37.010155449638724,100 174.8918090169261,-37.01019318256204,100 174.8917240667354,-37.01022198272227,100 174.89166924995388,-37.0100621495619,100 174.89161445069146,-37.00990233321502,100 174.8915150336603,-37.00975809970623,100 174.89141561703573,-37.00961386700115,100 174.8914457175212,-37.009603616091354,100 174.89139124979891,-37.009500216032556,100 174.8913657998661,-37.009452699352785,100 174.8912858002087,-37.009301816307214,100 174.8911855719287,-37.00933601598511,100 174.89101236657285,-37.009395117316316,100 174.89094812114632,-37.0092739963958,100 174.89090691716302,-37.00919631615326,100 174.89071465065285,-37.00926188305906,100 174.89067561592964,-37.00907833329958,100 174.8909517006698,-37.00898414990109,100 174.89117004974912,-37.00890973336133,100 174.8912011840545,-37.00889903341028,100 174.89130515049183,-37.00886355016237,100 174.89122353638876,-37.00871088837491,100 174.8911329001597,-37.00854135008259,100 174.8910348169951,-37.008452099705515,100 174.8909762869795,-37.00842593933371,100 174.8910479993976,-37.00840999873143,100 174.89122600586091,-37.00834899299007,100 174.89124554765138,-37.00834215694229,100 174.8912460011266,-37.008341998294505,100 174.89127174268233,-37.00833314634029,100 174.89143499632078,-37.00827700455804,100 174.89149400605305,-37.00825700031403,100 174.89149436158314,-37.00825688018029,100 174.89157834128287,-37.00822845619649,100 174.89162400114452,-37.0082130018057,100 174.89173524752826,-37.00817492083013,100 174.89177300198264,-37.008161997111046,100 174.8918129941947,-37.00814799308636,100 174.89188752806206,-37.00812289209346,100 174.89200285626896,-37.00808405177719,100 174.8920030022731,-37.00808400258105,100 174.89204699973203,-37.00806899905344,100 174.89204921278153,-37.00806823640875,100 174.89219199576016,-37.00801899235568,100 174.89231900547708,-37.00797600600236,100 174.89238100614517,-37.00795399688491,100 174.8924949936122,-37.007915993160566,100 174.8925699913464,-37.00788999295336,100 174.8925830053649,-37.00788600168283,100 174.89258289204045,-37.00788564657369,100 174.89258268577575,-37.00788571295526,100 174.89252757406453,-37.00772078075065,100 174.89262906390803,-37.00770701585995,100 174.89257610550547,-37.00755948417103,100 174.8925370049064,-37.00758200598155,100 174.89249300604246,-37.00753399225497,100 174.89252649520492,-37.007501859219005,100 174.8925553111288,-37.007485030972205,100 174.89246559945292,-37.00730760243217,100 174.8926630022435,-37.00723999768295,100 174.89276399182293,-37.00720599915232,100 174.89267799942027,-37.00704499991216,100 174.8925860005935,-37.00687199458616,100 174.89256800581026,-37.00683800588749,100 174.89240899916263,-37.00653800367291,100 174.89216599269398,-37.00607699681527,100 174.89235699838073,-37.006006003861465,100 174.89235700550998,-37.005997997451864,100 174.8923569984927,-37.00599200388284,100 174.89235399576722,-37.00597900087171,100 174.89235299406943,-37.0059740001821,100 174.8923479952558,-37.005971005556326,100 174.89234699705042,-37.00596800390635,100 174.89233899603084,-37.00595900669955,100 174.89233000612492,-37.005954997765905,100 174.8922760032297,-37.005949006420884,100 174.89224399328316,-37.00594899327028,100 174.89223399273564,-37.00595299322379,100 174.8922130052174,-37.005948993557126,100 174.89220600172067,-37.00594800114965,100 174.89219600303386,-37.00594699972646,100 174.89217100042814,-37.00594999241925,100 174.89216000511902,-37.00594800193123,100 174.8921339927275,-37.00594000127386,100 174.89213300605067,-37.005940002587856,100 174.8921269957359,-37.00593800199977,100 174.89212099307076,-37.00593499543251,100 174.8921169999978,-37.00593199737634,100 174.89210799201814,-37.00592100359664,100 174.89210000399063,-37.0059079962581,100 174.89207900162992,-37.00588499367986,100 174.89208000818073,-37.005859004709045,100 174.89207700782512,-37.00584799894511,100 174.8920789986596,-37.00584099559977,100 174.8920799975075,-37.00583699770373,100 174.89208099635528,-37.00583299980767,100 174.89208199632637,-37.005829001893694,100 174.89208399869986,-37.005825002415385,100 174.8920850028579,-37.005818000383485,100 174.8920960075533,-37.005806998410755,100 174.8921020070175,-37.00580099197584,100 174.89210899587525,-37.00579699769999,100 174.89211500570678,-37.00579199875861,100 174.89212200219004,-37.00578699760218,100 174.89212800439296,-37.00578300554003,100 174.8921339962259,-37.005778005983444,100 174.89214099272894,-37.00577300572691,100 174.89214700253413,-37.00576800588305,100 174.8921540089806,-37.00576399600189,100 174.8921610043577,-37.00575899576214,100 174.89216899551542,-37.005753001725246,100 174.89217699549403,-37.005747998081844,100 174.8921850034999,-37.0057420037752,100 174.89219399777653,-37.00573599193653,100 174.89220300045955,-37.00572900475063,100 174.8922119936099,-37.005722992928575,100 174.8922210062581,-37.00571699701841,100 174.89223000088634,-37.005710999592345,100 174.89223999908214,-37.005705002384026,100 174.8922499983773,-37.005699004256016,100 174.89226000651644,-37.00569399742214,100 174.89227100166286,-37.00568900278665,100 174.89228199645038,-37.005683993735005,100 174.89229299163853,-37.00567900089945,100 174.89230500139715,-37.00567499593605,100 174.89231600650731,-37.005670992573535,100 174.89232799869168,-37.00566700411161,100 174.89234000734544,-37.00566300006363,100 174.89235199912505,-37.00565899538225,100 174.89236399130547,-37.00565500691679,100 174.89237600105633,-37.0056510019464,100 174.89238800318236,-37.00564800385458,100 174.89239999495692,-37.005643999168484,100 174.89241100007968,-37.005639996698356,100 174.89242299187404,-37.00563599291094,100 174.89243499399564,-37.0056329948145,100 174.89244699499292,-37.005629996734775,100 174.89245899711253,-37.005626998635954,100 174.89247099925353,-37.00562400143688,100 174.89248299334673,-37.00562199399834,100 174.89249599248777,-37.00562000117211,100 174.89250800345238,-37.00561799436326,100 174.89252000791785,-37.00561699441503,100 174.8925320047389,-37.005617000444374,100 174.89254500622863,-37.00561700576947,100 174.89255700264746,-37.0056169955792,100 174.89256900063643,-37.0056170033888,100 174.8925819941028,-37.005617999372475,100 174.89259400777425,-37.00561800512676,100 174.89260599774036,-37.005619003595235,100 174.89261799418156,-37.00561899429973,100 174.89262999214824,-37.005619001202206,100 174.8926420054845,-37.00561899343738,100 174.89265400228302,-37.00561899855343,100 174.89266600674608,-37.00561799859047,100 174.89267799669045,-37.00561899615068,100 174.8926899935335,-37.00561900306499,100 174.89270200797054,-37.00561899437523,100 174.8927129932914,-37.005619994438156,100 174.89272500008698,-37.00562099172478,100 174.89273700728504,-37.00562200522729,100 174.89274900720585,-37.00562399405708,100 174.89276100638372,-37.0056259982197,100 174.89277400221025,-37.00562899233869,100 174.8927859948945,-37.005632003360475,100 174.8927980040503,-37.005634998796076,100 174.89281000558898,-37.00563900111008,100 174.89282199789622,-37.005641996812,100 174.8928340070549,-37.005644992243866,100 174.89284599974377,-37.00564800325944,100 174.8928570053809,-37.005651000277545,100 174.89286799304497,-37.005653997581355,100 174.89287999225255,-37.00565600263266,100 174.89289099791438,-37.005659000548484,100 174.89290199359985,-37.00566100718653,100 174.89291300573407,-37.00566299733764,100 174.8929240014206,-37.005665003973604,100 174.89293400353947,-37.00566800257371,100 174.89294300757206,-37.00566999862148,100 174.89295100044308,-37.005673002236726,100 174.8929580062841,-37.005675992757006,100 174.8929640021094,-37.00567999172817,100 174.89296800553643,-37.00568399544727,100 174.89297199319205,-37.005687997615254,100 174.89297499309612,-37.0056920029238,100 174.89297700594724,-37.00569599423706,100 174.89297900235033,-37.005700002036185,100 174.8929810075862,-37.005705000228936,100 174.89298199894012,-37.00570899341862,100 174.8929839953215,-37.0057130003167,100 174.89298599134554,-37.00571699279956,100 174.89298700105368,-37.00572100101855,100 174.89298900395022,-37.005724001955805,100 174.89299100682462,-37.00572700199208,100 174.89299299287097,-37.00573000319809,100 174.89299399222134,-37.00573300482421,100 174.8929949912142,-37.00573599203511,100 174.89299600743757,-37.0057389942933,100 174.89299700031845,-37.00574300368197,100 174.89299599350224,-37.005747992246896,100 174.8929960085866,-37.00575299515221,100 174.89299400748055,-37.00575899191779,100 174.89299199990438,-37.00576599644594,100 174.89298999232787,-37.00577300097405,100 174.8929870069316,-37.00578099811777,100 174.8929830011815,-37.00578899802105,100 174.89297999131776,-37.00579800231303,100 174.89297600239428,-37.00580600104631,100 174.89297200662003,-37.005814992225936,100 174.89296799322855,-37.005823998107395,100 174.89296400432488,-37.005831997741254,100 174.89295999742416,-37.00583999676083,100 174.8929550050154,-37.00584799888502,100 174.89294999460935,-37.00585600039485,100 174.89294499418017,-37.00586499318116,100 174.8929389970964,-37.00587299601127,100 174.892934004661,-37.005880997233724,100 174.89292900463064,-37.00589000623651,100 174.89292600471234,-37.005900000903,100 174.8929230047933,-37.005909995569404,100 174.892920991952,-37.005920005132296,100 174.89292000367112,-37.005931993839354,100 174.89292099833492,-37.00594500093123,100 174.89292300650413,-37.00595899771034,100 174.89292499780126,-37.005972993857256,100 174.89292800298463,-37.00598799500744,100 174.89293100814692,-37.006002995256516,100 174.89293500802884,-37.00601700442326,100 174.89293999412075,-37.00603099334915,100 174.89311299657385,-37.006151998552724,100 174.893117005259,-37.00615299632913,100 174.89311700291472,-37.00615099907405,100 174.89311999302106,-37.00614699733862,100 174.89312700685323,-37.006134995408665,100 174.8931300038509,-37.00613000302853,100 174.89313300843935,-37.00612400286791,100 174.89314000721726,-37.00610699983442,100 174.89314400260528,-37.00609799333355,100 174.89316099658714,-37.00606599442984,100 174.89316999587643,-37.00604999327149,100 174.89317399512953,-37.006043000223954,100 174.89317899791013,-37.00603600558468,100 174.89318299678177,-37.00602899722073,100 174.8931869983786,-37.00602400142785,100 174.8931920035253,-37.00601900494411,100 174.89319599712834,-37.006015000714285,100 174.8932000087273,-37.006010997098485,100 174.8932039947169,-37.00600799974788,100 174.89320900330898,-37.006004999599654,100 174.89321300731655,-37.00600200376386,100 174.8932360059974,-37.005988994175,100 174.89324600412348,-37.00598299598238,100 174.89325100512258,-37.00598100361286,100 174.8932609963556,-37.00597599606348,100 174.8932659973538,-37.00597400369337,100 174.89327099684843,-37.00597199602483,100 174.89327700247446,-37.00597000114302,100 174.8932809984412,-37.00596799506647,100 174.89328599144682,-37.005966994258856,100 174.89329100240386,-37.00596599226326,100 174.89329600574933,-37.005965997146916,100 174.89329999412632,-37.005964998850125,100 174.89330499747174,-37.00596500373341,100 174.8933089958089,-37.00596499581189,100 174.8933139991543,-37.005965000694765,100 174.89332299437146,-37.00596600541792,100 174.8933449930821,-37.005968996414,100 174.89335099232196,-37.00597000568082,100 174.8933560056509,-37.00597100183842,100 174.89336199802386,-37.00597300265005,100 174.89336800727,-37.00597500409342,100 174.89337399964356,-37.00597700490443,100 174.89337899847362,-37.00597999858486,100 174.89338400656675,-37.00598399977655,100 174.89338999370483,-37.00598900562199,100 174.89339499493238,-37.00599399835853,100 174.89340000537877,-37.005999996804384,100 174.89340400471056,-37.00600700462385,100 174.89340900826966,-37.006013993713665,100 174.89341399428045,-37.0060210002081,100 174.89343600827445,-37.00605699313588,100 174.89344000761272,-37.006064000953884,100 174.89344300304313,-37.006070995049434,100 174.89345399950867,-37.00609400203476,100 174.8934579984483,-37.00610099363493,100 174.89346100077012,-37.00610699708554,100 174.89346600474363,-37.00611400238959,100 174.8934699937006,-37.006120002712876,100 174.89347499494218,-37.006124995445546,100 174.89348000540377,-37.006130993887474,100 174.89348600016874,-37.0061349928481,100 174.89349200529952,-37.00613999840092,100 174.89349699655864,-37.00614399985617,100 174.89351500807723,-37.006157003057915,100 174.89351999931628,-37.006161003611176,100 174.89352500742885,-37.00616500479624,100 174.89352999866895,-37.00616900534905,100 174.89353500680488,-37.006173007434604,100 174.8935470021823,-37.00618499984113,100 174.89355100564435,-37.00618900263768,100 174.89355499340195,-37.00619300658603,100 174.89356000798054,-37.00619600000714,100 174.89356500685463,-37.00619899457996,100 174.8935699946195,-37.00620099789414,100 174.89357600501225,-37.00620299930832,100 174.89358200389313,-37.0062039932467,100 174.89358800429994,-37.006205003383904,100 174.89359399434028,-37.00620500692836,100 174.89360099787518,-37.00620599925267,100 174.8936290091621,-37.006206003749746,100 174.89364499755686,-37.00620699327635,100 174.8936529946355,-37.00620699272565,100 174.89367899776065,-37.00620700132109,100 174.8936879994705,-37.00620699825328,100 174.8936960080403,-37.006208004274164,100 174.89370499287725,-37.00620800057305,100 174.89371299996628,-37.00620899219553,100 174.8937210009085,-37.006211004193055,100 174.89372900149343,-37.00621300177483,100 174.89373700203404,-37.00621499755418,100 174.89374499501437,-37.00621800201412,100 174.89375300594696,-37.006221005285674,100 174.8937670013202,-37.006227001811006,100 174.89378799611558,-37.0062369947636,100 174.89379999892128,-37.00624099695498,100 174.8938229942606,-37.00625199176667,100 174.8938250051887,-37.00625400112512,100 174.89390299126066,-37.006251999215934,100 174.89390399352746,-37.0062499994448,100 174.8939040079907,-37.00624800102042,100 174.8939049998867,-37.00624499465697,100 174.89390599389017,-37.00623700133849,100 174.89390700197652,-37.0062269942795,100 174.89390699419903,-37.0062140011886,100 174.89390699353905,-37.00620700076203,100 174.8939069998448,-37.006191993930585,100 174.89390700719065,-37.006184002841835,100 174.89390599265266,-37.006175998321645,100 174.89390399878206,-37.00616000404144,100 174.89390200453235,-37.00614399444503,100 174.89389999444975,-37.00613499995934,100 174.8938969931847,-37.00611699472389,100 174.8938949999765,-37.00610800087001,100 174.89389199176858,-37.00609800294028,100 174.8938900061651,-37.00608800220701,100 174.8938859944302,-37.00607800587466,100 174.89388300417633,-37.00606800675673,100 174.8938749947959,-37.00604600035062,100 174.89386699342666,-37.006023003281584,100 174.89386200152433,-37.00601200231618,100 174.89385799740145,-37.006000999103286,100 174.89384899726423,-37.005981999039996,100 174.89384499440712,-37.005972993999976,100 174.89383999951698,-37.00596499713139,100 174.8938360070315,-37.00595699868338,100 174.893822008039,-37.00593500405589,100 174.89381700516927,-37.005927998749314,100 174.89381399286063,-37.005921004932816,100 174.89380999349663,-37.005913997128026,100 174.89380700566682,-37.00590599706399,100 174.89380499686388,-37.00589900074937,100 174.89380199216234,-37.00589100005317,100 174.89380000781563,-37.00588299659017,100 174.8937990013015,-37.00587400140602,100 174.89379800363085,-37.00586599661512,100 174.89379699947898,-37.00585899868558,100 174.8937960029322,-37.00585099387671,100 174.89379600226152,-37.0058439925485,100 174.89379600163556,-37.00583699302217,100 174.89379599448344,-37.00583099855531,100 174.8937980076322,-37.00582100609876,100 174.89379899602017,-37.00581600159833,100 174.89379999479937,-37.005812004591284,100 174.89380199820448,-37.005808005068566,100 174.89380399360218,-37.005804996208084,100 174.8938069940281,-37.00580200104894,100 174.8938099933304,-37.00579900590764,100 174.89381399687824,-37.00579599293442,100 174.8938200013742,-37.00579399894473,100 174.8938260058475,-37.005792004053816,100 174.89383299771563,-37.00578999159952,100 174.893839999232,-37.00578900197224,100 174.8938480038928,-37.00578799543128,100 174.89385699666394,-37.00578700015686,100 174.89386700294932,-37.00578699456074,100 174.89387699926706,-37.00578599858844,100 174.89388699797092,-37.00578700077087,100 174.89389800778088,-37.00578699357463,100 174.89390899315922,-37.00578799442659,100 174.89392100037176,-37.005789006907065,100 174.8939340038694,-37.00579099401753,100 174.89394700012244,-37.005794002421,100 174.89396100750398,-37.00579600234563,100 174.89397599467884,-37.005798991583596,100 174.894044006048,-37.005813999613366,100 174.8940549938,-37.005816997706106,100 174.8940659995044,-37.00581999460992,100 174.89409400259606,-37.00582800632484,100 174.8941029997719,-37.00583099202639,100 174.89411299200646,-37.0058330010508,100 174.89412299956615,-37.00583499360621,100 174.89413399530454,-37.005837000128366,100 174.8941460021467,-37.00583799726963,100 174.8941600082927,-37.00583799989804,100 174.89417500642176,-37.00583699254866,100 174.89419099277333,-37.005836000966404,100 174.89420800057871,-37.00583500569293,100 174.89427300550764,-37.005827996736194,100 174.89428700127567,-37.00582699275746,100 174.89429900459697,-37.00582599174592,100 174.89430899443784,-37.00582600259846,100 174.89431800647645,-37.00582700607628,100 174.89432600461427,-37.00582700456245,100 174.8943330081443,-37.00582799774525,100 174.89433999518172,-37.00582900561184,100 174.89436200313736,-37.00583300302945,100 174.89436900664592,-37.005833995309146,100 174.89439199238325,-37.005836999193626,100 174.89440299460148,-37.00583799882944,100 174.89441500384635,-37.00584099409852,100 174.89442300478837,-37.005843006950315,100 174.89443100532822,-37.00584500358448,100 174.8944510086432,-37.00585100234463,100 174.89447400804386,-37.00585899291614,100 174.8944989991533,-37.00586699584491,100 174.89451099431625,-37.00587200394331,100 174.8945219920916,-37.005875993267985,100 174.89453199710132,-37.005881006102776,100 174.89454100355468,-37.00588499838042,100 174.8945480029798,-37.005888994764554,100 174.89455499483316,-37.005893998928286,100 174.8945620035156,-37.00589900192155,100 174.89456699481252,-37.005903003330786,100 174.8945719949633,-37.00590799513274,100 174.89457699664072,-37.00591300313358,100 174.89458099328903,-37.005917997439425,100 174.89458499678918,-37.00592200020011,100 174.89458600382122,-37.00592399583277,100 174.8946809990871,-37.0058949954119,100 174.89467300372232,-37.005889993760974,100 174.89466200596001,-37.005886005351535,100 174.8946520037283,-37.005883005999046,100 174.8946440003704,-37.00587899500805,100 174.8946359974159,-37.005875000233544,100 174.89462799448458,-37.00587100635942,100 174.89460599984844,-37.00585799482657,100 174.89459000156526,-37.005848999293484,100 174.894581998639,-37.00584500541609,100 174.8945740021401,-37.00584000287512,100 174.89454900108194,-37.00582399382767,100 174.89453400631493,-37.005814995782536,100 174.8945260033727,-37.00581100100023,100 174.89451899595812,-37.005807995276534,100 174.89451299469567,-37.00580500322987,100 174.89450599766045,-37.00580300409748,100 174.8944999948953,-37.005799996751946,100 174.89449399601412,-37.00579900195843,100 174.8944820036237,-37.00579600642818,100 174.89446499750193,-37.005791998569165,100 174.89445400290842,-37.00578999296077,100 174.8944229962754,-37.0057829945854,100 174.89441900554627,-37.00578199566508,100 174.89441499684332,-37.0057809970316,100 174.89440700280647,-37.00577799443589,100 174.89439599817487,-37.005774995744055,100 174.89439299985074,-37.005773003962936,100 174.89439099932056,-37.005772002107136,100 174.89438800173988,-37.00576999499183,100 174.8943870022899,-37.00576699157715,100 174.89438600326494,-37.00576400528047,100 174.89438599810828,-37.00575999455492,100 174.8943849910614,-37.005757998019355,100 174.89438899232775,-37.005739003120595,100 174.8943909921546,-37.0057330045506,100 174.8943930031458,-37.005727999040595,100 174.89439399389315,-37.00572499269147,100 174.89439700226941,-37.00572100595508,100 174.8944000011423,-37.00571799458252,100 174.8944100019796,-37.00570699490746,100 174.89442700186757,-37.00569300561309,100 174.89443099541003,-37.00568900224473,100 174.89443400227944,-37.00568500020928,100 174.89443999157038,-37.00567800328638,100 174.89444400308525,-37.00567399963062,100 174.89444600883132,-37.00567199735224,100 174.8944520005212,-37.00566699858393,100 174.89446799779014,-37.005654994644196,100 174.89448100376097,-37.005644994296894,100 174.89448999821815,-37.005638997605566,100 174.89449800840418,-37.005635000402286,100 174.89450700526126,-37.00563100186488,100 174.89451499861744,-37.00562700583051,100 174.8945190049106,-37.00562600630569,100 174.89452300082522,-37.00562400018861,100 174.89452799378992,-37.00562299932975,100 174.8945320000827,-37.0056219998045,100 174.89454099284555,-37.00562100537995,100 174.89454799395529,-37.00562000039544,100 174.89455100560062,-37.00561999376651,100 174.8945550054213,-37.00562000110166,100 174.89456399946405,-37.00562100484843,100 174.89457500275353,-37.00562200355026,100 174.8945820062672,-37.005622996718834,100 174.89460000545444,-37.00562599456462,100 174.89464999441552,-37.005633993063434,100 174.89466600345793,-37.00563699563962,100 174.89467900732555,-37.00563899798476,100 174.89470000818758,-37.00564099880789,100 174.89470400800917,-37.005641006138,100 174.89470900338,-37.00564200342654,100 174.89471299520613,-37.00564300141833,100 174.89471800742768,-37.0056439984374,100 174.89472199166124,-37.00564600330796,100 174.8947310071919,-37.00564900399095,100 174.89473899215304,-37.00565299904675,100 174.89474799212005,-37.00565799817039,100 174.89475600546072,-37.00566300043091,100 174.89476099672913,-37.00566700093133,100 174.8947650078169,-37.00566999680717,100 174.89476999151648,-37.00567500508718,100 174.89477499963687,-37.00567900531787,100 174.89478500146092,-37.00568900510354,100 174.89479900752974,-37.00570299230783,100 174.89480699880204,-37.00571099806575,100 174.89481599359945,-37.005719002217766,100 174.89482100174754,-37.005723003347285,100 174.89482599949125,-37.005725996983664,100 174.89482999375656,-37.00572899402716,100 174.89483299893797,-37.00572999425202,100 174.89483499949486,-37.005730997001194,100 174.89483700764305,-37.00573099287131,100 174.89483999597414,-37.005731993365096,100 174.8948420033792,-37.00573200456918,100 174.89484700632633,-37.005731994071716,100 174.89484900559535,-37.00573099864785,100 174.8948539985621,-37.0057299977752,100 174.8948580048557,-37.00572899823893,100 174.89486300467,-37.00572700582096,100 174.89486700170357,-37.005724999674484,100 174.89487400725315,-37.00572100497082,100 174.89487800428614,-37.005718998823994,100 174.8948870020485,-37.00570299756373,100 174.89489399280598,-37.00568700131671,100 174.89490000169155,-37.00567500181494,100 174.89491000464807,-37.00561199495878,100 174.89493100776082,-37.00554800575169,100 174.89496899649345,-37.005513995764254,100 174.89500099469194,-37.00549200030113,100 174.89502800829567,-37.00547700015593,100 174.8951040038147,-37.005448997765534,100 174.89518400352335,-37.00541099898623,100 174.8952170062577,-37.00538900184117,100 174.89524181279967,-37.005376904854685,100 174.89525599225365,-37.005369996984236,100 174.8952989915862,-37.00536100279392,100 174.8954069929629,-37.00538300529263,100 174.89546500077662,-37.005406999695644,100 174.89551800535884,-37.00543800413484,100 174.89550699370355,-37.00548300105188,100 174.8954919974692,-37.005532993564934,100 174.89567000254968,-37.00570399159347,100</coordinates></LinearRing></outerBoundaryIs>
    </Polygon>
  </Placemark>

  <Placemark>
    <name>Hillpark</name>
    <Point>
      <altitudeMode>relativeToGround</altitudeMode>
      <coordinates>174.89924399743197,-37.01399196275481,100</coordinates>
    </Point>
  </Placemark>

</Document>
</kml>