<?xml version="1.0" encoding="UTF-8"?>
<kml xmlns="http://www.opengis.net/kml/2.2">
  <Document>
    <name>Howick (polygon: official_shp)</name>
    <Style id="icon-1899-0288D1-nodesc-normal">
      <IconStyle>
        <color>ffd18802</color>
        <scale>1</scale>
        <Icon>
          <href>https://www.gstatic.com/mapspro/images/stock/503-wht-blank_maps.png</href>
        </Icon>
        <hotSpot x="32" xunits="pixels" y="64" yunits="insetPixels"/>
      </IconStyle>
      <LabelStyle>
        <scale>0</scale>
      </LabelStyle>
      <BalloonStyle>
        <text><![CDATA[<h3>$[name]</h3>]]></text>
      </BalloonStyle>
    </Style>
    <Style id="icon-1899-0288D1-nodesc-highlight">
      <IconStyle>
        <color>ffd18802</color>
        <scale>1</scale>
        <Icon>
          <href>https://www.gstatic.com/mapspro/images/stock/503-wht-blank_maps.png</href>
        </Icon>
        <hotSpot x="32" xunits="pixels" y="64" yunits="insetPixels"/>
      </IconStyle>
      <LabelStyle>
        <scale>1</scale>
      </LabelStyle>
      <BalloonStyle>
        <text><![CDATA[<h3>$[name]</h3>]]></text>
      </BalloonStyle>
    </Style>
    <StyleMap id="icon-1899-0288D1-nodesc">
      <Pair>
        <key>normal</key>
        <styleUrl>#icon-1899-0288D1-nodesc-normal</styleUrl>
      </Pair>
      <Pair>
        <key>highlight</key>
        <styleUrl>#icon-1899-0288D1-nodesc-highlight</styleUrl>
      </Pair>
    </StyleMap>
    <Style id="poly-0000FF-2000-102-nodesc-normal">
      <LineStyle>
        <color>ffff0000</color>
        <width>2</width>
      </LineStyle>
      <PolyStyle>
        <color>66ff0000</color>
        <fill>1</fill>
        <outline>1</outline>
      </PolyStyle>
      <BalloonStyle>
        <text><![CDATA[<h3>$[name]</h3>]]></text>
      </BalloonStyle>
    </Style>
    <Style id="poly-0000FF-2000-102-nodesc-highlight">
      <LineStyle>
        <color>ffff0000</color>
        <width>3</width>
      </LineStyle>
      <PolyStyle>
        <color>66ff0000</color>
        <fill>1</fill>
        <outline>1</outline>
      </PolyStyle>
      <BalloonStyle>
        <text><![CDATA[<h3>$[name]</h3>]]></text>
      </BalloonStyle>
    </Style>
    <StyleMap id="poly-0000FF-2000-102-nodesc">
      <Pair>
        <key>normal</key>
        <styleUrl>#poly-0000FF-2000-102-nodesc-normal</styleUrl>
      </Pair>
      <Pair>
        <key>highlight</key>
        <styleUrl>#poly-0000FF-2000-102-nodesc-highlight</styleUrl>
      </Pair>
    </StyleMap>
    <Placemark>
      <name>Howick (polygon: official_shp)</name>
      <styleUrl>#poly-0000FF-2000-102-nodesc</styleUrl>
      <Polygon>
        <outerBoundaryIs>
          <LinearRing>
            <tessellate>1</tessellate>
            <coordinates>
              174.934524,-36.90631,0
              174.934615,-36.906232,0
              174.934665,-36.906188,0
              174.934799,-36.906072,0
              174.934975,-36.905918,0
              174.934991,-36.905904,0
              174.934638,-36.905659,0
              174.934702,-36.90543,0
              174.934799,-36.905086,0
              174.934623,-36.904963,0
              174.934274,-36.905354,0
              174.934197,-36.905301,0
              174.934046,-36.905249,0
              174.933821,-36.905094,0
              174.933769,-36.905058,0
              174.933258,-36.904701,0
              174.933393,-36.904577,0
              174.933226,-36.904448,0
              174.933409,-36.903849,0
              174.933578,-36.903475,0
              174.933638,-36.903345,0
              174.933711,-36.903214,0
              174.933831,-36.903,0
              174.934065,-36.902668,0
              174.934309,-36.902381,0
              174.934082,-36.902314,0
              174.933844,-36.902189,0
              174.93405,-36.901936,0
              174.933962,-36.901664,0
              174.934015,-36.90158,0
              174.934122,-36.901414,0
              174.934279,-36.90117,0
              174.934032,-36.901215,0
              174.933952,-36.901036,0
              174.933874,-36.900874,0
              174.933798,-36.900712,0
              174.933782,-36.900678,0
              174.933745,-36.900601,0
              174.933738,-36.900587,0
              174.93372,-36.90055,0
              174.93376,-36.900544,0
              174.934023,-36.900505,0
              174.934417,-36.900446,0
              174.934632,-36.900351,0
              174.934594,-36.90022,0
              174.935204,-36.900128,0
              174.935173,-36.899996,0
              174.935166,-36.899966,0
              174.935091,-36.899642,0
              174.934887,-36.899673,0
              174.934684,-36.899704,0
              174.934569,-36.899213,0
              174.934413,-36.899234,0
              174.934364,-36.899057,0
              174.934316,-36.899031,0
              174.934274,-36.898851,0
              174.934781,-36.898775,0
              174.934784,-36.898728,0
              174.934788,-36.898651,0
              174.934792,-36.898578,0
              174.934799,-36.898436,0
              174.934801,-36.898399,0
              174.934881,-36.898284,0
              174.934907,-36.898237,0
              174.934966,-36.898134,0
              174.935051,-36.897984,0
              174.935136,-36.897834,0
              174.935186,-36.897745,0
              174.935198,-36.897724,0
              174.935262,-36.897612,0
              174.935323,-36.897504,0
              174.934618,-36.897611,0
              174.934581,-36.897457,0
              174.934576,-36.897433,0
              174.934778,-36.897403,0
              174.934768,-36.897362,0
              174.93464,-36.897258,0
              174.934592,-36.897053,0
              174.934491,-36.897068,0
              174.934463,-36.89695,0
              174.934448,-36.896882,0
              174.934426,-36.896788,0
              174.934406,-36.896704,0
              174.934388,-36.896626,0
              174.934365,-36.896526,0
              174.93435,-36.896464,0
              174.934323,-36.896348,0
              174.934313,-36.896302,0
              174.934282,-36.896169,0
              174.934275,-36.89614,0
              174.934168,-36.896008,0
              174.934095,-36.895384,0
              174.933566,-36.895408,0
              174.933553,-36.895201,0
              174.933553,-36.894859,0
              174.933553,-36.894644,0
              174.933359,-36.894651,0
              174.933328,-36.894535,0
              174.933283,-36.894526,0
              174.933083,-36.894487,0
              174.933053,-36.894481,0
              174.932997,-36.89408,0
              174.932792,-36.894077,0
              174.932503,-36.894072,0
              174.932161,-36.894067,0
              174.93215,-36.894067,0
              174.93214,-36.894068,0
              174.93213,-36.894069,0
              174.93212,-36.894072,0
              174.93211,-36.894075,0
              174.932101,-36.894079,0
              174.932092,-36.894083,0
              174.932083,-36.894088,0
              174.932075,-36.894093,0
              174.931715,-36.893862,0
              174.93179,-36.893605,0
              174.931808,-36.893546,0
              174.931888,-36.89327,0
              174.931731,-36.893199,0
              174.931607,-36.893377,0
              174.931559,-36.893343,0
              174.931424,-36.89325,0
              174.931106,-36.893542,0
              174.930896,-36.893391,0
              174.930976,-36.893387,0
              174.931455,-36.892947,0
              174.930993,-36.892613,0
              174.931092,-36.892474,0
              174.931131,-36.892418,0
              174.931198,-36.892323,0
              174.931212,-36.892304,0
              174.931246,-36.892256,0
              174.93135,-36.892107,0
              174.931386,-36.892057,0
              174.931455,-36.891959,0
              174.931528,-36.891856,0
              174.931569,-36.891798,0
              174.93136,-36.891648,0
              174.931018,-36.891401,0
              174.930948,-36.891352,0
              174.930914,-36.891382,0
              174.930777,-36.891505,0
              174.930668,-36.891602,0
              174.930639,-36.891627,0
              174.930477,-36.891512,0
              174.930202,-36.891316,0
              174.930066,-36.891438,0
              174.930065,-36.891439,0
              174.930037,-36.891419,0
              174.9299,-36.891542,0
              174.929763,-36.891664,0
              174.929625,-36.891786,0
              174.929445,-36.891658,0
              174.929244,-36.891838,0
              174.929048,-36.891699,0
              174.928855,-36.891872,0
              174.92874,-36.891661,0
              174.928539,-36.891119,0
              174.928554,-36.891118,0
              174.928617,-36.891061,0
              174.928691,-36.890995,0
              174.928805,-36.890893,0
              174.928828,-36.890873,0
              174.928965,-36.89075,0
              174.928986,-36.890732,0
              174.929065,-36.890662,0
              174.929101,-36.890629,0
              174.929207,-36.890535,0
              174.929239,-36.890507,0
              174.929249,-36.890498,0
              174.929376,-36.890384,0
              174.929301,-36.890288,0
              174.929103,-36.890035,0
              174.929009,-36.889888,0
              174.928845,-36.889738,0
              174.928483,-36.889734,0
              174.928323,-36.889634,0
              174.928163,-36.889533,0
              174.927917,-36.889786,0
              174.927829,-36.889723,0
              174.927765,-36.889678,0
              174.927613,-36.889569,0
              174.927596,-36.889557,0
              174.927473,-36.889469,0
              174.927177,-36.889259,0
              174.92716,-36.889247,0
              174.926924,-36.889078,0
              174.926823,-36.889006,0
              174.926809,-36.888997,0
              174.926537,-36.888803,0
              174.926485,-36.888766,0
              174.925946,-36.888382,0
              174.925774,-36.888259,0
              174.925945,-36.888248,0
              174.92599,-36.887797,0
              174.925999,-36.887707,0
              174.926021,-36.887642,0
              174.926094,-36.887548,0
              174.926227,-36.887377,0
              174.926421,-36.887291,0
              174.926624,-36.887133,0
              174.926708,-36.887069,0
              174.926802,-36.886996,0
              174.926802,-36.886995,0
              174.92672,-36.886935,0
              174.926719,-36.886934,0
              174.926679,-36.886905,0
              174.926454,-36.886798,0
              174.926406,-36.886797,0
              174.926236,-36.886794,0
              174.926216,-36.886793,0
              174.926198,-36.886774,0
              174.926173,-36.886747,0
              174.926082,-36.886649,0
              174.925945,-36.886503,0
              174.925786,-36.886332,0
              174.925755,-36.886299,0
              174.925691,-36.88623,0
              174.925637,-36.886172,0
              174.925503,-36.886029,0
              174.92547,-36.885993,0
              174.925292,-36.885802,0
              174.925248,-36.885755,0
              174.925078,-36.885858,0
              174.924851,-36.885996,0
              174.924563,-36.886171,0
              174.924462,-36.886233,0
              174.924326,-36.88609,0
              174.924174,-36.885931,0
              174.924023,-36.886046,0
              174.923883,-36.886153,0
              174.923723,-36.886274,0
              174.923578,-36.886386,0
              174.923554,-36.886404,0
              174.92355,-36.886407,0
              174.923492,-36.886451,0
              174.923376,-36.886539,0
              174.92326,-36.886628,0
              174.923203,-36.886672,0
              174.923071,-36.886561,0
              174.922874,-36.886394,0
              174.922667,-36.886218,0
              174.922518,-36.886332,0
              174.922369,-36.886445,0
              174.922344,-36.886424,0
              174.922196,-36.886537,0
              174.922221,-36.886558,0
              174.922072,-36.886672,0
              174.922025,-36.886783,0
              174.921549,-36.886543,0
              174.9213,-36.88645,0
              174.92114,-36.886646,0
              174.920958,-36.886552,0
              174.920763,-36.886795,0
              174.920804,-36.886806,0
              174.920765,-36.886962,0
              174.920757,-36.886994,0
              174.920717,-36.887156,0
              174.920667,-36.887203,0
              174.920729,-36.887255,0
              174.920712,-36.887323,0
              174.920672,-36.887485,0
              174.920664,-36.887517,0
              174.920658,-36.887544,0
              174.920632,-36.887648,0
              174.920627,-36.887777,0
              174.920571,-36.888002,0
              174.920564,-36.888041,0
              174.920341,-36.887951,0
              174.920232,-36.887906,0
              174.920158,-36.887877,0
              174.920115,-36.887859,0
              174.919906,-36.887911,0
              174.919436,-36.887862,0
              174.919426,-36.887878,0
              174.919214,-36.887794,0
              174.918966,-36.887965,0
              174.918959,-36.88797,0
              174.919071,-36.88803,0
              174.919265,-36.888134,0
              174.919206,-36.888229,0
              174.91912,-36.888366,0
              174.919071,-36.888443,0
              174.919014,-36.888534,0
              174.919361,-36.888719,0
              174.919642,-36.888868,0
              174.919727,-36.888927,0
              174.919974,-36.889099,0
              174.920306,-36.889213,0
              174.920232,-36.889337,0
              174.920214,-36.889367,0
              174.920158,-36.889458,0
              174.920368,-36.889564,0
              174.920094,-36.88971,0
              174.920064,-36.889726,0
              174.920093,-36.889748,0
              174.920091,-36.889929,0
              174.919995,-36.88998,0
              174.920055,-36.890155,0
              174.92007,-36.890197,0
              174.920116,-36.890329,0
              174.920177,-36.890504,0
              174.920179,-36.890511,0
              174.920005,-36.8906,0
              174.919776,-36.890354,0
              174.919701,-36.890394,0
              174.919554,-36.890472,0
              174.919532,-36.890484,0
              174.919531,-36.890484,0
              174.919412,-36.890548,0
              174.919373,-36.890568,0
              174.919291,-36.890612,0
              174.919214,-36.890653,0
              174.919167,-36.890678,0
              174.919063,-36.890734,0
              174.91901,-36.890762,0
              174.919229,-36.890999,0
              174.919098,-36.891063,0
              174.91905,-36.891086,0
              174.918862,-36.891177,0
              174.918585,-36.89134,0
              174.918408,-36.891443,0
              174.918308,-36.891502,0
              174.918099,-36.891651,0
              174.918065,-36.891675,0
              174.917965,-36.891747,0
              174.917853,-36.891827,0
              174.917772,-36.891885,0
              174.917605,-36.892004,0
              174.91748,-36.892094,0
              174.917424,-36.892134,0
              174.917371,-36.892074,0
              174.917254,-36.891938,0
              174.917144,-36.89181,0
              174.917137,-36.891803,0
              174.916967,-36.891904,0
              174.916948,-36.891915,0
              174.916792,-36.892007,0
              174.916647,-36.892101,0
              174.916485,-36.892197,0
              174.91632,-36.892295,0
              174.91621,-36.89236,0
              174.916266,-36.89242,0
              174.916279,-36.892435,0
              174.916255,-36.892497,0
              174.916227,-36.892571,0
              174.916186,-36.892678,0
              174.91618,-36.892696,0
              174.915797,-36.892606,0
              174.915678,-36.892709,0
              174.915655,-36.89273,0
              174.915536,-36.892834,0
              174.915415,-36.892939,0
              174.915277,-36.89306,0
              174.915142,-36.893182,0
              174.915139,-36.893184,0
              174.915007,-36.893303,0
              174.915002,-36.893308,0
              174.914872,-36.893425,0
              174.914866,-36.893431,0
              174.914737,-36.893547,0
              174.914729,-36.893554,0
              174.914602,-36.893669,0
              174.914593,-36.893677,0
              174.914467,-36.893791,0
              174.914456,-36.893801,0
              174.914332,-36.893913,0
              174.91432,-36.893924,0
              174.914197,-36.894035,0
              174.914159,-36.894069,0
              174.914062,-36.894157,0
              174.913996,-36.894216,0
              174.913927,-36.894279,0
              174.913883,-36.894318,0
              174.913792,-36.894401,0
              174.913771,-36.894419,0
              174.91368,-36.894502,0
              174.913658,-36.894521,0
              174.913643,-36.894534,0
              174.91372,-36.894588,0
              174.913594,-36.894704,0
              174.913551,-36.894743,0
              174.913504,-36.89471,0
              174.913424,-36.894784,0
              174.91338,-36.894824,0
              174.913298,-36.8949,0
              174.913256,-36.894938,0
              174.913174,-36.895014,0
              174.913133,-36.895052,0
              174.91305,-36.895127,0
              174.913009,-36.895165,0
              174.913005,-36.895169,0
              174.912926,-36.895241,0
              174.912885,-36.895279,0
              174.912803,-36.895355,0
              174.912761,-36.895393,0
              174.912637,-36.895506,0
              174.912625,-36.895518,0
              174.912672,-36.89568,0
              174.912701,-36.895779,0
              174.912705,-36.895821,0
              174.912717,-36.895971,0
              174.912724,-36.896072,0
              174.912726,-36.89609,0
              174.912728,-36.896122,0
              174.91274,-36.896273,0
              174.91275,-36.896401,0
              174.912752,-36.896424,0
              174.912764,-36.896574,0
              174.912778,-36.896755,0
              174.912758,-36.896746,0
              174.91265,-36.896788,0
              174.912396,-36.896779,0
              174.912358,-36.896778,0
              174.91229,-36.896839,0
              174.912138,-36.896975,0
              174.912122,-36.89699,0
              174.912102,-36.897008,0
              174.911959,-36.897066,0
              174.911879,-36.897099,0
              174.911785,-36.897138,0
              174.911707,-36.897124,0
              174.911664,-36.897116,0
              174.911468,-36.897081,0
              174.911378,-36.897065,0
              174.911147,-36.897286,0
              174.910969,-36.897385,0
              174.910791,-36.897484,0
              174.910759,-36.897507,0
              174.910618,-36.897611,0
              174.910602,-36.897624,0
              174.910542,-36.89776,0
              174.910489,-36.89788,0
              174.910328,-36.897959,0
              174.910164,-36.898039,0
              174.91016,-36.898132,0
              174.910155,-36.898229,0
              174.910154,-36.898254,0
              174.909928,-36.898244,0
              174.909703,-36.898235,0
              174.909688,-36.898552,0
              174.909527,-36.898545,0
              174.909481,-36.898533,0
              174.909409,-36.898877,0
              174.909489,-36.898826,0
              174.909916,-36.898844,0
              174.909878,-36.899021,0
              174.909848,-36.899164,0
              174.910087,-36.899174,0
              174.910301,-36.899183,0
              174.910379,-36.899186,0
              174.910519,-36.899192,0
              174.910621,-36.899196,0
              174.910737,-36.899201,0
              174.910857,-36.899206,0
              174.910955,-36.89921,0
              174.911173,-36.899219,0
              174.911182,-36.899219,0
              174.911391,-36.899228,0
              174.911609,-36.899237,0
              174.911629,-36.899237,0
              174.911827,-36.899246,0
              174.91195,-36.899251,0
              174.912045,-36.899255,0
              174.912352,-36.899267,0
              174.912565,-36.899271,0
              174.912621,-36.899273,0
              174.912804,-36.899281,0
              174.913002,-36.899289,0
              174.913029,-36.89929,0
              174.913255,-36.899299,0
              174.913453,-36.899308,0
              174.91348,-36.899309,0
              174.913706,-36.899318,0
              174.913972,-36.899329,0
              174.91397,-36.899358,0
              174.913968,-36.899386,0
              174.91396,-36.89951,0
              174.913957,-36.899566,0
              174.914236,-36.899577,0
              174.914475,-36.899587,0
              174.914464,-36.89973,0
              174.914846,-36.899746,0
              174.914845,-36.899762,0
              174.914834,-36.899949,0
              174.914822,-36.900143,0
              174.91481,-36.900348,0
              174.914798,-36.900544,0
              174.914786,-36.900746,0
              174.914783,-36.900805,0
              174.915633,-36.900838,0
              174.915804,-36.900845,0
              174.915945,-36.900851,0
              174.915984,-36.900852,0
              174.916048,-36.900855,0
              174.916395,-36.900869,0
              174.916621,-36.900878,0
              174.916641,-36.900879,0
              174.91689,-36.900888,0
              174.917033,-36.900894,0
              174.917247,-36.900903,0
              174.917725,-36.900922,0
              174.917967,-36.900931,0
              174.918107,-36.901045,0
              174.918226,-36.901143,0
              174.918251,-36.901163,0
              174.918533,-36.901394,0
              174.918564,-36.901321,0
              174.918797,-36.90134,0
              174.918888,-36.901541,0
              174.918902,-36.901572,0
              174.918915,-36.9016,0
              174.918916,-36.901603,0
              174.918931,-36.901636,0
              174.919018,-36.90188,0
              174.918805,-36.901939,0
              174.918883,-36.902124,0
              174.918978,-36.902307,0
              174.919005,-36.902345,0
              174.91894,-36.90234,0
              174.918775,-36.902328,0
              174.918787,-36.902396,0
              174.918821,-36.902575,0
              174.918831,-36.902629,0
              174.918843,-36.902696,0
              174.91887,-36.90284,0
              174.918892,-36.902865,0
              174.91892,-36.902894,0
              174.919011,-36.902993,0
              174.919032,-36.903017,0
              174.919091,-36.903081,0
              174.919169,-36.903166,0
              174.9192,-36.903199,0
              174.919249,-36.903253,0
              174.919331,-36.903342,0
              174.919362,-36.903376,0
              174.919393,-36.903409,0
              174.919384,-36.903425,0
              174.919532,-36.903537,0
              174.919679,-36.90365,0
              174.919826,-36.903762,0
              174.919762,-36.903862,0
              174.919764,-36.904023,0
              174.919766,-36.904145,0
              174.919766,-36.904177,0
              174.919566,-36.90421,0
              174.919544,-36.90439,0
              174.91957,-36.904428,0
              174.91969,-36.904572,0
              174.919638,-36.90492,0
              174.91963,-36.904977,0
              174.919626,-36.905327,0
              174.919758,-36.905373,0
              174.919794,-36.905386,0
              174.919964,-36.905445,0
              174.920015,-36.905463,0
              174.920103,-36.905494,0
              174.920235,-36.905543,0
              174.920469,-36.905629,0
              174.920778,-36.905742,0
              174.921044,-36.90584,0
              174.921212,-36.905902,0
              174.921409,-36.905974,0
              174.921624,-36.906052,0
              174.921712,-36.906085,0
              174.921859,-36.906137,0
              174.922016,-36.906193,0
              174.922181,-36.906252,0
              174.922234,-36.906272,0
              174.922437,-36.906344,0
              174.922558,-36.906387,0
              174.922641,-36.906417,0
              174.922844,-36.90649,0
              174.923013,-36.90655,0
              174.92305,-36.906563,0
              174.923256,-36.906637,0
              174.923425,-36.906698,0
              174.923462,-36.906711,0
              174.923643,-36.906776,0
              174.923668,-36.906785,0
              174.923862,-36.906854,0
              174.923875,-36.906858,0
              174.924081,-36.906932,0
              174.924256,-36.906995,0
              174.924325,-36.90702,0
              174.924366,-36.907034,0
              174.924367,-36.907035,0
              174.924376,-36.907038,0
              174.924421,-36.90705,0
              174.924571,-36.907091,0
              174.924648,-36.907112,0
              174.924801,-36.907169,0
              174.924987,-36.907205,0
              174.925185,-36.90726,0
              174.925187,-36.90726,0
              174.925379,-36.907312,0
              174.925488,-36.907343,0
              174.925536,-36.907355,0
              174.925575,-36.907366,0
              174.925832,-36.907435,0
              174.92585,-36.907439,0
              174.926001,-36.90748,0
              174.926031,-36.907488,0
              174.926246,-36.907545,0
              174.9266,-36.90764,0
              174.926662,-36.907657,0
              174.926808,-36.907696,0
              174.926951,-36.907734,0
              174.927163,-36.907793,0
              174.9273,-36.907831,0
              174.927369,-36.90785,0
              174.927586,-36.907911,0
              174.92785,-36.907984,0
              174.927862,-36.907988,0
              174.928011,-36.908029,0
              174.928088,-36.908075,0
              174.928214,-36.908149,0
              174.928262,-36.908178,0
              174.928399,-36.908259,0
              174.928535,-36.908339,0
              174.928832,-36.908515,0
              174.928866,-36.908535,0
              174.929073,-36.908635,0
              174.929348,-36.90883,0
              174.929403,-36.908785,0
              174.929499,-36.908706,0
              174.929554,-36.908661,0
              174.9296,-36.908623,0
              174.929642,-36.908581,0
              174.929797,-36.908424,0
              174.92982,-36.908401,0
              174.929926,-36.908293,0
              174.930055,-36.908163,0
              174.930184,-36.908032,0
              174.930053,-36.907939,0
              174.930324,-36.907691,0
              174.930495,-36.907571,0
              174.930557,-36.907615,0
              174.930765,-36.907428,0
              174.930795,-36.907402,0
              174.930954,-36.907259,0
              174.930996,-36.90722,0
              174.931092,-36.907134,0
              174.931139,-36.907092,0
              174.931312,-36.906937,0
              174.931388,-36.906991,0
              174.931534,-36.907095,0
              174.931542,-36.907101,0
              174.931697,-36.907211,0
              174.931789,-36.907276,0
              174.931851,-36.90732,0
              174.932006,-36.90743,0
              174.932013,-36.907435,0
              174.932169,-36.907546,0
              174.932236,-36.907593,0
              174.932491,-36.907775,0
              174.932552,-36.907818,0
              174.932714,-36.907933,0
              174.93288,-36.907783,0
              174.933036,-36.907642,0
              174.933178,-36.907514,0
              174.93323,-36.907467,0
              174.933378,-36.907334,0
              174.933391,-36.907322,0
              174.933539,-36.907189,0
              174.933605,-36.907129,0
              174.933687,-36.907055,0
              174.933835,-36.906922,0
              174.933887,-36.906875,0
              174.933983,-36.906788,0
              174.934061,-36.906718,0
              174.93422,-36.906575,0
              174.934349,-36.906463,0
              174.93445,-36.906375,0
              174.934477,-36.906351,0
              174.934524,-36.90631,0
            </coordinates>
          </LinearRing>
        </outerBoundaryIs>
      </Polygon>
    </Placemark>
    <Placemark>
      <name>Howick</name>
      <styleUrl>#icon-1899-0288D1-nodesc</styleUrl>
      <Point>
        <coordinates>
          174.924498,-36.897831,100
        </coordinates>
      </Point>
    </Placemark>
  </Document>
</kml>
