<?xml version="1.0" encoding="utf-8"?>
<kml xmlns="http://www.opengis.net/kml/2.2">
<Document>
  <name>Huntington Park (polygon: official_shp)</name>
  <open>1</open>

  <Placemark>
    <name>Huntington Park (polygon: official_shp)</name>
    <Style>
      <LineStyle><color>ffff0000</color><width>2</width></LineStyle>
      <PolyStyle><color>66ff0000</color><fill>1</fill><outline>1</outline></PolyStyle>
    </Style>
    <Polygon>
      <tessellate>1</tessellate>
      <altitudeMode>relativeToGround</altitudeMode>
      <outerBoundaryIs><LinearRing><coordinates>174.9030589986338,-36.93197200359704,100 174.90313199654804,-36.931896007408774,100 174.90325500698788,-36.9317680049769,100 174.90337700547727,-36.93164099656758,100 174.9035000076144,-36.93151400168892,100 174.90359999624644,-36.93140999231327,100 174.90368600614894,-36.931344994116586,100 174.90369800431026,-36.9313360013221,100 174.90381200033514,-36.93124899670606,100 174.90383500297494,-36.93118899695542,100 174.90390200544533,-36.931014003282925,100 174.9038030012427,-36.930768992154356,100 174.90383000179247,-36.930570001571326,100 174.90385599433398,-36.930386005176246,100 174.90387400369536,-36.93025599839991,100 174.90389000586887,-36.93008800457562,100 174.9038790084031,-36.930003996380954,100 174.9038679957615,-36.929914999654045,100 174.90378099747318,-36.92987299990352,100 174.90364999951586,-36.929810000969454,100 174.90344999442192,-36.929714006916754,100 174.90342600392785,-36.92962599871867,100 174.9033889921614,-36.929489991557595,100 174.90336899472214,-36.92945500313404,100 174.9033110005163,-36.92934600487844,100 174.90319600566602,-36.92922500259942,100 174.9031789956269,-36.92915700429407,100 174.90315800147192,-36.92907100299876,100 174.90315999614654,-36.92849199556626,100 174.90336700638406,-36.92857299898289,100 174.90470300717598,-36.92904900371312,100 174.90483499376927,-36.929089992673866,100 174.90496699773567,-36.929130997430654,100 174.9049540057769,-36.92915800283034,100 174.90500399818765,-36.929172995406134,100 174.9050170084454,-36.929146004128654,100 174.90537799554173,-36.9292529988076,100 174.90557199916262,-36.92930599500074,100 174.90585999324372,-36.929385998045355,100 174.90632700130703,-36.92951399301647,100 174.9063570012962,-36.929521996334515,100 174.90661399921103,-36.92957400193938,100 174.90668300578307,-36.92958799176624,100 174.90675300629854,-36.92960100388975,100 174.90682300379754,-36.92961200158406,100 174.9068919977404,-36.929623003636486,100 174.90696199529847,-36.9296340021486,100 174.90703299275486,-36.92964300076869,100 174.9071030034175,-36.92965200077437,100 174.90717399825982,-36.92965900113938,100 174.90724400744924,-36.92966600377419,100 174.90731499184378,-36.929671998356355,100 174.9073860009029,-36.929677000153454,100 174.90745699949753,-36.929680996210124,100 174.9075279980977,-36.92968499222411,100 174.90759899443037,-36.92968700534219,100 174.90767000721672,-36.92968900283103,100 174.90774199519342,-36.929689992262965,100 174.9078130053445,-36.92968999239776,100 174.90788400649782,-36.9296890011898,100 174.9079550061209,-36.9296879937403,100 174.908026003501,-36.929685005197406,100 174.90809700046935,-36.92968200039504,100 174.90812499770448,-36.929680002926474,100 174.9081970050152,-36.92967600480434,100 174.9083100080203,-36.92966600118816,100 174.9083809921526,-36.92966000676588,100 174.90845100440555,-36.929652001769526,100 174.90852200230532,-36.92964399440904,100 174.908601998,-36.929632994225265,100 174.90868099785556,-36.92962100412992,100 174.90873200392264,-36.92961299443419,100 174.90880200439304,-36.92960199976461,100 174.90887099703113,-36.92958899420243,100 174.90893999746808,-36.92957499703034,100 174.90900899790066,-36.929561000719794,100 174.90907800572407,-36.929545996582256,100 174.90914600091173,-36.929530004623636,100 174.90921400236314,-36.92951300485735,100 174.90928200380523,-36.92949600595389,100 174.90934999469644,-36.92947800041448,100 174.9094169971691,-36.92945799809853,100 174.90948299713398,-36.929437999248506,100 174.90954999953394,-36.929417996859364,100 174.9096159967196,-36.92939599976927,100 174.90968100706192,-36.92937400409334,100 174.90974600684132,-36.92935100178517,100 174.90986200509897,-36.929308993364224,100 174.91008699688103,-36.92921800724987,100 174.91041199831972,-36.92909799282992,100 174.9106110007695,-36.929040003646655,100 174.91081399266338,-36.92899499914406,100 174.91102000067036,-36.92896099855726,100 174.91111200062906,-36.92895199909057,100 174.9112170018393,-36.92894100298173,100 174.91122899395592,-36.92894000057709,100 174.91143999437946,-36.92893100064618,100 174.9116499922907,-36.92893400484522,100 174.91185899908,-36.92895000443917,100 174.91194599602855,-36.92896099308347,100 174.9120250003866,-36.92900899840272,100 174.91207600592162,-36.92910300058993,100 174.91261000305204,-36.92916300463087,100 174.9126050042361,-36.929180004595416,100 174.9125539993037,-36.929363006721275,100 174.9125270039282,-36.929358003019594,100 174.91232600870867,-36.929831999598704,100 174.9120489950378,-36.93038699519436,100 174.91201900517694,-36.93044800398077,100 174.91176399483547,-36.93080999259789,100 174.91169299977656,-36.93093400171458,100 174.9116510061243,-36.93100699284424,100 174.91138100425223,-36.9315210057832,100 174.91099800592565,-36.931396004340534,100 174.91107599234684,-36.9312500046352,100 174.91130099156206,-36.93087699439574,100 174.91138199257756,-36.930734998268235,100 174.9107850065557,-36.93051399962319,100 174.9106909922041,-36.93067900618229,100 174.91065899158187,-36.930733003233385,100 174.91058299259956,-36.93070499927684,100 174.91022899305267,-36.93057399909302,100 174.91002000804258,-36.93093899666874,100 174.9099040049584,-36.93114100281949,100 174.9098719920275,-36.931128994007715,100 174.90976499231388,-36.93109000003681,100 174.90972199213283,-36.93111499825723,100 174.90948300185383,-36.93125699874014,100 174.90894900768495,-36.9315740000117,100 174.90891100711812,-36.931606001883395,100 174.9087940055654,-36.93170300743912,100 174.908675999642,-36.93179999838236,100 174.90850199594607,-36.931944998239175,100 174.90825200695969,-36.93175099499454,100 174.9081200058543,-36.931862991851276,100 174.90806399649443,-36.93190999409592,100 174.90798700111768,-36.93197500739558,100 174.9078560017908,-36.93208700228755,100 174.9079759975852,-36.93217800580898,100 174.9074470075115,-36.93268500155633,100 174.90742100224386,-36.93271299680127,100 174.90731799957334,-36.93263999658488,100 174.90719899893188,-36.9325549998946,100 174.907072994885,-36.93246499971293,100 174.90693900290523,-36.93236999830904,100 174.90679399321328,-36.93251799919794,100 174.90675700282952,-36.93255599232342,100 174.90687799913465,-36.932639994810366,100 174.9069489985797,-36.932690003161355,100 174.90714100510993,-36.932825004948775,100 174.90703099208397,-36.9329499940837,100 174.9069610052819,-36.93303100423526,100 174.90692199209448,-36.93307600155642,100 174.90679399947663,-36.93322399683331,100 174.90688500495645,-36.93328199944065,100 174.90673399168654,-36.93344200031989,100 174.90666399310268,-36.93339699158835,100 174.90652599301654,-36.933556005404384,100 174.90647600464408,-36.93361200538559,100 174.90640699192028,-36.9336920072307,100 174.90634200313164,-36.933768003888474,100 174.90628800052912,-36.933829001130086,100 174.90617299842629,-36.933962006550054,100 174.90613899267933,-36.93400099979805,100 174.90600999331645,-36.93414899508647,100 174.90604600381633,-36.934155995247885,100 174.905914008293,-36.934307002049664,100 174.9058889970037,-36.934336001296735,100 174.9057829979815,-36.93445800641361,100 174.90567400771164,-36.93458199997498,100 174.9056509999274,-36.934608997647096,100 174.9055890065463,-36.934597996145264,100 174.90555499680394,-36.93471899256619,100 174.90553300822907,-36.934799000814216,100 174.90538000244007,-36.93498499160441,100 174.90528899544427,-36.934967997640776,100 174.90515400346317,-36.93512399720376,100 174.90506999879935,-36.935219997403976,100 174.9050379948981,-36.935257003274685,100 174.90496999604,-36.935335003342125,100 174.90498400049282,-36.93539800576549,100 174.9050230062987,-36.935418999729066,100 174.90500100173702,-36.935445994700835,100 174.9047060067759,-36.935280995727844,100 174.90462999132117,-36.935237996726855,100 174.90448099354253,-36.93511799835414,100 174.90433099889572,-36.93499699458702,100 174.9041570055271,-36.93485600221591,100 174.9040949964737,-36.934815992316224,100 174.90383299895782,-36.934647002680606,100 174.90357999521578,-36.93448299402489,100 174.90353399953224,-36.934453001159085,100 174.90342399679463,-36.934381996237825,100 174.90338600628536,-36.93435700435528,100 174.90345599684764,-36.934108998133894,100 174.90350700279834,-36.93392699206996,100 174.90356799697426,-36.93370799727485,100 174.90350100230995,-36.933694991913555,100 174.90327099662895,-36.93365399465,100 174.9032859996324,-36.933425992199254,100 174.90328799652715,-36.933389005428296,100 174.90329800552814,-36.93323200559183,100 174.90330100060947,-36.93319100459138,100 174.90334699704204,-36.93305599766185,100 174.90339800258624,-36.932904996819495,100 174.90345099902456,-36.93274900500993,100 174.90348900689816,-36.93264000280532,100 174.9033529941706,-36.93246400429332,100 174.9032989967294,-36.93239500093134,100 174.90325599207446,-36.93233899944439,100 174.9032030015361,-36.932241000853224,100 174.9030589986338,-36.93197200359704,100</coordinates></LinearRing></outerBoundaryIs>
    </Polygon>
  </Placemark>

  <Placemark>
    <name>Huntington Park</name>
    <Point>
      <altitudeMode>relativeToGround</altitudeMode>
      <coordinates>174.9066633284435,-36.93136195824083,100</coordinates>
    </Point>
  </Placemark>

</Document>
</kml>