<?xml version="1.0" encoding="utf-8"?>
<kml xmlns="http://www.opengis.net/kml/2.2">
<Document>
  <name>Kohimarama (polygon: official_shp)</name>
  <open>1</open>

  <Placemark>
    <name>Kohimarama (polygon: official_shp)</name>
    <Style>
      <LineStyle><color>ffff0000</color><width>2</width></LineStyle>
      <PolyStyle><color>66ff0000</color><fill>1</fill><outline>1</outline></PolyStyle>
    </Style>
    <Polygon>
      <tessellate>1</tessellate>
      <altitudeMode>relativeToGround</altitudeMode>
      <outerBoundaryIs><LinearRing><coordinates>174.8477097626228,-36.85072165724885,100 174.84770400401533,-36.851001992823335,100 174.84726299806167,-36.851271004389815,100 174.84724599637823,-36.85128199814455,100 174.8471169960766,-36.85144899504541,100 174.8469939952925,-36.85161099440809,100 174.8468810006025,-36.85177700409495,100 174.84674799529267,-36.85200200683548,100 174.84673100371572,-36.85202899811872,100 174.84666999408884,-36.85222299730793,100 174.84670599313606,-36.852240995419386,100 174.84679599863966,-36.852337001910044,100 174.8467810023304,-36.8524889995892,100 174.84678200538912,-36.85296399990522,100 174.84678199731113,-36.8532469932758,100 174.84678200052167,-36.85326399867046,100 174.84678200810507,-36.85341499611827,100 174.84688712354549,-36.853448299915186,100 174.84700054752426,-36.85348410997519,100 174.8470445040436,-36.85362267543452,100 174.8470511089625,-36.85364364142188,100 174.84710298481048,-36.853584936176894,100 174.84710967380082,-36.85360585308354,100 174.84725451385643,-36.85364059590669,100 174.84733299961633,-36.85366000009961,100 174.84747499384738,-36.853692995943824,100 174.8475349975548,-36.85370799410258,100 174.84761399209938,-36.853727002624474,100 174.8476999925044,-36.85374700539088,100 174.84781400298834,-36.85377499910165,100 174.84790899808573,-36.85379800659742,100 174.84787160664843,-36.853933556284865,100 174.8477744302463,-36.854283775783365,100 174.84777370581915,-36.854286436063994,100 174.84772595762564,-36.85445806213821,100 174.84772519772298,-36.85446069322616,100 174.847683805291,-36.854610838145106,100 174.84764055052665,-36.8547662802927,100 174.84763985452014,-36.85476872381075,100 174.84747238096944,-36.85537249473375,100 174.84746803063283,-36.85538821130155,100 174.8474248625172,-36.85554369888512,100 174.8473817278753,-36.855699185931066,100 174.84733564668477,-36.8558653932458,100 174.84732363021033,-36.85590921174906,100 174.84728955000284,-36.8560316170057,100 174.8472419534194,-36.85620319454161,100 174.84722553966412,-36.85626297728732,100 174.8471943902532,-36.85637477063578,100 174.8471819388757,-36.85641977212247,100 174.84714980693326,-36.85653557814001,100 174.84712724048057,-36.85661668378791,100 174.8471018998563,-36.856708492609876,100 174.84697059312637,-36.856685162916,100 174.84692395766083,-36.85685333096508,100 174.8469051623409,-36.856859244706,100 174.8468863143209,-36.85686515926307,100 174.84683598784747,-36.85704653958788,100 174.8469710271972,-36.857179670276864,100 174.84695440898233,-36.85723954899658,100 174.84690907073232,-36.85740318840398,100 174.8468817659897,-36.85750107023301,100 174.84686443624628,-36.857564059679156,100 174.84681980081254,-36.857724945371956,100 174.8468084768657,-36.85776624284463,100 174.84677526913265,-36.85788581501251,100 174.8467566689732,-36.857953022590785,100 174.84693230888703,-36.85798465060518,100 174.84691115355352,-36.858126642683494,100 174.84690251811827,-36.858184618985895,100 174.84683850436622,-36.85841529676443,100 174.84662585214937,-36.85842449280687,100 174.84660866482733,-36.85848637857091,100 174.8466042345499,-36.85850237575922,100 174.84656407668055,-36.85864712642089,100 174.84653505102727,-36.85875178858652,100 174.84652391823715,-36.85879185904992,100 174.84648372528505,-36.858936608424294,100 174.84644358416006,-36.85908137320235,100 174.84593970956715,-36.8589911225833,100 174.84591112337276,-36.859094183319534,100 174.84596295629927,-36.85915976390826,100 174.84591089205125,-36.859347429669135,100 174.8458293066052,-36.85938908032987,100 174.84579978325272,-36.859495859167836,100 174.84630378587238,-36.85958626337531,100 174.8462606294416,-36.85974171876631,100 174.8462471646964,-36.85979028443459,100 174.84621750724529,-36.85989720515478,100 174.84619052642856,-36.85999435259906,100 174.8461743493908,-36.86005266143482,100 174.8461443746827,-36.86016066956381,100 174.8461311752707,-36.86020814769431,100 174.84608801817598,-36.860363648994706,100 174.84604487924963,-36.860519166219596,100 174.84600172111527,-36.86067463775778,100 174.84594679874067,-36.86087245003279,100 174.84592936781434,-36.86093497581366,100 174.8459055465211,-36.86102099673534,100 174.84586433079306,-36.86116957440192,100 174.84585079493672,-36.86121809425631,100 174.84583594382147,-36.861271717150636,100 174.84582309321075,-36.86131804242979,100 174.84577178745255,-36.86150307884043,100 174.84571566911555,-36.86170535674692,100 174.8456928242683,-36.86178782923379,100 174.8456538352858,-36.861927912331964,100 174.84564219052697,-36.86197023677569,100 174.84560691083138,-36.86209712262741,100 174.84557211030648,-36.86222252915037,100 174.84556042550247,-36.86226463788768,100 174.84551568777965,-36.862425771596165,100 174.8455089570647,-36.86242864502756,100 174.84533142220997,-36.862504897823364,100 174.84515388625724,-36.86258111972882,100 174.84499106026286,-36.8626510488044,100 174.84497636825265,-36.862657356416136,100 174.84497151599308,-36.86265942099802,100 174.84486395160653,-36.8627789519772,100 174.84475539707284,-36.8628995834368,100 174.844629688777,-36.863039247731656,100 174.84461990850625,-36.863045734124526,100 174.84439424382745,-36.86319524395475,100 174.8443927479526,-36.86319619825023,100 174.84437405189976,-36.86320855278426,100 174.84426060859414,-36.86328373522338,100 174.84414136955849,-36.86330984707324,100 174.8438625007821,-36.863370876796495,100 174.84368806394457,-36.86340905370935,100 174.84359356211098,-36.86342975444448,100 174.84343843326988,-36.86346367997288,100 174.84336480456216,-36.863479809612556,100 174.84324736223618,-36.86356713999753,100 174.8431817036452,-36.86361601204856,100 174.84313073442442,-36.863337562873966,100 174.84301277133545,-36.86340331240614,100 174.84288632772208,-36.86347377662804,100 174.84280274723503,-36.86326992978019,100 174.84268706561,-36.86330056286736,100 174.8425315417527,-36.86334172742924,100 174.84241601332695,-36.86340611907053,100 174.84237712355088,-36.86342781686013,100 174.84222270460845,-36.863513889880764,100 174.84206809769483,-36.86360004403362,100 174.84199921263348,-36.86352018043928,100 174.84191499536075,-36.863567091580805,100 174.8418588044034,-36.86359839429851,100 174.84180257971678,-36.8636296957102,100 174.84174638974454,-36.86366099655758,100 174.8416901818064,-36.86369229855856,100 174.84163399213054,-36.86372361557294,100 174.84161985555812,-36.86373135269105,100 174.84157776725803,-36.86375491688265,100 174.84122137780895,-36.86366010641951,100 174.84099191546406,-36.86378793039064,100 174.8409601950607,-36.86380564812203,100 174.84075792313624,-36.86391829375389,100 174.84084645169443,-36.864020897200454,100 174.840857343777,-36.86403351835351,100 174.84086497464358,-36.864042386410006,100 174.840958815931,-36.864151154589784,100 174.841143944876,-36.8640833892886,100 174.84122691226074,-36.8640623158087,100 174.84128728461351,-36.864169118282256,100 174.84129886936196,-36.86418960990662,100 174.84114076231336,-36.8642474810359,100 174.8411610284471,-36.864283219383616,100 174.84125079393445,-36.8644415696564,100 174.84126293775938,-36.864462919700806,100 174.84101302865673,-36.864550239248516,100 174.84105954111143,-36.864632235601704,100 174.84080185769324,-36.864722227745,100 174.84085103341695,-36.864769085951465,100 174.84085971917446,-36.86477736171187,100 174.84093225862702,-36.8648464624105,100 174.84097116983918,-36.86495260968001,100 174.8405694994159,-36.86509292004526,100 174.84051983865672,-36.86499059585776,100 174.84044941118916,-36.864845356417845,100 174.84028275712032,-36.864903528262914,100 174.84015902695492,-36.86494679406752,100 174.84012586186822,-36.86495832557968,100 174.84008446382896,-36.86497278682442,100 174.83995924244311,-36.865016512662955,100 174.8397402700053,-36.86509310955396,100 174.83949369231354,-36.86517912961837,100 174.83942521057088,-36.86520309716251,100 174.8393895494954,-36.865215617115716,100 174.8390466346409,-36.86539541589526,100 174.8388535418069,-36.86549668837154,100 174.83868626725732,-36.86558440155644,100 174.83863318078158,-36.865612287352974,100 174.83848482458015,-36.865690137160776,100 174.83845191393854,-36.865707348074785,100 174.83837946805147,-36.8657454452549,100 174.83782799543079,-36.8667309981398,100 174.83515899251807,-36.865769006410915,100 174.83228230431976,-36.86533616560913,100 174.83228494036973,-36.86533522272437,100 174.83231428074325,-36.86533196621789,100 174.83232557822603,-36.865331835261024,100 174.8323705764593,-36.865318214403274,100 174.83238231189867,-36.86531697615926,100 174.832398124627,-36.865316429450594,100 174.83241259340883,-36.86531663084198,100 174.8324284212223,-36.865315353816804,100 174.83244020648556,-36.86531667097946,100 174.83244244171266,-36.865316276875355,100 174.832455123806,-36.865316865448214,100 174.83246727516325,-36.865313080824635,100 174.83248474991032,-36.86530415762065,100 174.83250845429106,-36.865288963302696,100 174.832514253739,-36.86528417160398,100 174.83252005563406,-36.865280092821735,100 174.83252946641755,-36.86527527066234,100 174.83253435166483,-36.86527048044367,100 174.83254104926476,-36.86526567308879,100 174.83254868465315,-36.86526232134423,100 174.83257110231835,-36.86525078824497,100 174.83257285846472,-36.86524855920255,100 174.83258590834714,-36.86524477513007,100 174.8326254040467,-36.86522757692811,100 174.83263711779205,-36.86522491488739,100 174.83264700633666,-36.865221168752285,100 174.83265644936367,-36.86521887071967,100 174.83266908733904,-36.865216533321735,100 174.83267987685048,-36.86521349976175,100 174.83268843058977,-36.865211588595095,100 174.83269837822206,-36.86521073842898,100 174.8327042708581,-36.86521139744772,100 174.83271599662868,-36.865209802392194,100 174.83272861778033,-36.865207465247444,100 174.83273174984987,-36.86520634344865,100 174.83281891500263,-36.86519878693622,100 174.83282522483222,-36.86519761070875,100 174.83283652098442,-36.865196767670874,100 174.83286716644497,-36.86519057688705,100 174.8328869166893,-36.8651827136429,100 174.8329098652469,-36.865176266625475,100 174.83294589570963,-36.8651678466774,100 174.83298888418085,-36.865168430053465,100 174.8329979088793,-36.86516796725217,100 174.8330042579586,-36.86516824606264,100 174.83301742837673,-36.86517101007101,100 174.83303600478027,-36.86517298583625,100 174.83304508854079,-36.865175417202,100 174.83305101892378,-36.8651775150501,100 174.83306144291436,-36.86518031060759,100 174.83308603766628,-36.86518839378724,100 174.8330969294491,-36.86519189417776,100 174.83310290832864,-36.865195833599806,100 174.83309174908686,-36.86517959158539,100 174.8330874590164,-36.86516764840953,100 174.83308645839324,-36.8651618268139,100 174.83308632477204,-36.8651534654059,100 174.8330848793731,-36.86514912254897,100 174.83308600374838,-36.86513674522227,100 174.83308725497503,-36.86512981720088,100 174.83308721683943,-36.86512836213631,100 174.83308937958478,-36.86512324525175,100 174.83309158841513,-36.86511921195986,100 174.83310498504645,-36.86510961429103,100 174.83311169540687,-36.86510590633391,100 174.8331247544962,-36.86510246276459,100 174.83313596871787,-36.86509725310243,100 174.83314675502834,-36.865093476851335,100 174.833152158143,-36.86509195856899,100 174.83316516022614,-36.86508636439275,100 174.833172816519,-36.86508445261621,100 174.83318272803353,-36.86508289001253,100 174.83322391259048,-36.86508384544484,100 174.83322709275643,-36.86508454899179,100 174.83323206589395,-36.86508376741964,100 174.83324154870078,-36.86508365175575,100 174.8332610496866,-36.86508596744455,100 174.8332660245232,-36.86508591412186,100 174.8332773332905,-36.865086867204404,100 174.83329139186284,-36.86508924432703,100 174.8333072341453,-36.865089795766856,100 174.83331809989124,-36.86508967227878,100 174.8333239825074,-36.86508995917089,100 174.83334939802708,-36.86509511742493,100 174.83337758575587,-36.865103153217106,100 174.83339209435843,-36.86510553870639,100 174.83340251178223,-36.86510613508269,100 174.83341111851513,-36.86510747505612,100 174.83342065986199,-36.86510957395115,100 174.8334310801088,-36.86511089855845,100 174.83343425655247,-36.865110132083096,100 174.83344101768057,-36.8651096753337,100 174.83344871417776,-36.8651099621716,100 174.83345552458476,-36.86511133256432,100 174.83346593276966,-36.86511158927505,100 174.83347945205324,-36.86510923729064,100 174.8334893618621,-36.86510694641066,100 174.8334965809617,-36.86510612656459,100 174.83350734797716,-36.86510163762428,100 174.83353302437988,-36.86509443183359,100 174.83354108140682,-36.86509070126885,100 174.83355098950912,-36.865087682133016,100 174.8335613884303,-36.86508755140518,100 174.8335717563772,-36.86508560857375,100 174.83358028950786,-36.86508222668581,100 174.83358698021948,-36.8650777916296,100 174.83359417555386,-36.86507480443852,100 174.83360176273504,-36.86506962636885,100 174.83360985451753,-36.86506589526316,100 174.83361476985954,-36.86506293063708,100 174.83361607706638,-36.865060740054304,100 174.83362098034448,-36.86505666066523,100 174.8336408431287,-36.8650295295673,100 174.8336439387689,-36.86502439737501,100 174.83366027176885,-36.865001647144965,100 174.83366899038822,-36.86498373470294,100 174.83367240876842,-36.8649731453659,100 174.83367660733467,-36.86495417961822,100 174.83368055371133,-36.86494723613658,100 174.83368761119345,-36.86493768485645,100 174.8337079932453,-36.86491454044166,100 174.83371651538465,-36.864910089732824,100 174.83372230546576,-36.86490491054743,100 174.8337294643133,-36.86490119563436,100 174.8337434322364,-36.86489813906477,100 174.8337618534166,-36.864890995622716,100 174.83377987478391,-36.864886413627374,100 174.8337902740427,-36.86488629819727,100 174.83381028468753,-36.86489224461177,100 174.83381480302822,-36.864892569660846,100 174.8338439098607,-36.86490203058643,100 174.83385397166322,-36.86490811702327,100 174.83385767022705,-36.86491206456178,100 174.83386225769985,-36.86491565677544,100 174.8338709771376,-36.86492391721351,100 174.833878762007,-36.864928182946215,100 174.83390307798354,-36.864948629337256,100 174.83391696181954,-36.86496593876216,100 174.83392158708338,-36.86497097072021,100 174.83392982498628,-36.86497668420844,100 174.83393952040151,-36.864987855304086,100 174.83394688185422,-36.86499505509696,100 174.83395108844707,-36.865001906096495,100 174.83396582118567,-36.865017373608026,100 174.83397226279402,-36.86502311842433,100 174.8339869137726,-36.865033476637244,100 174.83399834869903,-36.86503989428811,100 174.83401020644737,-36.865045933160914,100 174.83402025824245,-36.86505164658578,100 174.83403120613946,-36.86505660167691,100 174.83404536838913,-36.86506481594447,100 174.83404722137354,-36.86506696766672,100 174.83404674152823,-36.86506514897295,100 174.83404260404063,-36.86506156424222,100 174.83404137662302,-36.86505991301831,100 174.83403749779697,-36.865054713612814,100 174.83403244082535,-36.86504968922449,100 174.83402604189823,-36.86504685595948,100 174.8340146024342,-36.865038981827325,100 174.83400266350216,-36.86502856192726,100 174.83399899513267,-36.86502644092931,100 174.83399390681524,-36.86501958911989,100 174.83398883022267,-36.8650138376568,100 174.83398460153956,-36.86500549980025,100 174.83397946546407,-36.86499683794939,100 174.8339752258347,-36.86498743218188,100 174.83397191968209,-36.864978737578944,100 174.83397045122064,-36.864972212060785,100 174.83396239917246,-36.864951938278075,100 174.83395944333893,-36.86493814303228,100 174.83395610113226,-36.86492873783358,100 174.83395469496244,-36.864925850034886,100 174.83394686535425,-36.86491793009255,100 174.83393860612526,-36.8649107612818,100 174.8339321360291,-36.86490391817823,100 174.8339256717851,-36.86489600600305,100 174.83391514224834,-36.86488921744254,100 174.83390373302453,-36.86488316983431,100 174.8338959725581,-36.86487851705468,100 174.83386410590492,-36.86486726001801,100 174.83385000882132,-36.86486341168046,100 174.8338418018954,-36.86485950938759,100 174.83383362349045,-36.86485670628022,100 174.83382586641858,-36.864853509096285,100 174.8338126255848,-36.864846765977425,100 174.8338035418418,-36.86484433466987,100 174.83377274460267,-36.864842149244026,100 174.83376731183526,-36.86484256658302,100 174.83375923522163,-36.864845570089365,100 174.83375023191735,-36.86484748917202,100 174.83372406445017,-36.864851792182996,100 174.8337150699961,-36.86485408157429,100 174.8336926643452,-36.864866715229006,100 174.83368821033062,-36.86487077056231,100 174.83368194853378,-36.86487447072772,100 174.8336761660112,-36.864879262221336,100 174.83366909965943,-36.86488844228849,100 174.8336444567349,-36.864926913822465,100 174.83364095792138,-36.864933152764294,100 174.83363364920925,-36.86495542392485,100 174.83363203505166,-36.864965609561864,100 174.83362945855777,-36.864974017298465,100 174.8336223818315,-36.86498281085112,100 174.83361806016964,-36.864994515555246,100 174.83360712991328,-36.86501573306114,100 174.8336067397473,-36.86501865128912,100 174.83359641446035,-36.86502350477079,100 174.83358659508843,-36.865030517248925,100 174.8335704153151,-36.86503616681739,100 174.83356773348314,-36.86503800906593,100 174.83355919185004,-36.865041035057615,100 174.83354474442564,-36.865042288227265,100 174.8335285546526,-36.86504756659521,100 174.83349790894326,-36.86505374222977,100 174.83348693708962,-36.86505374388896,100 174.83357900485365,-36.86460000179136,100 174.83379999940198,-36.86463899177251,100 174.83398700334462,-36.864671994764635,100 174.8349389922079,-36.864838992043296,100 174.8350249998566,-36.86452300037016,100 174.8350660025577,-36.86437399781705,100 174.83510899805393,-36.86421799175927,100 174.83515100055092,-36.86406099693622,100 174.8352190028882,-36.86392999335217,100 174.83528799755368,-36.863797997357025,100 174.83535400698085,-36.863671999836285,100 174.83550899803572,-36.86337400271212,100 174.83553599077675,-36.86326699229288,100 174.83561000550452,-36.8629720044266,100 174.835645998974,-36.86282900170637,100 174.83568200079986,-36.86268499385833,100 174.83571699239596,-36.86254199397299,100 174.83575700525262,-36.862385001719204,100 174.83580600689984,-36.861992995788896,100 174.835819002723,-36.86188399418108,100 174.83552999872043,-36.8615670021095,100 174.83541799803618,-36.86136699580141,100 174.83521600105468,-36.86094899757223,100 174.835391996341,-36.86089400367961,100 174.83556699775355,-36.860840002828525,100 174.83574200620407,-36.86078499392265,100 174.8358750015203,-36.860744005168975,100 174.8359170074477,-36.860731006984615,100 174.83605799197292,-36.86068700130835,100 174.83618800652118,-36.86064699294872,100 174.83632400729806,-36.86065300234056,100 174.83639200770278,-36.860656007428375,100 174.83646099252692,-36.86065899455861,100 174.8365289940387,-36.86066199864938,100 174.83659699443288,-36.8606650027184,100 174.83667899953457,-36.86066900707547,100 174.83689899996432,-36.86067799420441,100 174.83699099149712,-36.86068199809238,100 174.8370200003281,-36.860709998394256,100 174.83712399432844,-36.860640001043755,100 174.83714599388014,-36.86031700167783,100 174.8364790022216,-36.859962997815586,100 174.83643099848106,-36.859377003270694,100 174.83617899778713,-36.85939199306474,100 174.836144994552,-36.85921300263082,100 174.83611899297543,-36.85907200502793,100 174.8361150056897,-36.859031001887836,100 174.8361050083861,-36.85892999610673,100 174.83571099845693,-36.85895399322798,100 174.83547600162834,-36.8589690009427,100 174.835382003252,-36.85897399782461,100 174.83540600116567,-36.85889099559171,100 174.83546200099337,-36.85869699643783,100 174.83554200765386,-36.858420999841755,100 174.8354870013577,-36.85843299631925,100 174.83551899280644,-36.858321006276746,100 174.83555900305598,-36.85836000094125,100 174.8356549943712,-36.858353994292344,100 174.83585699932425,-36.85834199627069,100 174.836047999659,-36.85832999939522,100 174.83609000045158,-36.85832799841144,100 174.8363220071046,-36.858312991549404,100 174.83632800376728,-36.857962993981,100 174.83601900619863,-36.85777799928383,100 174.8360210034857,-36.85763599575355,100 174.83602500287674,-36.85742400427093,100 174.8358619969658,-36.85745500584004,100 174.8358180046893,-36.85746399580134,100 174.83586499785412,-36.85729999226813,100 174.83593000670055,-36.8570750028354,100 174.83599199666293,-36.85686200538486,100 174.83592900869272,-36.85690399738294,100 174.83595199615078,-36.85682400216736,100 174.83599899931886,-36.85666100520875,100 174.83602799724605,-36.8565599998566,100 174.8360379997518,-36.85652600563,100 174.83604499190963,-36.856499000890445,100 174.83563600496024,-36.85647100033965,100 174.83567799975964,-36.85626300605469,100 174.8357209955301,-36.85605499358369,100 174.8357549951828,-36.85588699959222,100 174.8357629983999,-36.855845994149114,100 174.835591006134,-36.855834992271745,100 174.83555599863504,-36.85569499974566,100 174.83552199170992,-36.85555500526922,100 174.83569499403086,-36.85556699663874,100 174.83576200170626,-36.85533599512014,100 174.8358929925247,-36.855359992930076,100 174.83594699620613,-36.855172995247095,100 174.8361289935662,-36.85520699369654,100 174.83618599778185,-36.85501000242342,100 174.83606999308148,-36.854771997674234,100 174.8361409990428,-36.854637999724936,100 174.83621300632865,-36.85450400068204,100 174.83624300626056,-36.85432599232379,100 174.83625200391793,-36.85426900163908,100 174.83627299809507,-36.85414699441512,100 174.83628300744425,-36.85409300576024,100 174.83629700553,-36.85400500221022,100 174.83630400080636,-36.85396899938223,100 174.8361370044772,-36.8539539948288,100 174.83616599684407,-36.85381300271315,100 174.83617299216857,-36.85377699989056,100 174.83620300910627,-36.85362900478959,100 174.83621400420944,-36.8535789956177,100 174.83623400116815,-36.85348000224222,100 174.8362600005074,-36.853347996681116,100 174.83626400841177,-36.85333100138281,100 174.83628100551243,-36.85324599709188,100 174.83629399759064,-36.8531819998917,100 174.83629800477365,-36.85316300634517,100 174.8363099956209,-36.853100993128606,100 174.83632200792954,-36.85304700235499,100 174.83633000074192,-36.85300300639704,100 174.83643000856657,-36.85265400377921,100 174.8365149916254,-36.85235100573194,100 174.836523001628,-36.85232399874354,100 174.83656100576135,-36.852189992287435,100 174.83661100437854,-36.85201500154132,100 174.83666000826,-36.85183899231604,100 174.8367110073096,-36.85166200402739,100 174.83706799089674,-36.851671995190515,100 174.8374780059328,-36.8516829986048,100 174.83749600000314,-36.85162199657836,100 174.8375140028958,-36.85156000564886,100 174.83754800036846,-36.85144700514602,100 174.8375809939993,-36.85133199215329,100 174.8375999975263,-36.851268000998395,100 174.83765200283798,-36.85109000258911,100 174.83767399724113,-36.851014995932026,100 174.83769200788058,-36.85095399541994,100 174.83770100747967,-36.85092000122869,100 174.83774700523009,-36.85076499587853,100 174.83775500551872,-36.850736998391575,100 174.83780699410835,-36.8505609993271,100 174.83783200511846,-36.85047399970027,100 174.83785799890376,-36.850385001031604,100 174.83791000496763,-36.850209000746844,100 174.8379470050765,-36.85021600331427,100 174.83802699243103,-36.85023100642649,100 174.83806699635602,-36.850094996440085,100 174.83812799706544,-36.850064992989765,100 174.83845499686,-36.85012700197797,100 174.83851699982847,-36.84991499440495,100 174.83876900424104,-36.84985499272394,100 174.83905899989253,-36.84978599403559,100 174.83891000512898,-36.84950000522233,100 174.8389040058107,-36.84944700315339,100 174.8388950060395,-36.84937399642826,100 174.83886599559438,-36.84913899786065,100 174.83884399398426,-36.84897100058168,100 174.83868200351446,-36.848825004079934,100 174.8385670020409,-36.848721999609445,100 174.83852000599057,-36.84867999802223,100 174.83840299748283,-36.84863299821322,100 174.838227006381,-36.84856300186345,100 174.83811700535625,-36.848518995766824,100 174.83793900117,-36.84844799538753,100 174.83776200871353,-36.848376002945336,100 174.8376120056463,-36.84831599976954,100 174.83765200191908,-36.84785400697117,100 174.83762150129496,-36.84763044734192,100 174.83967504916902,-36.84848235539372,100 174.83974185787613,-36.84850987811836,100 174.83976897660327,-36.84846933358517,100 174.8398133682396,-36.84848734541898,100 174.83994060823704,-36.84853969707936,100 174.84009576088985,-36.848602304424574,100 174.84005998502064,-36.848672777582884,100 174.8405935830846,-36.848955232402425,100 174.84186882660939,-36.84949084641567,100 174.84187215711395,-36.849489379701325,100 174.84187852394885,-36.84948975061539,100 174.8418848968394,-36.84949229004472,100 174.8418962629429,-36.84949483680746,100 174.8418998974751,-36.84949701938789,100 174.8419049207156,-36.849498838838414,100 174.84190946652416,-36.84949955073861,100 174.84191538809824,-36.84950136978497,100 174.84196592535514,-36.84952175159278,100 174.84200551460634,-36.8495351834401,100 174.84201232948615,-36.84953810088109,100 174.84202416373637,-36.849541367751456,100 174.84208015028645,-36.84955552335387,100 174.84208879590088,-36.8495584106096,100 174.84210151882846,-36.849561321189874,100 174.84214203977956,-36.849574038212225,100 174.84218481701615,-36.849584548930686,100 174.84218571927278,-36.849586020342294,100 174.84227674224238,-36.84961582157459,100 174.84230314616755,-36.84962782090519,100 174.84231727034236,-36.849631450635194,100 174.84233865753603,-36.84964054702073,100 174.84237387516137,-36.849650660206,100 174.84237782676013,-36.84965180042062,100 174.84240118661276,-36.849655798912764,100 174.84242179082142,-36.84966016911021,100 174.8424327583339,-36.849661994624284,100 174.84245109234087,-36.84966672900049,100 174.84245430068407,-36.84966783566932,100 174.84245703688217,-36.849667448036115,100 174.84246163679163,-36.84966891799926,100 174.84246392422537,-36.84967114037572,100 174.8425088091941,-36.84968684873756,100 174.84251844816174,-36.8496893942772,100 174.84252668975944,-36.8496901200569,100 174.84256105540402,-36.84970328389069,100 174.84258577925053,-36.84970985974279,100 174.84258899655208,-36.84971133942122,100 174.84259677540413,-36.84971278442472,100 174.84265498231872,-36.84973509484427,100 174.84267054612528,-36.84973763142451,100 174.84270169486746,-36.84974676115461,100 174.842753457924,-36.849760633109845,100 174.84279011214852,-36.84977344772393,100 174.8428001777085,-36.849774514747224,100 174.84280842435132,-36.84977671140569,100 174.84282400610837,-36.84977924768727,100 174.84283086296617,-36.84978180930406,100 174.84284231368247,-36.84978362638542,100 174.84284689175416,-36.84978362569537,100 174.84285467778992,-36.8497847154449,100 174.84285880308033,-36.84978654968077,100 174.84286154255304,-36.84978690558779,100 174.84287116895086,-36.84978836608753,100 174.84288079000433,-36.849790911875225,100 174.84289084374922,-36.84979087944682,100 174.84289955536275,-36.84979235593322,100 174.84291007796762,-36.84979307335251,100 174.8429215405059,-36.84979598987001,100 174.8429379976319,-36.8497970551046,100 174.8429787829474,-36.849810588852904,100 174.8430021328187,-36.84981421512969,100 174.84302505069027,-36.849823717586986,100 174.84302873722976,-36.8498259155496,100 174.8430548247727,-36.84983248457472,100 174.84308141778774,-36.84984310265756,100 174.84311072513236,-36.84985186154723,100 174.84311895783733,-36.84985221607394,100 174.84312034439293,-36.84985367816411,100 174.8431235545394,-36.84985551306429,100 174.84316250846598,-36.84986904721167,100 174.84316752781723,-36.84986939479039,100 174.84316937109003,-36.849870493769394,100 174.84319181903592,-36.849875978126285,100 174.84319777042774,-36.849878896272486,100 174.84320557366175,-36.84988000105472,100 174.84321471260927,-36.84987998368903,100 174.84322525710846,-36.84988217261853,100 174.84325086431068,-36.8498810210154,100 174.84325453039787,-36.84988246036513,100 174.84332501631215,-36.8498863775592,100 174.8433323367245,-36.84988489037602,100 174.84334287332575,-36.849887450767,100 174.84337032774832,-36.849888869931014,100 174.8433950423581,-36.849892487579,100 174.84340100197306,-36.84989247895691,100 174.84340833133302,-36.84989393268202,100 174.84341428915877,-36.84989319580942,100 174.84341840731977,-36.84989538616296,100 174.84342846144403,-36.84989536900567,100 174.84343490354033,-36.8498979379224,100 174.84344404248915,-36.84989792053901,100 174.84349855528578,-36.84991251924977,100 174.8435447754543,-36.84991866498422,100 174.84356264255285,-36.84992267905405,100 174.84356860216977,-36.8499226704235,100 174.84359335481034,-36.84993034524397,100 174.84361121297587,-36.84993730229933,100 174.84361854236516,-36.849938756912216,100 174.84362405284253,-36.84994460940873,100 174.84364239173277,-36.84995341664993,100 174.84364926441012,-36.84995523437318,100 174.8436731008782,-36.849965481375285,100 174.84377278965755,-36.85000741415122,100 174.84377484561165,-36.85000807537805,100 174.84378671721402,-36.850009482941275,100 174.84380725923685,-36.85001340499663,100 174.84381824647312,-36.85001665508398,100 174.84383427067903,-36.850026121030304,100 174.84384523781893,-36.85002862782671,100 174.84385209072343,-36.85002710099592,100 174.8438671452338,-36.85002995537894,100 174.84387856408284,-36.85003319786238,100 174.8438822187453,-36.850033553966746,100 174.84388863614745,-36.850036447721735,100 174.84389594901728,-36.85003861462715,100 174.84391881544323,-36.850048769371845,100 174.8439375510899,-36.850052334563614,100 174.8439498880163,-36.85005630459212,100 174.84396040673892,-36.8500588192371,100 174.84396499091864,-36.85006098611619,100 174.84396863731627,-36.8500616983729,100 174.84397456903977,-36.850063889408545,100 174.8439805028043,-36.85006420473707,100 174.84398505825953,-36.85006270183085,100 174.84399054362063,-36.85006302591944,100 174.84399417967333,-36.85006265403161,100 174.84401019051492,-36.8500651204047,100 174.84401611970875,-36.850066552554644,100 174.84401839460628,-36.85006764392124,100 174.84402892553527,-36.850071273320296,100 174.8440440032641,-36.85007373974697,100 174.84404673234363,-36.85007370911561,100 174.84405633297732,-36.850075495299684,100 174.84406591502076,-36.8500765543953,100 174.84407368497511,-36.85007832662329,100 174.84409517703915,-36.85008813311386,100 174.84409837893034,-36.85009032324072,100 174.8441061492548,-36.8500921107835,100 174.84411527959057,-36.85009243418589,100 174.8441262463801,-36.85009492563885,100 174.84413357042297,-36.850097463705495,100 174.84414911648358,-36.85010583830295,100 174.84415962658522,-36.85010869376796,100 174.84418202369977,-36.85011224356145,100 174.84418749261613,-36.85011258321877,100 174.84418977716808,-36.8501140295576,100 174.84420943518555,-36.850117239687926,100 174.84421628996887,-36.85011901168766,100 174.8442290785482,-36.85012114677321,100 174.84423546264344,-36.85012148664686,100 174.8442633272767,-36.850127931381955,100 174.84427020026965,-36.850130461117416,100 174.8442756792501,-36.85013117286522,100 174.84428116068295,-36.8501333402283,100 174.84428801291853,-36.85013439930858,100 174.84429576812576,-36.85013434384641,100 174.84430397833222,-36.85013576762121,100 174.84431495835435,-36.85013680229626,100 174.84432227124475,-36.85013896917481,100 174.84433185254116,-36.850139996713715,100 174.8443396153685,-36.85014217193083,100 174.84434650132565,-36.850145801087486,100 174.84435242555412,-36.8501483329244,100 174.84435822881272,-36.85014961108093,100 174.84436062672364,-36.85015012728357,100 174.84436651900884,-36.85015081638854,100 174.84437241343898,-36.85015224815873,100 174.84437512607218,-36.85015223309771,100 174.84442455005282,-36.8501690870789,100 174.84442907761465,-36.8501697838423,100 174.84443586644295,-36.85016974427126,100 174.84446033430072,-36.85017251556794,100 174.84446441409406,-36.85017394755729,100 174.84447424121927,-36.850175777061224,100 174.84451050940123,-36.85018249510167,100 174.84451736844014,-36.85018318361495,100 174.84452377225728,-36.850184250543016,100 174.84453656658715,-36.85018531742578,100 174.8445576202554,-36.85019288541439,100 174.8445708870396,-36.85019611086434,100 174.84457956857284,-36.85019642587448,100 174.84458871076444,-36.850197848683074,100 174.84459832112051,-36.850199991600086,100 174.8446056473567,-36.8502032732033,100 174.84461844563367,-36.85020576412277,100 174.84462301112626,-36.850204632385704,100 174.84463351755923,-36.85020346070742,100 174.8446541206513,-36.850210339843386,100 174.84466509790582,-36.85021321865705,100 174.84467881246468,-36.850215708866685,100 174.8446957440728,-36.85022223217675,100 174.84470534258992,-36.850223275642,100 174.84472179654767,-36.8502235511089,100 174.84472499631354,-36.85022499855278,100 174.84474377735128,-36.850234835290976,100 174.84475476925883,-36.850236970268696,100 174.84476665095386,-36.85023874892593,100 174.8447744162133,-36.85023906462569,100 174.84479316877923,-36.85024263031996,100 174.844800951326,-36.850245531675206,100 174.84480599439863,-36.850248078069534,100 174.8448174334251,-36.850252063748506,100 174.84482842468688,-36.850256784654945,100 174.84485310530675,-36.85025846736173,100 174.84487321073848,-36.850260925032714,100 174.84488281715628,-36.8502615970115,100 174.84489059461202,-36.85026302656238,100 174.84490249098042,-36.8502640622794,100 174.84492627441944,-36.85026905958241,100 174.84493588694312,-36.85027194513691,100 174.84494502852482,-36.85027595475417,100 174.84495326740003,-36.85027847676401,100 174.84498432923482,-36.85027977194658,100 174.84499167432676,-36.85028117755812,100 174.84500126115742,-36.85028369395948,100 174.84500995891722,-36.850286596414236,100 174.84503831037975,-36.8502912199246,100 174.84504793080333,-36.85029373399793,100 174.84506622606415,-36.850300249602334,100 174.84507537616875,-36.85030130090095,100 174.84508360779893,-36.85030160843806,100 174.8450918366362,-36.850303759244696,100 174.84511150656277,-36.850308067764985,100 174.84512201169758,-36.85030875461297,100 174.84513756925023,-36.850312329300294,100 174.845144875407,-36.85031486758152,100 174.84515083644513,-36.85031557000112,100 174.84516365663103,-36.85031953059584,100 174.84517188370947,-36.850320954949495,100 174.84517967304902,-36.8503234848248,100 174.84522082731434,-36.850334656880754,100 174.84523226916335,-36.85033679924877,100 174.84523914154087,-36.85033860156099,100 174.84526431003155,-36.85035021921442,100 174.84527165131882,-36.8503527722649,100 174.84527486840298,-36.85035680535017,100 174.8452794516545,-36.850361543696145,100 174.84528861186627,-36.850366280373265,100 174.84529136141452,-36.85036700741666,100 174.84529776985138,-36.85036695928155,100 174.84531191198423,-36.85036540029798,100 174.84531876134534,-36.85036573198693,100 174.84532564049803,-36.850367162839554,100 174.84533204333886,-36.85037080034148,100 174.8453430357687,-36.85037552118145,100 174.84535034870845,-36.850377687995184,100 174.84536271542584,-36.85038018643656,100 174.84537184262098,-36.85038233679321,100 174.84538235962177,-36.85038412306038,100 174.8454061541706,-36.85038692084053,100 174.84541895565408,-36.850387583719176,100 174.84544591521433,-36.8503918285545,100 174.84545277973174,-36.85039400322694,100 174.8454806793097,-36.8504004471309,100 174.8454871025188,-36.850402272628074,100 174.84551363523912,-36.850407982433886,100 174.8455232331398,-36.850411610866026,100 174.84552917918083,-36.85041304177669,100 174.84553741302312,-36.850414093749094,100 174.84555205287052,-36.85041695525772,100 174.84556578879156,-36.85042350283473,100 174.84557265113668,-36.850424933933915,100 174.84560788414979,-36.8504343023101,100 174.84561701599145,-36.85043533942898,100 174.8456243399395,-36.85043530499881,100 174.84563028600573,-36.85043673680531,100 174.8456440118674,-36.8504429122787,100 174.8456522748884,-36.85044764934165,100 174.84566278877793,-36.85045126443729,100 174.84568017268984,-36.85045336494856,100 174.84568976553527,-36.850455523371,100 174.84575698888133,-36.85046468416888,100 174.84577024612116,-36.850467555407754,100 174.84577665670196,-36.850468249010675,100 174.84578305268968,-36.85046968824249,100 174.84580180535244,-36.850473253774545,100 174.84580775252408,-36.85047468465357,100 174.84581231923033,-36.85047686795566,100 174.84581414851286,-36.85047612388369,100 174.8458187262309,-36.850476106860036,100 174.84583013067467,-36.85047492022593,100 174.84583425315205,-36.850475980155345,100 174.84584659615496,-36.850476278759785,100 174.84585254041545,-36.85047698230584,100 174.84587356583646,-36.85048089559068,100 174.84588317265553,-36.85048158280449,100 174.8458909278922,-36.85048152723724,100 174.84589961406726,-36.85048072803042,100 174.84590554465328,-36.85047960388243,100 174.845912858209,-36.85047918382523,100 174.84593659991089,-36.85047609841602,100 174.84595899049233,-36.85047484566982,100 174.84597222967776,-36.85047440116155,100 174.8459822805806,-36.8504735942692,100 174.84600556555026,-36.85047087106638,100 174.84601561900314,-36.85047082305415,100 174.84602659872132,-36.850471842252034,100 174.84605263724438,-36.85047131788109,100 174.84606818004661,-36.850473063869515,100 174.84610609883688,-36.85047430271125,100 174.8461175284945,-36.850475330233564,100 174.84614723813507,-36.850475145397276,100 174.84615867326053,-36.85047765912911,100 174.84617422320093,-36.8504790489661,100 174.84618609054175,-36.85047896915431,100 174.84619935017415,-36.850479980857486,100 174.8462171761978,-36.850482462895904,100 174.8462299849855,-36.85048534014897,100 174.8462496585326,-36.850487789873945,100 174.8462802615919,-36.850488705171784,100 174.84630174371716,-36.85049225435697,100 174.84631960351155,-36.8504973055561,100 174.84633470153113,-36.85050051587571,100 174.8463483790929,-36.85049969226385,100 174.84636485684334,-36.85050216638546,100 174.84637171244282,-36.85050396889226,100 174.84638636820708,-36.85050940155357,100 174.8464014479653,-36.85051189919382,100 174.8464188164044,-36.85051214309061,100 174.84643115542968,-36.8505109707203,100 174.84643755601041,-36.85051129489617,100 174.84644852621287,-36.8505145287783,100 174.84645906954827,-36.85051927271571,100 174.84647004686468,-36.85052214955735,100 174.84647554671173,-36.85052433275577,100 174.84648467636418,-36.85052462534045,100 174.8465011285636,-36.85052417231001,100 174.84653403743658,-36.85052802070504,100 174.84655005359272,-36.850531959429006,100 174.84656375818705,-36.85053407732357,100 174.84658435241295,-36.85053801340614,100 174.8466095234249,-36.850544503948775,100 174.84664654623927,-36.85054905632066,100 174.84665706690686,-36.85055229807021,100 174.84667720352664,-36.85055916967883,100 174.8466859031751,-36.85056279935599,100 174.84670695095093,-36.85056819844327,100 174.84672537866956,-36.85057512994935,100 174.84674343944056,-36.85058191302708,100 174.84676570801045,-36.85058836031059,100 174.84678751310918,-36.85059628757081,100 174.84682384842222,-36.8506048470821,100 174.8468338270479,-36.850605883565635,100 174.84684382431277,-36.85060764803579,100 174.84684881646191,-36.850607608307556,100 174.84684837202565,-36.85060908709157,100 174.84685018204402,-36.850610898582396,100 174.84685471792486,-36.850611239998145,100 174.84686334369584,-36.85061338361068,100 174.84689330133557,-36.85061539308417,100 174.84690239167247,-36.8506168011966,100 174.84693689118555,-36.85062392183424,100 174.84694959757311,-36.85062748200828,100 174.84697323487595,-36.85063539157363,100 174.84700408380468,-36.85063775941686,100 174.84702134247,-36.8506416895808,100 174.84704312591614,-36.85064484727557,100 174.84708034576198,-36.85064900887555,100 174.84709758346264,-36.850648898678166,100 174.84711437787468,-36.850650268146715,100 174.84712710571472,-36.850652016288755,100 174.8471407179808,-36.85065523607897,100 174.8471597774021,-36.85066059208231,100 174.8471720516985,-36.850660877195175,100 174.84718339027384,-36.85066044857461,100 174.84719608340538,-36.85066219905139,100 174.84720926091126,-36.8506672525937,100 174.8472315114413,-36.85067113036897,100 174.84724012959964,-36.85067034744394,100 174.84724601536743,-36.85066885257655,100 174.84725465121016,-36.85067136735306,100 174.84727009643055,-36.85067530043266,100 174.84728190797273,-36.85067704838037,100 174.84729732664823,-36.850680624039825,100 174.8473086778817,-36.85068128041543,100 174.84733361563607,-36.850679659728144,100 174.84734609676502,-36.85067735478197,100 174.8473604205812,-36.8506800353043,100 174.84736532603867,-36.85067998157932,100 174.84738899831387,-36.85068076818416,100 174.84739747776118,-36.850680652587826,100 174.84740504776025,-36.8506794704309,100 174.84743050372063,-36.850679156712104,100 174.84743852326778,-36.85067796666295,100 174.84745324490973,-36.85067741872395,100 174.84746709911943,-36.8506786680066,100 174.84747918459698,-36.85068033416123,100 174.84749076024693,-36.850678385783546,100 174.84749879839472,-36.85067792191553,100 174.84751044508127,-36.85068064854701,100 174.8475185598195,-36.85068630173513,100 174.84752534494976,-36.85069197739673,100 174.84755794039862,-36.85069048817866,100 174.84757942889092,-36.850695601746146,100 174.84759016577078,-36.850696547960965,100 174.8476147445738,-36.85069767374894,100 174.8476236851106,-36.850698635271094,100 174.84763489310845,-36.85070172744141,100 174.8476451803974,-36.85070267974008,100 174.84767474658355,-36.850708785350896,100 174.84769316985717,-36.8507168317231,100 174.84770663666913,-36.85072169503681,100 174.8477097626228,-36.85072165724885,100</coordinates></LinearRing></outerBoundaryIs>
    </Polygon>
  </Placemark>

  <Placemark>
    <name>Kohimarama</name>
    <Point>
      <altitudeMode>relativeToGround</altitudeMode>
      <coordinates>174.8409776397557,-36.85725971395005,100</coordinates>
    </Point>
  </Placemark>

</Document>
</kml>