<?xml version="1.0" encoding="utf-8"?>
<kml xmlns="http://www.opengis.net/kml/2.2">
<Document>
  <name>Mangere East (polygon: official_shp)</name>
  <open>1</open>

  <Placemark>
    <name>Mangere East (polygon: official_shp)</name>
    <Style>
      <LineStyle><color>ffff0000</color><width>2</width></LineStyle>
      <PolyStyle><color>66ff0000</color><fill>1</fill><outline>1</outline></PolyStyle>
    </Style>
    <Polygon>
      <tessellate>1</tessellate>
      <altitudeMode>relativeToGround</altitudeMode>
      <outerBoundaryIs><LinearRing><coordinates>174.82042971193266,-36.95253644568696,100 174.82049987378863,-36.95255672301265,100 174.82051978304943,-36.9525632317024,100 174.82053019968475,-36.95256466459804,100 174.82053877961692,-36.95256466010832,100 174.82055054030903,-36.952563206183775,100 174.8205952636793,-36.952554830234064,100 174.82074848786232,-36.95253331277879,100 174.82076204816016,-36.952532587442406,100 174.8208262781623,-36.95254305361947,100 174.82084392497165,-36.95254774203314,100 174.82087518084052,-36.95256077976656,100 174.82087654374374,-36.95256259936328,100 174.82088560858688,-36.952569847566245,100 174.82091145745923,-36.95258578035116,100 174.8209350490713,-36.95260935491844,100 174.82094732129175,-36.952626740669864,100 174.8209550080229,-36.952632897773555,100 174.82096276312726,-36.95264885841752,100 174.82096463993113,-36.95266697596144,100 174.8209641961643,-36.95267314691507,100 174.82095165710228,-36.95270289272453,100 174.82092142949435,-36.952728322119015,100 174.82090385036503,-36.95274138062692,100 174.8208970783925,-36.9527450113747,100 174.82084972149738,-36.95277697218658,100 174.82082943071745,-36.95279476906818,100 174.82081818652847,-36.95280928427946,100 174.82080691072215,-36.9528212456258,100 174.82076734080377,-36.952878952231636,100 174.8207583642871,-36.952904703698934,100 174.82075525262476,-36.952919950429845,100 174.82075353706216,-36.95294025019571,100 174.82074547490373,-36.95296855730949,100 174.82074144278292,-36.95297835163442,100 174.82073518902874,-36.95299648391959,100 174.82072934177236,-36.95300702083199,100 174.8207266590522,-36.95301353978394,100 174.8207203752051,-36.95302588062955,100 174.82071407783843,-36.953040389363515,100 174.82070554625676,-36.953056717883456,100 174.82070197471808,-36.95306760295431,100 174.8207011108207,-36.95308282602586,100 174.82069890221086,-36.95309553159604,100 174.82068676075673,-36.95311802284172,100 174.82067778460834,-36.95313327388654,100 174.82066664789824,-36.95318150231536,100 174.8206658223128,-36.9532014477303,100 174.8206717670307,-36.95322358588233,100 174.82067909362218,-36.95324895301052,100 174.8206809251531,-36.953258756549694,100 174.82068503606038,-36.95326708031028,100 174.8206904858785,-36.953274328988506,100 174.82069550430276,-36.95328558074781,100 174.82070417108704,-36.95330733194326,100 174.8207023986983,-36.95331821826278,100 174.82070165192093,-36.953363546421514,100 174.82069941936783,-36.95337406755211,100 174.82069225510776,-36.953394383282586,100 174.8206742791406,-36.953421960041226,100 174.82067158042221,-36.953429222828376,100 174.8206581255081,-36.95345570003485,100 174.82064284623866,-36.95348979706035,100 174.82063256144804,-36.953521735431494,100 174.82062135345606,-36.95354749316895,100 174.8206191577607,-36.953562723143975,100 174.82061961626488,-36.95356962204706,100 174.82062286717084,-36.9535906442146,100 174.82062290833665,-36.953604070588,100 174.8206261308884,-36.953620741604034,100 174.82062706398372,-36.953630545402284,100 174.82062936411458,-36.9536410682212,100 174.82063437939172,-36.95365482841167,100 174.82064359595324,-36.953703441411264,100 174.82064500330128,-36.953716843226715,100 174.8206523370729,-36.95374114217668,100 174.82066102186928,-36.953770156856734,100 174.82066334002175,-36.953784643415496,100 174.82067472312812,-36.9538096788324,100 174.82069518047754,-36.95384230391969,100 174.82069974481718,-36.95385207636054,100 174.8207347550998,-36.953907918039626,100 174.82073974241567,-36.953917342390135,100 174.8207542801029,-36.95393402372723,100 174.82076200175715,-36.953940180305196,100 174.82078014544604,-36.95396048643236,100 174.82078649891832,-36.95396592310609,100 174.82079057588703,-36.95397098008745,100 174.82083999799184,-36.95400576391063,100 174.82085041566188,-36.954011193224176,100 174.82085586146619,-36.95401628959626,100 174.8208697625268,-36.95402392058803,100 174.82087049884586,-36.954024280639,100 174.82088935243442,-36.954032092541404,100 174.82094345930548,-36.954050952901476,100 174.8209518149376,-36.95405491583733,100 174.82097175820905,-36.954062692985204,100 174.82101579872122,-36.954076350260216,100 174.82105600649552,-36.95408110626483,100 174.82107105674646,-36.9540804490678,100 174.82108758622672,-36.954070225973425,100 174.82110340789652,-36.95405744496547,100 174.82112054164378,-36.95404849788293,100 174.82114519783724,-36.9540388035713,100 174.82118689148004,-36.954018430396566,100 174.82119533622503,-36.95401590242542,100 174.82122556703794,-36.95400897976874,100 174.82126731368368,-36.95399724583126,100 174.82128670930976,-36.9539908003456,100 174.82130610384462,-36.95398426203731,100 174.82131656031302,-36.953980616198564,100 174.82133591782983,-36.953973985617154,100 174.82135505765956,-36.95396703299504,100 174.82137387326918,-36.953959529228214,100 174.82138121060112,-36.95395633863738,100 174.82139696739563,-36.95394899356138,100 174.82141551551132,-36.95394449890162,100 174.82146165703995,-36.95393080198432,100 174.82149771313593,-36.95391581858248,100 174.8215370743559,-36.95389296097619,100 174.82157308032762,-36.95388002342173,100 174.8216127656127,-36.953865537709966,100 174.82163110826482,-36.9538631210141,100 174.82166400810084,-36.9538938938635,100 174.8216844797534,-36.95393827270218,100 174.82170642740826,-36.953980164671066,100 174.82171616356672,-36.954016239417236,100 174.82173211950317,-36.954062553279726,100 174.82176170055857,-36.95409147704064,100 174.8218037040648,-36.95410730592181,100 174.82183096443444,-36.9541176854168,100 174.82187938007888,-36.9541135047516,100 174.8219298015324,-36.95410800529306,100 174.82198740700838,-36.95409674696628,100 174.82202233826507,-36.95408173740597,100 174.82206932177132,-36.954067839855014,100 174.82208718068827,-36.95405096609,100 174.8221112816869,-36.95406355177848,100 174.8221621033696,-36.95407588595395,100 174.82219950073554,-36.95409546279059,100 174.82223339471489,-36.95409894620042,100 174.8222828296142,-36.95409931762754,100 174.82232741327508,-36.9541020618762,100 174.82237146988498,-36.95409329439705,100 174.82240698788138,-36.95407694266141,100 174.82244140195937,-36.954049520695236,100 174.82245764471762,-36.954008004294195,100 174.8224698252052,-36.953971853635544,100 174.82248444124912,-36.95393823255124,100 174.8225079617389,-36.9539090282436,100 174.82255841289677,-36.9538802820572,100 174.82257255478413,-36.95387666695596,100 174.82261699900383,-36.95388200003341,100 174.82266400315112,-36.953884007568796,100 174.82271100441855,-36.953880005111984,100 174.82274899490633,-36.953883992409786,100 174.82277799280888,-36.95392099440743,100 174.82280599912426,-36.953940002300556,100 174.82283700107095,-36.95397099323742,100 174.82288000483268,-36.954012991594155,100 174.82291099894994,-36.95404299207759,100 174.8229459966053,-36.95407199460069,100 174.82299299142312,-36.9540980061638,100 174.82303499947832,-36.954137002124895,100 174.82307700796292,-36.95415100259346,100 174.82312699539006,-36.9541769951841,100 174.82315700488493,-36.95418599458988,100 174.82317699574813,-36.95419099996808,100 174.82322999150085,-36.954210993079236,100 174.82330900030593,-36.95421499736497,100 174.82337499370402,-36.95420500568376,100 174.8234019948765,-36.9541949927743,100 174.82342500283605,-36.95416799628914,100 174.82342999170646,-36.954138006576926,100 174.82341099941468,-36.954120999218624,100 174.82340500758386,-36.954102997207386,100 174.82340899501443,-36.954079002249586,100 174.82342200015754,-36.954066996071866,100 174.82348599371014,-36.95405000743809,100 174.82350000652892,-36.95405200043355,100 174.82353100709102,-36.95405000281114,100 174.82356299419178,-36.95405000358024,100 174.82361300700265,-36.95405200508102,100 174.82365900739381,-36.954055996127465,100 174.8236839969509,-36.95405699666837,100 174.82373800661756,-36.95405899259806,100 174.82377899843053,-36.95405800412472,100 174.82380199718946,-36.95405699643434,100 174.8238550034904,-36.95405699507302,100 174.82386000109986,-36.95405299213223,100 174.82389400578978,-36.954058007416315,100 174.82393700193956,-36.9540530033485,100 174.8239769997712,-36.95405700267315,100 174.82401300748688,-36.95405399241944,100 174.82409499499082,-36.95406799655269,100 174.8241340036747,-36.95408900094601,100 174.8241759954776,-36.954103001279655,100 174.82421199811932,-36.95410900426496,100 174.8242470003758,-36.95412499754433,100 174.82427000256934,-36.95413199435225,100 174.82429600594097,-36.95413999417469,100 174.82433400208944,-36.95415400087329,100 174.82438900279007,-36.95421800395495,100 174.82440500822324,-36.954249001410716,100 174.824414999521,-36.95427500422934,100 174.82442299259606,-36.95432499940452,100 174.82441299981713,-36.954366007203845,100 174.82442399613157,-36.95439600455761,100 174.82441799673006,-36.95442900042293,100 174.82442300827103,-36.95446300058895,100 174.82442299650444,-36.95450199737084,100 174.8244159960918,-36.9545410033127,100 174.82442400217064,-36.954576998049966,100 174.8244159987716,-36.95462000144666,100 174.82441399547614,-36.954653007101584,100 174.82440799815413,-36.95468999759278,100 174.82440499841871,-36.954718002703665,100 174.82439899193184,-36.9547579983427,100 174.8243929992867,-36.95478600708672,100 174.82439499337855,-36.95482100542079,100 174.8243900032015,-36.95484899605434,100 174.8243829998782,-36.95487799736296,100 174.82438099899846,-36.9548959959674,100 174.82439400811978,-36.954942004117,100 174.82439599720522,-36.95496300139092,100 174.8244030007706,-36.954979995441974,100 174.8244180032511,-36.95501300743635,100 174.82444000391732,-36.955048996199935,100 174.82446500191224,-36.95509500215351,100 174.82447600578377,-36.955123992604854,100 174.82449899507066,-36.955163992367375,100 174.8245249999173,-36.95519500556504,100 174.82455400824114,-36.95523299839896,100 174.82458199572264,-36.95527099159298,100 174.8246059947948,-36.955306004120565,100 174.8246209980556,-36.95534299541018,100 174.82462772730298,-36.95535140857091,100 174.82464899404408,-36.95537800057395,100 174.82466199085084,-36.955391998429235,100 174.8246919956054,-36.95540999540668,100 174.8247329421124,-36.95539602014437,100 174.8247329668066,-36.95539606663353,100 174.8248084501941,-36.95553774963723,100 174.8248647499002,-36.955643366359574,100 174.82494975003814,-36.95568069934721,100 174.82516431750625,-36.95577486683442,100 174.82571996733148,-36.9560185330353,100 174.82603573375383,-36.95615698279251,100 174.8261148331776,-36.9561916828023,100 174.82607335004658,-36.95649354981469,100 174.82603271667665,-36.95678925040916,100 174.82600313370193,-36.95700441557116,100 174.82597583342312,-36.95720263321208,100 174.82594804991385,-36.95740469970745,100 174.82591860073182,-36.95761890016467,100 174.82589396721883,-36.95765195016226,100 174.8262821668067,-36.95776983268723,100 174.82651458351182,-36.95784029856769,100 174.82674693404695,-36.95791103269748,100 174.82697921728564,-36.95798179984948,100 174.82740291692858,-36.95810989857186,100 174.82746041644643,-36.958127853721074,100 174.82750726677884,-36.95814248287102,100 174.82801030013707,-36.95707463342489,100 174.8282312839253,-36.95704998343306,100 174.82977775050915,-36.95734181608106,100 174.8301059003018,-36.95740306680424,100 174.83027365297556,-36.957501129178056,100 174.83074960575533,-36.95777935444344,100 174.830821534044,-36.95782139855902,100 174.83111716748525,-36.957994233004605,100 174.8311928167094,-36.958038465582916,100 174.83133970037503,-36.95812434971765,100 174.83178941690096,-36.95832949979512,100 174.83201668397442,-36.958433149686044,100 174.83223785029327,-36.95850256740998,100 174.8322690668118,-36.95851275000497,100 174.83234850013596,-36.9585387167479,100 174.83279376747558,-36.95875033279646,100 174.8328174668362,-36.95882449976521,100 174.83292195735882,-36.95868274641686,100 174.8329762066473,-36.95860915057644,100 174.833008100493,-36.958565883234996,100 174.8329158840179,-36.95858481620069,100 174.83292026715853,-36.95857636624307,100 174.83321341740069,-36.95819966625994,100 174.83323956664753,-36.958166066803926,100 174.83326525007504,-36.958178332813524,100 174.83349115111685,-36.95784605215092,100 174.83350935054014,-36.95781928305027,100 174.83347663406028,-36.95772388337622,100 174.83353568052573,-36.95764000213165,100 174.83354652427997,-36.95762459872206,100 174.83356171894454,-36.95760301264901,100 174.8335723943318,-36.957587847983625,100 174.83360621683963,-36.95753979983389,100 174.83372771713016,-36.95751478344435,100 174.83383988331624,-36.957362650101054,100 174.83389544989964,-36.95712890041255,100 174.83394238358107,-36.95700974995287,100 174.83406323385813,-36.95678693318744,100 174.83409876699918,-36.95671958283161,100 174.8341962672205,-36.95653473338814,100 174.83426915436343,-36.95643929661413,100 174.8343484012657,-36.95645559105181,100 174.83446773499256,-36.956480127747376,100 174.83451134114483,-36.95641781437703,100 174.83460562437838,-36.956283083569396,100 174.8346260309161,-36.956253921434694,100 174.83470234609527,-36.95614486654859,100 174.83472771750158,-36.95623339959442,100 174.83493476754109,-36.955985050112076,100 174.8349887914653,-36.956060013378384,100 174.83506063375384,-36.95615970019834,100 174.83518481542527,-36.956097620962375,100 174.83521425106824,-36.956082905211325,100 174.83533257732464,-36.95602375280034,100 174.83533277891436,-36.956023869559246,100 174.83533299643776,-36.956023995085,100 174.83534117774684,-36.95608344316651,100 174.8353440060764,-36.95610399821322,100 174.83536799378007,-36.95622599689824,100 174.83539155277845,-36.9563327067983,100 174.8354869918931,-36.95676500144156,100 174.83551399668391,-36.95691600207764,100 174.835614994391,-36.957266992657566,100 174.83578400503586,-36.95757699204924,100 174.8359809964982,-36.957895001075045,100 174.83737300607086,-36.959984995034525,100 174.83744199690398,-36.9600879979998,100 174.83754900294448,-36.96024799414835,100 174.83734899818398,-36.960333997915484,100 174.8387549974415,-36.96246499630998,100 174.83879600160137,-36.96244800399288,100 174.84075999635448,-36.96540499754876,100 174.84089199446203,-36.96544999297719,100 174.84139100057712,-36.96565899285643,100 174.84145900497342,-36.965668996145205,100 174.8414550081843,-36.965683993893485,100 174.84145499231002,-36.965685992362104,100 174.84146699464122,-36.96569100586512,100 174.84148300355713,-36.96589000199033,100 174.84129900653315,-36.96601499760155,100 174.84127700612427,-36.96602900196145,100 174.8412150019319,-36.966070993575464,100 174.84143100600895,-36.96639500330663,100 174.84127700544897,-36.96662999997386,100 174.8412582959104,-36.96663761431207,100 174.8409480055716,-36.966570299213814,100 174.84051200534216,-36.96669630138105,100 174.84073130389626,-36.966875221180416,100 174.84075500187507,-36.96689456189582,100 174.84053620238518,-36.967067014173594,100 174.8405261017821,-36.96707502307826,100 174.84038319117082,-36.967187514348026,100 174.8403755994163,-36.96719354470403,100 174.8402042024877,-36.96732800271364,100 174.8401301047998,-36.967386414902336,100 174.8400385937468,-36.96745824181308,100 174.84002890213418,-36.96746598024975,100 174.83989359574431,-36.96757236289929,100 174.8398871077086,-36.9675775847587,100 174.8397492044406,-36.96768585430093,100 174.83978230351653,-36.96778953094186,100 174.83979460062042,-36.96778736915413,100 174.8399605027584,-36.967753623658965,100 174.84031510593283,-36.967777115361336,100 174.84030500508925,-36.96787575358134,100 174.8402910040265,-36.968012633001315,100 174.84027340595424,-36.96818346044606,100 174.84041770665607,-36.9681539384022,100 174.84081550355063,-36.96818022170427,100 174.84079720468267,-36.96836112599544,100 174.84043679604792,-36.96833736255684,100 174.84031870447026,-36.96836148136258,100 174.8403018026332,-36.96852726234465,100 174.8402841978841,-36.96869655493794,100 174.84026690636114,-36.968865936405955,100 174.8402020947321,-36.9688791540978,100 174.8402005983452,-36.968879519798044,100 174.8400346950371,-36.96891335940652,100 174.83986870842625,-36.96894729110884,100 174.83984499406196,-36.968952156275755,100 174.83980390843718,-36.96898446723753,100 174.83966960597309,-36.969090305909404,100 174.8395354075413,-36.9691961419183,100 174.83947519992523,-36.969243382919004,100 174.83940110433267,-36.969301980303094,100 174.8392668018962,-36.969407819427886,100 174.83915880387534,-36.96949296665996,100 174.8391325001545,-36.96951374942566,100 174.8389981969515,-36.96961958736227,100 174.83886399668037,-36.96972542355484,100 174.83877900925896,-36.96979221283094,100 174.83872969200013,-36.96983127743944,100 174.83861269280442,-36.969923514587634,100 174.8385954045016,-36.96993711378349,100 174.8384873922369,-36.97002243098484,100 174.83820189469762,-36.970247247603254,100 174.83809569289315,-36.970331047438336,100 174.8379524061809,-36.970444083355,100 174.83793550504916,-36.97045730331541,100 174.83756359712663,-36.970750263031235,100 174.83749779313698,-36.970802554146815,100 174.83733650095712,-36.97092963390661,100 174.83721439529336,-36.97102584514481,100 174.8371802050758,-36.97105266310595,100 174.8370923937943,-36.971122056449936,100 174.8369704087662,-36.97121826467292,100 174.836848304042,-36.97131455303974,100 174.8367263015769,-36.971410762187304,100 174.8366041943963,-36.97150697373325,100 174.83648220815957,-36.97160318238308,100 174.8363208949993,-36.97173027643331,100 174.8362806074,-36.97176212228944,100 174.83624599613327,-36.97178939625784,100 174.83611929469117,-36.97188921606336,100 174.8360621077602,-36.97193439058205,100 174.83599729112785,-36.97198550200469,100 174.83587520230537,-36.972081805365235,100 174.8357927992065,-36.97214706178605,100 174.83575320791095,-36.9721777502199,100 174.83563120491567,-36.97227405110496,100 174.83550909495247,-36.97237026068522,100 174.83538710818533,-36.972466561072686,100 174.83537050482335,-36.972479961740994,100 174.8352649976282,-36.97256277131658,100 174.83530610018622,-36.97259634258112,100 174.83531830121544,-36.97260623155405,100 174.83544579849524,-36.97271028383369,100 174.8355731946537,-36.97281441414638,100 174.83531470670684,-36.973243266614496,100 174.835427806087,-36.97328708742699,100 174.83573299195703,-36.97340525420286,100 174.83570680176373,-36.973344775249885,100 174.83594179785348,-36.97295417313934,100 174.8359598004376,-36.97294005222668,100 174.83610170216255,-36.97300448976462,100 174.836251099227,-36.9730722533022,100 174.83640049579634,-36.973140031977756,100 174.8365002032031,-36.97318521084996,100 174.83656279904267,-36.97323642678059,100 174.83675110435178,-36.97339014386616,100 174.8365510046966,-36.9737222320912,100 174.8367852989498,-36.97381295461654,100 174.83709059782416,-36.973931302662656,100 174.8372431951932,-36.973990445645796,100 174.8374887941835,-36.97358228282247,100 174.83761800564307,-36.97363200627912,100 174.83752599493477,-36.97407400566299,100 174.83707499362467,-36.97419800432186,100 174.8369409958366,-36.974421007448335,100 174.83694300320641,-36.97442100432109,100 174.8368620048376,-36.97455699677641,100 174.8365009995189,-36.97441700335092,100 174.83640299576274,-36.97457999982411,100 174.83634700465956,-36.974672993415595,100 174.83625599417064,-36.97482499815782,100 174.83645400382247,-36.97490199856986,100 174.8362809960531,-36.975035998266584,100 174.835804996774,-36.974851997586825,100 174.83572700233805,-36.97492899574554,100 174.8356150046454,-36.975039993788506,100 174.83550399439895,-36.975151005299,100 174.835493002418,-36.97516200281905,100 174.8354579960346,-36.97519600380164,100 174.8353749946166,-36.97527999407358,100 174.83534300550642,-36.975311001956335,100 174.83526699148672,-36.97538700568508,100 174.8352000048819,-36.975453005759135,100 174.83515999191724,-36.97549399897889,100 174.8350369923909,-36.975615002677905,100 174.83503099976713,-36.975621996720186,100 174.83492599695774,-36.97572599810611,100 174.83491500481207,-36.975736995576135,100 174.8348070003793,-36.97584400589542,100 174.83479700400773,-36.97585399470871,100 174.83469999955642,-36.97595099970272,100 174.8345820065415,-36.97606900527684,100 174.8344700055377,-36.976180002309995,100 174.83437400372955,-36.976275006843466,100 174.834358005312,-36.976290998326014,100 174.83424000170965,-36.97640799785934,100 174.83413299970354,-36.976515007406675,100 174.83404700243352,-36.976600998021596,100 174.83380399962374,-36.976951993643134,100 174.83369400324935,-36.97706100402573,100 174.8336549986994,-36.977099005917516,100 174.83356699472094,-36.97718699837578,100 174.83355300188444,-36.97720100471079,100 174.83343799706708,-36.97731499360069,100 174.83341700232882,-36.97750399526124,100 174.83326700640154,-36.97765399857895,100 174.833141000875,-36.977780006732026,100 174.83306499909577,-36.97773099882846,100 174.83293000707678,-36.97786600280499,100 174.8327949964592,-36.97789100379685,100 174.83274499172796,-36.97794099424471,100 174.83273299689318,-36.977954006122665,100 174.83268599280208,-36.97800100290109,100 174.8326320001308,-36.97805400399418,100 174.83251799622303,-36.97816800629678,100 174.8324050035702,-36.978280999626605,100 174.83232999533263,-36.97835599362874,100 174.83228300908524,-36.97840300529736,100 174.83226600622135,-36.978420995810225,100 174.83214300585794,-36.97854300244752,100 174.8320790069186,-36.97860699881116,100 174.8320209921852,-36.97866499192626,100 174.83193800048969,-36.9787489950102,100 174.8319079984617,-36.97877800103166,100 174.8318190053113,-36.97886800660785,100 174.83179399240873,-36.97889200268441,100 174.83167600839832,-36.97901000528246,100 174.83162300065337,-36.979063004243855,100 174.83138299292372,-36.97890899633275,100 174.83117899237848,-36.979179998573535,100 174.8311210022919,-36.97925800103172,100 174.8309399932849,-36.97943900667885,100 174.83076500123497,-36.979613993074814,100 174.83084300259048,-36.97966400630047,100 174.83095200556366,-36.97973399570947,100 174.83098999402287,-36.97977999605116,100 174.8308619924343,-36.97990800290302,100 174.83072699158498,-36.98004300365368,100 174.8307199950165,-36.980049998547436,100 174.83062900090385,-36.980201999704725,100 174.83062300754642,-36.98020899444106,100 174.8304789942549,-36.9803519988261,100 174.83040199360306,-36.980429007063044,100 174.83033800737388,-36.980493002308705,100 174.8302010051664,-36.98050699177759,100 174.83013400242538,-36.98057399606445,100 174.83007200624363,-36.98063600642479,100 174.83001199956092,-36.9806959986706,100 174.82994399170818,-36.980765002150754,100 174.82992000761902,-36.98078800494777,100 174.8298899951865,-36.980818001176836,100 174.8298149999941,-36.98089299341684,100 174.8296729991893,-36.98103500320559,100 174.82991099307276,-36.98118799640741,100 174.82977000357155,-36.98132899656392,100 174.83022199433478,-36.981188006567756,100 174.8298439944295,-36.98156600462804,100 174.8295849943457,-36.98182499215335,100 174.82948699894493,-36.98192300059065,100 174.8274329994238,-36.98060100141839,100 174.82742100381026,-36.98059299674756,100 174.8272670044626,-36.98049400113919,100 174.82710799476902,-36.98039199274039,100 174.8271369964516,-36.980363005114675,100 174.82711700343646,-36.98034900358343,100 174.82704500073174,-36.98029800414153,100 174.8268529926365,-36.980160007199636,100 174.8266630029585,-36.98002299735949,100 174.82656200575687,-36.97995000284819,100 174.8264049921993,-36.97983699641225,100 174.82633000448595,-36.979782995099754,100 174.82625700737952,-36.97973100459331,100 174.82615700638223,-36.97965899936532,100 174.82595599153294,-36.97951399835878,100 174.8257370019233,-36.9793559997943,100 174.82565000197866,-36.979293994344964,100 174.82557000398637,-36.979236996109286,100 174.82502799170666,-36.97937000242334,100 174.82507400706595,-36.979488996237514,100 174.8246419939946,-36.9795960069683,100 174.82442542144344,-36.979604028644026,100 174.82422575040664,-36.97912529255395,100 174.8238290652094,-36.97808763396587,100 174.82363028436535,-36.9779469587372,100 174.822785993628,-36.977415998657456,100 174.8222710061286,-36.97709300724127,100 174.82175599556,-36.976769006200065,100 174.82173299350484,-36.97675499313413,100 174.82148200628768,-36.97659700078074,100 174.82134700649664,-36.976550007417096,100 174.82108799684875,-36.97645999676507,100 174.82079699590398,-36.97635900523332,100 174.82054999567754,-36.97604299432519,100 174.81992200555925,-36.975616996857816,100 174.8197100017505,-36.97547500518442,100 174.81918100617358,-36.975122998425796,100 174.81914899199504,-36.97514799330143,100 174.8189759935014,-36.97503300084818,100 174.81877699670557,-36.97518999229191,100 174.8185839985353,-36.97502900041551,100 174.81823999487767,-36.97474099840236,100 174.81808400413368,-36.97460999890165,100 174.8176579977467,-36.97425399918233,100 174.81776399718083,-36.97417000505505,100 174.8179789958263,-36.97399899441382,100 174.8181400086817,-36.973871001181614,100 174.81774699572648,-36.973543002347235,100 174.8177800046372,-36.973517000258155,100 174.81790800771188,-36.97341499502015,100 174.81755200269905,-36.973117003239174,100 174.81754900872568,-36.97311699230367,100 174.81745599110187,-36.973115992123006,100 174.81710700093325,-36.972928998230024,100 174.81699900851962,-36.97305900495575,100 174.81580500508863,-36.97231400575517,100 174.8155620019444,-36.97217499261546,100 174.81547800716638,-36.972127998150405,100 174.81511600178962,-36.97192399742653,100 174.81463899233208,-36.97165500022917,100 174.81413900459887,-36.971373999664415,100 174.81406400087042,-36.97133199436559,100 174.8135129951413,-36.97103399496697,100 174.81320500318515,-36.97086700495141,100 174.8128879959879,-36.970695999423775,100 174.81251999309498,-36.97049700068427,100 174.81234900045484,-36.970404993671735,100 174.81212300536177,-36.97028199507482,100 174.81195300027557,-36.97019000214347,100 174.81173299418495,-36.97007100606252,100 174.81159099750494,-36.96999399678061,100 174.81133500665618,-36.96985600039113,100 174.8111099922811,-36.9697340051452,100 174.81079100490194,-36.969560998815915,100 174.8105159998268,-36.96941300660683,100 174.80883800582814,-36.96850500124763,100 174.80878699403618,-36.96854200456144,100 174.80860999217978,-36.96835200169747,100 174.80839800752463,-36.968124999568175,100 174.80812200303416,-36.96782899629531,100 174.80799599299777,-36.96791799521748,100 174.80772699520878,-36.96777299189735,100 174.8074900004063,-36.96764499710006,100 174.80723000208988,-36.967503992653896,100 174.80712500389413,-36.96757999994924,100 174.80706899246485,-36.96762100481074,100 174.80688399693847,-36.96744999556445,100 174.80678200069156,-36.967394997369716,100 174.80575400316357,-36.96683799964416,100 174.80411100046953,-36.96586400418726,100 174.8039399982864,-36.96571499511249,100 174.80284499435845,-36.964759000414375,100 174.80205799165094,-36.96374599783174,100 174.80213300837195,-36.9633349954157,100 174.8042240011329,-36.96185799609069,100 174.80462600525306,-36.961629991929556,100 174.80535800362236,-36.961213998449054,100 174.80552499203188,-36.96127300193893,100 174.80572499096533,-36.961343996292214,100 174.80593100230203,-36.96125599456057,100 174.80612700065606,-36.96086900359077,100 174.80625599836594,-36.96081399789757,100 174.8063529997935,-36.96077199474051,100 174.8063970023645,-36.960752996724864,100 174.80661099465394,-36.96066199535692,100 174.8067190072609,-36.96061500584567,100 174.8068219932713,-36.96057099681202,100 174.8070340035314,-36.9604810036961,100 174.80707700279598,-36.96046200628316,100 174.80697300262088,-36.96030800474889,100 174.80695600112915,-36.960283000345484,100 174.80684900019327,-36.960125996994606,100 174.8069950013661,-36.96006099379737,100 174.80700799745657,-36.96008100093981,100 174.80725999478454,-36.95997199910127,100 174.80729600353604,-36.95995700626392,100 174.80754799090047,-36.95984899542878,100 174.80755199608038,-36.95984799886789,100 174.80779999584144,-36.95974099821831,100 174.80778500569926,-36.95974800265505,100 174.8080040014952,-36.95965400322654,100 174.8080090003818,-36.95965199825675,100 174.80822599746068,-36.95955899238049,100 174.80823800362373,-36.95955299775928,100 174.80841599920421,-36.95947700144116,100 174.80846899527205,-36.95945399357203,100 174.80855800187544,-36.95941599604181,100 174.80876600165763,-36.95932699564934,100 174.80880800499705,-36.95930900605183,100 174.80903899515758,-36.95921000169207,100 174.8092220058896,-36.959131998918394,100 174.80942100017185,-36.959045999049984,100 174.80958199651636,-36.958977007423755,100 174.80964299401543,-36.95895100093904,100 174.80983300038264,-36.95886999824167,100 174.80996899790475,-36.9588109971398,100 174.81000600038263,-36.95879499598092,100 174.8101520055663,-36.95873299299549,100 174.81031300056182,-36.958664000409726,100 174.810534992137,-36.95856900068428,100 174.8107149979504,-36.95849200588207,100 174.81091399767104,-36.95840699401104,100 174.8109419959468,-36.95839399342832,100 174.81095299783348,-36.958389998570624,100 174.81135599402378,-36.95820799639138,100 174.8120839967952,-36.95788000744456,100 174.81218199387425,-36.957835999670095,100 174.81226000283542,-36.95780100104322,100 174.81229199641555,-36.957785997701514,100 174.81251799506018,-36.95768499521809,100 174.81270199203468,-36.95760199858064,100 174.8128310049638,-36.95754399500593,100 174.81288600544204,-36.95751900141045,100 174.81302500867636,-36.95745599774218,100 174.81323600686488,-36.957360990573484,100 174.81327600110697,-36.95734300306164,100 174.81348100499602,-36.95725099469355,100 174.8144300023491,-36.956824004714946,100 174.8150659968915,-36.956536992783214,100 174.81534900280664,-36.95640999615655,100 174.81538799161996,-36.95639199267187,100 174.8155589926016,-36.9563150030326,100 174.81573500815884,-36.95623599229602,100 174.81576700073902,-36.95622100336688,100 174.81596300448058,-36.956132998708085,100 174.81598399483684,-36.95612400237506,100 174.81616900495592,-36.95604099754776,100 174.8162800062435,-36.95599099197041,100 174.8164150074728,-36.95593000238289,100 174.81660500724834,-36.955844002052785,100 174.81668899656344,-36.955806996426816,100 174.81673799202304,-36.95578400557254,100 174.8168749990576,-36.95572299829147,100 174.81704400654598,-36.95564599288411,100 174.81718799402265,-36.955582001377614,100 174.81729300726772,-36.95553400003536,100 174.8175230061527,-36.955430998969206,100 174.81751599192,-36.95543399870494,100 174.817701993683,-36.9553499993005,100 174.81775599702308,-36.95532599667907,100 174.81787300674648,-36.95527300618269,100 174.81803199640643,-36.955201991561104,100 174.818050003826,-36.955194006767776,100 174.8182720004074,-36.955094004745156,100 174.8182850075763,-36.95508799288693,100 174.818454998593,-36.95501100017401,100 174.81847199438286,-36.955006005179136,100 174.81851316638833,-36.95504751042642,100 174.81850941085276,-36.95504944811566,100 174.81844153047504,-36.95507068207062,100 174.81840610837392,-36.9550755852641,100 174.8183880226417,-36.95508121885783,100 174.8183831753145,-36.95508371676445,100 174.81837747384728,-36.95508864510207,100 174.81838024790952,-36.955096108826815,100 174.81839151707862,-36.95510494763567,100 174.8184015780608,-36.9551086493835,100 174.8184120827207,-36.95511074809154,100 174.8184486529914,-36.955109401954616,100 174.81847662150005,-36.95510389637393,100 174.81848492540723,-36.955101293237355,100 174.81851312501408,-36.95508944961125,100 174.81853886428195,-36.95507351200446,100 174.8185603646385,-36.95506020178926,100 174.8186114057633,-36.955013668728675,100 174.81866033953594,-36.9549626333759,100 174.81867608490245,-36.954943597773756,100 174.81873691712613,-36.95489377084569,100 174.8188146742871,-36.95484083910171,100 174.81882766377842,-36.954834795909306,100 174.8188482518305,-36.9548289346324,100 174.81886901901672,-36.95482725184383,100 174.81887621142653,-36.954829716723246,100 174.81889604955043,-36.954839447194274,100 174.81891525566292,-36.9548560346949,100 174.81896119950548,-36.954922454944096,100 174.81896952309623,-36.95493970581056,100 174.81897446885836,-36.95494488744469,100 174.81897855487077,-36.954951601882385,100 174.81898849078252,-36.95496236736075,100 174.81901987768939,-36.9550093969506,100 174.8190235173158,-36.9550168915615,100 174.81902649437583,-36.955020234016274,100 174.81903418251915,-36.955033716269604,100 174.8190456198097,-36.955046314560626,100 174.8190497062199,-36.955053045213354,100 174.81905774043886,-36.95506384343081,100 174.8190615075946,-36.95506961726374,100 174.81906365795567,-36.95507314363658,100 174.8190772882702,-36.95509412937828,100 174.81907918801843,-36.95509930089979,100 174.81908293934998,-36.95510445666705,100 174.8190995615445,-36.955143898912915,100 174.81909746808438,-36.95515508486116,100 174.8190979860889,-36.95516760530939,100 174.8190966742905,-36.95517496758586,100 174.81909077105843,-36.95519194793125,100 174.81908356156796,-36.955224406878855,100 174.8190813002772,-36.955229199612454,100 174.81906481643978,-36.9552517482217,100 174.81900298551844,-36.95532285642734,100 174.8189970550748,-36.95533354865639,100 174.81899617231113,-36.955339448721496,100 174.81899713003827,-36.95534496095734,100 174.8190073625678,-36.95536111089635,100 174.8190124470717,-36.95536367296113,100 174.8190175261985,-36.95536473440574,100 174.81903181287745,-36.955361332919765,100 174.81908654813589,-36.9553381837519,100 174.81911553332725,-36.95532400343383,100 174.8191288523244,-36.955314719410396,100 174.81919091263384,-36.95528266464199,100 174.81920932177223,-36.955274811420196,100 174.81925400590558,-36.95526093759071,100 174.81929653355445,-36.95525781892812,100 174.81931364554168,-36.95525921781784,100 174.8193331292244,-36.95526466515179,100 174.8193437909448,-36.955270153046904,100 174.8193596388848,-36.95528337412285,100 174.819367660608,-36.95530360304876,100 174.81936684169509,-36.95531983129557,100 174.81935822706697,-36.955341612191646,100 174.81934859773145,-36.955353080381805,100 174.81933341660783,-36.95536457957674,100 174.81932374966306,-36.95536866200203,100 174.8193089812122,-36.95537352744384,100 174.81921864046822,-36.95541629525129,100 174.81920897411365,-36.95542370714428,100 174.81917499927255,-36.95545739195871,100 174.81915612025085,-36.95546777788224,100 174.81913317322608,-36.95549184512659,100 174.81908099843497,-36.95556838008174,100 174.81907874905647,-36.95557428756876,100 174.81906722904642,-36.955608631435496,100 174.8192016396876,-36.95579614781796,100 174.81932948754118,-36.955723691582634,100 174.819268516386,-36.955697078867374,100 174.81922949794904,-36.95561508592669,100 174.81950012428985,-36.955389900662595,100 174.8196629832005,-36.95515326601852,100 174.81966189890605,-36.95515281935917,100 174.81966005176835,-36.95515099275078,100 174.81964621021106,-36.9551390704116,100 174.8196402108261,-36.955133270425314,100 174.81963285334353,-36.95512783556111,100 174.81961127584518,-36.95511378209364,100 174.81960664751293,-36.95511014319233,100 174.8195724498214,-36.95507536526158,100 174.8195618672863,-36.95506631414579,100 174.8195499120879,-36.955058384583424,100 174.8195402750698,-36.955053717427965,100 174.8195237167837,-36.9550417934506,100 174.81950710380292,-36.95502511673327,100 174.81947393035557,-36.9549983583659,100 174.8194688190326,-36.95499145956688,100 174.81944120010047,-36.95496941019269,100 174.81943932330745,-36.9549657705739,100 174.8194208559783,-36.954947670233615,100 174.81941346360782,-36.95494152294367,100 174.81939509930382,-36.95492997003106,100 174.81936379116394,-36.95490575181341,100 174.81934861184186,-36.954894903586606,100 174.8193402975339,-36.954886589220244,100 174.81933108484796,-36.95487898624522,100 174.81932459540047,-36.95487099632788,100 174.81925815953863,-36.954810188238014,100 174.81925380816477,-36.954804546845416,100 174.8192504049516,-36.954800144662194,100 174.8192377515754,-36.954775471077795,100 174.8192198415329,-36.95471791577321,100 174.81921184731888,-36.954677644599414,100 174.8192081480559,-36.95466457532512,100 174.8192106747922,-36.95458356807412,100 174.819208033157,-36.95454749795931,100 174.81920435230265,-36.954535154868616,100 174.8192042161443,-36.954487751882276,100 174.81920669199096,-36.95447465467513,100 174.81921388673538,-36.95437837597907,100 174.81921997842542,-36.954348786837485,100 174.8192210269065,-36.954343905429376,100 174.8192214540977,-36.9543344827633,100 174.81922726737162,-36.954316698907625,100 174.81923264237795,-36.9543040016234,100 174.81923793701372,-36.954264466880616,100 174.81923123677512,-36.95416146994355,100 174.81923212812288,-36.95415456296684,100 174.81923122571072,-36.95415312206088,100 174.81923209383592,-36.95414731595524,100 174.81923021673794,-36.95412591396757,100 174.81922017776066,-36.954101986266295,100 174.81920248138516,-36.95408422739063,100 174.81919342486157,-36.95407662200957,100 174.81919114271886,-36.95407336174535,100 174.81913945368817,-36.95403059379667,100 174.8191054624806,-36.95401357582469,100 174.81908375060794,-36.95400561094657,100 174.8189972312581,-36.95396323063138,100 174.81898771806902,-36.95395998471972,100 174.81898272882194,-36.95395707959128,100 174.81897593208436,-36.95395056622113,100 174.81895915848014,-36.953938971737166,100 174.81894331801664,-36.95393062934729,100 174.81892926464917,-36.95392050559894,100 174.8189206447882,-36.953915061187395,100 174.81879047149988,-36.95380055332395,100 174.818775516648,-36.95378968625686,100 174.81876553323443,-36.95377842665801,100 174.8187550912037,-36.95376285314223,100 174.81874504587407,-36.953743277081735,100 174.81874000406845,-36.95371861390996,100 174.81873904752842,-36.953709183601035,100 174.81874038165324,-36.95369539365055,100 174.81874616303648,-36.95367508569887,100 174.81874976165133,-36.95366457071322,100 174.81876592646614,-36.95363518238615,100 174.81877268357823,-36.95362501739444,100 174.8188042089335,-36.953591637013425,100 174.8188276183742,-36.95356077758714,100 174.81885682691637,-36.953506344434565,100 174.81886310797066,-36.95348858407219,100 174.8188752384707,-36.953464993561184,100 174.8188801663662,-36.95345701165304,100 174.81888825417818,-36.95343886397912,100 174.8188945001672,-36.953417835955115,100 174.8189029213965,-36.953365596037095,100 174.81890419647868,-36.95334564284108,100 174.81890865439206,-36.953324985616625,100 174.8189202735814,-36.95328325389493,100 174.81892196742052,-36.953253522138276,100 174.81892100141917,-36.953236471289195,100 174.8189123723475,-36.953220155258414,100 174.8189045605389,-36.95319405275817,100 174.81890093080662,-36.953188244364185,100 174.81889004542813,-36.95317555918081,100 174.8188831929943,-36.953160327258004,100 174.81887501629015,-36.95314801427934,100 174.8188704735333,-36.953136399129015,100 174.8188704493292,-36.95313023535158,100 174.81887402701315,-36.95312153324313,100 174.818878076472,-36.95311500691069,100 174.81888755621583,-36.95310773941203,100 174.81891778029654,-36.95309067215547,100 174.81896834932766,-36.953071047066146,100 174.81898460863687,-36.953063060078016,100 174.81901935307812,-36.953040899558665,100 174.81907622484385,-36.95301292894083,100 174.8191010219622,-36.952990797340334,100 174.8191100302094,-36.95298136756457,100 174.8191284908651,-36.95295776385107,100 174.81915499594794,-36.95291169216479,100 174.81916127878304,-36.952898637566676,100 174.81916984858753,-36.95288701798085,100 174.81919641859255,-36.95285798029587,100 174.81920811620134,-36.9528416457258,100 174.81925495878858,-36.95278940556257,100 174.81925901816967,-36.95278721623176,100 174.8192684825578,-36.95278067540489,100 174.81928382473163,-36.952765439570335,100 174.8192955385373,-36.95275564023688,100 174.819370434504,-36.95270915228408,100 174.8193839710217,-36.95269826865736,100 174.8194056225391,-36.952684831594574,100 174.81945121038746,-36.95266194594574,100 174.8194837162953,-36.95264813971384,100 174.8194981607162,-36.95264086457654,100 174.819524796075,-36.95263143139605,100 174.81956406638162,-36.952610371269806,100 174.81959387674328,-36.95259801959765,100 174.8196164581477,-36.95258637900209,100 174.81963540760788,-36.952578749077325,100 174.81964444012536,-36.952576195984285,100 174.81965889680396,-36.95257401491743,100 174.8196688276704,-36.95257075042866,100 174.81970183518084,-36.95256419840854,100 174.81971854840006,-36.95256165466386,100 174.81973164456295,-36.95255836688773,100 174.8197736741223,-36.95255217318117,100 174.81982883616095,-36.95255068314721,100 174.81984917358199,-36.95254776836427,100 174.81988850916582,-36.95254701033265,100 174.81989347556112,-36.952547730967716,100 174.81994818101964,-36.95254333660448,100 174.8200015079609,-36.95253387087518,100 174.820015046344,-36.952527694758814,100 174.82004031919354,-36.952513159232474,100 174.82004573260733,-36.95250916359538,100 174.82006016934957,-36.95250227697835,100 174.8200791322731,-36.95249644221228,100 174.82009315550525,-36.952493556594376,100 174.82013293406862,-36.952489895739795,100 174.820145594797,-36.95248916984491,100 174.82019036254786,-36.95249237716981,100 174.8203536808356,-36.9525172894307,100 174.8203726780668,-36.9525220013726,100 174.8203921475591,-36.95252560555445,100 174.82041884752852,-36.95253247881941,100 174.82042971193266,-36.95253644568696,100</coordinates></LinearRing></outerBoundaryIs>
    </Polygon>
  </Placemark>

  <Placemark>
    <name>Mangere East</name>
    <Point>
      <altitudeMode>relativeToGround</altitudeMode>
      <coordinates>174.8236200652838,-36.96622669786592,100</coordinates>
    </Point>
  </Placemark>

</Document>
</kml>