<?xml version="1.0" encoding="utf-8"?>
<kml xmlns="http://www.opengis.net/kml/2.2">
<Document>
  <name>Manurewa East (polygon: official_shp)</name>
  <open>1</open>

  <Placemark>
    <name>Manurewa East (polygon: official_shp)</name>
    <Style>
      <LineStyle><color>ffff0000</color><width>2</width></LineStyle>
      <PolyStyle><color>66ff0000</color><fill>1</fill><outline>1</outline></PolyStyle>
    </Style>
    <Polygon>
      <tessellate>1</tessellate>
      <altitudeMode>relativeToGround</altitudeMode>
      <outerBoundaryIs><LinearRing><coordinates>174.90958899286412,-37.02116400042246,100 174.9096740018635,-37.02181000121445,100 174.90968499637233,-37.0227929927566,100 174.90968600691943,-37.02294199212351,100 174.90969000258167,-37.02327099264098,100 174.9096919959071,-37.02343499725064,100 174.90969400611098,-37.023599001584415,100 174.90969600051903,-37.02377000566786,100 174.90970100060605,-37.02422700527876,100 174.90970300670452,-37.024678993155916,100 174.9097059954574,-37.02547699238451,100 174.90971299115841,-37.025744997654854,100 174.9097069983202,-37.02616299368084,100 174.9097040021092,-37.02637799208643,100 174.90970000824444,-37.02665500337477,100 174.90969300888057,-37.02722299457711,100 174.90967799802937,-37.02826100741612,100 174.90967899920972,-37.02932399510652,100 174.90968500726999,-37.02949799523935,100 174.90969100295882,-37.029664003741836,100 174.90969899529367,-37.02991399564391,100 174.9097040087018,-37.03007700239749,100 174.9097150029875,-37.03041300293823,100 174.90972299500004,-37.03064600531733,100 174.90973000482228,-37.03085900023002,100 174.90973699502234,-37.03106999726996,100 174.90974500647224,-37.03129299488597,100 174.90974800207374,-37.03140900157949,100 174.90974600850708,-37.031518005284134,100 174.90974199599557,-37.03153899895935,100 174.9097449977941,-37.03157199587264,100 174.9097433601612,-37.0316252385613,100 174.90973200393597,-37.031637999028824,100 174.90972000071523,-37.03164799841605,100 174.90968399544428,-37.03169899857887,100 174.90964899733558,-37.03173500472285,100 174.90964200477939,-37.031749005419705,100 174.90963800579397,-37.03175599808837,100 174.90962800678835,-37.03176899717165,100 174.9096140003699,-37.03178299721917,100 174.9096090081384,-37.031790999108985,100 174.90960099718274,-37.03180199774679,100 174.90959799233846,-37.03181299961283,100 174.90959599480814,-37.03182099565216,100 174.90958399758196,-37.031835006613086,100 174.9095539994885,-37.03186700617577,100 174.90954499827765,-37.031875991926405,100 174.90954000493196,-37.03188399473262,100 174.90953400707193,-37.03189700059914,100 174.909494992985,-37.03194000143978,100 174.90947800865737,-37.03195400704856,100 174.90943300419158,-37.031992001143564,100 174.90942700696326,-37.03200000568419,100 174.90942000090246,-37.032011000752064,100 174.90939400538903,-37.03207399732577,100 174.90939000781088,-37.03208800567811,100 174.9093830017597,-37.03209900164495,100 174.90937999753453,-37.032105002185155,100 174.90936999067074,-37.03211899280291,100 174.90936599943475,-37.03212499480978,100 174.90936300297744,-37.03213000379517,100 174.90935500534567,-37.03214400623309,100 174.90934799469798,-37.03215800630278,100 174.90934500627776,-37.032168992575976,100 174.90934100100375,-37.03217699298874,100 174.90934099641694,-37.032179997093465,100 174.90934200246525,-37.03218699571265,100 174.90934400825424,-37.03220199800135,100 174.9093439974397,-37.032217996239666,100 174.9093409914431,-37.03222899901899,100 174.9093400042106,-37.03224600530494,100 174.90933200617977,-37.03225999242559,100 174.90932400114258,-37.032275001732,100 174.9093189976157,-37.03228699925178,100 174.90931400640102,-37.0323020024066,100 174.9093089971594,-37.03231700404877,100 174.90930699612355,-37.03232800417043,100 174.90930300208007,-37.03234399532141,100 174.9092989978485,-37.03235899610821,100 174.90929700178216,-37.03236700744094,100 174.90929299752585,-37.03238200732661,100 174.9092859970556,-37.03239699865803,100 174.90927600457937,-37.03240900707902,100 174.90927000689723,-37.03241699539573,100 174.90925600029732,-37.032430995404745,100 174.90924800438594,-37.03243999559623,100 174.90923599920757,-37.032454997178604,100 174.90922999950635,-37.032473006172275,100 174.90921600309713,-37.03248799744195,100 174.90920600851905,-37.03249799238818,100 174.909192998352,-37.03251299662266,100 174.90918000728368,-37.032528000548325,100 174.90917600262514,-37.032530998734096,100 174.90915899621046,-37.03254300737432,100 174.90914199789742,-37.032553992906976,100 174.90912700425696,-37.03256799526801,100 174.9091179931144,-37.03257600594081,100 174.90910200298356,-37.032589003164915,100 174.90908700818258,-37.03260300463837,100 174.90907600514953,-37.03261600721714,100 174.90906299567737,-37.032630996104366,100 174.90905800678624,-37.03263599298545,100 174.90904499658956,-37.03265099810578,100 174.9090380027665,-37.03265799659301,100 174.9090230090867,-37.03267199894179,100 174.9090169983602,-37.03267699874715,100 174.90900200467283,-37.03269100109345,100 174.9089999986177,-37.03269300271776,100 174.90898400731862,-37.03270599994504,100 174.90897900045996,-37.03271099801334,100 174.90896299231983,-37.032723996410176,100 174.90895999922324,-37.03272599859673,100 174.9089430040821,-37.03273899935574,100 174.90893500528944,-37.03274600139217,100 174.908922005232,-37.032761996864124,100 174.90891900440235,-37.03276499240603,100 174.90890799669234,-37.03278099817432,100 174.90890600085925,-37.032783991963186,100 174.90889600872958,-37.03280100255877,100 174.90889199166617,-37.0328079963949,100 174.90888300340504,-37.03282500525496,100 174.90888000648397,-37.03282999801242,100 174.9088719974376,-37.03284799606209,100 174.9088699924155,-37.03285699896115,100 174.90886899729958,-37.03287499679914,100 174.90887100368914,-37.032884996874046,100 174.90888000820172,-37.03290199828509,100 174.90888300061624,-37.03290499742165,100 174.90890000671533,-37.032916993131195,100 174.90890200815335,-37.03291799471232,100 174.90892199826038,-37.03292699604912,100 174.90893300107933,-37.0329309992041,100 174.9089070002603,-37.032956005087385,100 174.90888099904083,-37.032980995649446,100 174.90887299528663,-37.03297900009018,100 174.90885500108112,-37.03297199184554,100 174.90885200239575,-37.03296999956063,100 174.90883700399945,-37.03295799857434,100 174.9088239941231,-37.0329489975571,100 174.90882300714827,-37.03294900082171,100 174.90881100180175,-37.032934994945656,100 174.90881099162115,-37.03293400458148,100 174.9087990042594,-37.03291999841471,100 174.90879700001335,-37.03291699869631,100 174.90879200582842,-37.0329009953761,100 174.90879000542762,-37.032895005985644,100 174.90878799806032,-37.03287800643398,100 174.9087869983209,-37.032870000957345,100 174.90878699239008,-37.0328540029887,100 174.90879100416126,-37.03283799624731,100 174.9087909939584,-37.03283700498216,100 174.90880000303096,-37.032821993974686,100 174.90880099670267,-37.0328210009758,100 174.90880600324206,-37.032804000316034,100 174.90880999702696,-37.03278799386341,100 174.9088189990803,-37.03277400504097,100 174.9088300061136,-37.03276300060193,100 174.90873000107567,-37.03276699562348,100 174.90868000692248,-37.03279799993767,100 174.90867200350937,-37.03280800696322,100 174.90867199814846,-37.03282800057427,100 174.90868899927042,-37.03286000704425,100 174.90866599360794,-37.03286100093123,100 174.90863300634274,-37.03286299273315,100 174.90848900429236,-37.03282500364117,100 174.90846799884557,-37.0328079979027,100 174.9083330015653,-37.03270500532599,100 174.9081700040919,-37.032580003544716,100 174.9080310015914,-37.03247299305604,100 174.9078929974283,-37.03236700193331,100 174.90775400627626,-37.03226099767587,100 174.90761599118696,-37.032153999641714,100 174.90747700080738,-37.032047995034056,100 174.9073410042404,-37.03194000071764,100 174.90720500695747,-37.03183200715147,100 174.90706800581583,-37.0317239998193,100 174.90693299740946,-37.03161600354892,100 174.90679900227346,-37.031508995779184,100 174.90666400518614,-37.03140200575951,100 174.90652900697094,-37.03129500027571,100 174.90639399227865,-37.03118799489654,100 174.9062589952042,-37.03108100439615,100 174.90612400593855,-37.03097300685798,100 174.90598899238483,-37.03086600097992,100 174.90585399716716,-37.03075899374575,100 174.90571900160995,-37.030652002580275,100 174.9056989937686,-37.03063600057485,100 174.90554999951948,-37.03051799759773,100 174.905400995552,-37.03039900225008,100 174.90525200222717,-37.030280998867866,100 174.90511599398386,-37.03017300207939,100 174.90498200508057,-37.03006599297062,100 174.9048469951181,-37.02995900100188,100 174.9047120020076,-37.02985199328026,100 174.90457700025388,-37.0297439941068,100 174.90428099615403,-37.0295099937067,100 174.90412099546597,-37.02938200699221,100 174.90397200608666,-37.02926400096928,100 174.90396799334644,-37.02926100456054,100 174.90380799332394,-37.02913300207298,100 174.90364700016812,-37.02900599320949,100 174.90347699925982,-37.02887000389465,100 174.90346899831258,-37.028679003355535,100 174.90346200606047,-37.02850899954956,100 174.90338499515514,-37.02837100323645,100 174.90343499718136,-37.02835299417046,100 174.90326200064302,-37.028042997870536,100 174.90324199146264,-37.02800599514104,100 174.9031939944687,-37.02782399943106,100 174.90299199878274,-37.02789500080123,100 174.90277200285195,-37.027600002763485,100 174.9027529971655,-37.027574999992694,100 174.9029420060407,-37.0274870060395,100 174.9029660003827,-37.02747600559904,100 174.9031199933593,-37.027404996596154,100 174.9032969989868,-37.02732199859103,100 174.90344899315758,-37.02725200095121,100 174.90340399605893,-37.027191000083086,100 174.90338299425207,-37.02716200603498,100 174.90329799354265,-37.02704900561473,100 174.90324800201327,-37.02698200644348,100 174.9031920004534,-37.02690800322482,100 174.90310700666907,-37.02679399579197,100 174.90307600416392,-37.02675199862606,100 174.90279700663535,-37.02684899459505,100 174.90267300318533,-37.02689200093055,100 174.90257399306685,-37.026759997216864,100 174.90254400513754,-37.0267190039082,100 174.9024679926986,-37.02661800193611,100 174.90244900424622,-37.02659299973356,100 174.90236199124948,-37.02647599214918,100 174.90230400434896,-37.02639900367364,100 174.90225500364792,-37.02633399897477,100 174.90215100833436,-37.026195005013925,100 174.902149004511,-37.026192004266605,100 174.9020250071216,-37.02602700210592,100 174.90200499574664,-37.02600000542473,100 174.90199099568454,-37.02598200558552,100 174.90190999665305,-37.025873999852344,100 174.90216799991285,-37.025749002116626,100 174.90219899405656,-37.02573499911781,100 174.9020339941789,-37.02551499456436,100 174.901972995584,-37.02554499900753,100 174.90194999735868,-37.025511997062736,100 174.90186099233512,-37.02555500741009,100 174.9017990062827,-37.025584996050604,100 174.90172700468216,-37.025489994115574,100 174.90169699309604,-37.02548799756059,100 174.90157200838635,-37.02532099990671,100 174.90101999297224,-37.025545993063666,100 174.90099500051,-37.025617998374244,100 174.90082999296894,-37.02534499658766,100 174.9007599961709,-37.02523399265822,100 174.9012730017544,-37.02502500306012,100 174.90119899392428,-37.024925003673765,100 174.90117799507738,-37.02489800734521,100 174.90116699733133,-37.02488399891741,100 174.90134100376721,-37.02481299686424,100 174.90147299820345,-37.02475899505797,100 174.90143299949258,-37.02469000614293,100 174.90112900296347,-37.024157005053496,100 174.90112100125776,-37.024143006286884,100 174.90082099286923,-37.02424899398115,100 174.90070999183925,-37.024288006231316,100 174.9006270040351,-37.02414199738229,100 174.90054299632408,-37.023996005709435,100 174.90037900022506,-37.023705997421395,100 174.90029600093084,-37.023562001103436,100 174.90006499508212,-37.02315800733971,100 174.89986999959982,-37.02302799729429,100 174.89957899842636,-37.022552995255246,100 174.89951599992185,-37.02257499444427,100 174.89929698816803,-37.02265046107486,100 174.8990110012579,-37.022749005656635,100 174.89886199816826,-37.02263799437092,100 174.898847588679,-37.02262751304215,100 174.89881843414523,-37.022605849129235,100 174.89899700227144,-37.02254400144105,100 174.89899662171803,-37.02254370559666,100 174.89883299983538,-37.022416992355346,100 174.89883328809543,-37.02241678675094,100 174.89896499239802,-37.02232300530597,100 174.8989652155758,-37.022322849413385,100 174.8991125166168,-37.02221795023838,100 174.89919428470552,-37.022159760019484,100 174.89923800004328,-37.022128650215414,100 174.8992695241355,-37.02216237156631,100 174.89927171423622,-37.02216469160524,100 174.89930993377828,-37.022141740924496,100 174.89934700759503,-37.02211900415813,100 174.89946536411213,-37.02210905238275,100 174.89946600348932,-37.02210899888269,100 174.89961499680552,-37.02204099474219,100 174.8996148934856,-37.02204081793883,100 174.89954600896607,-37.02192300225279,100 174.89969500185026,-37.021854998022015,100 174.90001199169302,-37.0221900025581,100 174.90015599678682,-37.02207000310418,100 174.90018699299688,-37.02210300440995,100 174.90029800704272,-37.022220999284166,100 174.90038299955592,-37.022037005138586,100 174.9004099915791,-37.02197800522777,100 174.9005000016563,-37.021785002319916,100 174.90057199096967,-37.02186199279002,100 174.9011969972306,-37.021642005174094,100 174.90123499494462,-37.021628993389335,100 174.90110399412916,-37.021375992791654,100 174.90107300766556,-37.021317995757,100 174.9012919992994,-37.021240999414154,100 174.90132899985275,-37.02122699863083,100 174.90154800890494,-37.02115000063972,100 174.9016119964922,-37.02127500221181,100 174.90172600632937,-37.021493006666915,100 174.9018950046112,-37.021818995878014,100 174.9019160071529,-37.021811997637194,100 174.90207099849044,-37.02175700191008,100 174.90212600845663,-37.02173799200161,100 174.902148004576,-37.021730000777765,100 174.90235500323377,-37.0216569919571,100 174.9020719913873,-37.02111299856749,100 174.9022419949649,-37.02105300035097,100 174.902282008632,-37.02103899331885,100 174.90230200610037,-37.02103199760901,100 174.90241399665376,-37.02099200455636,100 174.90253200341022,-37.02095099468556,100 174.90267999607005,-37.0212369927033,100 174.90281500022036,-37.02149500161902,100 174.90283699944828,-37.02153900000976,100 174.90288800243826,-37.02152100489679,100 174.90301799320576,-37.021474996567086,100 174.90304099397818,-37.02146700258251,100 174.9032040052181,-37.02140899978018,100 174.9032349925849,-37.02139800067264,100 174.9033169928241,-37.021369996633624,100 174.90339200747306,-37.02134299871203,100 174.90358099624027,-37.02127699503857,100 174.90363800544569,-37.02138099355624,100 174.90370100281675,-37.02135899221682,100 174.90376299417767,-37.021336992567775,100 174.90383599375434,-37.021311006419836,100 174.9038700077907,-37.02137700184005,100 174.90407700031088,-37.021302007274514,100 174.90401299340888,-37.021179005579484,100 174.9042819955111,-37.02108899564847,100 174.9045510074778,-37.02099999170892,100 174.90477300449876,-37.02092600155425,100 174.90510099628975,-37.020817002159205,100 174.9050179917845,-37.02065600438335,100 174.9049350044958,-37.020495006264696,100 174.904851994028,-37.02033500078505,100 174.90482999557597,-37.02029300004242,100 174.90503699700056,-37.020220992408795,100 174.9052350079358,-37.0201519931427,100 174.90530899266446,-37.020126002899424,100 174.90564900017577,-37.02000700108083,100 174.90585600784348,-37.01993400140182,100 174.9060639944949,-37.01986200590925,100 174.9062629966454,-37.01979199578446,100 174.90628099617243,-37.01978599500604,100 174.90647800778763,-37.01971600479297,100 174.9064809929582,-37.0197150068479,100 174.9066660028477,-37.019649997814355,100 174.90668999694088,-37.01964099483313,100 174.90689199363572,-37.01957099321801,100 174.90724500211684,-37.01944700279829,100 174.90722800494348,-37.01936199942454,100 174.90719200501385,-37.01918199342239,100 174.90716099526642,-37.0190279935487,100 174.90716000377054,-37.019018997374495,100 174.90711600242147,-37.01880100212336,100 174.90700299695666,-37.01848499815311,100 174.9070490005168,-37.01846600458728,100 174.9072520013346,-37.01838599531916,100 174.90763099909645,-37.01823699756729,100 174.90780699468937,-37.01816799567104,100 174.90800999423564,-37.018087999561715,100 174.90803800618383,-37.01812699810208,100 174.90824300780557,-37.01840899424777,100 174.9085190051505,-37.01878699734903,100 174.90867299989495,-37.01899699441439,100 174.90877100139448,-37.01913200082777,100 174.90889600175626,-37.019357998011905,100 174.90897200270462,-37.019497000405416,100 174.9090939990569,-37.01971699435708,100 174.9091199965559,-37.019769005574254,100 174.9092590011409,-37.01992100456621,100 174.90927900521865,-37.019995005706775,100 174.90951500072623,-37.02059000645075,100 174.90958399863428,-37.02112399185364,100 174.90958899286412,-37.02116400042246,100</coordinates></LinearRing></outerBoundaryIs>
    </Polygon>
  </Placemark>

  <Placemark>
    <name>Manurewa East</name>
    <Point>
      <altitudeMode>relativeToGround</altitudeMode>
      <coordinates>174.90603610117648,-37.0252132568757,100</coordinates>
    </Point>
  </Placemark>

</Document>
</kml>