<?xml version="1.0" encoding="utf-8"?>
<kml xmlns="http://www.opengis.net/kml/2.2">
<Document>
  <name>Manurewa (polygon: official_shp)</name>
  <open>1</open>

  <Placemark>
    <name>Manurewa (polygon: official_shp)</name>
    <Style>
      <LineStyle><color>ffff0000</color><width>2</width></LineStyle>
      <PolyStyle><color>66ff0000</color><fill>1</fill><outline>1</outline></PolyStyle>
    </Style>
    <Polygon>
      <tessellate>1</tessellate>
      <altitudeMode>relativeToGround</altitudeMode>
      <outerBoundaryIs><LinearRing><coordinates>174.8907385415523,-37.00838515332081,100 174.89075515386384,-37.00847535169861,100 174.89097599973718,-37.008426003397915,100 174.8909762869795,-37.00842593933371,100 174.8910348169951,-37.008452099705515,100 174.8911329001597,-37.00854135008259,100 174.89122353638876,-37.00871088837491,100 174.89130515049183,-37.00886355016237,100 174.8912011840545,-37.00889903341028,100 174.89117004974912,-37.00890973336133,100 174.8909517006698,-37.00898414990109,100 174.89067561592964,-37.00907833329958,100 174.89071465065285,-37.00926188305906,100 174.89090691716302,-37.00919631615326,100 174.89094812114632,-37.0092739963958,100 174.89101236657285,-37.009395117316316,100 174.8911855719287,-37.00933601598511,100 174.8912858002087,-37.009301816307214,100 174.8913657998661,-37.009452699352785,100 174.89139124979891,-37.009500216032556,100 174.8914457175212,-37.009603616091354,100 174.89141561703573,-37.00961386700115,100 174.8915150336603,-37.00975809970623,100 174.89161445069146,-37.00990233321502,100 174.89166924995388,-37.0100621495619,100 174.8917240667354,-37.01022198272227,100 174.8918090169261,-37.01019318256204,100 174.8919197329814,-37.010155449638724,100 174.89198700068013,-37.010132616750994,100 174.89224308257096,-37.01004523329859,100 174.8922814000252,-37.01003218326207,100 174.89230034983578,-37.01006064977547,100 174.89239918363893,-37.010208933349496,100 174.89250613281746,-37.01036938388479,100 174.8926031338708,-37.010551267404786,100 174.8920902334247,-37.01072618318145,100 174.89210138347488,-37.010763483418955,100 174.89213800036353,-37.01088601678499,100 174.89215216691025,-37.010933466270735,100 174.89218121714956,-37.01103063319773,100 174.89220996724785,-37.0111269333405,100 174.8922291163232,-37.01119093332206,100 174.89226723369728,-37.011318482799894,100 174.8922770168355,-37.01135123339937,100 174.89228183331474,-37.011367299847535,100 174.89232493369357,-37.01151154941377,100 174.89236803357014,-37.0116558169933,100 174.89237761705303,-37.01168790019566,100 174.8924254835742,-37.0118481169142,100 174.89244771665926,-37.01192243356083,100 174.89247335028801,-37.0120083327027,100 174.89251093366693,-37.01213398343391,100 174.89252121651793,-37.01216856559806,100 174.8925690837064,-37.0123287831303,100 174.89259075048278,-37.01240109976737,100 174.89290678257103,-37.01229318394277,100 174.89302323344694,-37.01251263312046,100 174.89304213301975,-37.01250615041382,100 174.89321515054672,-37.01244710044859,100 174.89336161592877,-37.01239708323431,100 174.89342115012332,-37.01250875021008,100 174.89346704447527,-37.012594820581974,100 174.89358543393993,-37.01281685021261,100 174.8936678339976,-37.01297136332289,100 174.89367599616307,-37.01298998557964,100 174.89368002546928,-37.01299918036463,100 174.893750771384,-37.013160596846035,100 174.8937234831374,-37.01316768314522,100 174.89369021718858,-37.01317632676759,100 174.89352803368536,-37.01321846640095,100 174.89331296669525,-37.0132743997043,100 174.89309790011782,-37.013330317292,100 174.89290238291392,-37.0133811673025,100 174.89277566667525,-37.01341408300159,100 174.8926416837045,-37.01344888375187,100 174.89237500026928,-37.01351823271003,100 174.89238301661368,-37.01354503311535,100 174.89244158315856,-37.01374068332067,100 174.89273666754607,-37.01368391667499,100 174.8928108168633,-37.01386731721139,100 174.89296868269005,-37.01388768258126,100 174.8930919331031,-37.01390358343275,100 174.89311149937282,-37.0138984997138,100 174.89324233359676,-37.013864467014756,100 174.89328748337334,-37.01385274969584,100 174.8933069993551,-37.01384763339916,100 174.89351554976417,-37.01379340030775,100 174.8935220499276,-37.0137916985511,100 174.89373711670856,-37.013735750439224,100 174.89386713411923,-37.014057316199896,100 174.89393351646055,-37.0142214168696,100 174.8941346838215,-37.0141401839128,100 174.89424608297045,-37.01431746558152,100 174.8939912333729,-37.01442041732656,100 174.89403043049032,-37.014576552665986,100 174.89406084696296,-37.01469771516975,100 174.8940723831449,-37.014743666942024,100 174.89407587716505,-37.01475759759464,100 174.89409752277712,-37.014843821361836,100 174.89417497735437,-37.01515246926132,100 174.8942152335115,-37.01531288321881,100 174.89425618289698,-37.01547595034226,100 174.8943011499046,-37.015654650402716,100 174.894397866714,-37.01603885056606,100 174.89442318383638,-37.01622935144187,100 174.8944262841136,-37.01625245011908,100 174.89448521666978,-37.01640618358092,100 174.8945657665229,-37.01637606726588,100 174.89466716656585,-37.016520799798535,100 174.89489681111326,-37.01684852156523,100 174.89492129219659,-37.01688353554815,100 174.89493467538966,-37.01690267637572,100 174.89490726943626,-37.01691502755005,100 174.89467921690687,-37.01701780066897,100 174.89440331673964,-37.01714214940919,100 174.8945285664527,-37.01734916702808,100 174.89460064998377,-37.01746774954713,100 174.89439951610984,-37.017568716861604,100 174.89450009976713,-37.01772383383144,100 174.89434030016687,-37.01780426632588,100 174.89430700028169,-37.01782089983547,100 174.89440966744618,-37.017952233357725,100 174.89417789984836,-37.01806881605338,100 174.89400378259995,-37.01815629957255,100 174.8937219830573,-37.01829789996958,100 174.89367750002143,-37.01828794941187,100 174.89374891773355,-37.018395392138416,100 174.89379863325513,-37.0184701836373,100 174.89427691595634,-37.018228782904195,100 174.89439968272876,-37.018381016670425,100 174.89444621592946,-37.01843879973706,100 174.8947605324984,-37.018282067262085,100 174.89480750075805,-37.01838504990989,100 174.8948143001347,-37.01839994981467,100 174.89486326660548,-37.01850735025608,100 174.89506908351126,-37.01834746665225,100 174.89521294933124,-37.01823553300569,100 174.89522296707588,-37.01822773442347,100 174.89544754945246,-37.01805299974744,100 174.89547933304357,-37.018092416963086,100 174.89550428326228,-37.01812334942433,100 174.89562276740875,-37.0182702830637,100 174.8957255834539,-37.018397767162185,100 174.89593718311144,-37.01827278276541,100 174.89614905027494,-37.01814759994116,100 174.89636810017078,-37.01801816674969,100 174.89643118392283,-37.01798089981518,100 174.8965701588329,-37.01789875959842,100 174.8965929334236,-37.01788529957154,100 174.89676208374516,-37.017785350067655,100 174.8968122706122,-37.01787176405912,100 174.896857466926,-37.01794958367998,100 174.89687506461055,-37.017979933094615,100 174.89696835078976,-37.01814081664463,100 174.89699008349103,-37.018178116565515,100 174.8970593162206,-37.0182972667601,100 174.89728223392206,-37.01868085030268,100 174.8972998326746,-37.018711183406246,100 174.89711735182038,-37.01898193556636,100 174.89703990055887,-37.01909685003274,100 174.89740706729722,-37.01969686730177,100 174.89746751180758,-37.019675063317344,100 174.8974823327219,-37.019669716777614,100 174.897575633117,-37.01983039854989,100 174.89774474954703,-37.02012161717094,100 174.8977010768474,-37.0201373882766,100 174.89774323809755,-37.020220843231584,100 174.89778610168315,-37.02030568755829,100 174.89773471598275,-37.020324266143376,100 174.8978683758159,-37.020468541842845,100 174.89798801607844,-37.020597682585006,100 174.89801216718965,-37.02062379989236,100 174.89826083415173,-37.02089221731033,100 174.89846873313243,-37.02081643294461,100 174.8985384328036,-37.02089146675655,100 174.8986283341312,-37.02098809958919,100 174.89878808312096,-37.02116008269793,100 174.89880158340807,-37.021174600203814,100 174.8991013998112,-37.02149731711439,100 174.89892333291448,-37.02157901621125,100 174.8988874830203,-37.02159546559768,100 174.89877680031688,-37.02164625004258,100 174.89871798383115,-37.0216729028889,100 174.89870725000503,-37.02167776686734,100 174.8986888499951,-37.021686100078966,100 174.89867711692767,-37.02169141717933,100 174.89804384978225,-37.02197838328451,100 174.8981948780798,-37.02201102924207,100 174.89835473283554,-37.022045583323134,100 174.8984411663167,-37.02211262792703,100 174.89883328809543,-37.02241678675094,100 174.89883299983538,-37.022416992355346,100 174.89899662171803,-37.02254370559666,100 174.89899700227144,-37.02254400144105,100 174.89881843414523,-37.022605849129235,100 174.898847588679,-37.02262751304215,100 174.89886199816826,-37.02263799437092,100 174.8990110012579,-37.022749005656635,100 174.89929698816803,-37.02265046107486,100 174.89951599992185,-37.02257499444427,100 174.89957899842636,-37.022552995255246,100 174.89986999959982,-37.02302799729429,100 174.90006499508212,-37.02315800733971,100 174.90029600093084,-37.023562001103436,100 174.90037900022506,-37.023705997421395,100 174.90054299632408,-37.023996005709435,100 174.9006270040351,-37.02414199738229,100 174.90070999183925,-37.024288006231316,100 174.90082099286923,-37.02424899398115,100 174.90112100125776,-37.024143006286884,100 174.90112900296347,-37.024157005053496,100 174.90143299949258,-37.02469000614293,100 174.90147299820345,-37.02475899505797,100 174.90134100376721,-37.02481299686424,100 174.90116699733133,-37.02488399891741,100 174.90117799507738,-37.02489800734521,100 174.90119899392428,-37.024925003673765,100 174.9012730017544,-37.02502500306012,100 174.9007599961709,-37.02523399265822,100 174.90082999296894,-37.02534499658766,100 174.90099500051,-37.025617998374244,100 174.90101999297224,-37.025545993063666,100 174.90157200838635,-37.02532099990671,100 174.90169699309604,-37.02548799756059,100 174.90172700468216,-37.025489994115574,100 174.9017990062827,-37.025584996050604,100 174.90186099233512,-37.02555500741009,100 174.90194999735868,-37.025511997062736,100 174.901972995584,-37.02554499900753,100 174.9020339941789,-37.02551499456436,100 174.90219899405656,-37.02573499911781,100 174.90216799991285,-37.025749002116626,100 174.90190999665305,-37.025873999852344,100 174.90199099568454,-37.02598200558552,100 174.90200499574664,-37.02600000542473,100 174.9020250071216,-37.02602700210592,100 174.902149004511,-37.026192004266605,100 174.90215100833436,-37.026195005013925,100 174.90225500364792,-37.02633399897477,100 174.90230400434896,-37.02639900367364,100 174.90236199124948,-37.02647599214918,100 174.90244900424622,-37.02659299973356,100 174.9024679926986,-37.02661800193611,100 174.90254400513754,-37.0267190039082,100 174.90257399306685,-37.026759997216864,100 174.90267300318533,-37.02689200093055,100 174.90279700663535,-37.02684899459505,100 174.90307600416392,-37.02675199862606,100 174.90310700666907,-37.02679399579197,100 174.9031920004534,-37.02690800322482,100 174.90324800201327,-37.02698200644348,100 174.90329799354265,-37.02704900561473,100 174.90338299425207,-37.02716200603498,100 174.90340399605893,-37.027191000083086,100 174.90344899315758,-37.02725200095121,100 174.9032969989868,-37.02732199859103,100 174.9031199933593,-37.027404996596154,100 174.9029660003827,-37.02747600559904,100 174.9029420060407,-37.0274870060395,100 174.9027529971655,-37.027574999992694,100 174.90277200285195,-37.027600002763485,100 174.90299199878274,-37.02789500080123,100 174.9031939944687,-37.02782399943106,100 174.90324199146264,-37.02800599514104,100 174.90326200064302,-37.028042997870536,100 174.90343499718136,-37.02835299417046,100 174.90338499515514,-37.02837100323645,100 174.90346200606047,-37.02850899954956,100 174.90346899831258,-37.028679003355535,100 174.90347699925982,-37.02887000389465,100 174.90364700016812,-37.02900599320949,100 174.90380799332394,-37.02913300207298,100 174.90396799334644,-37.02926100456054,100 174.90397200608666,-37.02926400096928,100 174.90412099546597,-37.02938200699221,100 174.90428099615403,-37.0295099937067,100 174.90457700025388,-37.0297439941068,100 174.9047120020076,-37.02985199328026,100 174.9048469951181,-37.02995900100188,100 174.90498200508057,-37.03006599297062,100 174.90511599398386,-37.03017300207939,100 174.90525200222717,-37.030280998867866,100 174.905400995552,-37.03039900225008,100 174.90554999951948,-37.03051799759773,100 174.9056989937686,-37.03063600057485,100 174.90571900160995,-37.030652002580275,100 174.90585399716716,-37.03075899374575,100 174.90598899238483,-37.03086600097992,100 174.90612400593855,-37.03097300685798,100 174.9062589952042,-37.03108100439615,100 174.90639399227865,-37.03118799489654,100 174.90652900697094,-37.03129500027571,100 174.90666400518614,-37.03140200575951,100 174.90679900227346,-37.031508995779184,100 174.90693299740946,-37.03161600354892,100 174.90706800581583,-37.0317239998193,100 174.90720500695747,-37.03183200715147,100 174.9073410042404,-37.03194000071764,100 174.90747700080738,-37.032047995034056,100 174.90761599118696,-37.032153999641714,100 174.90775400627626,-37.03226099767587,100 174.9078929974283,-37.03236700193331,100 174.9080310015914,-37.03247299305604,100 174.9081700040919,-37.032580003544716,100 174.9083330015653,-37.03270500532599,100 174.90846799884557,-37.0328079979027,100 174.90848900429236,-37.03282500364117,100 174.90863300634274,-37.03286299273315,100 174.90866599360794,-37.03286100093123,100 174.90868899927042,-37.03286000704425,100 174.90867199814846,-37.03282800057427,100 174.90867200350937,-37.03280800696322,100 174.90868000692248,-37.03279799993767,100 174.90873000107567,-37.03276699562348,100 174.9088300061136,-37.03276300060193,100 174.9088189990803,-37.03277400504097,100 174.90880999702696,-37.03278799386341,100 174.90880600324206,-37.032804000316034,100 174.90880099670267,-37.0328210009758,100 174.90880000303096,-37.032821993974686,100 174.9087909939584,-37.03283700498216,100 174.90879100416126,-37.03283799624731,100 174.90878699239008,-37.0328540029887,100 174.9087869983209,-37.032870000957345,100 174.90878799806032,-37.03287800643398,100 174.90879000542762,-37.032895005985644,100 174.90879200582842,-37.0329009953761,100 174.90879700001335,-37.03291699869631,100 174.9087990042594,-37.03291999841471,100 174.90881099162115,-37.03293400458148,100 174.90881100180175,-37.032934994945656,100 174.90882300714827,-37.03294900082171,100 174.9088239941231,-37.0329489975571,100 174.90883700399945,-37.03295799857434,100 174.90885200239575,-37.03296999956063,100 174.90885500108112,-37.03297199184554,100 174.90887299528663,-37.03297900009018,100 174.90888099904083,-37.032980995649446,100 174.9089070002603,-37.032956005087385,100 174.90893300107933,-37.0329309992041,100 174.90892199826038,-37.03292699604912,100 174.90890200815335,-37.03291799471232,100 174.90890000671533,-37.032916993131195,100 174.90888300061624,-37.03290499742165,100 174.90888000820172,-37.03290199828509,100 174.90887100368914,-37.032884996874046,100 174.90886899729958,-37.03287499679914,100 174.9088699924155,-37.03285699896115,100 174.9088719974376,-37.03284799606209,100 174.90888000648397,-37.03282999801242,100 174.90888300340504,-37.03282500525496,100 174.90889199166617,-37.0328079963949,100 174.90889600872958,-37.03280100255877,100 174.90890600085925,-37.032783991963186,100 174.90890799669234,-37.03278099817432,100 174.90891900440235,-37.03276499240603,100 174.908922005232,-37.032761996864124,100 174.90893500528944,-37.03274600139217,100 174.9089430040821,-37.03273899935574,100 174.90895999922324,-37.03272599859673,100 174.90896299231983,-37.032723996410176,100 174.90897900045996,-37.03271099801334,100 174.90898400731862,-37.03270599994504,100 174.9089999986177,-37.03269300271776,100 174.90900200467283,-37.03269100109345,100 174.9090169983602,-37.03267699874715,100 174.9090230090867,-37.03267199894179,100 174.9090380027665,-37.03265799659301,100 174.90904499658956,-37.03265099810578,100 174.90905800678624,-37.03263599298545,100 174.90906299567737,-37.032630996104366,100 174.90907600514953,-37.03261600721714,100 174.90908700818258,-37.03260300463837,100 174.90910200298356,-37.032589003164915,100 174.9091179931144,-37.03257600594081,100 174.90912700425696,-37.03256799526801,100 174.90914199789742,-37.032553992906976,100 174.90915899621046,-37.03254300737432,100 174.90917600262514,-37.032530998734096,100 174.90918000728368,-37.032528000548325,100 174.909192998352,-37.03251299662266,100 174.90920600851905,-37.03249799238818,100 174.90921600309713,-37.03248799744195,100 174.90922999950635,-37.032473006172275,100 174.90923599920757,-37.032454997178604,100 174.90924800438594,-37.03243999559623,100 174.90925600029732,-37.032430995404745,100 174.90927000689723,-37.03241699539573,100 174.90927600457937,-37.03240900707902,100 174.9092859970556,-37.03239699865803,100 174.90929299752585,-37.03238200732661,100 174.90929700178216,-37.03236700744094,100 174.9092989978485,-37.03235899610821,100 174.90930300208007,-37.03234399532141,100 174.90930699612355,-37.03232800417043,100 174.9093089971594,-37.03231700404877,100 174.90931400640102,-37.0323020024066,100 174.9093189976157,-37.03228699925178,100 174.90932400114258,-37.032275001732,100 174.90933200617977,-37.03225999242559,100 174.9093400042106,-37.03224600530494,100 174.9093409914431,-37.03222899901899,100 174.9093439974397,-37.032217996239666,100 174.90934400825424,-37.03220199800135,100 174.90934200246525,-37.03218699571265,100 174.90934099641694,-37.032179997093465,100 174.90934100100375,-37.03217699298874,100 174.90934500627776,-37.032168992575976,100 174.90934799469798,-37.03215800630278,100 174.90935500534567,-37.03214400623309,100 174.90936300297744,-37.03213000379517,100 174.90936599943475,-37.03212499480978,100 174.90936999067074,-37.03211899280291,100 174.90937999753453,-37.032105002185155,100 174.9093830017597,-37.03209900164495,100 174.90939000781088,-37.03208800567811,100 174.90939400538903,-37.03207399732577,100 174.90942000090246,-37.032011000752064,100 174.90942700696326,-37.03200000568419,100 174.90943300419158,-37.031992001143564,100 174.90947800865737,-37.03195400704856,100 174.909494992985,-37.03194000143978,100 174.90953400707193,-37.03189700059914,100 174.90954000493196,-37.03188399473262,100 174.90954499827765,-37.031875991926405,100 174.9095539994885,-37.03186700617577,100 174.90958399758196,-37.031835006613086,100 174.90959599480814,-37.03182099565216,100 174.90959799233846,-37.03181299961283,100 174.90960099718274,-37.03180199774679,100 174.9096090081384,-37.031790999108985,100 174.9096140003699,-37.03178299721917,100 174.90962800678835,-37.03176899717165,100 174.90963800579397,-37.03175599808837,100 174.90964200477939,-37.031749005419705,100 174.90964899733558,-37.03173500472285,100 174.90968399544428,-37.03169899857887,100 174.90972000071523,-37.03164799841605,100 174.90973200393597,-37.031637999028824,100 174.9097433601612,-37.0316252385613,100 174.90974100417918,-37.031716003093536,100 174.909690871775,-37.03360715566848,100 174.90968644771792,-37.033715937992866,100 174.90969299622725,-37.03378599419402,100 174.90976323755365,-37.03417249040539,100 174.90949235116926,-37.03395572858624,100 174.90924896487152,-37.03376222314273,100 174.90919553080965,-37.03380860603207,100 174.90876654179098,-37.03346661717378,100 174.9087254222371,-37.03343481856799,100 174.90869420196478,-37.03344570031272,100 174.90864798889837,-37.03345675299805,100 174.90861323332797,-37.03345871376549,100 174.9085654208476,-37.03345374902636,100 174.90852138669317,-37.0334419511116,100 174.90843819473628,-37.033409935250184,100 174.90840079998304,-37.03338640460639,100 174.9082826492943,-37.03332680259529,100 174.90826366721728,-37.033341367433344,100 174.90819783295427,-37.033379450116804,100 174.9081406503923,-37.03341316739419,100 174.90808955001802,-37.03343755028839,100 174.90805914960586,-37.03344916675692,100 174.90803994976923,-37.03345238319655,100 174.90801236704257,-37.0334514830482,100 174.90797828328306,-37.033452033105064,100 174.90793188283925,-37.03344693273417,100 174.90788501697824,-37.03342426719589,100 174.90785476666085,-37.03338375003812,100 174.90782948313023,-37.033347050204725,100 174.9078067329574,-37.03331423297582,100 174.90777906670763,-37.03327953268173,100 174.9077415995294,-37.03324303329143,100 174.90769698258094,-37.033212517239214,100 174.90764759970563,-37.03318598314862,100 174.9075887668781,-37.03317131700407,100 174.90753729966195,-37.03315848279168,100 174.90749088258576,-37.033153383414096,100 174.90741541645872,-37.033154599679506,100 174.90735498343892,-37.03317316663069,100 174.90730916677796,-37.03319148320396,100 174.9072513828629,-37.03321780014211,100 174.90720308245415,-37.033234217014844,100 174.9071595996851,-37.03324858256213,100 174.90709658261727,-37.033261333384374,100 174.9070457998665,-37.03327581715963,100 174.90699030028534,-37.033296249614,100 174.90692499972644,-37.03331488288655,100 174.9068766001026,-37.03332738327325,100 174.9068282496522,-37.033341850386876,100 174.9067751327571,-37.03336028321039,100 174.90671963308236,-37.03338071734346,100 174.90665935046894,-37.033405132762894,100 174.90661563262864,-37.03343451664167,100 174.90664413319607,-37.03346263332731,100 174.90688597201958,-37.033701229571335,100 174.90689995497124,-37.033715023591206,100 174.90662346600757,-37.03389514859912,100 174.9066205475467,-37.033910433782054,100 174.90660809541603,-37.03397565278522,100 174.9065017494474,-37.03453261671714,100 174.9061545340037,-37.034720149572436,100 174.90598164950376,-37.034780566736124,100 174.90543621686817,-37.03511015017811,100 174.9053498499174,-37.03559778325752,100 174.90534350010026,-37.03560628266532,100 174.90528993256922,-37.035710582574744,100 174.90527144935584,-37.035804666893426,100 174.90528108291142,-37.03595791692785,100 174.90530949977722,-37.036124133266966,100 174.90526606740283,-37.03621989999036,100 174.90520228377576,-37.0363236825747,100 174.90517636672058,-37.03641911655187,100 174.9051861665322,-37.03646485060779,100 174.90507410051464,-37.036545082567706,100 174.90487991731746,-37.036633883283315,100 174.90481703358768,-37.03663769980806,100 174.90473006609628,-37.03664296658331,100 174.90458958263173,-37.036623717441756,100 174.90457434991518,-37.03662281558361,100 174.90444973314263,-37.03666579859515,100 174.90429296669367,-37.03671836741433,100 174.90413583298985,-37.036719649868886,100 174.90400253315144,-37.036694666909064,100 174.9039415169229,-37.03668863333372,100 174.90388921546378,-37.0366344566275,100 174.90384340029053,-37.03658700042643,100 174.90379039985302,-37.03651081704508,100 174.90372651627166,-37.03655724986658,100 174.90366638315004,-37.03660669859703,100 174.90361181692333,-37.03667269955064,100 174.9035571502362,-37.03676421608143,100 174.90353446675954,-37.03682426688114,100 174.90349841721223,-37.03695641712957,100 174.9034568660185,-37.03705248379895,100 174.90346783403345,-37.03713513361268,100 174.90348260082405,-37.037202783420994,100 174.90345048316533,-37.03727633294784,100 174.90340341667397,-37.03734383308804,100 174.90333576690145,-37.03739778259319,100 174.90329996647958,-37.03745329939038,100 174.90307641647618,-37.037610566068615,100 174.9030642670417,-37.037644232563586,100 174.903045066542,-37.037702550068204,100 174.9030180340232,-37.03776999991468,100 174.90299020035812,-37.03782193321716,100 174.90296128373055,-37.037907183301044,100 174.90293801715995,-37.03799448331714,100 174.90288278271058,-37.03805174935236,100 174.9028408001003,-37.03809748334634,100 174.90277836694852,-37.03812170060269,100 174.90271856744042,-37.03814359979702,100 174.9026583334236,-37.038156650663446,100 174.90258495065203,-37.03818343280884,100 174.90250891615273,-37.03821253322436,100 174.90245178327282,-37.03823213356008,100 174.9024081337024,-37.038244650607425,100 174.90235331715445,-37.03825529989132,100 174.90229826742646,-37.03826151669322,100 174.90226533299392,-37.0382670335907,100 174.90222144976119,-37.038275100094644,100 174.90218376642397,-37.03829630003426,100 174.9021267505306,-37.038318116437004,100 174.90206916615696,-37.03832886675924,100 174.90196284924227,-37.038361150030966,100 174.90188935002766,-37.03838571642022,100 174.90181343334356,-37.03841703440615,100 174.90173430004023,-37.038439566674576,100 174.90167473318195,-37.0384659014197,100 174.90162546593515,-37.03853184986701,100 174.90159654977936,-37.0386170996231,100 174.90159029942924,-37.03871271686271,100 174.90161631621484,-37.03878953301745,100 174.90164421742335,-37.038848549830675,100 174.90169498320407,-37.03892233376756,100 174.90179020046162,-37.038999132728065,100 174.90185146706267,-37.03906150000394,100 174.90192193309878,-37.039141316704345,100 174.90199424940946,-37.039203316543706,100 174.90207853348267,-37.03928268443445,100 174.90209108299786,-37.03929606666801,100 174.9021038835911,-37.03931018393927,100 174.90211581626147,-37.03932493341923,100 174.9021256838074,-37.0393399170059,100 174.9021323164711,-37.03935480014981,100 174.90213453273773,-37.03936918269519,100 174.90213208333313,-37.03938303258796,100 174.90212598271728,-37.03939663369178,100 174.90211696631923,-37.039410216661715,100 174.9021057332904,-37.03942400011635,100 174.902093,-37.039438216819065,100 174.90207949999032,-37.039453066811305,100 174.90206595035033,-37.039468766622015,100 174.9020530330382,-37.039485566691944,100 174.9020401001977,-37.03950413265515,100 174.90202616681097,-37.039524549707544,100 174.90201150023918,-37.039546133080265,100 174.90199640050355,-37.03956820018478,100 174.90198113314608,-37.03959008340635,100 174.9019659666991,-37.03961109976034,100 174.90195123407025,-37.03963053278321,100 174.90193716681864,-37.03964774965492,100 174.9019248827801,-37.039661950123026,100 174.90191458292702,-37.03967348337351,100 174.90190521613968,-37.03968330000795,100 174.9018957169564,-37.039692316608104,100 174.9018849993931,-37.039701483432594,100 174.90187201679962,-37.03971175010887,100 174.90185570072157,-37.039724048587516,100 174.90183498326456,-37.03973933334177,100 174.90180878349403,-37.03975821655905,100 174.90177766731088,-37.03978008258758,100 174.90173001727558,-37.039812866165484,100 174.90170614955792,-37.03982896661098,100 174.9016685335182,-37.03985411661078,100 174.90163151739486,-37.039878482764266,100 174.9015964829366,-37.03990111728447,100 174.90156481666074,-37.03992108312517,100 174.9015364166387,-37.03993835037767,100 174.90150989946343,-37.039953800161165,100 174.901484767377,-37.039967850548045,100 174.90146055035743,-37.0399809498097,100 174.90143673308992,-37.03999353342379,100 174.90141284964142,-37.04000603337196,100 174.90138839997996,-37.040018866860045,100 174.90136288335339,-37.0400324673284,100 174.90133626678724,-37.04004654959302,100 174.9013090005713,-37.04006055033317,100 174.90128131718814,-37.040074549642604,100 174.9012534829936,-37.04008863338136,100 174.90122573346008,-37.04010286627362,100 174.90119834953143,-37.040117333044805,100 174.9011715502715,-37.040132116708534,100 174.901145616175,-37.04014728397187,100 174.9011208837295,-37.040162667208065,100 174.9010973001371,-37.0401781329705,100 174.90107441708633,-37.04019378308191,100 174.9010518327034,-37.04020973304117,100 174.9010291166128,-37.04022608258028,100 174.9010058497222,-37.040242933052646,100 174.90098161738928,-37.04026038393745,100 174.90095598328017,-37.04027856660664,100 174.90092828286433,-37.04029820013113,100 174.90089863281676,-37.04031949985279,100 174.9008677664666,-37.04034180057537,100 174.90083646679776,-37.04036439935424,100 174.90080550020718,-37.04038664939199,100 174.90077563358912,-37.04040783358263,100 174.90074763320956,-37.04042729972458,100 174.9007222664381,-37.04044434963289,100 174.90069966627996,-37.04045881624001,100 174.90067916737686,-37.04047125008821,100 174.90066030012625,-37.04048211656394,100 174.9006426507814,-37.040491866638774,100 174.90062576691133,-37.04050093297657,100 174.90060921750538,-37.04050975060158,100 174.9005896835139,-37.04052016628493,100 174.90056513256116,-37.04053246675832,100 174.9005394497081,-37.04054428334011,100 174.90051318371758,-37.04055580011456,100 174.90048695044544,-37.04056736683179,100 174.90046133272827,-37.04057931664682,100 174.9004369671008,-37.040592017005444,100 174.90041443370265,-37.040605783080906,100 174.90039435000782,-37.040620984427854,100 174.9003771166754,-37.040637817420446,100 174.90036233286855,-37.0406560334144,100 174.90034939932013,-37.04067531664304,100 174.90033769985953,-37.0406953498075,100 174.9003317495096,-37.04070651670771,100 174.90031685012704,-37.04072176656844,100 174.90029664996442,-37.04074393320552,100 174.90027739932788,-37.04076634960842,100 174.90027295939174,-37.04077216833015,100 174.90011418301282,-37.04083400044641,100 174.90011186695696,-37.040835716671076,100 174.90009379985872,-37.04084603396629,100 174.9000888833317,-37.040848566066366,100 174.90007025002814,-37.040858315596914,100 174.90006005005105,-37.040864266242615,100 174.90004371592968,-37.04087613304274,100 174.90003073284512,-37.04088729992704,100 174.9000217328761,-37.04089416689496,100 174.900006182557,-37.040902882808865,100 174.89999176716952,-37.04091071619384,100 174.89997768369994,-37.04092094982864,100 174.89997060027022,-37.04092595014439,100 174.8999547001021,-37.04093443371279,100 174.89994449992403,-37.04094046727149,100 174.89993103354985,-37.04095141656189,100 174.8999204664523,-37.0409642004208,100 174.8999182168098,-37.040967949811034,100 174.89991169993948,-37.04098228301793,100 174.89991036605676,-37.04098808441883,100 174.8999092828484,-37.04099880019606,100 174.89990695774438,-37.04099961255827,100 174.8998990065666,-37.04100200669195,100 174.89968200591957,-37.041078004663234,100 174.899788007425,-37.04093499297549,100 174.9001560053438,-37.04072800006483,100 174.90020500874186,-37.04067499459988,100 174.90031499577722,-37.04055300540379,100 174.90032299221397,-37.04053700630193,100 174.90044100859072,-37.040302006882705,100 174.90046600303486,-37.04011400359122,100 174.900429004924,-37.04002899457458,100 174.90036399368702,-37.03988099640195,100 174.90036400157067,-37.03988000484602,100 174.90035199773953,-37.03986599899884,100 174.90035099264492,-37.03986600068169,100 174.90022699961804,-37.03975500030692,100 174.90018599718113,-37.03968000390359,100 174.90010099583813,-37.039523002776235,100 174.90003999271858,-37.03954499833168,100 174.89976099467916,-37.039642001112824,100 174.8996319920661,-37.0396880029387,100 174.89937000385694,-37.03977999875361,100 174.8992479922658,-37.039822005413974,100 174.89891699149334,-37.03993900055707,100 174.89900600393614,-37.04009199874612,100 174.89901799838938,-37.04011199942699,100 174.8990730038182,-37.040207006216214,100 174.89909299354204,-37.040241996375215,100 174.89919300405927,-37.04041400518126,100 174.8990900077876,-37.04044900243831,100 174.89886399414905,-37.040525993145074,100 174.89859300570004,-37.04061899841699,100 174.8982960028277,-37.040718992614394,100 174.89820799652233,-37.040540005037215,100 174.89819399950434,-37.04051200213563,100 174.8981629977009,-37.040447995853995,100 174.89813300397378,-37.04038600135517,100 174.898080000947,-37.04027799507306,100 174.89805800530934,-37.040233003567,100 174.8978670065822,-37.040299002196576,100 174.89770899189799,-37.03999999428011,100 174.89770100587717,-37.03998599507758,100 174.89754299404282,-37.039687002186305,100 174.8974240037007,-37.0394609967121,100 174.89727800548326,-37.03951000421898,100 174.89725299470192,-37.03946300671701,100 174.89723200309646,-37.039423000297596,100 174.89715699538215,-37.03928099879183,100 174.8971270079625,-37.039222999374836,100 174.89703700434413,-37.0390499931637,100 174.89702899274135,-37.03903500198876,100 174.89694999867706,-37.03888399520793,100 174.8969470051369,-37.0388789994077,100 174.8968489997608,-37.038691993125084,100 174.89683899756577,-37.03867200541516,100 174.89668399191098,-37.03872600162116,100 174.89653499413242,-37.038778003424376,100 174.89651099925348,-37.03878599767186,100 174.8965000007056,-37.03876500378918,100 174.89642200403281,-37.03862000407693,100 174.89632099377977,-37.03843199716201,100 174.89601999345854,-37.038536997669524,100 174.89598999658017,-37.03859600221804,100 174.89586699230722,-37.03836100566521,100 174.8959400059128,-37.03838500020309,100 174.8961889954063,-37.038299001610184,100 174.89610100790154,-37.038135003339285,100 174.89602299469243,-37.03799000359788,100 174.89601300280665,-37.037971005275544,100 174.8960709951193,-37.03795100132036,100 174.8961379994507,-37.03792800516015,100 174.89606499128863,-37.03778999432894,100 174.89601899933186,-37.03770199828722,100 174.89599199248784,-37.037650992767674,100 174.89591899319714,-37.03751200558392,100 174.89584400545917,-37.03736800555189,100 174.8954699987159,-37.037497997403435,100 174.89544200471227,-37.03755300138886,100 174.89533600023037,-37.037349997308915,100 174.89540300127476,-37.037372006266985,100 174.89577700721895,-37.03724200202514,100 174.8957039915008,-37.03710299963129,100 174.89563099406175,-37.03696399779544,100 174.89562500334034,-37.03695199267377,100 174.89560800589152,-37.03691999955656,100 174.89555799577434,-37.03682499592204,100 174.89548500573338,-37.03668500333617,100 174.89542300055993,-37.03656800129727,100 174.89541200912169,-37.03654600133371,100 174.89522200048623,-37.03660999516562,100 174.89505299653806,-37.036288998624165,100 174.89486500026746,-37.03634800167443,100 174.8947729972788,-37.036181997068,100 174.89470500039556,-37.03615899869155,100 174.89441800623763,-37.03611299811214,100 174.89437800659778,-37.036037007439255,100 174.89404500126,-37.03614999663537,100 174.89395199726582,-37.03597199210105,100 174.89385900408996,-37.035794993163016,100 174.89383900519778,-37.035756998163755,100 174.89361899742863,-37.03583099154857,100 174.89337499644463,-37.035912996137576,100 174.89358899219133,-37.03621000623474,100 174.89355799627012,-37.03622100302241,100 174.89338599233577,-37.03627899494604,100 174.89321399498522,-37.03633599508629,100 174.89309600106893,-37.03637600519983,100 174.89309500488213,-37.03641000105479,100 174.89258800128025,-37.03658299485106,100 174.8927069994554,-37.036809995913934,100 174.89279599378526,-37.036838993807095,100 174.89249299218645,-37.0369410006435,100 174.89252999776542,-37.03686900371645,100 174.89241099314506,-37.03664299400674,100 174.89197800188745,-37.03679099379088,100 174.89136000010464,-37.03688200122971,100 174.89135900507202,-37.036868994192865,100 174.89119299155,-37.03689399895688,100 174.8911859951578,-37.03689399694514,100 174.89099500085788,-37.036898996068345,100 174.89098800446467,-37.03689899404494,100 174.89080400649718,-37.036903993983636,100 174.890782999758,-37.03690400528301,100 174.8906129952629,-37.036908992761624,100 174.8905769995384,-37.036909993722965,100 174.89042200120502,-37.036914005379074,100 174.89038299222912,-37.03691499842534,100 174.89017699878949,-37.03691999372957,100 174.89020000017905,-37.03702699472634,100 174.8898920024969,-37.037069007336065,100 174.88994699207134,-37.0372270035758,100 174.89003299726664,-37.037269003781304,100 174.88968299907037,-37.03734599225324,100 174.8897290063943,-37.03727500011503,100 174.8896630077536,-37.037086004040596,100 174.88931799740945,-37.03716299759085,100 174.88925799800407,-37.03713599940663,100 174.88902200610022,-37.03721799283541,100 174.88884700508183,-37.037279994393494,100 174.88879100375019,-37.03730000729116,100 174.88852399789496,-37.037392995570656,100 174.88850499913346,-37.03740000194643,100 174.88851899627184,-37.037425001114194,100 174.88864200882998,-37.03765100689441,100 174.8887319974878,-37.037678999677446,100 174.88838000270246,-37.03780500367557,100 174.88841499443657,-37.037732006259525,100 174.88830500008828,-37.03752999474398,100 174.88828399948702,-37.037492000315346,100 174.8879939945833,-37.037593999740245,100 174.887904996338,-37.037626002002646,100 174.88768300085115,-37.03770499220537,100 174.88750900300718,-37.03776700558719,100 174.88733400822244,-37.03782999626858,100 174.88715999143045,-37.03789199412298,100 174.8869850041109,-37.03795399274393,100 174.88681099703362,-37.038016996691134,100 174.88663599228963,-37.038078995980875,100 174.88646199118298,-37.038140992572146,100 174.88628700416825,-37.03820300458974,100 174.88614499626127,-37.03825499580867,100 174.88602400260834,-37.038297001574755,100 174.88583999541274,-37.03836299771696,100 174.8857169946038,-37.038407005331536,100 174.8856689938716,-37.03843599813153,100 174.88551199389772,-37.0385309937209,100 174.8853300041268,-37.038642004985334,100 174.8852469914498,-37.038625999623214,100 174.88488599963196,-37.038611000560785,100 174.88454924219465,-37.03859618407308,100 174.88454486090174,-37.03857640611153,100 174.88450027228447,-37.038374985828995,100 174.88447066686606,-37.03824130728663,100 174.88440799258115,-37.03812717609275,100 174.8843146955313,-37.03795739284175,100 174.88422553584775,-37.037795187727724,100 174.88409624195768,-37.03755993318654,100 174.8838652263634,-37.03764235742779,100 174.88381982263718,-37.03765857283557,100 174.8836396473165,-37.03772282558661,100 174.88362114043173,-37.037729467359625,100 174.88343940446023,-37.03779431962442,100 174.88315435440876,-37.03789600418951,100 174.882815512388,-37.03801686905385,100 174.88262411750134,-37.038085140626485,100 174.88260562459996,-37.03809167296311,100 174.88242589210205,-37.03815573029099,100 174.88221025886187,-37.0382326472136,100 174.88198639162974,-37.038312510064785,100 174.88185499751205,-37.03836000512474,100 174.88161799625504,-37.03792699655768,100 174.88158900571773,-37.03787399388268,100 174.88142800298095,-37.03758099535899,100 174.88125400294066,-37.03726400185272,100 174.88124599311996,-37.0372489951175,100 174.88113700225844,-37.03704999456424,100 174.88103199606627,-37.03686000141868,100 174.88085999249526,-37.036545001727475,100 174.88064999135722,-37.03662000585272,100 174.88042000299018,-37.03670200242729,100 174.8803129977581,-37.03673999514309,100 174.88022900839493,-37.03657199785902,100 174.87998499539424,-37.036657999577685,100 174.8770420068793,-37.031291005632994,100 174.8768420021393,-37.03137600425664,100 174.87451499228462,-37.03218699997004,100 174.87463800706968,-37.03240600257887,100 174.87445300088837,-37.03247199863474,100 174.87439399336543,-37.032466007257874,100 174.87390699815174,-37.03264100542393,100 174.87390499222104,-37.03263600603183,100 174.8738310054851,-37.03248500670161,100 174.87386799175272,-37.03241300035007,100 174.87348999859864,-37.03251500415679,100 174.87358100349823,-37.032541999319996,100 174.8736439920027,-37.03264799915441,100 174.87338599540442,-37.03273799362999,100 174.8732839966773,-37.0327740045817,100 174.8733429963393,-37.032565998101795,100 174.87327199280503,-37.03259100130614,100 174.87283800712711,-37.032743006592014,100 174.87278299827867,-37.0327620021393,100 174.8724980029163,-37.032860996872486,100 174.87251999447074,-37.032901996160376,100 174.87261399542092,-37.033076004323966,100 174.87263300212155,-37.03311100025232,100 174.87242499214588,-37.033184004360265,100 174.87220900046506,-37.03325900429399,100 174.8720440062233,-37.03336599837468,100 174.87207800210354,-37.03344499656283,100 174.87209899283488,-37.03352600170387,100 174.8721049923216,-37.03362899372485,100 174.8720880077021,-37.03373000059665,100 174.87205099995768,-37.03382700172256,100 174.87199299702533,-37.03391800161538,100 174.87191399829007,-37.03399400343317,100 174.87163700364096,-37.03409000644056,100 174.87157899263664,-37.0342090070913,100 174.871591996251,-37.034233994277905,100 174.87129299750183,-37.034337997561394,100 174.87122900563318,-37.034221002874645,100 174.8711469943139,-37.034068994609015,100 174.8710639966836,-37.033917003639885,100 174.87085100343688,-37.03352699957397,100 174.87079699619946,-37.03342700708553,100 174.87073899157318,-37.03335799507085,100 174.8706650017023,-37.033269004434985,100 174.87050700512387,-37.032976991955685,100 174.87038800284094,-37.033018994553906,100 174.87030199440986,-37.032857995059196,100 174.87015100587735,-37.03257600583472,100 174.8700749928803,-37.03243499723685,100 174.8699999941302,-37.03229499377307,100 174.86992399894328,-37.03215400010703,100 174.86984900790375,-37.03201300407663,100 174.86978899884076,-37.03190100386265,100 174.86977299493978,-37.031871995259074,100 174.86969799771046,-37.031732006877135,100 174.8696959949858,-37.03172900555249,100 174.86962200328244,-37.03159099675652,100 174.8696109951999,-37.03157000130463,100 174.86954699655794,-37.03145000165817,100 174.86951800727752,-37.03139600529301,100 174.86947099481685,-37.03130999920249,100 174.86939399276073,-37.03116499579106,100 174.869359992719,-37.03110300175247,100 174.86961899325902,-37.03104200601189,100 174.8697850024166,-37.03100300006868,100 174.86990500082638,-37.0309640017669,100 174.8699630037402,-37.03081000161684,100 174.8700189940066,-37.03066099214788,100 174.86997599963047,-37.030467003315614,100 174.86950800831025,-37.03013800285735,100 174.869398997872,-37.030176005595315,100 174.86934700608612,-37.030178996186194,100 174.86927399816622,-37.030279996008275,100 174.8693340000391,-37.03050500502061,100 174.8692910013894,-37.03057700471962,100 174.8691119999252,-37.0306390005873,100 174.8690360081397,-37.03049800622335,100 174.8689699975434,-37.03037399917547,100 174.86896099534937,-37.03035800223641,100 174.8688910048991,-37.030227002424986,100 174.86888500376622,-37.030216992437545,100 174.86881499595802,-37.03008600726967,100 174.8688099987009,-37.03007599588336,100 174.86873999190803,-37.02994499532709,100 174.86873400809404,-37.02993500218304,100 174.86866399324686,-37.029804992237665,100 174.8686589975505,-37.029794997043005,100 174.86858900814826,-37.02966399611181,100 174.86858300637553,-37.0296540023408,100 174.8685130003859,-37.029523001620085,100 174.8685080036054,-37.029513006435266,100 174.86841099734872,-37.02933299342941,100 174.86810900020936,-37.02943699344302,100 174.86802399170264,-37.02928000158563,100 174.86834700306161,-37.0291680034056,100 174.86832600469182,-37.02912899845044,100 174.8682540042487,-37.02899400463803,100 174.86823300645636,-37.029002003650554,100 174.86815800499556,-37.02886100657219,100 174.86808199853013,-37.028719997326405,100 174.86800699766658,-37.02857900103169,100 174.86793100180165,-37.02843899736671,100 174.8678560015122,-37.028298000954734,100 174.86777999655646,-37.028157005886925,100 174.867704996467,-37.028015994041326,100 174.86763400488059,-37.02787399879824,100 174.86755999327787,-37.02773499832262,100 174.86748599311494,-37.02759700437336,100 174.86746200336012,-37.02755300262954,100 174.86741099622793,-37.02745800488263,100 174.8673829987373,-37.027406004028414,100 174.86733700344172,-37.02731900395305,100 174.8672859966542,-37.027224007041106,100 174.86726200713974,-37.02718000524775,100 174.86720700237012,-37.027077998679886,100 174.86718800656953,-37.027041994870785,100 174.86711299397408,-37.02690299631529,100 174.86703900230555,-37.0267639951574,100 174.8674470053934,-37.02668399479703,100 174.86757699574207,-37.026735996996656,100 174.86759200407977,-37.02671199597371,100 174.86696700675486,-37.02646099960311,100 174.86693600318804,-37.02647099812529,100 174.86674100527162,-37.02653800641358,100 174.86659499470804,-37.02626500178841,100 174.86658099999966,-37.026073004896396,100 174.8664649992626,-37.02585599381413,100 174.86643400237315,-37.02579800475282,100 174.86648100098472,-37.02578199985594,100 174.86642699529776,-37.0256809983404,100 174.8663460075042,-37.02552899997003,100 174.86630900763825,-37.025459002570905,100 174.8665259972603,-37.025385003654605,100 174.8667069960315,-37.025322992955765,100 174.86668200032938,-37.025274996941974,100 174.86660599909553,-37.02513200364079,100 174.86660100459036,-37.02512400742446,100 174.86651999871904,-37.024971993218216,100 174.86650400592055,-37.02494199159718,100 174.866438994702,-37.02481999514355,100 174.86640200518914,-37.024751006162035,100 174.86635799995938,-37.02466900542232,100 174.86630100111682,-37.0245609927797,100 174.86627699658646,-37.02451700631079,100 174.86619900139326,-37.02437000532813,100 174.8661759920547,-37.02432699371626,100 174.86609699348608,-37.024179994021,100 174.86620199649764,-37.02406600695633,100 174.86620700547246,-37.02405199756156,100 174.8662569930386,-37.02390699669291,100 174.86630399642556,-37.023774003090374,100 174.8663129934658,-37.023747998549936,100 174.86616500451285,-37.0236800004077,100 174.86595400294345,-37.02358299774685,100 174.86593699914795,-37.0235739988679,100 174.8657619949018,-37.023455001976195,100 174.86565500174834,-37.023359004645435,100 174.86561000460478,-37.02331799891097,100 174.86551699640256,-37.0232339942249,100 174.86545800522345,-37.02318000434665,100 174.8653420043349,-37.0230219978443,100 174.86522600545663,-37.02286400741078,100 174.86516699825683,-37.02275399959705,100 174.86513999382018,-37.02270399514216,100 174.86505999887478,-37.02255199456691,100 174.8650189972525,-37.02247599742444,100 174.86497899142537,-37.0224010030882,100 174.8648979934097,-37.02224900463847,100 174.86487099617344,-37.022197992339635,100 174.864816994582,-37.02209700523747,100 174.86473600573242,-37.02194599795611,100 174.86472300625022,-37.021920995432744,100 174.86465500871645,-37.02179399930253,100 174.86457400290513,-37.02164300658335,100 174.86454999397944,-37.02165099457579,100 174.86453299570272,-37.021657003066046,100 174.8644429929669,-37.021687999410204,100 174.86431700248,-37.02173099793433,100 174.86421000233636,-37.02176800164566,100 174.86411299636762,-37.02158600179015,100 174.86409100392956,-37.02154399403207,100 174.86390400514847,-37.021607994013756,100 174.86381399265073,-37.02144199488829,100 174.86398899528407,-37.02138199697092,100 174.86385599572552,-37.021133002218406,100 174.8640100014804,-37.02108100158242,100 174.86395500577055,-37.020978994065075,100 174.86392900575987,-37.020929002364035,100 174.86389500390962,-37.02086599982144,100 174.86405300776693,-37.02081199400055,100 174.86411600752024,-37.02079100496976,100 174.8639480074214,-37.02047600681292,100 174.86402299225497,-37.020449994010136,100 174.86395299352841,-37.020317999566885,100 174.86389800575355,-37.02021500134213,100 174.86377299365762,-37.019980998562566,100 174.86367500388536,-37.01979700379941,100 174.86364800039775,-37.019746998041676,100 174.86352299830315,-37.01951200517048,100 174.86339800660784,-37.01927800342503,100 174.8632159969989,-37.01933999511937,100 174.86310200632343,-37.01937899223422,100 174.86303899968635,-37.01926100096982,100 174.86297699853324,-37.01914500559693,100 174.86293500547865,-37.019159002579755,100 174.86287199981885,-37.01918099782924,100 174.86284499745952,-37.01913100717946,100 174.8627259978584,-37.01890600658858,100 174.86254799715326,-37.01896700055623,100 174.86250699188747,-37.018712003653114,100 174.86279799691877,-37.01861199968959,100 174.86274599558132,-37.0185150035565,100 174.862718993184,-37.01846499754754,100 174.86255200267857,-37.0181529997991,100 174.8622349923459,-37.018262000824286,100 174.862172999268,-37.018283001884846,100 174.86205099516468,-37.01832599308107,100 174.86201900429924,-37.01827199940075,100 174.86197100760177,-37.01819000361626,100 174.8618650029,-37.01801099197173,100 174.8615899949823,-37.01749700130873,100 174.8614289931387,-37.01719499622427,100 174.8619969980395,-37.01700000500942,100 174.86208100701174,-37.01697100368756,100 174.86231799294205,-37.01689000655297,100 174.8624100064115,-37.016858002373134,100 174.86300399494806,-37.01665399369152,100 174.86275800474897,-37.016192996669325,100 174.86241399920016,-37.015546004342355,100 174.86209499842343,-37.014947999318046,100 174.86179299803828,-37.01438200600701,100 174.86228100748292,-37.01430499380006,100 174.86295699718673,-37.01419800404209,100 174.86385199486767,-37.014056007101644,100 174.8639819914067,-37.01403500665532,100 174.86473700602826,-37.01388199361205,100 174.86566000291032,-37.01369399811114,100 174.86672500877592,-37.013478000870805,100 174.87209199823553,-37.01233299455908,100 174.87231099968804,-37.01228899335171,100 174.8723799961406,-37.01227500407552,100 174.87239199245175,-37.01228199817253,100 174.87334499842757,-37.01287399540934,100 174.8748249934678,-37.01371000155737,100 174.8757720005968,-37.014173992420105,100 174.87692599859537,-37.013780005598484,100 174.87705200323506,-37.01373699183606,100 174.87739900252592,-37.01361799799584,100 174.8797609926526,-37.01281099844713,100 174.8796230023852,-37.01255300189242,100 174.8795380010741,-37.01239200702564,100 174.87931599459625,-37.01197799997256,100 174.87857599669647,-37.01059199642148,100 174.87830199312165,-37.01007999213968,100 174.87989700077364,-37.00960399676313,100 174.88278100740374,-37.008744992385054,100 174.8830419972523,-37.00868199426785,100 174.8838370022821,-37.010031995719174,100 174.88403200496498,-37.0103650044354,100 174.8841620027029,-37.01058700380238,100 174.88436900614155,-37.01051599300664,100 174.884395008898,-37.01050700588969,100 174.88460699656412,-37.01043400294806,100 174.88468000829678,-37.01057200389504,100 174.884752992052,-37.010708997575456,100 174.88491600151127,-37.011014997005766,100 174.88489600671707,-37.01105400141533,100 174.8851359983791,-37.01097299787059,100 174.88508599811402,-37.01095700459863,100 174.88490599237153,-37.010618006428075,100 174.88511399985796,-37.01054699280838,100 174.8853180005988,-37.01047699157214,100 174.8855220010195,-37.0104069926976,100 174.88569199688996,-37.01034899854836,100 174.8857260025107,-37.010337006978304,100 174.88593000215758,-37.01026700742144,100 174.8861380080035,-37.01019600556974,100 174.8863169915568,-37.01013500510526,100 174.88650599531292,-37.010070004583746,100 174.88667199837016,-37.01001299366634,100 174.88668199315708,-37.01001000012325,100 174.88685900349392,-37.00994900228675,100 174.88703500076255,-37.00988899731691,100 174.88721099889065,-37.009828992976175,100 174.8872549976389,-37.00981400741059,100 174.88738800718826,-37.00976799258803,100 174.8875640040185,-37.009708003972946,100 174.8877410048404,-37.009647996421045,100 174.88791699188212,-37.00958699888229,100 174.88808300305948,-37.009530992639185,100 174.88809300540194,-37.00952699209982,100 174.8882700057384,-37.009466999096375,100 174.88844600878522,-37.00940600142729,100 174.8886230081431,-37.00934599169446,100 174.88879900294057,-37.00928600039642,100 174.88900699447768,-37.00921400325738,100 174.889186997759,-37.00955299603017,100 174.88916699861076,-37.00959299264283,100 174.88940600252633,-37.009511005738396,100 174.88935700561237,-37.009494997384365,100 174.8891939989926,-37.009189005025355,100 174.88940199869919,-37.009117999407025,100 174.88959746619497,-37.00905150126158,100 174.88954270714117,-37.0089069891989,100 174.88948793145448,-37.008762477370134,100 174.88943317321662,-37.00861798055468,100 174.8898568198502,-37.00851472144545,100 174.88980023626794,-37.008365516614134,100 174.88976209933048,-37.00815802343735,100 174.8900857657643,-37.00811530042421,100 174.89067608170512,-37.008045469662534,100 174.8907030456038,-37.00819214022374,100 174.8907248702521,-37.00831091525416,100 174.8907385415523,-37.00838515332081,100</coordinates></LinearRing></outerBoundaryIs>
    </Polygon>
  </Placemark>

  <Placemark>
    <name>Manurewa</name>
    <Point>
      <altitudeMode>relativeToGround</altitudeMode>
      <coordinates>174.88470425915668,-37.02454261918167,100</coordinates>
    </Point>
  </Placemark>

</Document>
</kml>