<?xml version="1.0" encoding="utf-8"?>
<kml xmlns="http://www.opengis.net/kml/2.2">
<Document>
  <name>Maraetai (polygon: official_shp)</name>
  <open>1</open>

  <Placemark>
    <name>Maraetai (polygon: official_shp)</name>
    <Style>
      <LineStyle><color>ffff0000</color><width>2</width></LineStyle>
      <PolyStyle><color>66ff0000</color><fill>1</fill><outline>1</outline></PolyStyle>
    </Style>
    <Polygon>
      <tessellate>1</tessellate>
      <altitudeMode>relativeToGround</altitudeMode>
      <outerBoundaryIs><LinearRing><coordinates>175.04727202251368,-36.88136198636316,100 175.04760700321467,-36.88132300069678,100 175.0476089937725,-36.881315993938586,100 175.04779200796688,-36.88131700040829,100 175.04783300224264,-36.88131100668659,100 175.04794599603073,-36.88130599338653,100 175.04817600275936,-36.88131399524015,100 175.04828900747927,-36.88130699856841,100 175.04834099991498,-36.881313002387394,100 175.0485480029335,-36.881310999197794,100 175.04866999074983,-36.88132099264796,100 175.0486980042434,-36.881325001586546,100 175.0487209919576,-36.88132500169676,100 175.04880100365082,-36.88132099714715,100 175.04890299624415,-36.88132100724281,100 175.04895100125455,-36.881326001616955,100 175.04899799640174,-36.88132599676385,100 175.04922100850382,-36.881320003808696,100 175.0492350008065,-36.881318004895384,100 175.04924500251587,-36.881318993227,100 175.0502459931859,-36.88129099260153,100 175.05075000592018,-36.88125899482198,100 175.05100500389202,-36.88119200706657,100 175.05128599295426,-36.881118998124,100 175.05129399406798,-36.88111599743521,100 175.0513089982066,-36.88110900654163,100 175.05135600408713,-36.881096997984606,100 175.05209099970546,-36.88052600401104,100 175.05273500359414,-36.88046799428015,100 175.05279300141515,-36.88051199654826,100 175.05271600655743,-36.88080699515997,100 175.05300100548467,-36.881236998416846,100 175.05314400184187,-36.8814529961208,100 175.05332299521336,-36.88172300086539,100 175.05382399456641,-36.8822299928008,100 175.0542080075817,-36.882449002363124,100 175.05470500727415,-36.88264200430319,100 175.05521199132735,-36.88270099955249,100 175.05569300810853,-36.88235400655138,100 175.05580599075967,-36.88229499644056,100 175.05587299379894,-36.88225999311641,100 175.05604199793135,-36.88227999340737,100 175.05607900128285,-36.88231700461418,100 175.05612899748078,-36.882368002565116,100 175.0560810077648,-36.882602005103124,100 175.05605399834775,-36.882729997133985,100 175.0568512514709,-36.883777604579834,100 175.0573632167458,-36.88353038060416,100 175.0574158185429,-36.88360118481526,100 175.05690936645848,-36.883858946150774,100 175.05716699261083,-36.884367996786985,100 175.0576140018281,-36.884741995919676,100 175.05808900729275,-36.88492799799391,100 175.05813799828385,-36.88494700200838,100 175.05831000075725,-36.88508000204133,100 175.05847300282227,-36.88535900737076,100 175.05866000305122,-36.886030994332415,100 175.05866199374083,-36.886047002003096,100 175.0587800018603,-36.8872920008727,100 175.05897099189926,-36.88788899767296,100 175.05915900137123,-36.888311006877984,100 175.0594219933929,-36.888666993642225,100 175.05989700763365,-36.88955999386725,100 175.0599669930474,-36.889637995002914,100 175.06000299639277,-36.88967900504015,100 175.06033199655985,-36.89004800142755,100 175.06037799215525,-36.89024300279697,100 175.06053900554934,-36.890934995717714,100 175.06061499630854,-36.891126005706596,100 175.0610869968172,-36.89177399510609,100 175.06111000166078,-36.89178799229292,100 175.06113300746998,-36.89181199563653,100 175.06117599397817,-36.89184999184629,100 175.06122300231348,-36.89192599706049,100 175.06125799394198,-36.89199899317209,100 175.06126299931518,-36.89201399759177,100 175.06128500633534,-36.89204399923066,100 175.06131399826268,-36.892076995421064,100 175.06132999526744,-36.8921059945626,100 175.0613429934387,-36.8921230008398,100 175.061370007224,-36.89216100559316,100 175.06149599893627,-36.89227700392142,100 175.061510005556,-36.89230300472447,100 175.06151799196147,-36.89233000319887,100 175.06151399877513,-36.892349997434216,100 175.06151200263682,-36.89235500632697,100 175.06163799661888,-36.89252799874009,100 175.0617719935535,-36.8928290008944,100 175.0617830035907,-36.89321299931254,100 175.0617619971415,-36.89327400217207,100 175.0616540021666,-36.893597998634554,100 175.0616549976272,-36.89364300373311,100 175.06165999362193,-36.8938009932977,100 175.06217300468793,-36.89458099234883,100 175.06239799187392,-36.89480400383501,100 175.06217300680922,-36.89491399721005,100 175.06203000211934,-36.89503299578885,100 175.06201599350968,-36.895013994554645,100 175.06200000730976,-36.8950199980166,100 175.04871000018258,-36.899336996051744,100 175.04225100633758,-36.89368699177622,100 175.0427969933465,-36.89260500412907,100 175.03727900752037,-36.891538005251476,100 175.03440200263566,-36.890980998556635,100 175.0334699957586,-36.89373099843947,100 175.03201100121035,-36.898731999850554,100 175.0214469951712,-36.89670799864735,100 175.01989099620997,-36.90185300298288,100 175.0188929934557,-36.901681991545026,100 175.01885499928747,-36.901675003383644,100 175.01882299703436,-36.901669001227326,100 175.01882200612962,-36.90166099739831,100 175.01882200493267,-36.90164600518691,100 175.0188270007382,-36.90163099743496,100 175.01882700590636,-36.90162399694647,100 175.01882099412555,-36.901613995558506,100 175.0188179919002,-36.90160700473068,100 175.01881699496275,-36.9016000068554,100 175.01881299509347,-36.901591995588795,100 175.0188050017826,-36.9015780053784,100 175.01880099544067,-36.90157400681103,100 175.01878899732716,-36.901561995430505,100 175.01877899225204,-36.90154900110178,100 175.01877800051588,-36.90153500363815,100 175.0187790074216,-36.90151900105758,100 175.0187769958618,-36.90150799612164,100 175.0187750069112,-36.901492994434996,100 175.01877400387264,-36.90148099534648,100 175.0187740026867,-36.90146600313438,100 175.01877300514704,-36.90145600123423,100 175.0187730046797,-36.90144099368774,100 175.01877499747283,-36.90142799280437,100 175.01877900842499,-36.901413003597014,100 175.01877600519987,-36.901402993428114,100 175.01877400474376,-36.90138700140749,100 175.01879800253772,-36.90131399373893,100 175.01887499253564,-36.901204006220354,100 175.01888799259902,-36.90119199442256,100 175.01890199490066,-36.901158992323694,100 175.01891300008327,-36.90113899376079,100 175.01891699735432,-36.90109299824108,100 175.01890600080688,-36.901068996067764,100 175.01880099979704,-36.90101299674455,100 175.01877100418469,-36.900991996167946,100 175.01874400327395,-36.90095500337801,100 175.01874099999762,-36.900930000073274,100 175.0187300024086,-36.90090599789973,100 175.0187139962242,-36.90084200633004,100 175.0187109988206,-36.90082799969251,100 175.0186950006292,-36.90080199960565,100 175.01868100087427,-36.90077100569188,100 175.01866999863745,-36.90075099905619,100 175.01866100264118,-36.90072799844855,100 175.01865400469865,-36.900691003634606,100 175.0186220057529,-36.900623995927724,100 175.01861699787398,-36.900602003684995,100 175.0185960014809,-36.900564000290075,100 175.01857999457306,-36.90048800608825,100 175.01856599626805,-36.900460001747724,100 175.0185609983264,-36.90044200569994,100 175.01852900650076,-36.90038599371019,100 175.0184969912868,-36.90031299259037,100 175.0184719969439,-36.90027300395352,100 175.01846300591603,-36.90024899468777,100 175.01846900882612,-36.900209002901626,100 175.01848099976414,-36.90018599710757,100 175.0184829987157,-36.900177999242004,100 175.01851200641894,-36.9001449963305,100 175.0185349923916,-36.900124991565775,100 175.01867799888865,-36.9001249936049,100 175.01870299258178,-36.90013199280228,100 175.0187640081831,-36.90013700523173,100 175.01878400475115,-36.90013200200755,100 175.01879800807305,-36.90013200462935,100 175.01884099581505,-36.90010600505739,100 175.01886099741975,-36.900087992361115,100 175.01887699411841,-36.90007799901341,100 175.0189559941427,-36.89996699936149,100 175.01902799358226,-36.89978600107993,100 175.0190410042188,-36.899748000081786,100 175.01906999285038,-36.89969700109075,100 175.01908599507414,-36.899677002282985,100 175.01909299576292,-36.89965899966171,100 175.01910100767918,-36.89959999680559,100 175.01910100609402,-36.899576006912206,100 175.01908500243258,-36.89945999226108,100 175.0190819971532,-36.8994019995856,100 175.0190909943352,-36.89934299530064,100 175.01911999225337,-36.89924500682567,100 175.01913299595134,-36.89919899787717,100 175.01915299881318,-36.89911700537795,100 175.01917100450052,-36.899081992880376,100 175.01919100779787,-36.89899699633148,100 175.01920700345926,-36.89896900578551,100 175.01923599849152,-36.89893499706506,100 175.01925900061028,-36.89889999965258,100 175.01933299847695,-36.898813996750626,100 175.01935099365988,-36.89879600456821,100 175.0194209965072,-36.89869200296344,100 175.0194300080258,-36.89866999770481,100 175.01944500344507,-36.89859900054271,100 175.01945399148747,-36.898574998398864,100 175.01946799353018,-36.89855099482124,100 175.01949199846814,-36.89843999705313,100 175.01949400658344,-36.8983730061746,100 175.01949800272115,-36.89834499159307,100 175.0194819965355,-36.89828100010421,100 175.01945700095695,-36.898228993736915,100 175.0193829972783,-36.89812499358665,100 175.01937200748927,-36.898100000797754,100 175.01936500414428,-36.898076001060204,100 175.01936300288276,-36.89805099514606,100 175.019335002279,-36.89794700593991,100 175.01932500069455,-36.89790300503331,100 175.0193280068091,-36.897876001422205,100 175.01933000672054,-36.89786800262398,100 175.01931999427347,-36.89783499957436,100 175.01931099114444,-36.897806995102854,100 175.0193269921699,-36.89776900000857,100 175.01933400818848,-36.897736003970046,100 175.0193720065821,-36.89764500340357,100 175.01938800101735,-36.89762000156686,100 175.01940299303521,-36.8975860055652,100 175.0194209935748,-36.89756699300926,100 175.0194299993515,-36.897554992286395,100 175.01944400013082,-36.89752200636702,100 175.01947099468637,-36.897483991973616,100 175.01948600412146,-36.89745300060273,100 175.01950900661433,-36.89742399768751,100 175.01954299541217,-36.897372006850674,100 175.01967100330825,-36.89720599440571,100 175.01968399572863,-36.89717699223069,100 175.01970900892374,-36.89714700601611,100 175.01973599614485,-36.89709799581735,100 175.01980800393227,-36.896941993583816,100 175.01983500787566,-36.896792994555234,100 175.0198369980206,-36.89674099710606,100 175.01984300554074,-36.8967030024473,100 175.01985400485233,-36.89659899904086,100 175.01984100662997,-36.89655000545155,100 175.01984099955217,-36.89652700617363,100 175.01983400626347,-36.89648299740539,100 175.01983100551874,-36.89642399789903,100 175.01982399560586,-36.8963859983858,100 175.0198199920437,-36.8962420061217,100 175.01982199927906,-36.89618099356509,100 175.01983300314342,-36.89615199724906,100 175.01985099633848,-36.896115993427614,100 175.01986199464014,-36.89608499901909,100 175.01988399302033,-36.89604700099965,100 175.01989099229883,-36.89602300379929,100 175.01987999251145,-36.89595399437882,100 175.01983199149518,-36.895789000131984,100 175.019808996594,-36.895735004866864,100 175.01979999288503,-36.89570399459361,100 175.01978400173246,-36.89568299942994,100 175.0197210059652,-36.895580001947934,100 175.0197050028693,-36.89555799841973,100 175.0196930037822,-36.895533998018244,100 175.01966400535983,-36.89549600556273,100 175.01965300264231,-36.895463996376776,100 175.01963899780677,-36.89543699809822,100 175.01963199468526,-36.89541299926236,100 175.01956400253826,-36.89528599666777,100 175.01952300507185,-36.89522999830965,100 175.01947300491534,-36.89513399192542,100 175.01940300375895,-36.894941003068304,100 175.01939100689933,-36.894859002955926,100 175.01933000274386,-36.89469799877581,100 175.01931900128713,-36.894677992159785,100 175.01929999986234,-36.894541991580525,100 175.01930900508594,-36.894430003209415,100 175.019318003668,-36.894395004110144,100 175.0193310084611,-36.89438500479345,100 175.01935800818774,-36.89435199255659,100 175.01938999785577,-36.89432599682889,100 175.01940999165777,-36.89430600221742,100 175.01944599877672,-36.894284995371954,100 175.01952299909357,-36.89419599405077,100 175.0195560082685,-36.89414899324178,100 175.01965499576377,-36.8940330043564,100 175.01968199252522,-36.89396400043155,100 175.0196960030567,-36.893920001308096,100 175.01970500117247,-36.89389099584188,100 175.0197200047326,-36.89386700404172,100 175.01974900324345,-36.89383499332481,100 175.01976100605077,-36.89383100555599,100 175.01979400406955,-36.89379500164972,100 175.01980300533293,-36.89372899589955,100 175.01980499971668,-36.893664003393,100 175.01977999196345,-36.8935749970241,100 175.01971600674966,-36.893467000567504,100 175.0197069929401,-36.89344700344643,100 175.01968400565025,-36.89342200106246,100 175.01963599765966,-36.89337999475533,100 175.01959500395233,-36.89335100743241,100 175.01957700883034,-36.89334200296551,100 175.01954100471647,-36.893316995653365,100 175.0194319981967,-36.89318299766607,100 175.0194110047578,-36.893144995203215,100 175.01940699320787,-36.89312400629992,100 175.01937899497815,-36.89303799793022,100 175.01936499219735,-36.89294999497391,100 175.0193670044049,-36.892869994587656,100 175.01944199982694,-36.89254699544259,100 175.01944999543625,-36.892520997553895,100 175.0194530032645,-36.892503006908136,100 175.01946400616413,-36.89247100569266,100 175.0194680006102,-36.89240699764175,100 175.01947199130683,-36.89237099219303,100 175.01945800714205,-36.89228599296056,100 175.01944899596015,-36.892216992901815,100 175.01943499149178,-36.89218099687709,100 175.01939400131235,-36.89211200423584,100 175.0193850014011,-36.892105000912494,100 175.01938000424997,-36.89209600255315,100 175.0193640081644,-36.89207900106162,100 175.01935299468624,-36.89206099282626,100 175.0193120074368,-36.89202199902833,100 175.01929400054496,-36.892009000143254,100 175.0192479929894,-36.89196199978396,100 175.0192440041368,-36.89194599828772,100 175.0192169950697,-36.89191100293994,100 175.01920499700995,-36.891889992968096,100 175.0191820054811,-36.8918659972988,100 175.01916399655565,-36.891840994891375,100 175.01913199306617,-36.89180600060429,100 175.01909999938738,-36.89176899263319,100 175.01907999882144,-36.89175400057667,100 175.01902100183548,-36.89168399618417,100 175.01900300086677,-36.8916670007799,100 175.0188939924515,-36.891533993686146,100 175.01886599797425,-36.891495997443045,100 175.01885299236858,-36.89148499458658,100 175.01882499795397,-36.891446999233246,100 175.01880900121807,-36.891417994135274,100 175.0187610081777,-36.89129500341183,100 175.01875599708455,-36.89123099159821,100 175.01876899771162,-36.89115499909355,100 175.01878099780717,-36.89112400216043,100 175.01878200523052,-36.89100200194168,100 175.01878299295348,-36.89085599678091,100 175.01879600620666,-36.89080199672344,100 175.0187949970511,-36.89078200497302,100 175.01881700462297,-36.89071499857666,100 175.018826003134,-36.89070100073538,100 175.01883499575175,-36.890669997229104,100 175.01884099644656,-36.890600004681964,100 175.0188399965055,-36.89056000297075,100 175.01884199346392,-36.890513007593476,100 175.0188199979233,-36.890380997309165,100 175.01881599853192,-36.89036999819751,100 175.0188049924027,-36.890259992983744,100 175.01879600240878,-36.89023299495859,100 175.01877999682182,-36.89015700061926,100 175.0187700045679,-36.89013599886327,100 175.01872300625186,-36.88995399555822,100 175.0187050035123,-36.889915998889556,100 175.0186929946803,-36.88990299620412,100 175.01860399983377,-36.88973800662078,100 175.01860399314697,-36.88972999956678,100 175.01859200760933,-36.889716005042004,100 175.01858800742454,-36.88969300239304,100 175.01857599815236,-36.8896620034033,100 175.01855500725637,-36.88956299427224,100 175.0185150028843,-36.88945499959666,100 175.01851000023993,-36.88942899641958,100 175.01850099938548,-36.88941299533798,100 175.01850099913577,-36.88940399674172,100 175.01848499643904,-36.88937900338111,100 175.018483008742,-36.88936999529569,100 175.01845899197542,-36.889247006140785,100 175.0184399974701,-36.8891859971054,100 175.01843099666095,-36.88916999601657,100 175.0184069931905,-36.889072003334725,100 175.01839599810836,-36.88904499608005,100 175.0183959976377,-36.88902699888572,100 175.01837899838446,-36.88898900042767,100 175.0183739948076,-36.88894800409556,100 175.01836500530587,-36.88892399473824,100 175.01836399875387,-36.88884900637197,100 175.01838799226772,-36.88876700197174,100 175.01838799729742,-36.88875100287024,100 175.01839499591895,-36.8887240017057,100 175.01839400287437,-36.888685997144805,100 175.0184030079865,-36.88865900514686,100 175.018408997787,-36.888615001833294,100 175.01841800133798,-36.8885879936372,100 175.01847499182557,-36.88847899871961,100 175.01853299145935,-36.88840500221903,100 175.01857500884307,-36.888330002852065,100 175.01861700811452,-36.888269996040236,100 175.01862799427684,-36.88824699377201,100 175.01878999313132,-36.88804700411091,100 175.0188680031885,-36.88797399767944,100 175.01890600624046,-36.8879449940866,100 175.01894100096865,-36.88790700065124,100 175.018952004423,-36.88788700300161,100 175.0190440077107,-36.88778500616902,100 175.01914800645065,-36.88768300274585,100 175.0191659932921,-36.88766299812985,100 175.01919300261298,-36.8876429960633,100 175.01940400011952,-36.887419001064146,100 175.01943999258435,-36.88739700396002,100 175.01954699319637,-36.887308000016795,100 175.01956299838042,-36.887289999280824,100 175.01965999249796,-36.88715199302212,100 175.01969400182924,-36.88712300210804,100 175.0197270072886,-36.887084999007755,100 175.01983599625805,-36.88700799158347,100 175.01986299430982,-36.886990003969984,100 175.01987700546758,-36.8869760046327,100 175.01991999640683,-36.886932999798255,100 175.0199650011913,-36.88686099555214,100 175.0199669927262,-36.886829998347864,100 175.0199440064084,-36.88679299330591,100 175.01989800382185,-36.8867699992276,100 175.01985899675316,-36.88676299785541,100 175.01984499501378,-36.88675700163938,100 175.0198379939843,-36.886747994100496,100 175.01982400846717,-36.88663599995026,100 175.0198069917549,-36.886601005121896,100 175.01979999627434,-36.886593995673174,100 175.01975000622687,-36.88656700266121,100 175.01973400550585,-36.886553997644754,100 175.01971799223753,-36.88652799786242,100 175.01971300638598,-36.88650800342482,100 175.0196920019794,-36.886462999821696,100 175.01959100047122,-36.886381991976094,100 175.0195699981616,-36.886360995403514,100 175.0195450017265,-36.88632199742422,100 175.01952600734512,-36.88626699842042,100 175.01952099630958,-36.8862089973804,100 175.01950700485247,-36.88616799886852,100 175.01948200206462,-36.8861150010511,100 175.01945599794965,-36.8860920065829,100 175.0194289980091,-36.88608300012753,100 175.01941099254142,-36.88607000120634,100 175.01937400565737,-36.88602399480908,100 175.01936700359326,-36.88599999499241,100 175.01936900639933,-36.88597299397478,100 175.0193749918613,-36.88595099778105,100 175.019396001009,-36.885909998185895,100 175.01939699995728,-36.88584400135638,100 175.01940600290038,-36.88581699399482,100 175.01940600803837,-36.88579500122583,100 175.01942199700352,-36.885724992927486,100 175.0194150017314,-36.88570900106953,100 175.01941199182374,-36.88567899560436,100 175.0193750052472,-36.88563899818078,100 175.01924699722093,-36.88558099701269,100 175.0192149968322,-36.885576001582294,100 175.01918799741136,-36.88557599366431,100 175.01893600066006,-36.88551300738162,100 175.01891999331897,-36.88550399693418,100 175.01885799901538,-36.88548800696445,100 175.01883499767666,-36.885484005842,100 175.01881699871177,-36.88547899766472,100 175.01879199225004,-36.885466004967554,100 175.01876599559768,-36.885456994824864,100 175.01874299516126,-36.885443995964955,100 175.01873600028907,-36.885437001761396,100 175.01871100818354,-36.8853669978058,100 175.01870799779746,-36.88533099866294,100 175.01875800139518,-36.88530099713059,100 175.01877200122826,-36.88529500618816,100 175.01898300123918,-36.885114996356755,100 175.01905799405355,-36.885013007432676,100 175.0190800048749,-36.88496599359533,100 175.01908199846346,-36.88495299356929,100 175.01908000755083,-36.8849140019071,100 175.01908399847485,-36.884886994134774,100 175.01908600778972,-36.88485900157301,100 175.0190649964188,-36.88476999816208,100 175.0190579948731,-36.884754996916946,100 175.019048993127,-36.88471500500071,100 175.01905000222112,-36.884646995377345,100 175.0190550014269,-36.88461899255348,100 175.01905200575084,-36.884608006119336,100 175.01907200409784,-36.884525998260955,100 175.01907899172562,-36.884512998070484,100 175.01908100210503,-36.884499996857045,100 175.01908999499545,-36.88448700584386,100 175.01909200541994,-36.88447400643207,100 175.01912599575672,-36.884439005217416,100 175.01916100157007,-36.88442300421888,100 175.01917199489577,-36.884423001217115,100 175.01930199480873,-36.88438300605418,100 175.01934499144508,-36.88437799213886,100 175.01938900368773,-36.88436800287661,100 175.01954199936517,-36.8843689944231,100 175.01955099329462,-36.884370993823865,100 175.01964700752896,-36.884362003164284,100 175.01974699609033,-36.884323000874524,100 175.019794998009,-36.88428899331129,100 175.0198040025291,-36.88427099891697,100 175.01979700606753,-36.88424899811305,100 175.01979380551737,-36.88421597562882,100 175.01962860083805,-36.88391609919815,100 175.0200779025528,-36.883791444066674,100 175.02007399938387,-36.8837759990249,100 175.0200640076946,-36.88375499734214,100 175.02005000083827,-36.88374099495615,100 175.02004400833374,-36.88373099235814,100 175.02002700870239,-36.88368700044547,100 175.02001699189452,-36.88364899340666,100 175.02001399301903,-36.88360199730543,100 175.0200090071666,-36.883575993885195,100 175.02001199413112,-36.88353700230897,100 175.0200339975538,-36.88345500255726,100 175.0200370025931,-36.88343100294153,100 175.02005199774487,-36.88340800266683,100 175.02010200054804,-36.88331400540167,100 175.02021900698685,-36.88321799975258,100 175.02029600583734,-36.8831939990171,100 175.02038299142436,-36.88319200582867,100 175.02043499932864,-36.88318299871117,100 175.02045600362047,-36.88316999978154,100 175.0206229940728,-36.883122994606225,100 175.02068200770015,-36.88311599258187,100 175.02071900130593,-36.88311499465192,100 175.02075199236222,-36.88312500390941,100 175.0208400000049,-36.88315599509663,100 175.020944992894,-36.8831910072769,100 175.02101999526445,-36.88319300025897,100 175.02109000111204,-36.88318000211797,100 175.02111699950058,-36.883186003293886,100 175.0211520010223,-36.883198004360004,100 175.02117700111316,-36.883212003431986,100 175.0212780039503,-36.883212999548675,100 175.0213179995174,-36.883207004002266,100 175.02133900520198,-36.88320899806195,100 175.02139699278385,-36.88319699739317,100 175.0214769967731,-36.88321000181051,100 175.02151600339283,-36.88322900532936,100 175.02180899934226,-36.88328499641963,100 175.0219019985093,-36.883319998272135,100 175.02192399685168,-36.883338993723534,100 175.02195499549939,-36.88335899865165,100 175.0220919957838,-36.88352299835774,100 175.02212399145193,-36.88355000020241,100 175.0221399929472,-36.88356899855268,100 175.0221720079169,-36.88361399816147,100 175.02219399369787,-36.883669002604265,100 175.0222670070171,-36.88371100591596,100 175.022659001208,-36.88357599632677,100 175.02257099146368,-36.88338899832684,100 175.02255699468714,-36.883369992039235,100 175.02252499305933,-36.88333800440872,100 175.02250600825997,-36.88332700458863,100 175.02246499686936,-36.88331099721189,100 175.02241399923764,-36.883276001758766,100 175.0223860012743,-36.883251000418284,100 175.02234900106816,-36.88319799474635,100 175.022328008127,-36.88315399905725,100 175.0223130012722,-36.88310899294073,100 175.02230499136047,-36.88298799696877,100 175.02229100008458,-36.88296200636086,100 175.0222719923135,-36.882946005565074,100 175.0222380080688,-36.8829219992883,100 175.02217600194817,-36.88289300182956,100 175.0221230064379,-36.88287199782391,100 175.02203299961863,-36.882851994247396,100 175.02200400212772,-36.882842002992064,100 175.02197599949906,-36.88282400204504,100 175.0219640019405,-36.88280000358761,100 175.0219590056519,-36.88278200670189,100 175.02191799658164,-36.882737997424236,100 175.02188799648437,-36.88273099840467,100 175.02186300371528,-36.88272799524702,100 175.0218010056456,-36.88272800587176,100 175.021727992604,-36.882737994783874,100 175.02170699831396,-36.88273400331101,100 175.02168600176,-36.88270899530059,100 175.02166800570365,-36.88267600115309,100 175.0216459965165,-36.88261000020193,100 175.02164399515325,-36.88258499427536,100 175.02165400046877,-36.882508994708274,100 175.02166300377328,-36.88248200159263,100 175.02168499783082,-36.882456006847725,100 175.0217009989647,-36.88241399970572,100 175.0216979998817,-36.8823880049063,100 175.02167500490938,-36.88236800609315,100 175.02156999676802,-36.88235399695672,100 175.02151400697483,-36.88234000258478,100 175.02146199702912,-36.882318995022175,100 175.02142999834032,-36.88231099610004,100 175.0213969997954,-36.882280992656284,100 175.02133499801317,-36.88223000198447,100 175.02119900196618,-36.882160999562544,100 175.02117399504266,-36.882136004712045,100 175.0211409922999,-36.88211600572531,100 175.02112500476315,-36.88211300511427,100 175.02108899604045,-36.882110997687825,100 175.02107300848272,-36.882107996168806,100 175.02105200868598,-36.882108001046824,100 175.02092200203404,-36.882147006758885,100 175.0208899918185,-36.88215299339973,100 175.02079299754124,-36.882183004759234,100 175.0207360078347,-36.88219899804662,100 175.02068599369454,-36.882200998894646,100 175.02066300502182,-36.882191995667036,100 175.020632998137,-36.88217400054695,100 175.0206210077468,-36.88215199910947,100 175.0206160080348,-36.88210099831393,100 175.02062999533828,-36.882009004159556,100 175.02064399312425,-36.88198500140317,100 175.0206460078002,-36.88196800371312,100 175.0206589975332,-36.88193900145094,100 175.02065599421948,-36.88191700306698,100 175.0206489924444,-36.88190799557759,100 175.02063999988002,-36.88190599533136,100 175.02060899992478,-36.88193200337599,100 175.02059699522314,-36.881949000649136,100 175.02054100522025,-36.88199900101767,100 175.0205280023995,-36.88201499408536,100 175.02050499935606,-36.882036006256364,100 175.0204869964576,-36.88204699741357,100 175.02030400064476,-36.88220999375669,100 175.02026999367908,-36.88223000331187,100 175.0202380021313,-36.882245003389876,100 175.02016800456389,-36.88228400436751,100 175.02014300813977,-36.88230299359694,100 175.02013200463725,-36.88232299226086,100 175.02014200342106,-36.88234899605456,100 175.02016700321147,-36.882369004338194,100 175.02018299742608,-36.88237400315274,100 175.02028800410966,-36.88238200455879,100 175.02033400836893,-36.882380000873106,100 175.02041899953852,-36.882384998746964,100 175.02045500707982,-36.882380997409754,100 175.02054199773357,-36.88237799727546,100 175.02058099595916,-36.88237099777006,100 175.02061200202638,-36.88235900578695,100 175.02063999553283,-36.88235399245341,100 175.02069499325447,-36.88235100013837,100 175.02071299914874,-36.882363998873316,100 175.02073900808585,-36.8823950010831,100 175.02074800803152,-36.882402003425405,100 175.0207549917232,-36.88241700487821,100 175.02075799536294,-36.882441992872934,100 175.02073699772112,-36.88246600295617,100 175.020699004006,-36.882494000199706,100 175.02061499511655,-36.88253499822493,100 175.02055099441364,-36.882561993914955,100 175.02047399334748,-36.882617000561645,100 175.02042700723146,-36.882663999615026,100 175.02039299987723,-36.882690002876174,100 175.02027300224069,-36.8827680055678,100 175.02020700240266,-36.882794000379874,100 175.02015500136025,-36.882805004565014,100 175.02007699721528,-36.882801999441924,100 175.01992699593026,-36.88282200124333,100 175.01989500331499,-36.8828190040357,100 175.01984699235047,-36.88280600704413,100 175.01978000250605,-36.88277799887052,100 175.01974099741412,-36.88275600512345,100 175.01971799579627,-36.882733993430534,100 175.0196509938339,-36.882686996739956,100 175.0195910027983,-36.88262899758164,100 175.0195650060307,-36.882611006117536,100 175.01954699523887,-36.88259300415803,100 175.01943499575913,-36.8824469972094,100 175.01940699356038,-36.88241999793066,100 175.01937899858945,-36.88239799985204,100 175.01936499647712,-36.88237100231105,100 175.0193230063416,-36.88226600409837,100 175.0192830087165,-36.88221500511055,100 175.01924799399907,-36.88217500202482,100 175.01921799345237,-36.88215599967914,100 175.0191840063891,-36.882138992975726,100 175.0191520002752,-36.88211400309815,100 175.01912599792198,-36.88207900584253,100 175.01904300825746,-36.88202299892322,100 175.0190060025395,-36.88200200563702,100 175.0189320062015,-36.881951004840516,100 175.01886499345386,-36.88189699302658,100 175.0188310009123,-36.88187499940196,100 175.01880299309298,-36.88184900592256,100 175.01874100506646,-36.88180800277295,100 175.01870099741507,-36.88178599686633,100 175.01860599973793,-36.881692996912086,100 175.01858100053892,-36.88165500637993,100 175.01855099902,-36.88162099717811,100 175.01851799694705,-36.88159199882594,100 175.0184719956913,-36.88153900513207,100 175.0184420020176,-36.881513002945134,100 175.01835800277982,-36.88141899210659,100 175.01833700734522,-36.881388005116015,100 175.01832099457252,-36.88135599610758,100 175.01835899997153,-36.88131999224032,100 175.01802799142894,-36.88093699737042,100 175.01795200229395,-36.88072400067743,100 175.0179360000799,-36.880160995731664,100 175.01804899990498,-36.87967400271465,100 175.01826600005143,-36.87938799270542,100 175.0190300029878,-36.87861900025364,100 175.01902400534948,-36.87841600606392,100 175.0188770047348,-36.87819299644981,100 175.01898599775626,-36.87802199464637,100 175.01931299629578,-36.87771200154046,100 175.01930899399625,-36.87757699391005,100 175.01949999557024,-36.877347995746526,100 175.0196519944198,-36.87728799775003,100 175.02048999872017,-36.877128001587856,100 175.0207720085283,-36.87706000268139,100 175.02150299395956,-36.87709800741533,100 175.0221899969932,-36.87743499665276,100 175.02246400693093,-36.87759899373918,100 175.02271400837202,-36.877634999338476,100 175.022959997359,-36.87764699532778,100 175.02311600717061,-36.87766599863608,100 175.02341899733153,-36.877882994055234,100 175.02351699582067,-36.87795299731483,100 175.02388300486322,-36.87801299265421,100 175.02416199457613,-36.8779749964534,100 175.02505199852635,-36.87766500390365,100 175.02568199308266,-36.877598003596844,100 175.02617176243757,-36.87761426561276,100 175.02618787897248,-36.877610417061604,100 175.02619606211522,-36.87760710490271,100 175.02621469761985,-36.877601909198816,100 175.0262417235391,-36.877598739814545,100 175.02625290605647,-36.87759757026253,100 175.02626197391663,-36.877596193427266,100 175.0262888078052,-36.87758881461994,100 175.02632431136394,-36.877576411878394,100 175.02635518474523,-36.877571265178105,100 175.02636747546708,-36.87756775225289,100 175.02637699924847,-36.87756600981483,100 175.02639422809568,-36.87756472809903,100 175.0264024152471,-36.87756335095409,100 175.02641468802295,-36.877559838330136,100 175.02644008219994,-36.877558264100486,100 175.02645368101378,-36.877556956872176,100 175.02646821553586,-36.877554547610956,100 175.02647816675795,-36.877555012373435,100 175.0264881308559,-36.87755473334089,100 175.02655299850636,-36.87754774305771,100 175.02660372704648,-36.877546067381274,100 175.0266200396828,-36.87754658313805,100 175.026646716897,-36.877548685921006,100 175.0266566583579,-36.87755060643846,100 175.02666524719095,-36.8775517776151,100 175.026672474064,-36.87755367143731,100 175.02673263849874,-36.87755792122112,100 175.02674983374652,-36.87755846696704,100 175.0267616091709,-36.877557488242104,100 175.02677249296008,-36.87755613806962,100 175.0267874677969,-36.87755519218269,100 175.02680558123416,-36.877554652409046,100 175.02682009505153,-36.87755332772493,100 175.0268495997526,-36.87754924525267,100 175.02685730754322,-36.877548620731034,100 175.02687812886927,-36.87754844844241,100 175.02689400859083,-36.877547144607945,100 175.02690989148806,-36.877544772673836,100 175.0269194331946,-36.87754302988659,100 175.02693484998142,-36.87754246309911,100 175.0269493543619,-36.877540781644505,100 175.02697661056948,-36.87753486730363,100 175.0269884511691,-36.87753134667276,100 175.02699980419692,-36.877528904206144,100 175.02702889310135,-36.877521189325286,100 175.02705849146687,-36.87751199391736,100 175.02707440161723,-36.87750814966957,100 175.0271039090293,-36.87750298282145,100 175.02712664357156,-36.87749667242008,100 175.02713803369195,-36.8774931297185,100 175.02715028683045,-36.87749070071958,100 175.0271593995544,-36.87748788186803,100 175.02718074129123,-36.87748481918238,100 175.02719476437704,-36.87748385974256,100 175.02722019635263,-36.87747938881698,100 175.02723518403488,-36.877477699080146,100 175.02725058984498,-36.87747676020129,100 175.0272659765199,-36.87747692213715,100 175.02727822576352,-36.87747557655698,100 175.0273195550149,-36.87746800602865,100 175.0273662673162,-36.87746370908106,100 175.02738849750506,-36.87746030402301,100 175.02740209899557,-36.87745969334745,100 175.02741430813037,-36.87746056474025,100 175.0274210825226,-36.877461723565915,100 175.02744560218022,-36.87745796667178,100 175.02746147445907,-36.877457018903165,100 175.0274777573895,-36.87745827862361,100 175.02748316516062,-36.877459431928315,100 175.02749900501288,-36.87746031254922,100 175.0275468861655,-36.87746771882072,100 175.02755320308896,-36.87746922704032,100 175.02756995523777,-36.87746939357159,100 175.02758219794467,-36.877468437434295,100 175.0275935485849,-36.87746709363947,100 175.0276067078283,-36.87746613537566,100 175.0276461168199,-36.877465073366395,100 175.0276529142269,-36.8774640479305,100 175.02767611010606,-36.87745698507451,100 175.0276834005507,-36.87745449471684,100 175.02771625478277,-36.87743953832878,100 175.02774219179295,-36.877431046073646,100 175.02775354122628,-36.87742787534451,100 175.0277663014714,-36.87742328441518,100 175.02778360364732,-36.877417990451534,100 175.02779316131839,-36.87741443480308,100 175.0278618537284,-36.87739507574368,100 175.02787910436228,-36.8773916086845,100 175.02792863576565,-36.87738081637801,100 175.02795814418295,-36.877375649301605,100 175.02797038643928,-36.877374676908744,100 175.02798216646624,-36.8773744253356,100 175.027998069533,-36.87737095242233,100 175.0280221281048,-36.877366816622505,100 175.02803710794024,-36.87736368663786,100 175.0280957722385,-36.87734897540999,100 175.02814203903543,-36.8773436186224,100 175.02819471048275,-36.877335028556146,100 175.02820651237636,-36.87733259273218,100 175.02823428322014,-36.87732412854704,100 175.02824973620378,-36.87732064886394,100 175.02827378298298,-36.877317255887824,100 175.02828468587288,-36.87731480656388,100 175.02829696549193,-36.87731092139214,100 175.0283211117523,-36.87730204408662,100 175.0283307010404,-36.87729777672804,100 175.02834121461578,-36.877290238083546,100 175.02835859620498,-36.877278746228285,100 175.02837003144194,-36.87727195074084,100 175.02838096156356,-36.87726802911669,100 175.02839598583037,-36.87726344182413,100 175.02842552929638,-36.87725536192657,100 175.02843963814487,-36.87725077673982,100 175.02845149779262,-36.87724615695168,100 175.0284805996899,-36.87723771324396,100 175.02849469101807,-36.87723492554648,100 175.02850743637154,-36.87723104682135,100 175.02851790741082,-36.87722677791084,100 175.02852793577176,-36.87722214522205,100 175.02854252365108,-36.8772168389133,100 175.02858980936392,-36.87720309956793,100 175.02859981361098,-36.87720065114011,100 175.02860755403415,-36.877198166561755,100 175.0286225943042,-36.877191768251464,100 175.02863445505247,-36.87718714842646,100 175.02864717616416,-36.87718362611482,100 175.0286594538536,-36.87718085675106,100 175.0286694720953,-36.877177665405455,100 175.02868085848198,-36.8771733925662,100 175.0286986426037,-36.87716448142637,100 175.02871460677343,-36.877157723930694,100 175.02872735785712,-36.877151645907084,100 175.02874514001454,-36.87714562887519,100 175.0287569504092,-36.87714283773881,100 175.02876787389695,-36.87713930285137,100 175.02881515022688,-36.87712703540387,100 175.02882879184372,-36.87712425534741,100 175.02884197627588,-36.87712001217233,100 175.0288679971971,-36.8771060509419,100 175.0288953177974,-36.87709757897129,100 175.02890443271917,-36.877093660360885,100 175.028911747589,-36.87708900097849,100 175.02892131884983,-36.877084732979434,100 175.02893361524187,-36.87708084835743,100 175.02894404529437,-36.87707876306362,100 175.0289558522118,-36.87707707065436,100 175.0289653809306,-36.877076070598626,100 175.02898167709944,-36.877076603437885,100 175.02900296558323,-36.87707645344352,100 175.0290622895983,-36.877077402316,100 175.02910123844228,-36.87707596102719,100 175.02911074336367,-36.877075333604076,100 175.0291189027728,-36.87707541325101,100 175.02913697981472,-36.87707778495064,100 175.02915827143354,-36.877078346903524,100 175.02918049982168,-36.87707602580928,100 175.02922351872402,-36.87707610395368,100 175.0292353045472,-36.877075479919995,100 175.0292488623044,-36.87707635692931,100 175.02926828573618,-36.877079834941405,100 175.0292913780837,-36.87707934042833,100 175.02935292056836,-36.87708285061398,100 175.02936107051127,-36.877082572589046,100 175.0293701561861,-36.87708119521338,100 175.02937923798234,-36.877079120295456,100 175.02940920293435,-36.87707539976335,100 175.02942548810972,-36.87707555959035,100 175.02943409291075,-36.877074918676854,100 175.0294409250177,-36.877073892546456,100 175.02945631431476,-36.87707296988814,100 175.0294962495279,-36.87706861303154,100 175.02952075140195,-36.87706487133733,100 175.0295312052505,-36.87706241424917,100 175.02954348476044,-36.87705852895153,100 175.02956038096443,-36.87704994290156,100 175.02957494451226,-36.877044992897126,100 175.02958402741936,-36.87704291794468,100 175.02960177785607,-36.87703761335609,100 175.02961455078665,-36.87703227934047,100 175.02962594725312,-36.87702656776115,100 175.029640212232,-36.87701250077197,100 175.02965084095015,-36.87699876539718,100 175.0296577275394,-36.8769919150111,100 175.02966280983642,-36.87698539288141,100 175.0296692584104,-36.87697890599265,100 175.02968032052513,-36.87696700637318,100 175.02968494916686,-36.87695974841935,100 175.0296877868867,-36.876952137109726,100 175.0296924100825,-36.87694526680852,100 175.0296979183559,-36.87694093567496,100 175.02972807567352,-36.87692304060455,100 175.02973494001236,-36.87691835912695,100 175.02974407319104,-36.87691445456169,100 175.02975027456833,-36.876912573039164,100 175.02975448789013,-36.876911240128074,100 175.02976076796233,-36.876910890375164,100 175.02978219022563,-36.87691236300339,100 175.02979856366684,-36.87691496830651,100 175.02981264452973,-36.876918993574634,100 175.029829040907,-36.87692598241463,100 175.0298381415397,-36.876929281604056,100 175.0298508432321,-36.876932233548764,100 175.02986039979663,-36.876935168030336,100 175.029885418944,-36.87694507665484,100 175.0298967770707,-36.876948766284954,100 175.02991178819994,-36.87695207893886,100 175.029919508112,-36.87695428860704,100 175.02993405974038,-36.87695723777344,100 175.02997089953135,-36.87697008362616,100 175.02998362507333,-36.876972664713804,100 175.02999410715998,-36.876974156607965,100 175.0300041086919,-36.8769763543208,100 175.03003817619447,-36.87698957740253,100 175.03004864233387,-36.876992882082625,100 175.03006274914816,-36.876998394926744,100 175.03007638551165,-36.877003173135805,100 175.03011503880265,-36.87701896044619,100 175.0301286631569,-36.87702629314414,100 175.03014866136215,-36.87703291935133,100 175.03015959054343,-36.87703731389408,100 175.03016958848772,-36.87704357021676,100 175.0301759309336,-36.87704832975788,100 175.03018956883085,-36.8770596901356,100 175.03019409426827,-36.87706556859959,100 175.0302027328845,-36.87707141642655,100 175.03021945572593,-36.8770831053297,100 175.03022633501266,-36.87708788633759,100 175.03023448395638,-36.877091172017614,100 175.03025710055516,-36.877098089642665,100 175.03027020971047,-36.87710134462595,100 175.03027927321574,-36.877102816575146,100 175.03029103765877,-36.8771068083692,100 175.03030053997682,-36.87711082800807,100 175.03030731477713,-36.87711263740186,100 175.0303774292581,-36.87712210326706,100 175.03051090811053,-36.87713231929369,100 175.03052175856772,-36.877133401061116,100 175.03053217375978,-36.877133763818115,100 175.0305882655805,-36.87713886178833,100 175.03061768942828,-36.87714033989692,100 175.0306289895644,-36.87714141396792,100 175.03064074130904,-36.87714140957156,100 175.03065522876497,-36.87714214524685,100 175.03068372851664,-36.87714215378989,100 175.03070951095174,-36.87714143906488,100 175.03073484900128,-36.877138517432186,100 175.0307841681125,-36.87713887757494,100 175.03084251076814,-36.87713814157607,100 175.03086876149808,-36.877134522026736,100 175.0308827881494,-36.87713306637551,100 175.03089185024479,-36.87713088442418,100 175.030899984783,-36.8771283307698,100 175.03095653488475,-36.877115236966766,100 175.03099182431987,-36.87711160256293,100 175.03103480656128,-36.87710322376224,100 175.03105200803745,-36.877101043242526,100 175.03119813084788,-36.87709195454983,100 175.03121530902357,-36.87709194383832,100 175.03122980742694,-36.87709305059266,100 175.0312650889362,-36.87709449598016,100 175.03127820300668,-36.877093785039676,100 175.0312935776845,-36.877094132327464,100 175.03130443865217,-36.87709378978675,100 175.03131756017999,-36.87709450367249,100 175.0313370137975,-36.8770948830543,100 175.0314048707648,-36.87709087009101,100 175.0314424337994,-36.87709052157686,100 175.03148992772145,-36.87709232768189,100 175.03152567782763,-36.87709562256131,100 175.0315559853047,-36.87709598393542,100 175.03156955579456,-36.877096705437516,100 175.03160802062476,-36.87709706879934,100 175.03162429810018,-36.877096345180426,100 175.03166546353052,-36.87709269390657,100 175.0316790586142,-36.87709307338218,100 175.03173287567597,-36.87709124355375,100 175.03178220624469,-36.87708725340409,100 175.0317925927413,-36.87708543268725,100 175.0318039079011,-36.8770828822552,100 175.03182608000066,-36.87707924482736,100 175.0318419242316,-36.87707851416792,100 175.03185049290383,-36.877077780863324,100 175.03186316518486,-36.877078518595994,100 175.03188082118947,-36.877078885372505,100 175.03193555990612,-36.87707779768296,100 175.0319473139294,-36.87707669443161,100 175.03195998034806,-36.87707780359048,100 175.03203282517555,-36.87707235029586,100 175.03206042946044,-36.877073072334674,100 175.03209028367928,-36.87707271397524,100 175.03211200659723,-36.877070881373314,100 175.03213282192357,-36.87706871098266,100 175.0321604216925,-36.87706689230616,100 175.03219253170073,-36.877065082091434,100 175.032221089973,-36.877064717928214,100 175.032236475603,-36.87706543624276,100 175.03227320669004,-36.877063245016714,100 175.03229222437787,-36.87706106118739,100 175.03233300867225,-36.87705560368537,100 175.03235792507763,-36.877053031415315,100 175.03236654098882,-36.87705158343449,100 175.03239010683927,-36.87705011943042,100 175.03240188255953,-36.87704793059586,100 175.03242181097778,-36.87704501823504,100 175.03244311880053,-36.87704136663739,100 175.03245762039836,-36.87703844617143,100 175.03247166024084,-36.87703626275691,100 175.0324938605932,-36.8770347932531,100 175.03250837088567,-36.877033343556405,100 175.03254823709057,-36.877024233391325,100 175.03256090897997,-36.87702021669038,100 175.03260214669348,-36.87701366707264,100 175.03266017140106,-36.87700200103106,100 175.0327023002957,-36.876995805663654,100 175.03275033794822,-36.87698778137907,100 175.03279926340085,-36.87697757154914,100 175.03280967610988,-36.87697610630932,100 175.03285320654888,-36.87696700364189,100 175.0328663341278,-36.876965534300595,100 175.0328867111932,-36.87696079986475,100 175.03289667496216,-36.876959327879064,100 175.03291300285017,-36.87695860322122,100 175.03292251223044,-36.87695751124676,100 175.0329306744838,-36.87695532921749,100 175.032964210095,-36.87695020915441,100 175.0329755361538,-36.876948029761074,100 175.03299456475096,-36.87694621696932,100 175.03300000835702,-36.876946223854546,100 175.0330308179071,-36.87694364793178,100 175.03304349848784,-36.87694110285639,100 175.03307431848546,-36.87693710178589,100 175.03309062556016,-36.876935634787436,100 175.0331037809123,-36.8769345362809,100 175.0331092173114,-36.87693308678124,100 175.0331191814777,-36.87693163009229,100 175.0331313947453,-36.87692906236117,100 175.03313955986613,-36.87692872343013,100 175.03314908204993,-36.876926887644736,100 175.03317535952357,-36.87692360692035,100 175.03322385300666,-36.876919956771545,100 175.03323608124302,-36.876918503683456,100 175.03325284399207,-36.876914844108896,100 175.03331538615078,-36.876907569082526,100 175.03332761172578,-36.876907200296266,100 175.03335615354217,-36.87690389159049,100 175.03337066288765,-36.876900631090415,100 175.03337836337627,-36.87689918608733,100 175.03340781051264,-36.87689553740454,100 175.03342412715494,-36.876892612792226,100 175.0334313914909,-36.87689041635556,100 175.03344451832746,-36.876888962285435,100 175.03345993681089,-36.87688605574616,100 175.03349708328744,-36.87687436272293,100 175.0335197353709,-36.876870004736,100 175.0335306086648,-36.876868901983926,100 175.03356641246813,-36.876862717243654,100 175.0335768285127,-36.876860152292046,100 175.0335845289689,-36.87685870637495,100 175.03359679020707,-36.87685541042482,100 175.03360538165023,-36.876852491849526,100 175.0336149035267,-36.876850687577814,100 175.03362803011228,-36.876847405652505,100 175.03365974326778,-36.87684083214884,100 175.03367834082738,-36.87683791261836,100 175.03368785266602,-36.876837548792366,100 175.03370097590272,-36.87683536740541,100 175.03370777845976,-36.87683390710894,100 175.0337308978462,-36.87682661185238,100 175.0337540031594,-36.87682297341216,100 175.03375763814034,-36.8768225948249,100 175.03381608987485,-36.87680656942814,100 175.03382015672446,-36.87680437002679,100 175.03384327387062,-36.876798175275944,100 175.03385867867752,-36.87679598094753,100 175.03386546259435,-36.87679453718464,100 175.03387770337804,-36.87679051330441,100 175.03388904037465,-36.87678870587471,100 175.0338962867441,-36.87678650971746,100 175.0339257397955,-36.87678067605112,100 175.03393389255848,-36.87677813810185,100 175.03394250512574,-36.87677593207013,100 175.03395971468,-36.87677046755158,100 175.0339841824373,-36.876761350162354,100 175.03399733904405,-36.87675734033232,100 175.03400503772838,-36.87675405215844,100 175.03402633006343,-36.876749315376735,100 175.03403493249297,-36.876746769721336,100 175.03404716307998,-36.876742404405185,100 175.03406257636803,-36.87673875430357,100 175.03407887969036,-36.87673181994016,100 175.03408523082632,-36.87672852599301,100 175.03409111365775,-36.87672635587528,100 175.0340961022058,-36.876723799990714,100 175.03410878243483,-36.87671942606789,100 175.03412103683118,-36.876714689901675,100 175.03413324529217,-36.876711393899065,100 175.03420347711617,-36.876689168441246,100 175.03423746744772,-36.87668187080197,100 175.0342633044931,-36.87667531484058,100 175.03426964599925,-36.8766734766503,100 175.03427236238238,-36.87667238823004,100 175.03428323827808,-36.87667020109941,100 175.03430091537345,-36.8766647276243,100 175.03432582962444,-36.87665852994628,100 175.034358004971,-36.876649423797716,100 175.0343643491152,-36.87664650129174,100 175.0343747681496,-36.876642867276146,100 175.0343928875256,-36.87663774222744,100 175.03443096728873,-36.87663083236181,100 175.0344526966229,-36.87662206100611,100 175.03446175892648,-36.876619893201386,100 175.03448125000563,-36.87661441657412,100 175.03448804557834,-36.87661332859037,100 175.03450163745367,-36.87661003860079,100 175.03450797576238,-36.87660748842461,100 175.03452475669073,-36.87660274319379,100 175.03453290539053,-36.87659946169981,100 175.03454377784396,-36.876594735638626,100 175.0345505659343,-36.876589264751146,100 175.03456642647723,-36.87658196656876,100 175.03457684663786,-36.87657833341765,100 175.0345881748222,-36.87657505424759,100 175.03459996921197,-36.87656993835142,100 175.03460947505442,-36.87656520684855,100 175.03462308747262,-36.876560831326586,100 175.03462986708936,-36.87655681708271,100 175.03463803619363,-36.87655426258231,100 175.0346624991047,-36.87654441868905,100 175.03467065136192,-36.87654186357367,100 175.034683331838,-36.8765393192276,100 175.03469873743322,-36.876534198252195,100 175.03470508933788,-36.876530934903435,100 175.03471731609045,-36.87652765385018,100 175.03472592429554,-36.876524735808886,100 175.03473453026885,-36.8765229173928,100 175.03474721989303,-36.87651890015694,100 175.03475538316377,-36.87651671798589,100 175.03476897234827,-36.87651451137627,100 175.03477713561784,-36.876512329203756,100 175.0347803016356,-36.87651123216919,100 175.03478800205457,-36.876509787076614,100 175.0348092938849,-36.87650503574361,100 175.03483104812798,-36.87650249008216,100 175.03483830320727,-36.87650176554384,100 175.03486956060556,-36.87649557176385,100 175.0348795412264,-36.87649228680732,100 175.03490626937537,-36.876486085878184,100 175.03492258492705,-36.87648135036597,100 175.03497921057402,-36.87646020023913,100 175.03498705716325,-36.876457837809035,100 175.03499507570376,-36.87645421872279,100 175.03501174071164,-36.876446672362626,100 175.03502842368206,-36.87643912659377,100 175.0350451086074,-36.87643161233465,100 175.0350618296096,-36.876424189387926,100 175.03507863901075,-36.876416842436434,100 175.03509554080165,-36.87640967956791,100 175.0351125513965,-36.87640268517901,100 175.0351131316821,-36.87640244180097,100 175.03513030469668,-36.87639569158364,100 175.03514758735238,-36.876389141377025,100 175.0351649429283,-36.876382760264626,100 175.03518242441362,-36.87637651579305,100 175.03519997869722,-36.87637039355002,100 175.0352175878612,-36.876364394743774,100 175.03523523496284,-36.87635847279691,100 175.0352529333365,-36.87635258061328,100 175.0352706348614,-36.876346764983644,100 175.03528835322805,-36.876340949964174,100 175.03529643146786,-36.876338228432374,100 175.03531406099754,-36.8763323211958,100 175.0353317077755,-36.876326429884536,100 175.03534940847481,-36.8763205836132,100 175.0353671104149,-36.87631478418566,100 175.03538482957939,-36.876308999782516,100 175.03540254917155,-36.87630323159285,100 175.03542028710947,-36.876297478408354,100 175.0354380243059,-36.87629173965477,100 175.0354557458243,-36.87628600206848,100 175.03547348220206,-36.87628023267944,100 175.03550405724755,-36.8762713726597,100 175.03554627466488,-36.87625873227246,100 175.0355599146279,-36.8762529474385,100 175.03559862441588,-36.876234410436325,100 175.03563751534017,-36.8762161470173,100 175.03564568806127,-36.876213097571984,100 175.03568720922308,-36.87619912342337,100 175.0357288542758,-36.876185252589586,100 175.03573666851835,-36.876182349884104,100 175.03577711323496,-36.87616641218956,100 175.0358165082702,-36.87614888454865,100 175.03584951433112,-36.87613271468759,100 175.03588695030658,-36.87611255905446,100 175.03590941726276,-36.87609946837735,100 175.0359460845066,-36.87607845974991,100 175.03596216692233,-36.876071034102836,100 175.0360007353861,-36.876052420980365,100 175.03600442571837,-36.876050368561266,100 175.03603817401668,-36.87602641130378,100 175.03606110765202,-36.875997901251495,100 175.03607273563117,-36.87597342901543,100 175.03607851447336,-36.875956996590496,100 175.03608345544635,-36.87595041442546,100 175.03609567500285,-36.87594745962627,100 175.0361178485152,-36.87594448744031,100 175.03615945454004,-36.87593342197591,100 175.03619789318313,-36.875921626654986,100 175.03621829551133,-36.87591300390787,100 175.0362557068812,-36.87589264759207,100 175.03628501004667,-36.875875107112336,100 175.03631932371673,-36.87585161867635,100 175.0363391190964,-36.87583699823927,100 175.03637107721457,-36.87581154026469,100 175.03640271299975,-36.87578573179319,100 175.03643140370716,-36.875763804328535,100 175.03646359127376,-36.875738497420116,100 175.0364681152957,-36.87573480384678,100 175.036499045999,-36.87570851262274,100 175.0365289176937,-36.875681421164025,100 175.03654620566786,-36.87566557825093,100 175.03657507124407,-36.875637777580245,100 175.03660230098845,-36.875609000897384,100 175.03660887505418,-36.87560152095824,100 175.03663369607239,-36.87557134888884,100 175.03665758617902,-36.87554063757254,100 175.03667957206505,-36.87551282593696,100 175.0367034281872,-36.875482145838525,100 175.03672516974405,-36.875454851223964,100 175.03674792191816,-36.87542366458506,100 175.03675746354085,-36.87540647992309,100 175.03677703158894,-36.8753739751887,100 175.03678431204415,-36.87536462374472,100 175.03681349531084,-36.875337049205,100 175.0368197260605,-36.87533261072298,100 175.03685728220833,-36.87531248427511,100 175.03688781922676,-36.87529879268152,100 175.03692822518707,-36.87528273178825,100 175.0369595984231,-36.875269859541916,100 175.03699917545205,-36.87525262221941,100 175.03701796381208,-36.87524381340377,100 175.03705561553758,-36.87522399440155,100 175.03708575521608,-36.87520493511264,100 175.037120139515,-36.87518150742871,100 175.03713144314597,-36.875174402417244,100 175.03716661138768,-36.875151811203956,100 175.0371712719539,-36.87514865694487,100 175.03720459195262,-36.87512427318146,100 175.03723557529221,-36.87509799709053,100 175.0372514410299,-36.87508259757185,100 175.0372792493046,-36.87505411996237,100 175.03727982011793,-36.87505352072243,100 175.03730898473884,-36.87502593106121,100 175.03734282621767,-36.87500762390171,100 175.03735618250047,-36.87499860715784,100 175.0373874632181,-36.87497246472849,100 175.03740024659382,-36.87496042222313,100 175.03742798430832,-36.87493186827787,100 175.037440160845,-36.874919745144496,100 175.03746849801533,-36.8748916288556,100 175.03749648663305,-36.87486344192755,100 175.03752477136624,-36.87483529588065,100 175.0375385728691,-36.87482201103037,100 175.03756754535988,-36.87479433266969,100 175.03757888364453,-36.87478368040238,100 175.03760716760408,-36.87475554967168,100 175.03761897833454,-36.874742116895135,100 175.03764269151952,-36.874711315586055,100 175.0376479612836,-36.87470415358923,100 175.03766915390767,-36.87467222291569,100 175.03768708009272,-36.87463971735576,100 175.0376901496568,-36.87463296893885,100 175.03770221739913,-36.87459809610197,100 175.0377029053024,-36.87459384007569,100 175.03771101344807,-36.874558313213605,100 175.0377276595795,-36.87454003501067,100 175.03774888298156,-36.874527586319694,100 175.03778050018954,-36.87451361098995,100 175.0377855451643,-36.874511162141246,100 175.03782477764588,-36.87449343474376,100 175.03785642698492,-36.87448531279345,100 175.03788304251478,-36.874465159193115,100 175.03791146218506,-36.874447588410966,100 175.0379175315286,-36.87444354020083,100 175.03795024801235,-36.87441867177153,100 175.03797457061313,-36.87439633037088,100 175.03800023754738,-36.87437147020036,100 175.038020935147,-36.8743498786708,100 175.03804303980598,-36.874334501804825,100 175.03806202463244,-36.87432824374404,100 175.03808198367076,-36.874324028439716,100 175.038091843854,-36.874321968349335,100 175.0381171429263,-36.87432843197316,100 175.0381303181561,-36.874341100849804,100 175.03814126441213,-36.874360317162306,100 175.03815540533265,-36.87438243132659,100 175.03816888680953,-36.874406198973354,100 175.03818644263248,-36.874439369389606,100 175.03819630219937,-36.874457459688166,100 175.03821519347426,-36.874490139412146,100 175.03823203156495,-36.87451466603991,100 175.03825345014215,-36.87454632268147,100 175.0382649106027,-36.87456715520448,100 175.03828132031344,-36.87460071840787,100 175.03829074686573,-36.874621171226586,100 175.03830693429052,-36.874654769785316,100 175.03831887805953,-36.87467559310851,100 175.0383393069478,-36.874707702943454,100 175.0383552566354,-36.8747331587143,100 175.03835913515587,-36.874738738816085,100 175.03837041480267,-36.87475099494612,100 175.03838167689474,-36.87476326579705,100 175.03839295654885,-36.874775521924676,100 175.03840430377062,-36.87478774534627,100 175.03841568491967,-36.874799936639,100 175.03842715078764,-36.87481206518844,100 175.03842937981847,-36.87481442440123,100 175.03844088002154,-36.87482653613668,100 175.0384524478163,-36.87483861606691,100 175.03846411865482,-36.874850647360134,100 175.03847589141583,-36.87486263003557,100 175.03848776490176,-36.87487451904869,100 175.03849975629214,-36.87488632762419,100 175.03851190218438,-36.87489803981191,100 175.0385236485794,-36.87490915678458,100 175.03853571144026,-36.87492099477406,100 175.03854787581645,-36.874932768830476,100 175.0385602244637,-36.874944384699724,100 175.0385728295317,-36.87495585556446,100 175.03858568516108,-36.87496704542871,100 175.03859891274516,-36.87497796302486,100 175.03861252783034,-36.87498851795591,100 175.0386185862281,-36.87499300341485,100 175.03863292521453,-36.87500289428037,100 175.03864765096384,-36.875012436913906,100 175.03866274902256,-36.87502167843099,100 175.03867804843145,-36.87503072902014,100 175.03869346538536,-36.87503968565735,100 175.03870893420802,-36.875048609856826,100 175.03871728446498,-36.87505347057762,100 175.0387270873722,-36.87505714369009,100 175.03872822818965,-36.875057772147315,100 175.03876197688325,-36.87508134512439,100 175.0387939971542,-36.87510733620201,100 175.03881643646625,-36.875121208773685,100 175.03885207905518,-36.87514335220438,100 175.03887779237996,-36.8751622600221,100 175.03890941245862,-36.87518813355617,100 175.03891247538982,-36.8751906316683,100 175.03894353688298,-36.875216887918434,100 175.03897368348888,-36.87524379708244,100 175.03898916343422,-36.875258452425015,100 175.03901871746825,-36.87528577372785,100 175.0390403690319,-36.875302883729375,100 175.03907281422292,-36.87532801390318,100 175.03908762280003,-36.875340961975304,100 175.03911738040367,-36.87536817340468,100 175.03914287645026,-36.87539143456943,100 175.03917386822064,-36.8754176784336,100 175.03919531248843,-36.87543361396377,100 175.03922973016,-36.875457019393984,100 175.03922985332719,-36.875457094791585,100 175.0392637549837,-36.87548117603188,100 175.0392997617487,-36.87550278581057,100 175.03930845586987,-36.87550698984624,100 175.03934856791284,-36.87552355035149,100 175.03937932271776,-36.875535734331635,100 175.03942015845325,-36.875551073744305,100 175.03943274711546,-36.875556056331575,100 175.03947394334412,-36.8755706919299,100 175.03948271158876,-36.87557325341147,100 175.03952626113758,-36.875582686840765,100 175.03954623376805,-36.87558483603957,100 175.03959073579512,-36.875590178312116,100 175.03962855728423,-36.875602276050465,100 175.03965882597075,-36.87562684316111,100 175.03968220648082,-36.87564453984605,100 175.03971277470052,-36.87565742364717,100 175.03975040873956,-36.8756589306768,100 175.03975208479483,-36.875658929838906,100 175.0397971268675,-36.87565964720006,100 175.03983942104742,-36.875668065572825,100 175.03986369287455,-36.87568611825227,100 175.03987039734938,-36.875709781241035,100 175.03987765586336,-36.87574182942948,100 175.03989386409134,-36.87576542115726,100 175.03990966517188,-36.87579230511463,100 175.03991916605688,-36.87582177042326,100 175.03993819890914,-36.875853363156246,100 175.03993899065338,-36.87585444824597,100 175.03996402851732,-36.87588454985447,100 175.03997950138483,-36.87590487256162,100 175.04000239378618,-36.87593605290703,100 175.0400188048297,-36.87595832523441,100 175.0400433149161,-36.875988700870465,100 175.04004474368506,-36.87599028425477,100 175.04007112663996,-36.87601966423211,100 175.0400972035274,-36.87604921980514,100 175.0401223417844,-36.87607921059626,100 175.04012718944287,-36.87608540940996,100 175.04015031972224,-36.876116460358524,100 175.04017290617068,-36.8761478162684,100 175.04019586629065,-36.87617896386482,100 175.04020783894836,-36.87619481491354,100 175.0402319251748,-36.87622544564461,100 175.0402577108909,-36.876255099915625,100 175.04027315650083,-36.876269754770846,100 175.0403009632558,-36.87629816297328,100 175.04031947790767,-36.8763250273041,100 175.0403130882249,-36.876352451858715,100 175.04029441882494,-36.876379597009,100 175.04028108294003,-36.87639759699157,100 175.04027960604284,-36.8764198808727,100 175.04029128400302,-36.87644459675636,100 175.04029537933513,-36.87644933575857,100 175.04033066858176,-36.87647236897107,100 175.04034112266015,-36.87647824255318,100 175.04038044158142,-36.876496042088064,100 175.04040540540393,-36.87650458666267,100 175.0404460700012,-36.87651996019533,100 175.04047855570866,-36.87654050525739,100 175.04050478773257,-36.876567657005154,100 175.04051174745422,-36.87657935891574,100 175.04052946631685,-36.87661269559836,100 175.04055246441357,-36.87663623819629,100 175.04056817981152,-36.87665655665432,100 175.04057983478455,-36.8766787177153,100 175.04057840594942,-36.87670499623704,100 175.0405780944259,-36.876707960557255,100 175.04057487882326,-36.8767440759186,100 175.04057708606427,-36.87677178904186,100 175.04059469824546,-36.87679791083348,100 175.04059876605908,-36.87680283686634,100 175.04062737324898,-36.8768308734201,100 175.04063929485514,-36.8768420169052,100 175.04067006877708,-36.876868464189066,100 175.04069436428978,-36.87688784840263,100 175.0407273840674,-36.87691251758122,100 175.0407359906674,-36.876919030340495,100 175.04076953332617,-36.876943195710574,100 175.0407834982774,-36.876951528072986,100 175.040818938137,-36.876973798749944,100 175.04082180481268,-36.876976083869835,100 175.0408502258199,-36.877004201077504,100 175.04087144680676,-36.87703140097181,100 175.04087208423417,-36.877032504028016,100 175.04088556904387,-36.8770670517344,100 175.04088720349137,-36.87707092358081,100 175.04090152844077,-36.87710525405883,100 175.04091290178212,-36.8771390818458,100 175.04092743048912,-36.8771714566031,100 175.04093161648592,-36.87718107366363,100 175.04094573753594,-36.8772154554072,100 175.0409481522889,-36.877221835684594,100 175.0409608489087,-36.87725656816913,100 175.04096457734343,-36.87726707636369,100 175.04097915850568,-36.87730129337114,100 175.04097934179293,-36.8773016462357,100 175.04100047790735,-36.877333618144185,100 175.04100167269021,-36.877334881068094,100 175.0410312794776,-36.87736218741504,100 175.04105437579076,-36.877390837691294,100 175.04107105125254,-36.8774162337299,100 175.0410781872933,-36.87743990454445,100 175.04108669932674,-36.877465112768355,100 175.0410990015777,-36.87749994574666,100 175.04110973629915,-36.87753439015723,100 175.04112085234237,-36.87756946162863,100 175.04112186577674,-36.87757280426272,100 175.041132783441,-36.87760821983268,100 175.04114555264397,-36.87764306010367,100 175.04116230433507,-36.87767641510039,100 175.0411819023356,-36.87770366084533,100 175.04120784641415,-36.87773337255779,100 175.0412349863055,-36.87776261486903,100 175.0412465037206,-36.877784778219734,100 175.04124714156782,-36.87778589658854,100 175.04126965700672,-36.877817161556834,100 175.04127285016344,-36.87782176280395,100 175.04129191675023,-36.87785445520405,100 175.04129401783737,-36.877858364991674,100 175.04131060104598,-36.877890654819424,100 175.0413244458021,-36.87791856631829,100 175.04135727996305,-36.8779427283629,100 175.0413951614491,-36.87796216557258,100 175.0413996032388,-36.877963941414436,100 175.04144144656814,-36.87797703026792,100 175.04145593729785,-36.87798141933627,100 175.0414964203756,-36.877997058791266,100 175.04150457261696,-36.8780004049208,100 175.04154449706434,-36.87801701564647,100 175.04155777455017,-36.87802189242605,100 175.041596110827,-36.87803266296489,100 175.0416001900174,-36.87803384025847,100 175.04160547358026,-36.8780354601215,100 175.0416459296707,-36.87805134784587,100 175.04165641109944,-36.87805575081612,100 175.0416950781534,-36.878071315961364,100 175.04172874865546,-36.87808327344361,100 175.04175060837719,-36.87809559254286,100 175.04175384642866,-36.87811417937782,100 175.041757526041,-36.87815027358577,100 175.0417576413607,-36.87815064384061,100 175.04177138377352,-36.87818452004308,100 175.0417775528692,-36.87820283477942,100 175.041782258872,-36.87821722696879,100 175.04179137396488,-36.87825242919931,100 175.04179151515095,-36.878253138799586,100 175.04179573857058,-36.878288882967034,100 175.04179666259438,-36.87829805043026,100 175.0418017127239,-36.87833374703969,100 175.04180185956616,-36.878334626888424,100 175.0418083593932,-36.8783702039435,100 175.04181018370812,-36.87837884309259,100 175.04181590123133,-36.87840421285191,100 175.04182477498333,-36.87843945077206,100 175.04182516523136,-36.87844155040237,100 175.0418276652509,-36.87847631923999,100 175.04182836800535,-36.878512269027766,100 175.04182834462395,-36.878513244636174,100 175.0418277024098,-36.878546927338256,100 175.04181945254467,-36.87858225498554,100 175.04181846255977,-36.87858565007359,100 175.04180877160596,-36.878620788881555,100 175.04180646770905,-36.878631255619645,100 175.04180141250325,-36.87866711059527,100 175.04180223526552,-36.87870305922096,100 175.04180245736154,-36.87870474263698,100 175.04180966233903,-36.8787402138343,100 175.04181080669153,-36.87874387867903,100 175.0418237184568,-36.87877828108631,100 175.04182635313163,-36.87878448901957,100 175.04184014024793,-36.87881868980987,100 175.04185304190722,-36.87884976298521,100 175.04186725676507,-36.87888384736221,100 175.04186816755401,-36.87888602997739,100 175.0418822807859,-36.87892013142113,100 175.0418846167513,-36.878925570270695,100 175.04189797972063,-36.87895530158706,100 175.04191402945477,-36.87898885690044,100 175.04191492427262,-36.87899048188513,100 175.04193234257843,-36.8790188068621,100 175.041933127029,-36.87903979276289,100 175.04193570605418,-36.87906480366557,100 175.04195582464592,-36.87909564822328,100 175.041975528163,-36.879119964587204,100 175.04199473135563,-36.879150811353455,100 175.04200407541012,-36.87917547793601,100 175.04200709816092,-36.879197939543275,100 175.04203138915375,-36.8792995013504,100 175.04204746479635,-36.87933276057057,100 175.04206517644312,-36.87936640716397,100 175.04208373806668,-36.87939957317085,100 175.04209694158115,-36.87941846817084,100 175.04212431316668,-36.879447316914344,100 175.0421405834634,-36.87946353640623,100 175.04216103152115,-36.87948551458326,100 175.04218240387627,-36.87951371926855,100 175.04221287140803,-36.87953791092783,100 175.0422442468637,-36.879564176182754,100 175.04225243021787,-36.879572725827096,100 175.04227422937373,-36.87960313584795,100 175.04229964905184,-36.87963316816429,100 175.04232792401905,-36.87966159844564,100 175.04233923782834,-36.879672010426034,100 175.04237042026983,-36.87969818613032,100 175.0424032960566,-36.87972315291068,100 175.0424364092495,-36.87974797589825,100 175.0424611468859,-36.879767690109254,100 175.04249082919736,-36.879795164208375,100 175.04250389407315,-36.879805774994566,100 175.04253905836666,-36.8798286239899,100 175.0425412242402,-36.879829991875106,100 175.0425749582816,-36.879854153408935,100 175.04259490058288,-36.879868846886694,100 175.04262899066,-36.87989276884598,100 175.04264177284537,-36.87990257961671,100 175.04267118353314,-36.879930213362776,100 175.04268359864272,-36.87994106873799,100 175.04271780586708,-36.87996487959903,100 175.0427277315716,-36.87997039341334,100 175.04276755656434,-36.87998768589668,100 175.04277325801965,-36.87999058287077,100 175.04280695784817,-36.88001476024656,100 175.04281101336122,-36.88001807578624,100 175.04282066278358,-36.880025978281026,100 175.04282739772447,-36.88003347123222,100 175.04286074362753,-36.88005796472555,100 175.04286243726398,-36.880059125315206,100 175.0428883458791,-36.880079282563855,100 175.0429051803698,-36.88009468557965,100 175.04292702871587,-36.880104233147804,100 175.04295798542697,-36.8801214608661,100 175.04298437947355,-36.88013869764577,100 175.04300713120386,-36.88015372578667,100 175.04302941111393,-36.880170962109794,100 175.04305400633774,-36.88018637403495,100 175.04308586016447,-36.880201772874926,100 175.04311181213163,-36.88021277572968,100 175.04313001875983,-36.88022779729656,100 175.04316368492437,-36.880247251435705,100 175.0431978085741,-36.880269978426334,100 175.04323384643797,-36.88029191178492,100 175.04323513098913,-36.88029270897142,100 175.04326969209194,-36.880316188211744,100 175.04327426046075,-36.88031874953885,100 175.0433038559595,-36.88033196095382,100 175.0433261597951,-36.88034407111773,100 175.04334846201664,-36.88035435256855,100 175.04336803682583,-36.88037010675321,100 175.04339350651804,-36.88039357109472,100 175.0434244313767,-36.88041738232643,100 175.04346300866908,-36.88043634000299,100 175.04346402479308,-36.88043683175747,100 175.04350098438528,-36.880457772167915,100 175.0435077376131,-36.88046178034055,100 175.04354351217427,-36.88048418320207,100 175.0435550723434,-36.88049002123541,100 175.0435969971324,-36.88050344859016,100 175.04360880653553,-36.88050655680118,100 175.04364798268023,-36.88051758890271,100 175.04369059501968,-36.880529702919105,100 175.04369169461435,-36.88053008507964,100 175.04372358920023,-36.880543299194436,100 175.04375271272522,-36.88055576062211,100 175.04377685811832,-36.88056640955475,100 175.0437883438361,-36.88057681843345,100 175.0438136848963,-36.88059288342444,100 175.04383187661804,-36.8806080105882,100 175.04433753970022,-36.879917035711266,100 175.04442162380838,-36.87995135218696,100 175.04395465861631,-36.88066952342897,100 175.0439828295149,-36.8806818939355,100 175.04400570757232,-36.880700636663484,100 175.0440175865365,-36.880712663795144,100 175.04403652528896,-36.88071902916008,100 175.04406949375817,-36.88073885105339,100 175.04409193971804,-36.88075758677857,100 175.04411395130182,-36.88076680594475,100 175.0441518079507,-36.880780604137314,100 175.04419363734016,-36.88078661522599,100 175.04422136432623,-36.880792643660534,100 175.04422327788606,-36.880793088419146,100 175.0442649459244,-36.88080360875532,100 175.04427050476326,-36.880805192212954,100 175.04431160809844,-36.88081708681763,100 175.0443475509926,-36.88082395173997,100 175.04438951384657,-36.880833367373135,100 175.04441900950877,-36.880844335085555,100 175.04444585063925,-36.88085319887819,100 175.0444700469103,-36.88086911398356,100 175.04449735004658,-36.88088255382043,100 175.04451400793272,-36.88089013816468,100 175.04455324294457,-36.880905552868285,100 175.04458888429636,-36.88091688433746,100 175.04459523889068,-36.880919614055244,100 175.04463290125844,-36.880937395572836,100 175.04467206148718,-36.88094907924381,100 175.04468160238682,-36.880951471104396,100 175.04472359101914,-36.880961134031274,100 175.04476408896025,-36.88097245125048,100 175.04479753940998,-36.88098273880982,100 175.04482525836082,-36.88099085915502,100 175.0448381637337,-36.88099479739966,100 175.04487851519252,-36.881008192792635,100 175.04490890269676,-36.8810195298834,100 175.0449344340834,-36.881022022294594,100 175.04497625789818,-36.881024873245906,100 175.04500266377087,-36.88102948666677,100 175.04503658848543,-36.88103408240125,100 175.0450638728869,-36.881037982177155,100 175.0450920379592,-36.88104364594937,100 175.04509513981193,-36.88104451637899,100 175.0451360618565,-36.88105675540764,100 175.04516995955456,-36.881059244331624,100 175.04519637567185,-36.88106243257887,100 175.04522367806464,-36.88106280071836,100 175.04524349149276,-36.881067754716085,100 175.04526727390137,-36.881071302846415,100 175.0452971993809,-36.88107272088396,100 175.04532449734288,-36.88107237614895,100 175.04535224872131,-36.881072751850205,100 175.045378215842,-36.88107593156437,100 175.0454050898354,-36.88107878741334,100 175.0454354536394,-36.88108338756571,100 175.04546406769006,-36.88109258922828,100 175.04548871282026,-36.88110319855696,100 175.04552040124943,-36.88110816163398,100 175.04554991512,-36.88111206526754,100 175.04557631371767,-36.881118800342875,100 175.0456089007958,-36.88112199579595,100 175.04565204885864,-36.88112519323629,100 175.0456740683515,-36.881126961835136,100 175.0457044461306,-36.88112909932875,100 175.0457282146373,-36.88113334430962,100 175.04576609084486,-36.88113654867666,100 175.04578434347692,-36.88113893011686,100 175.0458268266773,-36.88114718892159,100 175.0458616102183,-36.88115638337694,100 175.04589374476296,-36.88116242203162,100 175.0459276381085,-36.881171261365274,100 175.04595185228064,-36.88117656576311,100 175.04597650523567,-36.88118859980785,100 175.04598384253225,-36.88119010298137,100 175.04602756776242,-36.881193568844814,100 175.0460416677425,-36.88119816596053,100 175.04606719589847,-36.88120171089935,100 175.04608875227765,-36.881207733416694,100 175.04611606530733,-36.881206690634095,100 175.04613148546377,-36.88120917218327,100 175.04614951963146,-36.88121236309111,100 175.0461785948048,-36.88120600742837,100 175.0462063355722,-36.88120955658523,100 175.0462177699679,-36.88121344520878,100 175.04623450811786,-36.88121839523126,100 175.04627323033793,-36.88122336492754,100 175.04629657776715,-36.88122797306022,100 175.04630582078752,-36.881229037800615,100 175.04631901482526,-36.881232227338266,100 175.04634985697362,-36.88123364373895,100 175.04637669802545,-36.88124072612426,100 175.0463898913999,-36.88125099356512,100 175.0463960719174,-36.88125665540513,100 175.04640837749483,-36.88126018560722,100 175.04643390970807,-36.881262662357585,100 175.04647442303553,-36.88126621944033,100 175.0464827813505,-36.88126835392799,100 175.0465026033194,-36.88126942026455,100 175.04650296592857,-36.88126942843829,100 175.04654662556217,-36.88126942614046,100 175.04656733152984,-36.881269438038785,100 175.0465752481695,-36.881269443149854,100 175.04659243819611,-36.881271566073465,100 175.04663294133692,-36.88127654823081,100 175.0466492159056,-36.88128043814225,100 175.04665801329432,-36.88128397378254,100 175.04666507448158,-36.88128786740868,100 175.04668092311522,-36.88129139422052,100 175.04671613824556,-36.88129460177071,100 175.04673682696898,-36.88129283297009,100 175.04674608833417,-36.8812921470377,100 175.04675444294793,-36.88129355422173,100 175.04677248051922,-36.881302753934435,100 175.04677781641763,-36.881305565078364,100 175.0468138459057,-36.881325405555785,100 175.04683372471766,-36.88133553341628,100 175.04688194084136,-36.88134478272687,100 175.04692144384987,-36.881348652691116,100 175.0470201056182,-36.8813653922214,100 175.04711230394906,-36.88137327062636,100 175.04717383253237,-36.88137379656154,100 175.0472707346291,-36.88136224289691,100 175.04727202251368,-36.88136198636316,100</coordinates></LinearRing></outerBoundaryIs>
    </Polygon>
  </Placemark>

  <Placemark>
    <name>Maraetai</name>
    <Point>
      <altitudeMode>relativeToGround</altitudeMode>
      <coordinates>175.03802626394886,-36.88771952962376,100</coordinates>
    </Point>
  </Placemark>

</Document>
</kml>