<?xml version="1.0" encoding="utf-8"?>
<kml xmlns="http://www.opengis.net/kml/2.2">
<Document>
  <name>Meadowbank (polygon: official_shp)</name>
  <open>1</open>

  <Placemark>
    <name>Meadowbank (polygon: official_shp)</name>
    <Style>
      <LineStyle><color>ffff0000</color><width>2</width></LineStyle>
      <PolyStyle><color>66ff0000</color><fill>1</fill><outline>1</outline></PolyStyle>
    </Style>
    <Polygon>
      <tessellate>1</tessellate>
      <altitudeMode>relativeToGround</altitudeMode>
      <outerBoundaryIs><LinearRing><coordinates>174.83228230431976,-36.86533616560913,100 174.83515899251807,-36.865769006410915,100 174.83782799543079,-36.8667309981398,100 174.8401980037038,-36.867868991571605,100 174.84079799394473,-36.86815099427788,100 174.84093400571865,-36.86796400042773,100 174.84393499234514,-36.8691250049704,100 174.84369799625182,-36.869525997631584,100 174.8435090043633,-36.869845000826786,100 174.84295499763093,-36.869629004625224,100 174.8429440063858,-36.869780004751426,100 174.84291499262108,-36.87018300724281,100 174.84297900830367,-36.870334998970854,100 174.84306099637206,-36.870530000082404,100 174.84310000556977,-36.87062400314358,100 174.84313199649932,-36.870699000541066,100 174.84319300175974,-36.87084500442241,100 174.84325100406613,-36.870981998282666,100 174.8432730000396,-36.87103399821309,100 174.84339500047116,-36.87111400391344,100 174.84360600845105,-36.87125300671479,100 174.8437760006059,-36.87136500634023,100 174.84381800178318,-36.871391992935784,100 174.8440299951037,-36.871530993187335,100 174.84417909097274,-36.871629102557925,100 174.8440914688557,-36.87186303293507,100 174.84400900539825,-36.87187999600462,100 174.84387699331492,-36.872023003940186,100 174.84363300670984,-36.87186299324901,100 174.8435030080556,-36.87198100177356,100 174.84337099562066,-36.87210000492545,100 174.84322100854655,-36.87199300502708,100 174.84305900523816,-36.87187800274735,100 174.84293599742438,-36.871790006727814,100 174.84275099794982,-36.87189000092663,100 174.84239999375785,-36.87207900683988,100 174.8423579952194,-36.87190100713406,100 174.8422380059759,-36.87139600430541,100 174.84218599238426,-36.871174007203464,100 174.8421400040652,-36.870983003552524,100 174.8421020013895,-36.87082400040105,100 174.84203499196573,-36.87076100065931,100 174.84193099820905,-36.87066400640317,100 174.84167600807498,-36.87062499368682,100 174.84169500245923,-36.87044599594481,100 174.8415939993025,-36.87044800410197,100 174.8414960025269,-36.87045000703773,100 174.84149299495667,-36.87047799672082,100 174.84112399508504,-36.870463995151056,100 174.84109599618336,-36.870528993178986,100 174.84106900720352,-36.87078000309317,100 174.84104700631966,-36.87097799241128,100 174.84084499629552,-36.87109399440176,100 174.84071700773623,-36.87116799734056,100 174.84046799890274,-36.87131100604648,100 174.84027499668136,-36.87148399932195,100 174.84016599939028,-36.8715880003556,100 174.84003500784303,-36.871715004091904,100 174.8397719979524,-36.872005996940054,100 174.83980099315613,-36.87211999537092,100 174.83956099313625,-36.87223599402499,100 174.83940900624754,-36.87218900470698,100 174.8395669944767,-36.87190100158483,100 174.8393150052857,-36.871826003099855,100 174.83900700747657,-36.87173399671598,100 174.8388139916089,-36.87167700686845,100 174.83862199535776,-36.87161999912157,100 174.83842899647289,-36.871562992153265,100 174.8383170078461,-36.87152999937478,100 174.83824299553294,-36.871701000431464,100 174.8381349914072,-36.87195099364873,100 174.8380319943042,-36.87219100457562,100 174.83788400024483,-36.872532992290814,100 174.83786900625788,-36.872512992049394,100 174.83779300711694,-36.87240800434251,100 174.83753100625097,-36.872464005928045,100 174.8374600073826,-36.87247999398553,100 174.83739900332856,-36.87249299184174,100 174.8372730030725,-36.87248300314778,100 174.83706299422022,-36.872465001657176,100 174.837033997703,-36.87268700719925,100 174.83700599909773,-36.872903000741154,100 174.8368770070412,-36.87289300110984,100 174.8367190077643,-36.87287999587445,100 174.83657300160579,-36.8728670024282,100 174.83627199328728,-36.87306399473841,100 174.8362969909651,-36.873130998232895,100 174.83586700002516,-36.873094992349394,100 174.83581074614588,-36.872991617180425,100 174.83604200140869,-36.87261400094715,100 174.8360720070477,-36.8723829964431,100 174.83596999304845,-36.87237499716664,100 174.83574300617795,-36.87235599833608,100 174.83573499697124,-36.87235500443581,100 174.83551800727486,-36.87233699629875,100 174.83529999828963,-36.87231900441041,100 174.8352940018038,-36.87231899879518,100 174.83509000084877,-36.872302006930084,100 174.83488599848144,-36.872284999412386,100 174.83486500107077,-36.87228300276304,100 174.8347149971576,-36.87227100523645,100 174.83468199765616,-36.872268005940434,100 174.83458300831668,-36.87226000022202,100 174.83447799544027,-36.87225099771689,100 174.83445100156436,-36.87224899533691,100 174.83427399478788,-36.87223400444007,100 174.83406999274496,-36.87221699641166,100 174.83405000775392,-36.87221600429666,100 174.83386600132158,-36.8722009919514,100 174.8336940051163,-36.872186006670916,100 174.83366199977212,-36.87218399763321,100 174.833581994138,-36.87217699871139,100 174.8334700014909,-36.87216800568557,100 174.83345799941975,-36.8721670029448,100 174.83336699352162,-36.8721589991959,100 174.83325399877688,-36.87214999258645,100 174.8332460053172,-36.87214899827458,100 174.83304999743294,-36.872132996308494,100 174.83304200512006,-36.87213200286645,100 174.83300599218774,-36.87241399762646,100 174.8326614642743,-36.872385304371306,100 174.83262800435847,-36.8727110066979,100 174.8323701430201,-36.872653020937626,100 174.83237032365486,-36.872652645901574,100 174.8322107809937,-36.87264200011351,100 174.8321387619207,-36.87266455342083,100 174.83209046353645,-36.87267968527604,100 174.83207499595377,-36.87262599258065,100 174.8320599973439,-36.87257300470335,100 174.83204500572728,-36.8725189937036,100 174.83198799560498,-36.87231999785928,100 174.83195400010703,-36.8723310000353,100 174.83193099423778,-36.87233800479483,100 174.8318419936708,-36.87236600422067,100 174.83167000468438,-36.87241999485496,100 174.8315049963282,-36.87247199204597,100 174.83154799655773,-36.872062994088196,100 174.83159199587988,-36.87164999860651,100 174.83161100571365,-36.87146999609265,100 174.83163299478534,-36.87126799659299,100 174.8316679947772,-36.870937003302586,100 174.83168600704496,-36.870767007411295,100 174.831711003906,-36.87053299214722,100 174.8316420057564,-36.87053700141874,100 174.83109300192214,-36.87057099400865,100 174.83102499658565,-36.870575992607215,100 174.8310409922779,-36.87074799706353,100 174.83105599526692,-36.870902006384064,100 174.83107099684216,-36.871056000397516,100 174.83108400392322,-36.87119200119697,100 174.8310849967063,-36.87120999542153,100 174.83110000840622,-36.871362997800915,100 174.83111499337767,-36.8715169920518,100 174.83112999563127,-36.8716710022541,100 174.83113799650502,-36.87176200635673,100 174.83113600080276,-36.87178000517705,100 174.83112899342717,-36.87183600119482,100 174.83110799692918,-36.872002997382914,100 174.83107699809136,-36.87224800210587,100 174.83104299535927,-36.87252000384728,100 174.8310340072622,-36.8725920010885,100 174.83100700032853,-36.87259800556349,100 174.83075000817496,-36.87265799538778,100 174.83065199977102,-36.872679998264104,100 174.83044400254556,-36.87272899425772,100 174.8302710037217,-36.87276899984791,100 174.8301720023123,-36.87279199557392,100 174.83007999861502,-36.87281299784143,100 174.8299749931625,-36.872836994430635,100 174.8299149997361,-36.87285099320042,100 174.82988999618345,-36.87285699360682,100 174.82981099630337,-36.872875002153734,100 174.8296999938874,-36.87290100439095,100 174.82965400579127,-36.872911993211765,100 174.82950898126506,-36.872945373838675,100 174.82948601657824,-36.87295068929863,100 174.8293185504671,-36.872989499676514,100 174.82939656501577,-36.87320675440936,100 174.82919677646365,-36.87325193719714,100 174.82925799141404,-36.873375998708,100 174.8290800050852,-36.87341700143746,100 174.82908299787312,-36.873423006008,100 174.82908399384996,-36.8734300039429,100 174.82908499836688,-36.873435995859246,100 174.82908399964202,-36.87344200599727,100 174.829082006697,-36.8734489940646,100 174.82908000505725,-36.87345500612267,100 174.82907600571966,-36.87345999888321,100 174.82907199900595,-36.873465999446914,100 174.82906699897399,-36.87347099319166,100 174.82906100378906,-36.87347499727086,100 174.8290539974284,-36.87347799841107,100 174.8290469910027,-36.87348099684788,100 174.82903999348218,-36.873483004582766,100 174.828875994414,-36.87352099754655,100 174.82865899631113,-36.873346001845945,100 174.82848899354713,-36.873207993330816,100 174.82834299558476,-36.87309099566829,100 174.828328007449,-36.873079000642456,100 174.8282980037442,-36.87312999827865,100 174.82819099314852,-36.87331600354873,100 174.82818599298113,-36.873324993768044,100 174.8281149938817,-36.87344599233886,100 174.8280430015525,-36.87356999677164,100 174.82800299799837,-36.87355500390104,100 174.82764600823432,-36.87342200268073,100 174.82763100737066,-36.87358600018204,100 174.82761899842492,-36.87371200464723,100 174.82759200640118,-36.87400200632374,100 174.8278599956544,-36.874102001047554,100 174.82780672695947,-36.87419396242414,100 174.82780041465125,-36.87420485930305,100 174.82776499975998,-36.87426599622128,100 174.82776476194883,-36.87426613868504,100 174.827764628118,-36.87426621915984,100 174.82763820023942,-36.87444529937398,100 174.82750731734143,-36.87463066627673,100 174.82729538380016,-36.87454806603305,100 174.82726044797502,-36.87456906540485,100 174.82725400650364,-36.87457299243425,100 174.8272289264872,-36.8745884817921,100 174.82721999635353,-36.874593997386796,100 174.82711899476018,-36.87465400664398,100 174.82740200703685,-36.87497000641849,100 174.82742800148336,-36.874999005350496,100 174.82722800072477,-36.87511900595751,100 174.82718706115315,-36.875143953546356,100 174.82702273746753,-36.87524262669326,100 174.827097732677,-36.87532306110233,100 174.82717835206716,-36.875409611934614,100 174.827194721037,-36.87542718764283,100 174.82721055574856,-36.87544418840329,100 174.8273724332864,-36.87561798306168,100 174.82724395029047,-36.875690983302654,100 174.82723686696735,-36.87569453263037,100 174.82722931670259,-36.87569736627058,100 174.82722140002355,-36.87569946555179,100 174.82721323400105,-36.875700799830746,100 174.8272049165117,-36.87570133335143,100 174.82719658370826,-36.875701082947835,100 174.82718835004863,-36.87570004956363,100 174.8271803172247,-36.87569821631219,100 174.8271726169626,-36.87569564966895,100 174.827165350627,-36.8756923661017,100 174.827158617034,-36.87568841636807,100 174.82715251719952,-36.875683849389205,100 174.8271471331169,-36.8756787161815,100 174.82714687187757,-36.87567886441234,100 174.82714699279114,-36.87567899504866,100 174.82700018211057,-36.875761986948426,100 174.82696300336914,-36.875783003602734,100 174.8269624719751,-36.87578297301706,100 174.82684700017106,-36.8756589830246,100 174.82678638397724,-36.8756954167723,100 174.82667844997448,-36.875760299407894,100 174.8266694832741,-36.875765700153984,100 174.8266115766587,-36.87570352423045,100 174.82657684637442,-36.875665736238645,100 174.82654400731346,-36.87563000574496,100 174.826509002089,-36.87565000458702,100 174.82640999350295,-36.875707006414345,100 174.826364007948,-36.87573199434145,100 174.82637300687406,-36.87574099371325,100 174.82614600135298,-36.875864007104425,100 174.82621800698996,-36.87599699244189,100 174.82613199683811,-36.87604299356837,100 174.82604700639723,-36.87608899428311,100 174.8259619978659,-36.876134993413245,100 174.82587700719674,-36.876180993110246,100 174.82581200794408,-36.87621700430591,100 174.8258070015508,-36.87625199706592,100 174.82579499228183,-36.87638599255624,100 174.82556400223265,-36.876450995936395,100 174.8251140080099,-36.876425000251835,100 174.825112993864,-36.87643900271146,100 174.8250839928907,-36.87645600390573,100 174.8250469922405,-36.876476997402875,100 174.8250130060294,-36.87649699457807,100 174.82494300561103,-36.87653799980003,100 174.82487200103841,-36.8765790068854,100 174.82477199603346,-36.876636999717206,100 174.8247039986903,-36.876315996118386,100 174.82467500651737,-36.87617500066037,100 174.82467399724064,-36.876091992598795,100 174.82467300144427,-36.87599300189639,100 174.82466000423315,-36.875946993786606,100 174.82461300105916,-36.875772992304945,100 174.82459399881512,-36.875703005415794,100 174.8245600031983,-36.87558199359001,100 174.8244730041995,-36.8754590015874,100 174.82438600558504,-36.87533799424453,100 174.8243050070827,-36.87522499858374,100 174.82429900757217,-36.87521700034312,100 174.82426299935483,-36.87516599430239,100 174.82401399140716,-36.87503200010823,100 174.8240059965743,-36.87502699426593,100 174.82370400682615,-36.87513100220374,100 174.82347099443328,-36.875210995572075,100 174.8233410016192,-36.874948005040366,100 174.8232049927991,-36.87467500272148,100 174.82297799439334,-36.87475300461924,100 174.82244600707244,-36.87493600685754,100 174.8223260027833,-36.87471100455786,100 174.82229499739947,-36.874653005231224,100 174.822089006254,-36.874265005746906,100 174.82224600527243,-36.87421100461682,100 174.8224030040625,-36.874157003284765,100 174.82253000540595,-36.87411300433133,100 174.82263500801207,-36.874309006352966,100 174.8231219946746,-36.87418800164198,100 174.82305499922353,-36.874080993167986,100 174.82323399358668,-36.874018998208854,100 174.82316700111068,-36.87389300316442,100 174.82315900197264,-36.873877993430156,100 174.82309799328777,-36.873764006917106,100 174.82309500094777,-36.87375800218362,100 174.82308800660905,-36.87374500322273,100 174.8230839945279,-36.87373900061661,100 174.82301799539437,-36.87361399522094,100 174.82296299839274,-36.87347099259726,100 174.82287900814035,-36.87331299674931,100 174.82280400031453,-36.87317200638515,100 174.82279399696893,-36.87315300291824,100 174.82266499152874,-36.873197005844716,100 174.8226240054922,-36.87321100408796,100 174.82245400702317,-36.87326999659088,100 174.82239499926283,-36.87328999917013,100 174.82224999946888,-36.873282995359794,100 174.82218099466317,-36.87308099408642,100 174.82210099666682,-36.87284800315795,100 174.82206999552085,-36.87285199740327,100 174.82197899830865,-36.87286399439152,100 174.82197399600997,-36.87284199473964,100 174.82196800375766,-36.87282899476175,100 174.82193200004195,-36.87275700214404,100 174.8219199940804,-36.87271900035373,100 174.82191900726562,-36.872715004551736,100 174.82190200121423,-36.87266099693847,100 174.8218889984913,-36.87263699642292,100 174.82188800237068,-36.872631994874965,100 174.8218780065184,-36.87260800503318,100 174.82187099492666,-36.87259700541712,100 174.82186500052265,-36.872579993630104,100 174.82184700161673,-36.872552003806035,100 174.82183900469985,-36.87253900661894,100 174.82183300529954,-36.87253099292043,100 174.82183300496953,-36.87252899557013,100 174.82182899951283,-36.872515992158505,100 174.82182699379206,-36.872510002005356,100 174.8218200054573,-36.87249199956816,100 174.82182200166102,-36.87246599522664,100 174.82182400421644,-36.872459998592156,100 174.8220459959661,-36.87236599322665,100 174.82239200007234,-36.87213799759444,100 174.82200800887418,-36.87200599544485,100 174.82090999267803,-36.87186800405992,100 174.8200009963902,-36.8714330009291,100 174.8198319945933,-36.871390997945305,100 174.81963600757754,-36.87139399159927,100 174.8194939990685,-36.8713519956398,100 174.8193789939027,-36.87126300415437,100 174.81934800837115,-36.87117399958695,100 174.81933799500598,-36.87079099394424,100 174.81927500356878,-36.870499002328046,100 174.8191219999396,-36.87007400170362,100 174.81905800768612,-36.86975899885652,100 174.81905600451432,-36.86970499903358,100 174.81903700042398,-36.86899300320743,100 174.81900500848408,-36.86885899495555,100 174.81858299869984,-36.867762004141504,100 174.81855099813302,-36.86762700529167,100 174.81854100569754,-36.86726699656023,100 174.8186170051738,-36.86699500023632,100 174.81860799678697,-36.86663500616093,100 174.81854799798873,-36.86647799437993,100 174.81829399582912,-36.86612699457795,100 174.81822599953423,-36.86603400063809,100 174.81818017914622,-36.86590827964455,100 174.8181909970545,-36.865764006851485,100 174.8183702506157,-36.865585289771666,100 174.81865072204826,-36.865502659437986,100 174.81910745630603,-36.86550624670134,100 174.82136162382676,-36.8660100812713,100 174.82293718958127,-36.8659078489548,100 174.82597825573447,-36.8650191827712,100 174.8281018670934,-36.864806407006554,100 174.83040459430958,-36.86484818298835,100 174.83105744643345,-36.8649218542704,100 174.83133826279922,-36.86504016092567,100 174.8313382982922,-36.86504019102396,100 174.83149320144534,-36.865105446677774,100 174.83178127159908,-36.86522681855469,100 174.83228230431976,-36.86533616560913,100</coordinates></LinearRing></outerBoundaryIs>
    </Polygon>
  </Placemark>

  <Placemark>
    <name>Meadowbank</name>
    <Point>
      <altitudeMode>relativeToGround</altitudeMode>
      <coordinates>174.8295734246531,-36.86950071495163,100</coordinates>
    </Point>
  </Placemark>

</Document>
</kml>