<?xml version="1.0" encoding="utf-8"?>
<kml xmlns="http://www.opengis.net/kml/2.2">
<Document>
  <name>Mellons Bay (polygon: official_shp)</name>
  <open>1</open>

  <Placemark>
    <name>Mellons Bay (polygon: official_shp)</name>
    <Style>
      <LineStyle><color>ffff0000</color><width>2</width></LineStyle>
      <PolyStyle><color>66ff0000</color><fill>1</fill><outline>1</outline></PolyStyle>
    </Style>
    <Polygon>
      <tessellate>1</tessellate>
      <altitudeMode>relativeToGround</altitudeMode>
      <outerBoundaryIs><LinearRing><coordinates>174.92202091100012,-36.87873284999995,100 174.92222876000005,-36.87861051699998,100 174.9223192761066,-36.87846709971532,100 174.92231934481754,-36.87846701819127,100 174.9223336091111,-36.87845345958147,100 174.92234424482228,-36.878439936251965,100 174.9223508309727,-36.878426840779994,100 174.9223521637999,-36.87842500485899,100 174.92236134447776,-36.87840571410292,100 174.92236351403798,-36.87839917057647,100 174.92236572181483,-36.87839589641428,100 174.92236890904695,-36.87838845908127,100 174.92244025000002,-36.878275422999934,100 174.92250088200012,-36.87818791799997,100 174.92264602000014,-36.87807020399998,100 174.9227905570001,-36.87810752099994,100 174.92303204000007,-36.87812917699994,100 174.92313777900006,-36.878154994999925,100 174.9232130150001,-36.87820070799995,100 174.92325841500008,-36.87822829099998,100 174.923536946,-36.87831187799998,100 174.92370074200005,-36.878375298,100 174.92386617800003,-36.87840960199998,100 174.92402914600007,-36.87844339399993,100 174.92412399900002,-36.87830718399994,100 174.92412836723142,-36.87830091099513,100 174.92412935462744,-36.87829979989087,100 174.92414941981494,-36.878274785998485,100 174.92415300460755,-36.87827188878468,100 174.92417431481684,-36.87824002273226,100 174.92419080678994,-36.87821827900559,100 174.92420413245713,-36.878197644709395,100 174.92423175025343,-36.87816323571224,100 174.92425096770853,-36.878145081945846,100 174.92426671734083,-36.878126847698795,100 174.92433106600004,-36.878093458999956,100 174.92443210300007,-36.878071874999925,100 174.92443332300002,-36.878071613999964,100 174.924531429,-36.87806635399995,100 174.92467193900006,-36.87808268799994,100 174.92491318400005,-36.87816661899996,100 174.9253219660001,-36.87886875799995,100 174.92548737300012,-36.87912632399996,100 174.9261478080001,-36.87967783599998,100 174.92632023300007,-36.879787411999985,100 174.9268896330001,-36.88009186199996,100 174.92800843700002,-36.88094979199996,100 174.92815296300012,-36.881104964999956,100 174.92826672800004,-36.88128766999995,100 174.9284853590001,-36.881519947999934,100 174.9291914370001,-36.88210043799995,100 174.9294587720001,-36.88263551399995,100 174.9299756580001,-36.88303190699997,100 174.93024238200007,-36.883178602999976,100 174.931206147,-36.88386528199993,100 174.93166287700012,-36.88415009299995,100 174.93210347000002,-36.884381907999966,100 174.93294500600007,-36.884824821999985,100 174.93404631600004,-36.88522678299994,100 174.93454088400006,-36.88540728799995,100 174.93617363400006,-36.88589180799995,100 174.93625059690996,-36.88592100828258,100 174.93625015287245,-36.885924740326935,100 174.93627064832998,-36.885928615923795,100 174.93634374700002,-36.88595634999995,100 174.93638251100003,-36.88597824599998,100 174.9364577030001,-36.886021085999964,100 174.93648638600007,-36.88604305599995,100 174.93654970514535,-36.886145960326225,100 174.93654881062977,-36.886150580577784,100 174.93654742624184,-36.88615489701193,100 174.9365411893265,-36.886189203597155,100 174.9365416220855,-36.886191721125726,100 174.93654018072834,-36.88619893441392,100 174.93653877755395,-36.886202551733696,100 174.93653853216637,-36.88622423777012,100 174.93654463704848,-36.88624052956192,100 174.93654946648343,-36.8862488844354,100 174.9365530035431,-36.8862536064463,100 174.93656313904194,-36.88627066173754,100 174.9365697838898,-36.88627901405353,100 174.93657729042818,-36.886291006252534,100 174.93658083000358,-36.88629462861713,100 174.9365825736011,-36.88629826764267,100 174.9366042806694,-36.88632371119474,100 174.93660582555012,-36.88632516957316,100 174.93661034510575,-36.886329208591434,100 174.93661559013722,-36.886335093392375,100 174.93665205523664,-36.886366653307995,100 174.93665771540586,-36.88637067192583,100 174.93666341015484,-36.88637654758998,100 174.93666718702863,-36.88637872578158,100 174.93668984834636,-36.88639557233881,100 174.9366983203232,-36.886400654630506,100 174.93670823006568,-36.88640832909672,100 174.93671339366708,-36.88641125710476,100 174.93671624790633,-36.88641382258042,100 174.93672518646744,-36.886418897262985,100 174.9367439246665,-36.88642644491139,100 174.93676312657018,-36.886435114344145,100 174.93677173853618,-36.886438282190056,100 174.9369511640001,-36.88657552699993,100 174.9371277795509,-36.88666974663369,100 174.93713070879778,-36.8866761349664,100 174.93713442757317,-36.88668182921842,100 174.93713902520147,-36.88668677997457,100 174.937145969666,-36.88669783762455,100 174.93715009732904,-36.886702084906766,100 174.9371528674807,-36.88670598388623,100 174.93716657811018,-36.886719800981076,100 174.93717612421668,-36.88672684681111,100 174.9371951650148,-36.88673841562543,100 174.9372010331935,-36.88674120593722,100 174.93720875771535,-36.88674610119027,100 174.93721550899613,-36.88674960355939,100 174.9372213639994,-36.88675129538211,100 174.93722408238804,-36.88675270216694,100 174.93725474552656,-36.88676516210708,100 174.9372619914554,-36.88676901242591,100 174.937267839019,-36.88677107570936,100 174.9372876979495,-36.88677976408311,100 174.9373200783231,-36.886789312693566,100 174.93732322852813,-36.886790712433516,100 174.93732863416506,-36.886792426902005,100 174.93733266319921,-36.886793082243656,100 174.93734397641518,-36.88679901225386,100 174.93734892332196,-36.88680037908491,100 174.93735205059664,-36.88680033889684,100 174.93735565644883,-36.886801342737904,100 174.93736638081884,-36.88680226563092,100 174.93738136803228,-36.88680502836736,100 174.9375883060221,-36.88691542271286,100 174.93759061534539,-36.88691672197514,100 174.93759150403997,-36.88691712874065,100 174.9376450220891,-36.886945678675325,100 174.93764896173764,-36.88694816801143,100 174.93765361322886,-36.88695026173191,100 174.93779112686548,-36.88702362002881,100 174.93779166326544,-36.88702403556231,100 174.93780976710278,-36.88703670564445,100 174.9378275272889,-36.88704634570161,100 174.93786902430534,-36.88706675679843,100 174.93787492619387,-36.88706888135587,100 174.93788029799143,-36.88707118927065,100 174.938165272716,-36.88722321106583,100 174.93816682533446,-36.88722475943088,100 174.93816913570845,-36.88722764559904,100 174.93819066813583,-36.887246772579346,100 174.93819344034242,-36.887250749914145,100 174.93819893650183,-36.887255065862085,100 174.9382025996271,-36.88725939819893,100 174.9382113142938,-36.88726697035739,100 174.93822781751163,-36.88728174311954,100 174.93823148346166,-36.887284279089144,100 174.93823513339817,-36.887287512937505,100 174.93824014705578,-36.88729000889016,100 174.93824289631794,-36.88729254629723,100 174.93825204639452,-36.88729901084274,100 174.93828265466536,-36.88731878106872,100 174.93829500794558,-36.887328517391715,100 174.93830550653604,-36.887334973448446,100 174.9383118844067,-36.887337460657164,100 174.93832100101272,-36.88734211319951,100 174.9383232817434,-36.887343915566646,100 174.9383292204079,-36.8873467830855,100 174.9383323474875,-36.88734850486428,100 174.9383772770001,-36.88738283699996,100 174.93864143589963,-36.88754494061507,100 174.93864159172145,-36.88754508426493,100 174.93864983409125,-36.88755119315251,100 174.93865395500006,-36.887553349440566,100 174.9386566870739,-36.88755587179581,100 174.93866124432128,-36.88755873209959,100 174.93866630015492,-36.887563426553,100 174.93867454022805,-36.887568823437746,100 174.9386804607967,-36.88757350287621,100 174.93869966804758,-36.88758608991489,100 174.93870423744406,-36.88759005142511,100 174.9387193128686,-36.88760009478711,100 174.9387325553984,-36.887607631762855,100 174.93873438636058,-36.8876094405612,100 174.93873801068688,-36.887610507149915,100 174.93874487761389,-36.88761626894049,100 174.93875494216203,-36.88762202000177,100 174.93876404943873,-36.88762630131978,100 174.93876953170016,-36.88762953318566,100 174.93877360845727,-36.88763131884848,100 174.93881421381073,-36.88765318626224,100 174.93882564240496,-36.887660740215615,100 174.93883202303115,-36.88766395561288,100 174.93883705624592,-36.88766717858126,100 174.93884206884857,-36.88766967542629,100 174.93884708567307,-36.8876729157867,100 174.93886396304762,-36.88768188960115,100 174.9388699183834,-36.88768656756101,100 174.93887972933626,-36.8876911766388,100 174.93909070100005,-36.88782067699998,100 174.9392633540001,-36.88797438599994,100 174.9393798960001,-36.88813008999994,100 174.93940981200012,-36.88819709699992,100 174.93941912438547,-36.888224200050985,100 174.9394191463608,-36.88822535023624,100 174.93942391353548,-36.88824386471572,100 174.93942580501232,-36.888247841978554,100 174.93942721659042,-36.88825258688473,100 174.93942952973904,-36.88825620034232,100 174.93943130358898,-36.88825964674508,100 174.93956372900004,-36.88864505899994,100 174.9397046272405,-36.888796235567646,100 174.93970513589198,-36.888797213448036,100 174.93970694189943,-36.888799364236,100 174.93970877796843,-36.8888026141365,100 174.9397115401838,-36.88880623557719,100 174.939713380096,-36.88881021367677,100 174.9397481127018,-36.888856439133804,100 174.9397581993236,-36.888872318715066,100 174.93976794037997,-36.888898751117864,100 174.93977031565555,-36.88891142356433,100 174.93977216496825,-36.88891577285083,100 174.93977404104174,-36.88892481484357,100 174.9397806048863,-36.888947632582855,100 174.93978243703415,-36.88895196862973,100 174.93978574113902,-36.88896573903085,100 174.93978897520512,-36.88897261912691,100 174.9397907902492,-36.88897512668635,100 174.93979908269372,-36.888993578170385,100 174.9398091646988,-36.88900803284421,100 174.93981781124606,-36.88901813057171,100 174.93982012402705,-36.8890217278031,100 174.93982835713126,-36.88903184940648,100 174.9398306355533,-36.8890354634224,100 174.93985894147315,-36.889069382698096,100 174.93986440578763,-36.889074426445454,100 174.93986577929246,-36.88907660141893,100 174.93990311826443,-36.889110839144514,100 174.93990810946627,-36.889114435895166,100 174.9399099323115,-36.8891165864048,100 174.93991175014366,-36.88911729759751,100 174.93992130184532,-36.88912449813177,100 174.93992629723598,-36.889128836594814,100 174.93995144163708,-36.88916095617978,100 174.93997665905843,-36.88920252033905,100 174.93998126189416,-36.88921262821363,100 174.93998814920468,-36.889223485625315,100 174.93999953663157,-36.889233920731826,100 174.94000362891057,-36.88923932937994,100 174.94000589848633,-36.8892407758761,100 174.94001592875975,-36.88925087892969,100 174.94002233042616,-36.88925917372285,100 174.94002690267124,-36.889263861591694,100 174.94003192380887,-36.88927036909266,100 174.94003554767397,-36.88927323106558,100 174.94004240617633,-36.88928117679831,100 174.94004922065977,-36.88928694026665,100 174.9400537967317,-36.88929235543241,100 174.94005606630998,-36.88929380192752,100 174.94005835576095,-36.889295944813846,100 174.9400619698858,-36.88929846624825,100 174.9400710403269,-36.889302035123514,100 174.94008556256023,-36.88930336982743,100 174.94009053596923,-36.88930258376993,100 174.9400987019531,-36.88930287040826,100 174.9401054776195,-36.889300983251474,100 174.9401194272509,-36.88929538988857,100 174.94013426215878,-36.88928686901729,100 174.94014960025584,-36.88928089424976,100 174.94016398253848,-36.88927346504863,100 174.9401716335685,-36.88927012058646,100 174.94017612486348,-36.88926753256122,100 174.94018515028665,-36.889264536089534,100 174.94020137116982,-36.88925673255091,100 174.94020585808497,-36.88925521265337,100 174.9402060577864,-36.88925509761203,100 174.94031201300004,-36.88923771199996,100 174.9403976556007,-36.88928715319817,100 174.94039764872994,-36.8892872806484,100 174.94039393819017,-36.88931170918977,100 174.94039274394925,-36.88935326756112,100 174.94039490326514,-36.889376196869655,100 174.94040851112405,-36.88940740700631,100 174.94040948867485,-36.88941211302197,100 174.94041140400105,-36.88941756082238,100 174.94041483118485,-36.88943574382913,100 174.94041966430527,-36.88945538743182,100 174.94042508560696,-36.88948372541592,100 174.94042697670824,-36.889489545854424,100 174.94043131676403,-36.88950699920593,100 174.94043553098336,-36.88951496197309,100 174.94044258727033,-36.88953311002982,100 174.9404546182394,-36.88954866035105,100 174.94045980561242,-36.88956173119026,100 174.940477849495,-36.88961692942893,100 174.94048031171025,-36.889629661727106,100 174.94048222581313,-36.8896369220886,100 174.94048275551742,-36.889641666965524,100 174.9404856441279,-36.88965293667568,100 174.94048617305697,-36.889657650920554,100 174.94048961819502,-36.88967583272952,100 174.94049522469018,-36.889717687394096,100 174.940495738123,-36.88978143976353,100 174.94049144878704,-36.8897975000476,100 174.9404917707432,-36.88981899022615,100 174.94049051104756,-36.88982592027822,100 174.9404881428981,-36.889848900110685,100 174.94048910487012,-36.889851793837295,100 174.940487392967,-36.889859831781095,100 174.9404875664695,-36.88987040676799,100 174.94048422227553,-36.88988936105319,100 174.94047945076392,-36.88990361757248,100 174.9404768202571,-36.889909100876366,100 174.94047131989515,-36.889935033206555,100 174.94047135652545,-36.889937587833366,100 174.94046803497264,-36.889958012692595,100 174.94046672380946,-36.88996056139641,100 174.94046347505608,-36.889987938703754,100 174.94046807487027,-36.89002030275277,100 174.9404690200194,-36.890023196754235,100 174.94047099343362,-36.89003448321736,100 174.94047241100762,-36.89003884044564,100 174.94047297425175,-36.890045397316804,100 174.94047396545335,-36.89005121803377,100 174.9404930158283,-36.89008234555461,100 174.94050131210105,-36.89009100955178,100 174.94051049811716,-36.89009931561239,100 174.9405214912226,-36.89010613472585,100 174.94052699709636,-36.89011082084115,100 174.9405371634398,-36.890124562031225,100 174.94054408776339,-36.89013177839533,100 174.94054593208034,-36.8901346865486,100 174.94055950044284,-36.89016260030065,100 174.940566610284,-36.89018330269726,100 174.9405727523467,-36.890199641419485,100 174.9405742755704,-36.890210918110164,100 174.9405905069489,-36.89026432167492,100 174.94059237007303,-36.890267928038405,100 174.9405928669843,-36.89027084558531,100 174.94059571900365,-36.890279560664005,100 174.94061120470627,-36.89032545043597,100 174.94061082278384,-36.890329112404906,100 174.94061142313376,-36.89033638070675,100 174.94061159982002,-36.89034583981383,100 174.94061317542833,-36.890357102128114,100 174.94061462737747,-36.89036144256904,100 174.94061517084882,-36.8903654454384,100 174.94061662630446,-36.89037054472834,100 174.94062155488217,-36.8903904968111,100 174.94062885839867,-36.89041627584388,100 174.9406302499197,-36.89041845141443,100 174.94063027328173,-36.89041990575343,100 174.94063318307965,-36.89043006018657,100 174.9406350622014,-36.89043296867089,100 174.9406393373609,-36.89044311341546,100 174.94065341467916,-36.89046883315298,100 174.9406534989518,-36.89047247128171,100 174.9406518483734,-36.89048084802055,100 174.94065235008267,-36.890483378824996,100 174.94065426274807,-36.890488099303184,100 174.94065770350494,-36.890501186048134,100 174.9406587251508,-36.89050807522377,100 174.94065883911284,-36.890512797148034,100 174.94065797462736,-36.890514640037765,100 174.94065815134357,-36.89052410004525,100 174.940643928511,-36.89056025518147,100 174.9406413296481,-36.89056499438765,100 174.94063960260752,-36.890569376850934,100 174.9406323138965,-36.890589470849925,100 174.94062446222065,-36.890604836740145,100 174.9406111790835,-36.89064243033933,100 174.94060993858804,-36.89064754843723,100 174.94060918256633,-36.890655181397655,100 174.9406074902263,-36.890661421802776,100 174.9406057351252,-36.89066544960634,100 174.9406032684509,-36.89067930884991,100 174.9406033761065,-36.89068440221851,100 174.9406025334931,-36.89068768505009,100 174.9406038110459,-36.890706231244245,100 174.94060528998267,-36.89071092816436,100 174.94060584939345,-36.89071675683507,100 174.9406073415822,-36.89072255314159,100 174.94060790568798,-36.890727282132595,100 174.9406200968581,-36.89077152764799,100 174.9406215157088,-36.89077407321195,100 174.94062154182473,-36.8907762566688,100 174.9406301897083,-36.8908012836716,100 174.94064367413813,-36.89081936274243,100 174.94064598870096,-36.89082116541054,100 174.94065667986018,-36.89083635093107,100 174.94066372835928,-36.89084864506257,100 174.9406646911507,-36.89085157031967,100 174.94066653241725,-36.89085373673901,100 174.9406713405189,-36.89086751137828,100 174.9406768090333,-36.89089256508472,100 174.94067825127462,-36.89089656588762,100 174.9406787920002,-36.89089983963824,100 174.94068456126135,-36.890918335878894,100 174.94068463518877,-36.89091923432225,100 174.94065928400005,-36.890946543999966,100 174.94067732949858,-36.890988854684295,100 174.94067460307446,-36.891008310895295,100 174.9406749381911,-36.891024690404286,100 174.94067409943077,-36.89102870143483,100 174.94067420668193,-36.891033778586,100 174.9406734046903,-36.891038532599715,100 174.94067289281398,-36.89108221592683,100 174.94067393523306,-36.8910880195804,100 174.94067162617137,-36.89113172055264,100 174.94066922740132,-36.89114737500569,100 174.9406689052468,-36.891153219881254,100 174.94067042547,-36.89118484828356,100 174.9406713980122,-36.891188114077686,100 174.9406705636207,-36.8911910569799,100 174.94067021444306,-36.89119649940967,100 174.9406688997793,-36.891198334332074,100 174.94066870047277,-36.89121106864589,100 174.94066924776246,-36.89121579791092,100 174.9406807863893,-36.89125026671014,100 174.94068338418774,-36.89126662096751,100 174.94068591254538,-36.89134811701084,100 174.94068738792973,-36.89135391359012,100 174.9406890770693,-36.891371740117314,100 174.94069006917158,-36.89137573385314,100 174.94069148134557,-36.89137863554389,100 174.9406915550785,-36.8913819016017,100 174.94069491229396,-36.89139385855933,100 174.94070338585428,-36.891411997857624,100 174.9407039015601,-36.891415612713224,100 174.94070528253533,-36.89141741531072,100 174.94070532425718,-36.89141888557313,100 174.94070872556546,-36.891433026594434,100 174.94070876809909,-36.891435193559126,100 174.94072105924343,-36.89146565543509,100 174.94072219165298,-36.891478379707166,100 174.94072134906034,-36.891481663440224,100 174.94072134858644,-36.89148350573329,100 174.94072128538124,-36.891527800929346,100 174.94072186783242,-36.89153507042283,100 174.94072027649779,-36.89154742639506,100 174.94072087958213,-36.89155542201029,100 174.9407254169294,-36.891581189443144,100 174.94072743060786,-36.89161750201928,100 174.94073384162826,-36.891647246079145,100 174.9407339313502,-36.89165233973978,100 174.9407364182839,-36.891664669637635,100 174.9407378519564,-36.89166899595338,100 174.94074648070426,-36.89172126456137,100 174.9407484347191,-36.891729964562515,100 174.94074860835855,-36.89173868193574,100 174.94074957622004,-36.891743047408056,100 174.94075466589706,-36.891824032009616,100 174.94075566418564,-36.89182946594272,100 174.94075954805828,-36.89189447372883,100 174.94076103944795,-36.891902097909195,100 174.9407616116666,-36.8919344403136,100 174.94076261623752,-36.891939501901334,100 174.9407632958243,-36.89195149269074,100 174.94076591889058,-36.89197181141016,100 174.94076795640692,-36.89200959543885,100 174.94077142095088,-36.89202663044298,100 174.94077334541186,-36.892032435005206,100 174.94077541883502,-36.892047311559594,100 174.9407725947253,-36.89206881257365,100 174.94077193567838,-36.89207367240944,100 174.94076949305145,-36.8920809489671,100 174.9407691889453,-36.89208369573208,100 174.94076753573768,-36.892088247338506,100 174.94076282153057,-36.89212940443842,100 174.94076334782403,-36.89213215205651,100 174.94076543669786,-36.89215317712023,100 174.94076968709808,-36.89217111231459,100 174.9407731464761,-36.892179258647246,100 174.9407735927657,-36.89217977772248,100 174.94077350717293,-36.892179809765636,100 174.94061799616284,-36.892234795308994,100 174.94005425314924,-36.89223858377575,100 174.9399545589194,-36.892338966287916,100 174.9399536709107,-36.89237042222022,100 174.93974890043233,-36.89246663506401,100 174.9396337720545,-36.89276161423801,100 174.93933850469412,-36.892531522435206,100 174.93932199707288,-36.89254394436905,100 174.93931659845938,-36.892549353868446,100 174.93931440839495,-36.89255078666174,100 174.93930649451775,-36.89255834720262,100 174.93930220514574,-36.89256014325013,100 174.93928489481684,-36.89256545610265,100 174.93920640577204,-36.892568166118124,100 174.939202100874,-36.89256753067079,100 174.93917980401667,-36.89256762158685,100 174.9391735966199,-36.89256878557588,100 174.93913120140263,-36.89256968590169,100 174.93910990703182,-36.892567265601976,100 174.93910779832638,-36.89256663665983,100 174.93910560560437,-36.892566722929786,100 174.93910310381096,-36.892565637129444,100 174.93909950470805,-36.89256491174192,100 174.93907999957634,-36.89255781234917,100 174.93907819814743,-36.8925564663523,100 174.93903790557906,-36.89253846511599,100 174.9390329008972,-36.892536294431494,100 174.93903109276727,-36.892534683557,100 174.93900520306582,-36.89253296556895,100 174.93899800140846,-36.89253630082081,100 174.93898900162597,-36.892542145840835,100 174.9389871973183,-36.89254250427407,100 174.9389842916723,-36.892544305662874,100 174.93897599135116,-36.892551052294834,100 174.93896339618667,-36.892564922717256,100 174.93895660124974,-36.892570495598974,100 174.93894939691657,-36.89257310443266,100 174.93894759762605,-36.89257428207773,100 174.93894499653962,-36.89257463819442,100 174.93894320233426,-36.89257535157979,100 174.93891949662105,-36.892576351436254,100 174.9389155054661,-36.89257707274242,100 174.93889679852373,-36.892574465958276,100 174.93889209422883,-36.892573745085144,100 174.9388882063767,-36.892571941025224,100 174.9388762983652,-36.89256888616558,100 174.9388745000215,-36.892567617628195,100 174.93886480354192,-36.89256455460891,100 174.93886259371396,-36.892562767322026,100 174.93886010674535,-36.89256222296419,100 174.93882949443034,-36.89255231877922,100 174.93882479851783,-36.89254944542896,100 174.93880429386832,-36.89254124828136,100 174.93880139733324,-36.89254088185706,100 174.93879420269195,-36.89253828543533,100 174.9387545955007,-36.89252253341006,100 174.93875210506468,-36.89252189627116,100 174.93872000829,-36.892508935596,100 174.93871789181287,-36.89250866459534,100 174.93867900626444,-36.89248967766724,100 174.93867179377824,-36.892484556948865,100 174.93867000358236,-36.89248418688532,100 174.93865809551562,-36.89247744743296,100 174.93865380241326,-36.89247537057209,100 174.9386433935041,-36.89247213439282,100 174.9386299914499,-36.892465111973145,100 174.9385993971015,-36.89244899557883,100 174.9385975991071,-36.89244836155644,100 174.93856600776198,-36.89242938443091,100 174.9385627010271,-36.89242668668699,100 174.93856089621485,-36.89242334342555,100 174.93855910191706,-36.89241354027533,100 174.93843819495197,-36.89231310617562,100 174.93825169855856,-36.89217017542609,100 174.93812170567665,-36.89215325539544,100 174.9379709059102,-36.89211231668398,100 174.93791650188328,-36.89209782066874,100 174.93771530840345,-36.89204480778861,100 174.93747230112896,-36.89193338284202,100 174.9371944030506,-36.891923032873294,100 174.93706399713304,-36.892390053844935,100 174.93692829491525,-36.89287685293807,100 174.9368080987369,-36.893032115612506,100 174.93683440152523,-36.893375912100815,100 174.93683829735363,-36.893427756154516,100 174.9368614053837,-36.89372745474062,100 174.93668639735267,-36.893721780123315,100 174.9365905967644,-36.893718635440855,100 174.93639770352442,-36.89378910569152,100 174.9362731084643,-36.893834640561906,100 174.9362666038913,-36.89383697284143,100 174.93619279639586,-36.89386389588188,100 174.9361136003681,-36.893892867068914,100 174.936071501888,-36.893908163572746,100 174.93588760881903,-36.89397531367758,100 174.93580980330265,-36.89400518855237,100 174.9357367046168,-36.89403335258737,100 174.93555019998394,-36.89410482417579,100 174.9354025918574,-36.89415774086539,100 174.9353352958315,-36.89418635900697,100 174.93525940528548,-36.89421858359576,100 174.93512540652566,-36.89426546382924,100 174.93510099669874,-36.89427410943398,100 174.93509810312773,-36.89427510656012,100 174.93501670339782,-36.89430318727598,100 174.93498399518896,-36.89420660531071,100 174.9347726090042,-36.89428968616215,100 174.93482049142142,-36.89434260109845,100 174.93484030339872,-36.89436447143504,100 174.93478959833845,-36.89438238359584,100 174.93472939488305,-36.894403704194914,100 174.93453250104562,-36.89447337585837,100 174.93441339138172,-36.89451549721486,100 174.93408650368323,-36.89454591300719,100 174.93409839519134,-36.89462682234359,100 174.93407529765025,-36.89462735977931,100 174.93407960263275,-36.894654804103624,100 174.93383920365108,-36.89467794062792,100 174.93377579386828,-36.89468406271173,100 174.93375529332957,-36.894685946730235,100 174.93374299976594,-36.89463600405035,100 174.93358640152277,-36.89464221364229,100 174.93355259200482,-36.89464356258459,100 174.93335930240357,-36.894651296609496,100 174.93332760411576,-36.8945349346074,100 174.93328300202802,-36.894526114753496,100 174.93308279420685,-36.8944869528702,100 174.93305290263675,-36.894481200442456,100 174.93299749288605,-36.894080249299236,100 174.9327922965163,-36.89407682770029,100 174.9325031924105,-36.894072149907,100 174.93216080772774,-36.89406665897704,100 174.93215040548762,-36.89406684531291,100 174.93213999212622,-36.89406783670281,100 174.93212990732624,-36.894069441950435,100 174.93211980873792,-36.89407179100613,100 174.93211009152705,-36.89407484589593,100 174.9321007055802,-36.89407862185616,100 174.93209169936924,-36.8940829495526,100 174.93208309172417,-36.894087997224865,100 174.93207520652788,-36.894093481098494,100 174.93171520191882,-36.89386209685636,100 174.9317903970146,-36.893605226806386,100 174.93180770560758,-36.89354555406632,100 174.93188830550207,-36.89327034442223,100 174.93173060600716,-36.89319933577243,100 174.93160720598777,-36.89337662668247,100 174.9315585989201,-36.893342975177156,100 174.93142430368385,-36.89325008285577,100 174.9311063946168,-36.89354195556099,100 174.93089620590183,-36.893390763726316,100 174.93097569929114,-36.89338680265728,100 174.9314548918636,-36.89294669678808,100 174.93099340347248,-36.89261342180575,100 174.9310920041458,-36.892473744582,100 174.93113119481814,-36.89241776938987,100 174.9311981985071,-36.89232309018068,100 174.9312118994046,-36.892304105650325,100 174.93124569854893,-36.892255675560286,100 174.93135049133448,-36.892107447620646,100 174.93138609878994,-36.892056864590515,100 174.93145490347626,-36.89195922577979,100 174.9315280082629,-36.89185580987842,100 174.9315685936175,-36.8917983850838,100 174.93136020246737,-36.89164827607312,100 174.93101750293025,-36.89140149572829,100 174.93094839827464,-36.891351715544644,100 174.9309137932866,-36.89138231801965,100 174.93077660281753,-36.89150481328989,100 174.9306679004084,-36.89160173923154,100 174.93063909844022,-36.891627203546506,100 174.9304771012535,-36.89151191559233,100 174.93020169956546,-36.89131635503568,100 174.93006599671742,-36.89143767614769,100 174.9300645939941,-36.89143883189358,100 174.93003680669648,-36.89141913359222,100 174.9298999949162,-36.89154161991109,100 174.92976250394878,-36.89166393324141,100 174.92962539856265,-36.89178642492159,100 174.92944499414074,-36.891658083385906,100 174.929243791056,-36.89183798495798,100 174.9290483023009,-36.89169920992577,100 174.92885499414731,-36.891872093880544,100 174.92873964857029,-36.89166109507898,100 174.92873999168637,-36.89166099577078,100 174.92853899594135,-36.891118999407,100 174.92855400728124,-36.891118003086035,100 174.92861700821277,-36.89106099857457,100 174.9286909960942,-36.89099500257059,100 174.92880500451886,-36.89089299625881,100 174.92882799375445,-36.890872995006454,100 174.928964999662,-36.890749994805006,100 174.92898600367917,-36.89073199513595,100 174.9290649971559,-36.89066200590525,100 174.9291010051559,-36.89062899359023,100 174.92920700703695,-36.89053499803386,100 174.9292390049968,-36.890506998127655,100 174.92924900632138,-36.89049799198075,100 174.9293759916486,-36.89038399777433,100 174.92930099356002,-36.89028800002294,100 174.92910311386197,-36.89003460025477,100 174.92900890002534,-36.88988820905583,100 174.92884458609288,-36.889738315217656,100 174.92848299728422,-36.88973399322793,100 174.92832300356605,-36.889633999261974,100 174.92816299837995,-36.88953299758846,100 174.92791699511804,-36.889785992599535,100 174.9278289986273,-36.889722997423924,100 174.92776499108194,-36.889678002414115,100 174.92761299471107,-36.88956900603378,100 174.92759599921544,-36.88955699689468,100 174.92747300114465,-36.88946899459133,100 174.92717699120223,-36.88925900391483,100 174.92715999696475,-36.88924699469057,100 174.9269239953124,-36.8890779959539,100 174.92682299585098,-36.8890060012881,100 174.92680900500616,-36.888997005064624,100 174.9265370014388,-36.888803001141355,100 174.92648500522395,-36.88876600086914,100 174.92594600375608,-36.888382006159176,100 174.9257740075289,-36.888259006980924,100 174.9259449960069,-36.88824799674997,100 174.9259900011614,-36.887796993697066,100 174.92599900774644,-36.887707007144336,100 174.92602099493524,-36.88764200191826,100 174.9260939996888,-36.88754799341271,100 174.92622699737132,-36.88737699411514,100 174.9264210079388,-36.88729100162765,100 174.9266240034544,-36.88713300294234,100 174.92670800000502,-36.88706899727344,100 174.9268019979828,-36.88699600092372,100 174.92680236271352,-36.88699546773749,100 174.92672020284914,-36.88693461315402,100 174.92671869698853,-36.88693389669667,100 174.92667909882417,-36.886904542250925,100 174.92645409484112,-36.88679790008388,100 174.9264061918885,-36.886797004099435,100 174.92623560466,-36.88679366669987,100 174.9262162010891,-36.886793316169395,100 174.9261981971015,-36.886774138773426,100 174.92617260449313,-36.88674687343161,100 174.92608150689597,-36.88664903899096,100 174.92594540059795,-36.88650306663537,100 174.9257859926123,-36.8863319727293,100 174.9257553923569,-36.88629920481814,100 174.92569130033206,-36.886230361144264,100 174.92563729409923,-36.88617248790323,100 174.9255033925116,-36.88602867577817,100 174.92546989839573,-36.885993124561864,100 174.9252917004018,-36.88580187643007,100 174.9252478061734,-36.88575461705562,100 174.92507776761644,-36.885858006617056,100 174.92485083706077,-36.88599609467549,100 174.92456293032112,-36.886171276984385,100 174.92446188934946,-36.88623275058527,100 174.92432550151113,-36.88609020497826,100 174.9241735040128,-36.88593128906539,100 174.92402340233562,-36.88604567383305,100 174.9238826012172,-36.886153232631386,100 174.92372349183117,-36.8862744515871,100 174.9235781022565,-36.886385515652535,100 174.92355360647733,-36.8864041495649,100 174.92354999945115,-36.88640684702983,100 174.92349170466215,-36.88645148232686,100 174.9233761078735,-36.88653923156248,100 174.92325980669438,-36.88662834316638,100 174.92320259746748,-36.886671626799064,100 174.92307119424694,-36.886560568569834,100 174.92287430086745,-36.88639379364914,100 174.92266659848806,-36.88621802603994,100 174.92251790440488,-36.886331516380075,100 174.92236920755298,-36.886444913746665,100 174.92234439845186,-36.886424045047484,100 174.92219599157025,-36.88653734467272,100 174.9222205048682,-36.88655814067597,100 174.92207179151615,-36.88667163077981,100 174.92202540796774,-36.88678340733981,100 174.9215494554265,-36.88654323164254,100 174.92129999137651,-36.88644999388829,100 174.92119299667428,-36.88645799935191,100 174.9209689963626,-36.88634100043243,100 174.9211439936342,-36.88612199300386,100 174.92099199897464,-36.88601500139137,100 174.9209040062109,-36.88595300672787,100 174.9209309935249,-36.88592000391952,100 174.92095399353218,-36.88589100434157,100 174.9211050078618,-36.885702997141344,100 174.92111199535188,-36.885695004819965,100 174.92113600448968,-36.885664997438234,100 174.92092400504592,-36.885555000423366,100 174.92079000493464,-36.88548499693353,100 174.92064399427542,-36.88541000310155,100 174.9204649923941,-36.8853169960419,100 174.9205320040499,-36.88523299413863,100 174.92055300605327,-36.88520799544011,100 174.9207259939186,-36.88499199904907,100 174.9205210020036,-36.884885996173274,100 174.92026300727437,-36.88475200577065,100 174.92022399903013,-36.88473199255369,100 174.9199569927327,-36.88459399566887,100 174.9199269965157,-36.88457800438842,100 174.91986100243273,-36.8845440070132,100 174.9198530008385,-36.88457100371447,100 174.91971900115664,-36.88504399877507,100 174.91959100040498,-36.88502099981556,100 174.91949899564707,-36.88500400500427,100 174.91961499379232,-36.88459400755661,100 174.91926600139624,-36.884529002218336,100 174.91915999221035,-36.8842540058089,100 174.91926000416788,-36.88390300491158,100 174.9184199984989,-36.8833410061225,100 174.91887300038374,-36.881751007228885,100 174.9196059938544,-36.88188600057467,100 174.92032500727584,-36.88209000304226,100 174.92037000647778,-36.881932997875786,100 174.92050300038795,-36.88146400026253,100 174.9205850064907,-36.88117300705195,100 174.91992899648648,-36.88105300375556,100 174.9197640078826,-36.88087100532956,100 174.91877999734405,-36.88069000195458,100 174.91888000713323,-36.88033900126192,100 174.91880499590923,-36.88014000658752,100 174.9189119969037,-36.879763002550845,100 174.9195679929064,-36.879882995654675,100 174.92002599265444,-36.87960899594415,100 174.9201770023111,-36.8794300022345,100 174.92070700602753,-36.87971800594531,100 174.92101599541036,-36.879657992437224,100 174.92122999708917,-36.878903002584345,100 174.92124292772814,-36.878859269703206,100 174.9212449788895,-36.87885968268366,100 174.92124998085052,-36.87885996502126,100 174.92127409815348,-36.87886399595024,100 174.9213009899571,-36.878870889655786,100 174.92132691022016,-36.87887451736781,100 174.9213355779196,-36.87887732088992,100 174.92138795822993,-36.87888784926295,100 174.92139113215129,-36.878888876807274,100 174.9213933959912,-36.878888867232334,100 174.92141073978593,-36.87889297343528,100 174.92141526667572,-36.87889292275122,100 174.92142071083606,-36.8788935692727,100 174.92142842597252,-36.8788938194373,100 174.921439784034,-36.87889330765238,100 174.9214447734143,-36.87889250589926,100 174.92145610636564,-36.878892335217266,100 174.92145972672384,-36.87889264259621,100 174.9215050656354,-36.8788891097725,100 174.92151593742904,-36.87888786315923,100 174.92153220153946,-36.878882911433614,100 174.92154161049828,-36.87887625533217,100 174.92154475054332,-36.878872931855426,100 174.92154790353413,-36.87887070687626,100 174.92155862720406,-36.87886037195834,100 174.92155952078843,-36.878858915395256,100 174.9215635422985,-36.878855576758994,100 174.92156533050573,-36.87885337655877,100 174.92157030691303,-36.878851475401895,100 174.92157524794405,-36.878848878999264,100 174.92158066654807,-36.87884734203247,100 174.92158974027427,-36.878846111878154,100 174.92159791631488,-36.8788467565645,100 174.92161070243887,-36.87885165481075,100 174.92161801858148,-36.878856263883165,100 174.92162169286252,-36.87885912562238,100 174.92163085861017,-36.87886371559137,100 174.9216336037122,-36.878865494554546,100 174.92163543798466,-36.87886620666894,100 174.92163770103332,-36.878866165556005,100 174.92164270594694,-36.87886719231819,100 174.92165177582203,-36.87886706182974,100 174.92166310080177,-36.87886473800753,100 174.92167212539084,-36.8788616816695,100 174.92167754399358,-36.87886014469833,100 174.92169877383833,-36.87885224012274,100 174.92170461950525,-36.8788492550341,100 174.92172356075866,-36.87884171555477,100 174.92173075866353,-36.878837623403285,100 174.92173390083792,-36.87883501192866,100 174.92173972603504,-36.8788312998056,100 174.92174690051857,-36.878825736179216,100 174.92175450668387,-36.87881765539778,100 174.92176027400205,-36.87880993334356,100 174.92176894263588,-36.878783992876805,100 174.92176935092084,-36.878780005149125,100 174.92176880935236,-36.87877603458962,100 174.92176935516298,-36.878771351041365,100 174.92202091100012,-36.87873284999995,100</coordinates></LinearRing></outerBoundaryIs>
    </Polygon>
  </Placemark>

  <Placemark>
    <name>Mellons Bay</name>
    <Point>
      <altitudeMode>relativeToGround</altitudeMode>
      <coordinates>174.92956815041248,-36.88647064157794,100</coordinates>
    </Point>
  </Placemark>

</Document>
</kml>