<?xml version="1.0" encoding="utf-8"?>
<kml xmlns="http://www.opengis.net/kml/2.2">
<Document>
  <name>Middlemore Hospital (polygon: official_shp)</name>
  <open>1</open>

  <Placemark>
    <name>Middlemore Hospital (polygon: official_shp)</name>
    <Style>
      <LineStyle><color>ffff0000</color><width>2</width></LineStyle>
      <PolyStyle><color>66ff0000</color><fill>1</fill><outline>1</outline></PolyStyle>
    </Style>
    <Polygon>
      <tessellate>1</tessellate>
      <altitudeMode>relativeToGround</altitudeMode>
      <outerBoundaryIs><LinearRing><coordinates>174.84815890069436,-36.95642993144726,100 174.8481684872106,-36.95643701731984,100 174.84817075454725,-36.95643705592802,100 174.84819819646353,-36.95645151485996,100 174.84822746264447,-36.956464919682304,100 174.84823335046758,-36.956466429655244,100 174.84825725572384,-36.95647540413375,100 174.8483000544834,-36.956486362969976,100 174.84830060867944,-36.95648638408465,100 174.84830740995315,-36.95648646926808,100 174.84833819733765,-36.956490789423185,100 174.84834677757448,-36.95649268559492,100 174.84836255315307,-36.95649977128594,100 174.84836570661116,-36.95650124991963,100 174.84839457617602,-36.95650953597902,100 174.848396403824,-36.95650992302886,100 174.84842258131093,-36.95651783639272,100 174.84842620029,-36.95651859483323,100 174.8484478169368,-36.95652864683296,100 174.84845407823562,-36.95653380492416,100 174.8484751137882,-36.95655257090038,100 174.8484800709553,-36.95655553656074,100 174.84849709270898,-36.95656845508901,100 174.84850060357198,-36.95657686560136,100 174.84851085398572,-36.95658824285996,100 174.84851214542053,-36.95659190733961,100 174.84852780318064,-36.95660624234395,100 174.84853188956737,-36.95660700882514,100 174.8485498113001,-36.95661994217325,100 174.84855430895865,-36.95662252922163,100 174.84857452460886,-36.95663585677346,100 174.84857899905643,-36.95663952756704,100 174.84860009076513,-36.95665392485673,100 174.84860453795127,-36.95665981241571,100 174.84861573436157,-36.95666901988093,100 174.8486238068662,-36.956675277306715,100 174.84863817361395,-36.956685267315635,100 174.84864262563997,-36.95669005428801,100 174.848656467404,-36.95670438961412,100 174.8486659102717,-36.95670884288848,100 174.8486820698829,-36.95671991719824,100 174.84868750567742,-36.95672070682387,100 174.8487043481418,-36.95671650036073,100 174.8487111737259,-36.956716196673945,100 174.84871435602852,-36.956715523402,100 174.84871680924175,-36.95671409057932,100 174.8489551410276,-36.95693813295787,100 174.84895536507867,-36.95693890561254,100 174.84895729138438,-36.95696185471882,100 174.84896169817685,-36.95696881005358,100 174.84896457608534,-36.95698852212493,100 174.8489701490915,-36.95701003090729,100 174.84897147344904,-36.957012965702084,100 174.84898209937631,-36.957028719278156,100 174.84898385822513,-36.95703239089279,100 174.84899043329872,-36.957047362126936,100 174.8489913220661,-36.9570495610199,100 174.8490059899124,-36.95706828096767,100 174.84902344895838,-36.95708264733334,100 174.8490324387588,-36.95708893640923,100 174.84904775458733,-36.95709562627816,100 174.84905321172846,-36.957094603904444,100 174.8490772084932,-36.95709592639865,100 174.8490795024194,-36.957096320595745,100 174.84910298471252,-36.957102375808695,100 174.84910841864826,-36.95710243717843,100 174.84912910603586,-36.95711464235318,100 174.84913268728675,-36.95711722923272,100 174.84914481375833,-36.957124997173985,100 174.84914976909823,-36.95712723456866,100 174.84915783345772,-36.95713315138514,100 174.84916723529403,-36.957141244780466,100 174.8491782964884,-36.95714790724892,100 174.84927326511905,-36.95723718074261,100 174.84927566257338,-36.95725702271327,100 174.84927198673228,-36.957260601426924,100 174.84926529986473,-36.9572823822995,100 174.84924651789507,-36.957294954447605,100 174.84922187008317,-36.957304886074965,100 174.849219160779,-36.95730449925274,100 174.84919771807242,-36.95731265672468,100 174.84919678030093,-36.95731446856146,100 174.8491851604889,-36.957332200038735,100 174.84918412703024,-36.957340178382495,100 174.84917850615508,-36.95735323771356,100 174.84918027286147,-36.95735653695807,100 174.84917680975772,-36.95737397282613,100 174.84917584395401,-36.95737796899345,100 174.84917423842097,-36.9573943349025,100 174.84917420028893,-36.9573961480474,100 174.84917127898544,-36.9574092383322,100 174.8491609835097,-36.95743060041724,100 174.8491627632987,-36.95743244382929,100 174.84915899286705,-36.95744223499663,100 174.84915699881864,-36.95745312514022,100 174.84916015272358,-36.95745461996866,100 174.84915744339253,-36.95745423224419,100 174.84915434899202,-36.9574789720585,100 174.84914805577222,-36.957505096553945,100 174.84914466859433,-36.957518892616626,100 174.8491353740424,-36.957533021351686,100 174.84913534374977,-36.95753446213003,100 174.84912508490564,-36.95755329995035,100 174.84910831894396,-36.957581154069324,100 174.8491074058916,-36.957582595078584,100 174.849091675278,-36.957603199088,100 174.84909025707475,-36.95760646141795,100 174.84907715833214,-36.95763107675569,100 174.84907487638003,-36.95763178198044,100 174.8490577757777,-36.95765420635639,100 174.84905082594548,-36.957662842883295,100 174.8490420772808,-36.95767149571211,100 174.84902765456025,-36.95769574770578,100 174.8490110239311,-36.9577163368814,100 174.84898518354873,-36.95774448645319,100 174.8489671955678,-36.957762867805,100 174.84894512903537,-36.957782667361506,100 174.84894419836326,-36.95778412306505,100 174.84891614329803,-36.95780967797207,100 174.84891106487095,-36.95781582023785,100 174.84889544934498,-36.95782841601984,100 174.84887705304712,-36.957845705011,100 174.8488710626538,-36.957850733028714,100 174.84885500627354,-36.957863676370046,100 174.8488517734611,-36.95786765015873,100 174.84882707193788,-36.95788015400332,100 174.8488002032696,-36.95788789387827,100 174.84878836458134,-36.95789031172503,100 174.84877425439907,-36.95789382129228,100 174.8487696972144,-36.957894860282494,100 174.8487424901774,-36.95789641065443,100 174.8487365741908,-36.957897085041104,100 174.84870971859635,-36.957903369063224,100 174.84868638517426,-36.95791588041469,100 174.8486796086682,-36.957942741578734,100 174.84868227725028,-36.95794678479377,100 174.84869015354954,-36.95796577638709,100 174.84869420146404,-36.95796838575514,100 174.84870763516497,-36.9579790725794,100 174.8487153395777,-36.95798059840014,100 174.84873243275942,-36.95798842062352,100 174.84873451051902,-36.958000821047605,100 174.84874431211097,-36.958012206172086,100 174.84874430875075,-36.958014017873936,100 174.84874899074072,-36.958032630183524,100 174.84875032187227,-36.95803519443295,100 174.84875466511212,-36.958046904315516,100 174.848759881106,-36.95806149744211,100 174.84876575931216,-36.95806265061445,100 174.84878232194404,-36.95807848840361,100 174.84878444831608,-36.958086860979904,100 174.84878660498757,-36.958093792777845,100 174.84878879310287,-36.958099284680934,100 174.84878957601651,-36.958106580375116,100 174.84878971393525,-36.958127331077485,100 174.84879236792702,-36.95813281392209,100 174.84879337477258,-36.95815503556233,100 174.84879242391565,-36.95815830412987,100 174.84877348796743,-36.95818068314178,100 174.8487689240029,-36.9581820926795,100 174.84873698872437,-36.95819451898786,100 174.84871194949486,-36.95820081888806,100 174.84868396673878,-36.95822129188475,100 174.84868078327196,-36.95822126935701,100 174.84865709009364,-36.958229404097125,100 174.84863467110574,-36.958241185551714,100 174.84863239103868,-36.95824261990517,100 174.84861086085866,-36.95825660205257,100 174.84858428623616,-36.9582734433182,100 174.84857834889175,-36.9582759296794,100 174.84856663713785,-36.95830129669354,100 174.84855625798656,-36.95832668802054,100 174.848548350225,-36.95836236636194,100 174.84854659851374,-36.958364796554434,100 174.84854477083366,-36.958366964745025,100 174.84853028497864,-36.95839340155616,100 174.84853027227794,-36.95839487360646,100 174.84852097189062,-36.958410070447044,100 174.84851820270407,-36.958413293419646,100 174.84850578391058,-36.95842447026914,100 174.84849474451238,-36.95843347238846,100 174.84848882362283,-36.958435943166656,100 174.84846418395,-36.95844553381545,100 174.84846232334607,-36.958448430782546,100 174.8484441063742,-36.958452986697935,100 174.84842075817633,-36.95846693943645,100 174.84838698828986,-36.95848190529179,100 174.8483773783504,-36.95848615862976,100 174.84835503561072,-36.95849431644753,100 174.84834774133597,-36.95849716732809,100 174.8483317909805,-36.95850173029551,100 174.84829997860788,-36.958505776822,100 174.84829761727786,-36.9585060803788,100 174.84829136630427,-36.95850785956785,100 174.8482757396694,-36.95851484924382,100 174.84826008009628,-36.95852382142923,100 174.8482463496367,-36.95853444904157,100 174.84824144215776,-36.95853921140343,100 174.8482299270397,-36.95854795681914,100 174.8482141697768,-36.958556512307986,100 174.84819699235194,-36.9585637451392,100 174.84817924423402,-36.95857032168047,100 174.84816596318447,-36.95857575339792,100 174.8481486805806,-36.958582259594685,100 174.84813123519768,-36.958588536684516,100 174.84811377223073,-36.95859478340072,100 174.84809647167646,-36.95860129077076,100 174.84807951312942,-36.958608286736144,100 174.8480645858555,-36.9586142415992,100 174.8480479401934,-36.958621961855435,100 174.84803310083507,-36.958631228591535,100 174.84802657408574,-36.95863823339636,100 174.8480171283723,-36.95865188399619,100 174.84800806773885,-36.958665714271966,100 174.84799697022072,-36.95867775198886,100 174.84798187453836,-36.95868389603631,100 174.847963776489,-36.95868970466236,100 174.84794735755258,-36.95869746644106,100 174.8479433009997,-36.95870040119061,100 174.84792981856216,-36.95870865443905,100 174.8479121886272,-36.95871580143813,100 174.84789364974083,-36.95871865969117,100 174.8478905740278,-36.9587188211366,100 174.847870830894,-36.95871674358633,100 174.84785408266552,-36.95870953507639,100 174.8478492327773,-36.95870348521399,100 174.8478429302079,-36.95868835465068,100 174.8478350326855,-36.958674380970386,100 174.84783095220527,-36.958672515667836,100 174.8478123452335,-36.95866767771039,100 174.84779495334413,-36.958661625687974,100 174.84778645632727,-36.95865244823707,100 174.84777921372321,-36.9586377360932,100 174.84777693999837,-36.958632277951274,100 174.8477731562955,-36.9586175056567,100 174.8477717957075,-36.95860215124785,100 174.84777189866296,-36.958586522589805,100 174.8477724488051,-36.95857080855621,100 174.84777274747088,-36.95856643702038,100 174.84777441581986,-36.958550473040745,100 174.84777572525917,-36.958534668773204,100 174.8477751647191,-36.958519469555924,100 174.84777115579067,-36.95850532267639,100 174.84776563982186,-36.95849764277906,100 174.847753735932,-36.95848593698054,100 174.84774002870387,-36.95847466574535,100 174.84772660663157,-36.958463110661235,100 174.8477251812351,-36.95846157086366,100 174.8477143105817,-36.9584489801074,100 174.84770420671532,-36.95843595830179,100 174.84769478582263,-36.95842261581119,100 174.84769006806582,-36.958415665270685,100 174.8476814513782,-36.95840199930652,100 174.84767334848186,-36.95838812254788,100 174.8476655700418,-36.95837410103415,100 174.8476598759821,-36.95836425623306,100 174.8476520133324,-36.95835028199627,100 174.84764437223032,-36.9583362267972,100 174.84763693771995,-36.95832212241479,100 174.84762974382107,-36.95830793587214,100 174.8476228073958,-36.958293667808135,100 174.84761722485737,-36.958284115098735,100 174.84760931956964,-36.95826986301505,100 174.8476028801084,-36.95825543128668,100 174.84759897710367,-36.95824073925662,100 174.84759797833186,-36.95823640413841,100 174.847596008188,-36.95822022369141,100 174.84759778881912,-36.958204582440075,100 174.84760468911196,-36.95819082006897,100 174.84761566274668,-36.95817997676031,100 174.84763163293775,-36.95817093763384,100 174.8476403496154,-36.95816759777509,100 174.8476586967861,-36.95816336443124,100 174.84767774225872,-36.95816000260614,100 174.84768969514295,-36.9581566835763,100 174.84770754352468,-36.958151283570935,100 174.8477252433041,-36.958145497407784,100 174.84774278031892,-36.9581394361695,100 174.84774982198675,-36.958137472550035,100 174.8477681747743,-36.95813217103981,100 174.84778570764496,-36.95812593860928,100 174.8478014599985,-36.95811783211025,100 174.8478116050507,-36.95811225276187,100 174.8478281829245,-36.958100058549206,100 174.84783237235823,-36.95808845015195,100 174.84782865075795,-36.95808447107885,100 174.847810897167,-36.9580759018971,100 174.84780469153202,-36.958072864610926,100 174.8477857654988,-36.958065739561206,100 174.84776628526726,-36.958062497000974,100 174.8477481645084,-36.95806550194535,100 174.84774276678263,-36.95806810334606,100 174.84772551797758,-36.95806935967683,100 174.84770590338888,-36.958064321969275,100 174.84768614623502,-36.95805914767446,100 174.8476678391234,-36.95806034385737,100 174.8476660256665,-36.95806110305282,100 174.8476498519641,-36.958064415670826,100 174.84763089374297,-36.95806325421917,100 174.84761128590833,-36.95805975043454,100 174.8475916009471,-36.95805663361131,100 174.84758864239546,-36.958056622875944,100 174.84756926053592,-36.95805707866389,100 174.84755003099113,-36.95805867855496,100 174.84753126993834,-36.95806167901068,100 174.84751326446147,-36.95806638741934,100 174.84749895544655,-36.95807087515684,100 174.8474818128603,-36.958078107342274,100 174.8474659942269,-36.95808700438564,100 174.84745198343063,-36.95809746592087,100 174.84744902560328,-36.958100087921615,100 174.84743768744318,-36.95811220684577,100 174.84742769272103,-36.95812540266686,100 174.84741806886868,-36.9581388874464,100 174.84741391909253,-36.95814544692852,100 174.84740471620685,-36.95815915589308,100 174.84739263783047,-36.95817076086421,100 174.8473903767928,-36.95817223996383,100 174.84738495016921,-36.9581815476066,100 174.8473892236125,-36.9581971631386,100 174.84739910094655,-36.958214013692974,100 174.8474042111523,-36.95822791090776,100 174.8474109248635,-36.95824225996465,100 174.84741863513807,-36.958256344747895,100 174.84742703135896,-36.95827018541383,100 174.84743441570194,-36.9582830521794,100 174.84744304993436,-36.95829674943554,100 174.84745241839252,-36.958310108986915,100 174.84746264120832,-36.958323036127894,100 174.84746440712146,-36.95832500326198,100 174.84747616274694,-36.95833703677407,100 174.84748860168543,-36.958348717149235,100 174.84750100582406,-36.95836039806464,100 174.84751271055688,-36.9583724630098,100 174.8475181153905,-36.958378566440786,100 174.84752871914887,-36.95839150116659,100 174.84753834732626,-36.95840487108953,100 174.84754667286802,-36.95841866687901,100 174.847553419185,-36.95843292258366,100 174.8475557598917,-36.958438318398116,100 174.8475609120378,-36.95845311266539,100 174.8475644812437,-36.9584682596493,100 174.84756648246693,-36.95848363473529,100 174.8475669613725,-36.958499036218676,100 174.84756720158936,-36.95850349220272,100 174.84756702449843,-36.95851893634355,100 174.84756528764984,-36.95853429840509,100 174.8475619550971,-36.95854948520962,100 174.8475569337161,-36.95856426837023,100 174.8475547819211,-36.958569896343356,100 174.84754796502457,-36.95858413691462,100 174.84753966510095,-36.95859798505946,100 174.8475302500139,-36.95861146569713,100 174.8475200816098,-36.958624633583895,100 174.84751842979512,-36.95862692340381,100 174.8475083960829,-36.95863994858763,100 174.84749767833435,-36.95865264642235,100 174.84748636405484,-36.9586650128419,100 174.84747452287374,-36.95867704766379,100 174.84746549212554,-36.95868682060067,100 174.84745349638416,-36.95869892001694,100 174.84744061485944,-36.95871024456405,100 174.8474265425911,-36.95872039790124,100 174.84741188803568,-36.958728160088306,100 174.8473950390311,-36.95873537056834,100 174.84737772865867,-36.95874217271839,100 174.84736074083634,-36.958749355610465,100 174.8473559885856,-36.958751527835894,100 174.84733931734507,-36.958759588188755,100 174.8473233211967,-36.95876830320633,100 174.84730849183322,-36.958777941941875,100 174.84729547744843,-36.95878883590833,100 174.8472872661983,-36.958797525312846,100 174.84727749403413,-36.958810640144506,100 174.847269094484,-36.9588245979794,100 174.84726165741472,-36.95883897256741,100 174.84726075442637,-36.958840134898864,100 174.84724943484514,-36.95885428328495,100 174.84723955972746,-36.958868715640314,100 174.8472338919865,-36.95888324656222,100 174.84723521282436,-36.9588977967192,100 174.84723615361446,-36.95889996507201,100 174.84723774321188,-36.95890769617927,100 174.84723443156963,-36.95892235718078,100 174.84722584190186,-36.95893700026904,100 174.84721550011463,-36.958951456108096,100 174.84721211896513,-36.95895766292401,100 174.84720394019453,-36.95897150916053,100 174.8471956233185,-36.958985310677015,100 174.8471880212261,-36.95899936425511,100 174.84718713579383,-36.959001206808054,100 174.8471811612018,-36.95901266089522,100 174.84717345766535,-36.95902679266299,100 174.84716638097464,-36.95904106970278,100 174.84716107732402,-36.95905565624524,100 174.84715835399516,-36.95906514984557,100 174.84715594419194,-36.959080553918795,100 174.84715709213472,-36.959095711551264,100 174.84715820724557,-36.959102537908706,100 174.84716424734538,-36.959121451820316,100 174.84717337678842,-36.95912905388451,100 174.84717714524274,-36.959126976291,100 174.8471881284637,-36.959112570862246,100 174.84719027102201,-36.95910144589952,100 174.84719277511715,-36.95908631886578,100 174.8472008371118,-36.9590752622246,100 174.8472160968738,-36.959066838992065,100 174.84722709752856,-36.95906868045111,100 174.84724569176376,-36.959075684565256,100 174.84726416115194,-36.95907733588768,100 174.84728334903778,-36.95907609270903,100 174.84728972242607,-36.95907565823688,100 174.84730901738538,-36.9590726179619,100 174.84732584621398,-36.95906591705226,100 174.84733574410348,-36.95905753939152,100 174.8473468878289,-36.95904461862563,100 174.84734969975145,-36.959041720390616,100 174.84736164541883,-36.95902968395487,100 174.84737467068675,-36.959018541949305,100 174.84738005164598,-36.95901398857041,100 174.8473950969941,-36.95900338656058,100 174.84741157365892,-36.958997125555,100 174.8474272711695,-36.95899668657041,100 174.84744623222295,-36.95900120902324,100 174.8474638901931,-36.95900943904619,100 174.84747703845235,-36.95901653959867,100 174.8474908647536,-36.95902771617366,100 174.84750059032328,-36.95904079075199,100 174.84750290485286,-36.959045846275956,100 174.84750532857944,-36.959060207112124,100 174.84750383719924,-36.95907568883199,100 174.84750000878802,-36.95909173689969,100 174.84749555729252,-36.95910779556599,100 174.8474951834226,-36.95911063603051,100 174.8474929058018,-36.959125837058494,100 174.84749017833354,-36.95914101354151,100 174.84748708679138,-36.95915613620374,100 174.84748368200198,-36.95917121687253,100 174.84748128091024,-36.9591824242783,100 174.84747777282917,-36.95919750655449,100 174.84747384673045,-36.95921248717818,100 174.84746945025995,-36.95922738408919,100 174.84746722728596,-36.959240710425505,100 174.84746431157572,-36.95925660278016,100 174.84745996110908,-36.959271916285076,100 174.84745301803866,-36.959286004688614,100 174.8474422537854,-36.959298222839465,100 174.84744001965026,-36.95930007286454,100 174.84743515695544,-36.9593046010553,100 174.8474254281489,-36.95931737362424,100 174.84741864487046,-36.959331614565656,100 174.8474138763739,-36.959346826416514,100 174.8474101598328,-36.959362532041744,100 174.84740656415164,-36.95937821956218,100 174.84740363729412,-36.95938593623154,100 174.84739828465774,-36.95940063260547,100 174.8473949438707,-36.959410322392806,100 174.8473833939052,-36.95944501000977,100 174.84737099247107,-36.959488662768656,100 174.8473661094631,-36.95950345908926,100 174.84735979467075,-36.959519054628124,100 174.8473521401313,-36.95953307658462,100 174.8473441548258,-36.95954702887875,100 174.84733711103203,-36.95956057624943,100 174.8472728913947,-36.95960158695722,100 174.84722844888202,-36.95962966781199,100 174.847183142648,-36.959657795439576,100 174.8471375863623,-36.959685615986366,100 174.84710586192034,-36.959704666876455,100 174.84709017913482,-36.95971348424484,100 174.84704282951938,-36.959739601228335,100 174.84702716394267,-36.959748387675916,100 174.8470116581429,-36.9597573257608,100 174.846996365289,-36.95976647774801,100 174.84698139125243,-36.95977590237871,100 174.84696159114938,-36.95978923540371,100 174.84694787636195,-36.959799831078605,100 174.84693455152424,-36.959810761382975,100 174.84689541295927,-36.95984440364516,100 174.84688226585962,-36.959855532172334,100 174.84686783554147,-36.95986719441438,100 174.84685483843612,-36.959879371541895,100 174.84684153788805,-36.959891215394755,100 174.84682758692597,-36.959902031948126,100 174.84681256718517,-36.95991105437971,100 174.84679762423832,-36.9599170724225,100 174.84677843976522,-36.95992302215547,100 174.84675893578816,-36.959925416649256,100 174.84674329015215,-36.95992326885874,100 174.84672740884452,-36.95991550321096,100 174.84671453939345,-36.959903210252335,100 174.84670963455113,-36.95989641941428,100 174.84670304162623,-36.959882701167736,100 174.84669974796162,-36.95986751922848,100 174.84669766750454,-36.95985174157152,100 174.84669618910578,-36.95984298663294,100 174.84669243326246,-36.959827316158425,100 174.8466878354246,-36.95981189312534,100 174.8466814465063,-36.95979741369492,100 174.8466722995235,-36.95978457701064,100 174.84667091079808,-36.95978311414363,100 174.84665569902893,-36.95977451606756,100 174.84663842493185,-36.95976707041067,100 174.84662212676346,-36.959758598290286,100 174.8466145443192,-36.95975254942596,100 174.84661171257136,-36.95974951457434,100 174.84659741999084,-36.959738377599045,100 174.84658001676243,-36.95973065363227,100 174.84656673964517,-36.95972840317692,100 174.84654921910754,-36.95973056218233,100 174.84653185602076,-36.959737984237115,100 174.84651557959214,-36.95974854580244,100 174.84649740277183,-36.959763058562466,100 174.84648585804143,-36.95977524370289,100 174.8464753416592,-36.95978834030262,100 174.84646493939246,-36.95980183711429,100 174.84644497760698,-36.95982861482952,100 174.84643417082825,-36.959841221119014,100 174.84642169950408,-36.95985238415033,100 174.8464063466522,-36.959862496899596,100 174.84638984796777,-36.95987055443772,100 174.84637217683354,-36.95987680323808,100 174.84636363880176,-36.95987908658602,100 174.8463457061656,-36.959882646310994,100 174.8463270980958,-36.95988423544139,100 174.84630798372135,-36.95988434616999,100 174.84628854977333,-36.95988350196206,100 174.8462492579138,-36.95988086112802,100 174.84624267452594,-36.95988050925644,100 174.8462229433755,-36.959883449789025,100 174.84620316915115,-36.95988674610765,100 174.84618352368543,-36.959889653754935,100 174.84616412635683,-36.95989148857633,100 174.84614526757287,-36.95989148624414,100 174.84612705179154,-36.959888949316316,100 174.84611412720622,-36.95988501957979,100 174.8461122385074,-36.95988424677972,100 174.8460943446162,-36.95987955159139,100 174.84607536498186,-36.959878218979064,100 174.84605578018466,-36.95987949968351,100 174.84603608755083,-36.959882593711534,100 174.84602340681894,-36.959885227177885,100 174.84600500374674,-36.95988870133167,100 174.84598687572466,-36.959893379873165,100 174.84596897855738,-36.9598989209888,100 174.84593370810245,-36.95991086123229,100 174.8459156290727,-36.95991608069343,100 174.84589817871088,-36.95992217186516,100 174.84589593668508,-36.959923092725205,100 174.84588029713123,-36.95993156856492,100 174.8458657689743,-36.959941511591616,100 174.84585163789038,-36.9599520379043,100 174.8458371677368,-36.95996219724335,100 174.8458158809435,-36.959975601868564,100 174.84580106875634,-36.95998527169798,100 174.84578607881454,-36.95999474329558,100 174.84576503226955,-36.96000744655573,100 174.845749083951,-36.96001602091656,100 174.84573228242618,-36.960023076300544,100 174.84572952210948,-36.960024022341365,100 174.8457058865046,-36.96002913528722,100 174.8456770951699,-36.960033623561124,100 174.84568495130782,-36.9600343098927,100 174.84570520303302,-36.960033390222286,100 174.84573100757373,-36.96003112056011,100 174.84574325308748,-36.96002967191493,100 174.8457617826823,-36.96002641215034,100 174.84578009449743,-36.96002213367425,100 174.8457982136094,-36.960017130827914,100 174.845843688235,-36.96000311034062,100 174.8458966111934,-36.95998553998987,100 174.84591431340283,-36.95997978469891,100 174.84593537321462,-36.959973446316134,100 174.84595342195536,-36.959968413895794,100 174.84597160053303,-36.95996368860582,100 174.84598991044905,-36.95995933261378,100 174.84600836930602,-36.959955377191974,100 174.8460264801113,-36.95995198509603,100 174.84604708355067,-36.95995191074234,100 174.84606698870826,-36.959950965755304,100 174.84608422683607,-36.95994599279018,100 174.84608883813974,-36.95994309544294,100 174.8460911756087,-36.95994119696726,100 174.8461069646475,-36.959939656222005,100 174.8461243191585,-36.959950106602086,100 174.8461394749761,-36.959965736800434,100 174.8461480699053,-36.959978598335766,100 174.84615367135794,-36.95999340099738,100 174.84615858009616,-36.96000881921665,100 174.84616776081543,-36.96003268214374,100 174.8461756008612,-36.960048374740694,100 174.84618650406924,-36.96006087229321,100 174.8462013199488,-36.9600675874232,100 174.84620604491977,-36.96006832692534,100 174.84622430712403,-36.96007259815602,100 174.84624203790892,-36.96007835040313,100 174.84625960736406,-36.96008453778955,100 174.84626992136367,-36.96008789161157,100 174.84630703223414,-36.960095696663366,100 174.84632526150114,-36.96010064978722,100 174.84634300761041,-36.96010698944019,100 174.84635994310963,-36.9601146900709,100 174.84637561594516,-36.96012372896763,100 174.846389542614,-36.96013412987518,100 174.84639344310574,-36.96013765555024,100 174.84640472547107,-36.96014943424164,100 174.84641396675318,-36.9601625479864,100 174.84642162728173,-36.96017671111741,100 174.84642807792034,-36.960191560944224,100 174.84643374230984,-36.96020678082395,100 174.84643771711094,-36.96021831175111,100 174.84644384630215,-36.96023277991151,100 174.84644940779182,-36.96024741283013,100 174.84645454115923,-36.96026217678979,100 174.84645927971602,-36.96027705595001,100 174.84646372488137,-36.96029197121984,100 174.84647166469625,-36.96031988141418,100 174.84648358861676,-36.960364868198965,100 174.8464879301098,-36.96037976885651,100 174.84649180653454,-36.96039150410821,100 174.8464947109758,-36.9604083352098,100 174.84649936644644,-36.96042400521503,100 174.8465083245073,-36.960436225644045,100 174.8465108834479,-36.96043810204079,100 174.84652787108027,-36.96044516730713,100 174.84654683323123,-36.96044711842136,100 174.84656519522656,-36.960444729107195,100 174.84658283803282,-36.96043744239937,100 174.84659863855876,-36.960426562851694,100 174.8466115931166,-36.96041340938465,100 174.84661896972474,-36.960402565339926,100 174.8466227113909,-36.96039495859342,100 174.8466320520231,-36.9603818676533,100 174.8466440384052,-36.96037006229379,100 174.8466576564034,-36.960359080592156,100 174.84667192261526,-36.960348384437154,100 174.84668299205782,-36.960339815550846,100 174.84671002259063,-36.96031729831909,100 174.8467226518881,-36.9603056064304,100 174.8467338280602,-36.960293226908576,100 174.84674286813808,-36.96027992341806,100 174.84674653005268,-36.960272549547206,100 174.84675718792928,-36.960260195211625,100 174.84677317512188,-36.96025114061024,100 174.8467922316619,-36.96024495942634,100 174.8468204388546,-36.96023869986652,100 174.84683961431705,-36.960236976547016,100 174.84685919432576,-36.960237447047895,100 174.84687863692903,-36.960239900780614,100 174.84689008267864,-36.960242213943516,100 174.8469084089734,-36.96024625243185,100 174.84692619295024,-36.960252064136135,100 174.84694327375274,-36.96025940640086,100 174.8469594204581,-36.960268018733096,100 174.8469653287222,-36.96027161860358,100 174.84698110568084,-36.960280639575,100 174.8469959586885,-36.96029069971926,100 174.8470097473516,-36.96030175255,100 174.8470222434672,-36.96031365019697,100 174.84703329016116,-36.960326314884185,100 174.84704264047002,-36.960339612553135,100 174.8470517299269,-36.960355455095865,100 174.84705760924672,-36.96036961705729,100 174.84706192955665,-36.960384380120416,100 174.84706487754957,-36.96039961519588,100 174.84706665944026,-36.96041521091691,100 174.8470675136109,-36.96043103919238,100 174.8470676436174,-36.96044697157172,100 174.84706723667566,-36.960462900588894,100 174.8470667751098,-36.96047350096227,100 174.8470674249729,-36.96048882227065,100 174.84706746968394,-36.96050415299527,100 174.84706694409087,-36.96051949439657,100 174.84706589942533,-36.96053482855231,100 174.84706431700494,-36.960550126009686,100 174.84706219717768,-36.96056540118437,100 174.84705957515226,-36.96058062378494,100 174.8470577705057,-36.960589559591924,100 174.84705429593876,-36.96060459356282,100 174.84705026458514,-36.96061954696677,100 174.84704586906318,-36.96063444294477,100 174.84703671353947,-36.96066425769661,100 174.8470307311841,-36.96068520457762,100 174.847026997692,-36.960700260602835,100 174.84702348910307,-36.96071537441806,100 174.84702024133577,-36.96073049859591,100 174.84701728883417,-36.96074566414659,100 174.84701464843948,-36.960760870808045,100 174.8470124069852,-36.9607760865844,100 174.84701056220422,-36.96079131060963,100 174.84700918708396,-36.96080658861659,100 174.84700759854024,-36.960831395073306,100 174.84700710622596,-36.96084671973222,100 174.84700704765817,-36.9608620529645,100 174.84700740335873,-36.96087737884949,100 174.84700817484256,-36.96089271358736,100 174.8470093272832,-36.96090805681865,100 174.84701084123677,-36.96092334755628,100 174.8470127185664,-36.96093861641606,100 174.84701521821972,-36.96095453986385,100 174.84701806069606,-36.96096968374509,100 174.84702738337094,-36.96101507056667,100 174.84703019106928,-36.961030215889885,100 174.84703255041313,-36.9610453988342,100 174.8470342324002,-36.961061135812876,100 174.84703548664004,-36.9610764152685,100 174.84703641343214,-36.961091716042894,100 174.84703706325615,-36.96110703554796,100 174.8470380036505,-36.96114497902105,100 174.84703809233284,-36.961175609834086,100 174.84703710592524,-36.96123282011748,100 174.847034447744,-36.96129414659425,100 174.84703402506796,-36.96130947106991,100 174.8470338617239,-36.961324790608984,100 174.84703407859828,-36.96134008800808,100 174.84703473407745,-36.96135494414716,100 174.847051926303,-36.96139310342284,100 174.84705729335866,-36.96141013954311,100 174.84705640815451,-36.96142370643508,100 174.84704614916353,-36.9614321672057,100 174.84704450102282,-36.961432659733795,100 174.84703930776493,-36.96143383293907,100 174.84702545166914,-36.961441055386786,100 174.84701796085645,-36.961452798945274,100 174.84701507494788,-36.96146788594504,100 174.84701489510644,-36.961485172416246,100 174.84701569349048,-36.961503479280545,100 174.84701565959637,-36.96152169273949,100 174.8470129630267,-36.96153866595537,100 174.8470080892431,-36.96154994697559,100 174.8470052599629,-36.9615541298508,100 174.84699704497183,-36.96156788379926,100 174.84699012107794,-36.961582080034084,100 174.8469841758129,-36.96159661616063,100 174.8469790500986,-36.96161141623953,100 174.84697446629326,-36.96162637823538,100 174.84696364891846,-36.96166458396832,100 174.8469590987898,-36.96167954543954,100 174.84695043558787,-36.961709613903835,100 174.84694598983577,-36.961724618816376,100 174.846941265295,-36.96173952080968,100 174.84693610474937,-36.96175427456004,100 174.84693036867287,-36.961768869619874,100 174.8469238990654,-36.96178322823018,100 174.84691653952848,-36.96179729243598,100 174.84691125744658,-36.961806179595314,100 174.84690382792462,-36.96182022956682,100 174.846898126621,-36.96183482318274,100 174.84689366253073,-36.96184976708895,100 174.84688998322318,-36.96186493042328,100 174.8468827888268,-36.96189689403379,100 174.84687174733207,-36.96192671017254,100 174.84687017128314,-36.961936369782336,100 174.84687580859026,-36.96195059860601,100 174.84688486754501,-36.96196461375766,100 174.84689266532118,-36.9619787278472,100 174.84689350544977,-36.961981051892934,100 174.84689295961948,-36.96199565001818,100 174.84688871745865,-36.96201048231283,100 174.84688228224934,-36.96202542894607,100 174.84687389947774,-36.9620433054204,100 174.84686338971798,-36.96207290958699,100 174.84685836950024,-36.9620877548874,100 174.84685390280822,-36.962102638444016,100 174.84685026983973,-36.96211758203557,100 174.84684914405176,-36.962123377900205,100 174.84684684902635,-36.96213856385987,100 174.84684550791326,-36.96215385665581,100 174.84684505188932,-36.962169196970564,100 174.84684542738916,-36.962184599157304,100 174.8468465633657,-36.962200004834415,100 174.8468484257356,-36.96221535143995,100 174.8468509426429,-36.96223064009183,100 174.84685554281666,-36.962253310571384,100 174.8468594190048,-36.96226828334334,100 174.8468637958919,-36.96228319965369,100 174.84688165417415,-36.962337949056234,100 174.84689292488986,-36.96238307032448,100 174.84689685308817,-36.96239805670662,100 174.84690109150895,-36.96241300581432,100 174.84690610012143,-36.96242891816418,100 174.84691155970538,-36.96244355263887,100 174.8469175001846,-36.96245810121621,100 174.8469238025685,-36.96247256664887,100 174.84695140683365,-36.96253270930403,100 174.84697501839383,-36.962590999678355,100 174.84699004368628,-36.96262704302697,100 174.84700152015245,-36.96265650338769,100 174.84700753178043,-36.96267111304349,100 174.84701404114978,-36.96268554370364,100 174.84702116577148,-36.962699731348636,100 174.8470291294616,-36.962713549015184,100 174.84703293766648,-36.962719477212445,100 174.84704446186763,-36.96273185414984,100 174.84706904660564,-36.962755902718534,100 174.84708002106157,-36.96276844413462,100 174.84708871790411,-36.96278187724287,100 174.84709086525388,-36.9627864711938,100 174.84709275961185,-36.962791379134735,100 174.84710131835922,-36.962804814390864,100 174.84711312852875,-36.962816893041634,100 174.84712618866016,-36.962828500680196,100 174.84713849697826,-36.96284046341843,100 174.84714212369013,-36.96284473691283,100 174.8471558757858,-36.96285895030553,100 174.847161494507,-36.96287310188808,100 174.847159730649,-36.96287768459596,100 174.8471583276109,-36.962879582972676,100 174.84714948341428,-36.96289309976054,100 174.8471420886454,-36.96290714920462,100 174.84713576084857,-36.96292161467738,100 174.84713020134004,-36.962936360221306,100 174.84711983530258,-36.9629661487432,100 174.8471143457916,-36.96298090942085,100 174.847108192349,-36.962995432567276,100 174.84710211304156,-36.963007539028276,100 174.84709064917058,-36.963020157403236,100 174.84707862461724,-36.96303253483669,100 174.84706698406578,-36.963045000030725,100 174.8470566522305,-36.9630578919129,100 174.8470486234815,-36.96307155012987,100 174.84704521177747,-36.96308049742079,100 174.84704381243537,-36.963085802719654,100 174.84703828171703,-36.9631002999489,100 174.84703062271583,-36.96311415340508,100 174.8470213413586,-36.96312752286054,100 174.84701094287578,-36.963140539256365,100 174.84698908495594,-36.96316631275055,100 174.84697706710222,-36.96318152561522,100 174.84696207046397,-36.9632102622317,100 174.8469538736434,-36.963224078084124,100 174.8469442849972,-36.96323695659024,100 174.84694326106555,-36.96323813612339,100 174.8469306751358,-36.963248898102435,100 174.8469162733982,-36.96325837511314,100 174.846900443949,-36.96326691713684,100 174.8468837526091,-36.963274884909566,100 174.8468666574349,-36.963282641745664,100 174.84684966968842,-36.96329056815825,100 174.8468324323105,-36.963299459257044,100 174.8468174313845,-36.9633091943422,100 174.84680282002182,-36.96331929380608,100 174.8467886536393,-36.96332981987886,100 174.84677510402122,-36.96334076988808,100 174.84676227515948,-36.96335217105815,100 174.84675027186395,-36.963364037982416,100 174.84673919968475,-36.9633764158875,100 174.84672671245215,-36.96339219484685,100 174.84671758742303,-36.96340557626798,100 174.84670933889043,-36.963419392908406,100 174.84670182647702,-36.9634335991824,100 174.84669496225266,-36.963448042332736,100 174.8466886552637,-36.96346267690603,100 174.846681908135,-36.96347959595629,100 174.84667709886668,-36.96349457676851,100 174.84667256877256,-36.96350962984929,100 174.84666752896854,-36.9635244132538,100 174.8466612126304,-36.96353866130574,100 174.846659910227,-36.963541099803,100 174.84665074365887,-36.96355420425942,100 174.8466399135523,-36.963566608132915,100 174.84662780693122,-36.9635784775538,100 174.84661484330246,-36.96359002141039,100 174.84658741750957,-36.96361333432681,100 174.8465347354948,-36.963675146942805,100 174.84651932340392,-36.96369222961998,100 174.84650729719127,-36.96370384901426,100 174.84650008243108,-36.963707782834014,100 174.8464990593593,-36.963701838334806,100 174.84650032514844,-36.96369737244402,100 174.84650072418978,-36.96368896956073,100 174.84649434404338,-36.96369109316939,100 174.8464827168229,-36.963701467943984,100 174.84646732044212,-36.96371780678304,100 174.84644965118463,-36.96373779255601,100 174.8464146214365,-36.9637783649768,100 174.84638989795354,-36.96380181787946,100 174.84637770367098,-36.96381364177036,100 174.84636572010263,-36.963825586764244,100 174.84635398238115,-36.96383766583446,100 174.84634257775323,-36.963849956939974,100 174.8463316117297,-36.96386241066985,100 174.84631862620148,-36.963877701613036,100 174.84630820767637,-36.96389059477965,100 174.84629819258868,-36.963903682664046,100 174.84628856295228,-36.96391696464476,100 174.84627933526082,-36.96393042604424,100 174.84627049379552,-36.96394406710708,100 174.84626210700276,-36.96395788496613,100 174.84625412104552,-36.96397183629426,100 174.8462479661983,-36.96398335692948,100 174.8459307700001,-36.964267342999946,100 174.8459016158673,-36.9642917457282,100 174.8458929656359,-36.964293306406574,100 174.84587657600974,-36.964299595601325,100 174.84586146177,-36.964308372426636,100 174.8458472464516,-36.96431902443327,100 174.84583367096897,-36.96433096258344,100 174.8458070769746,-36.96435632189898,100 174.8457944558858,-36.96436773505786,100 174.84577932176862,-36.96437703855154,100 174.84574866430324,-36.96439529556513,100 174.8457176681723,-36.964413203619124,100 174.84566904160573,-36.96444085955367,100 174.84560728126593,-36.96447693429009,100 174.8455762315269,-36.96449476472656,100 174.84554123151833,-36.964514366373606,100 174.8454929439997,-36.96453918322257,100 174.84547697262698,-36.964547586660686,100 174.84546121533282,-36.964556203985914,100 174.84544594754928,-36.964565045337245,100 174.84543702421144,-36.9645715755278,100 174.8453473070001,-36.964502599999946,100 174.84534131400005,-36.964277408999976,100 174.84545059100003,-36.963655459999984,100 174.84527258700007,-36.963805381999975,100 174.84522665500003,-36.964189257999976,100 174.8451490360001,-36.964438456999964,100 174.84506724000005,-36.96452993299992,100 174.84498480900004,-36.96459897799996,100 174.84489881556482,-36.964631410403264,100 174.8447350008294,-36.96469300006004,100 174.84468594111829,-36.964704389483714,100 174.84462296700008,-36.96471868599997,100 174.84428480841373,-36.96471271762384,100 174.84397700717358,-36.964706998631534,100 174.8434853213723,-36.964415756707645,100 174.8433490960001,-36.96433494799993,100 174.84279016300002,-36.96443554199993,100 174.84245879700006,-36.964643981999984,100 174.84238205547743,-36.96486426392553,100 174.84227699510538,-36.96516500736565,100 174.84219500335922,-36.965257006577296,100 174.84205699528903,-36.965349995826124,100 174.84199293623342,-36.96536442572983,100 174.84194579600012,-36.96537474399997,100 174.84184875800545,-36.96537637429247,100 174.84180499637188,-36.9653769926281,100 174.8417835425011,-36.965386356929585,100 174.84174988000007,-36.96540058299996,100 174.84161251900002,-36.96551562599995,100 174.84160252141817,-36.965532576584295,100 174.8416009941415,-36.96553499262196,100 174.84159000294372,-36.96552700441715,100 174.84157599911578,-36.96551700614336,100 174.84156199492242,-36.965506992551134,100 174.84154900491373,-36.965498000639855,100 174.84153300326932,-36.96548899776632,100 174.84151699443814,-36.9654810017745,100 174.84151099932214,-36.96548000418885,100 174.84149300212155,-36.965476006644195,100 174.8414890054331,-36.96547599654332,100 174.84146999998606,-36.965477004334495,100 174.8414680009921,-36.9654779979543,100 174.84145299483498,-36.965482993321125,100 174.84144000663886,-36.965493003860836,100 174.84143899494015,-36.96549399658477,100 174.84143199634312,-36.965507992668236,100 174.84143199429084,-36.965519003202985,100 174.8414369945907,-36.96553400197989,100 174.84144000040655,-36.96554099734794,100 174.8414459955669,-36.965555003661606,100 174.84145100114986,-36.96556500003998,100 174.84145599292873,-36.965578992175686,100 174.84145999586713,-36.96558900500967,100 174.8414630066388,-36.96560399138695,100 174.8414640000484,-36.96561599234917,100 174.84146500293295,-36.96563099725777,100 174.8414640052582,-36.96563900562494,100 174.84146199762077,-36.965653999553716,100 174.84145900497342,-36.965668996145205,100 174.84139100057712,-36.96565899285644,100 174.84089199446203,-36.965449992977206,100 174.84075999635448,-36.96540499754876,100 174.83879600160137,-36.96244800399286,100 174.83875499744153,-36.962464996309976,100 174.83734899818398,-36.960333997915484,100 174.8375490029445,-36.960247994148354,100 174.83744199690398,-36.960087997999814,100 174.83894499263607,-36.95892599940338,100 174.83910800789207,-36.95880099274084,100 174.83968099197358,-36.958364002807606,100 174.84151000311851,-36.955738992857775,100 174.84148200540176,-36.955538002990565,100 174.84220499536698,-36.955378003789775,100 174.84221900581971,-36.95536099208305,100 174.84222600026493,-36.95535399655713,100 174.8422369936307,-36.955339994306364,100 174.84224300203059,-36.95533299966047,100 174.84224400393543,-36.955331000308036,100 174.84225300083867,-36.95531799254893,100 174.84226699575493,-36.95530299372408,100 174.84228099506896,-36.95529400392618,100 174.84229600214218,-36.95527999526274,100 174.84230600435998,-36.955268998965444,100 174.8423060012806,-36.95526500256278,100 174.84232099150373,-36.955250994157744,100 174.84233499509253,-36.95523500464036,100 174.84235099453278,-36.95521599176583,100 174.84236300151468,-36.95520299496756,100 174.8423639931484,-36.95519800609687,100 174.84237399399677,-36.955184996267555,100 174.84238500758244,-36.955175004561106,100 174.84239699634094,-36.95515999359329,100 174.8424139937773,-36.95514599818934,100 174.84243600041498,-36.955134997636506,100 174.8424589996068,-36.955132003417795,100 174.8424619913388,-36.9551319975438,100 174.8424880002229,-36.95512899716666,100 174.84251200421315,-36.955129996411344,100 174.8425160014601,-36.95513000557421,100 174.84253899387647,-36.95513199664304,100 174.84256599930157,-36.95513399842659,100 174.84258599590876,-36.955130000750636,100 174.84260399494468,-36.95512699758765,100 174.84260699539254,-36.95512600192596,100 174.8426350078493,-36.95513199623036,100 174.842653004987,-36.95514000541015,100 174.84266999775747,-36.95514800043375,100 174.84268699296797,-36.955158007161934,100 174.84269699871945,-36.95516999442259,100 174.84270500759996,-36.95518300503171,100 174.84271099353646,-36.95519600377846,100 174.84271699424664,-36.95520700587304,100 174.84271699521398,-36.95520900318182,100 174.84272399468452,-36.95522500561498,100 174.84273299987532,-36.95524100395269,100 174.8427399993524,-36.95525700638466,100 174.84274996948062,-36.955269611597146,100 174.84274493538234,-36.955279378023654,100 174.84275727429448,-36.955301684319494,100 174.8427902010612,-36.95532597659761,100 174.84279515161714,-36.95532868031845,100 174.8428321246135,-36.95534900165237,100 174.84284152656394,-36.95535322259097,100 174.84288198640533,-36.95536868394497,100 174.84292495304237,-36.95537883635388,100 174.8429280300831,-36.955379433928925,100 174.84297168653373,-36.95538754584056,100 174.84297403091654,-36.955387893406225,100 174.84301864220333,-36.955392240086894,100 174.84302854695483,-36.955393930411475,100 174.84307008165823,-36.95540748224224,100 174.84308341304344,-36.95541374312924,100 174.84312045649804,-36.95543409392254,100 174.84313571286293,-36.95544510731622,100 174.84316572759764,-36.95547177280823,100 174.84317084152565,-36.95547673358393,100 174.84319992260882,-36.9555040814409,100 174.8432089276682,-36.95551289442484,100 174.8432363771658,-36.95554132305078,100 174.84325296611564,-36.955558183325984,100 174.84328269205523,-36.955585071390395,100 174.8433056591201,-36.95560561635938,100 174.8433248759853,-36.95562503342045,100 174.8433336928641,-36.955633912408786,100 174.84334083083903,-36.95563953486187,100 174.84337887601384,-36.95565722013823,100 174.84342205342017,-36.955669443927846,100 174.84343322440338,-36.9556725512579,100 174.84346451919868,-36.95567381203827,100 174.84346503897692,-36.955673849933845,100 174.8434700290423,-36.95567348582289,100 174.84347322066654,-36.95567315234405,100 174.84351798537344,-36.95567481773113,100 174.8435197583464,-36.95567512819234,100 174.8435612070183,-36.955686126844995,100 174.84356437391318,-36.955686165091244,100 174.84360632770085,-36.95569207514714,100 174.8436117566346,-36.95569323735847,100 174.84365509277785,-36.95569844182723,100 174.84369918926987,-36.9557049044298,100 174.8437020085075,-36.9557055222122,100 174.84374029030175,-36.955716481657554,100 174.8437727024256,-36.95572593241507,100 174.84377448053286,-36.95572775971286,100 174.84380371072362,-36.955737898918,100 174.8438423790167,-36.95575105244697,100 174.8438679170256,-36.95576549690132,100 174.843871925318,-36.95576917601819,100 174.84389252546276,-36.95578139880078,100 174.84389563084557,-36.955784334833396,100 174.84391175478956,-36.955795410359386,100 174.8439226421734,-36.95581842317483,100 174.8439205734637,-36.95583365154895,100 174.8439210025825,-36.955835471857384,100 174.84392520466847,-36.955853659200415,100 174.8439246940876,-36.955856563971004,100 174.84392650637596,-36.95588309228795,100 174.84392644523075,-36.95588600539987,100 174.84391844738738,-36.95590405957212,100 174.84391791393983,-36.955908065208526,100 174.84392109964747,-36.95593351764867,100 174.843915208182,-36.955959233663684,100 174.84391473914616,-36.9559617655441,100 174.84391794372374,-36.955984693997415,100 174.84391792265384,-36.95598652129858,100 174.84392963754877,-36.95601460019191,100 174.84393140103595,-36.95601717130251,100 174.84394946662184,-36.956045327304736,100 174.84396973161867,-36.95607680565188,100 174.8439701506432,-36.95607825387203,100 174.84399051176698,-36.95610426422173,100 174.84399592459147,-36.95610615402972,100 174.8440173107678,-36.956123814855324,100 174.84402406730084,-36.95612679601678,100 174.8440477429515,-36.9561434108935,100 174.84405086374554,-36.95614563464015,100 174.84407715694124,-36.956170242306484,100 174.84407981857157,-36.95617210094034,100 174.84410398453372,-36.95618762390188,100 174.8441052974924,-36.9561901875874,100 174.84411379848103,-36.95619499655883,100 174.84412400813173,-36.95620746002713,100 174.84412848880442,-36.95621004841081,100 174.84415211795218,-36.95622883075935,100 174.8441534470556,-36.956230666828986,100 174.8441770814144,-36.95625092184673,100 174.8441957379924,-36.95627917498314,100 174.84419929839234,-36.956283606437175,100 174.84420667471213,-36.95630664763047,100 174.84420846294185,-36.95630884700881,100 174.84421172666342,-36.956333338321485,100 174.8442108198367,-36.956364327139575,100 174.84420722644785,-36.95639056177602,100 174.8442072065079,-36.956392389059495,100 174.84420800582288,-36.95639968543778,100 174.84420635717186,-36.956419010093455,100 174.84420821451445,-36.956445306063564,100 174.84420953831128,-36.956448225600376,100 174.84421375119413,-36.95646941685883,100 174.84421550670328,-36.95647491557293,100 174.8442191680583,-36.95650266798863,100 174.84422466760472,-36.95652863787978,100 174.8442195246398,-36.95653952008734,100 174.84421341726508,-36.956551859387766,100 174.84421015533155,-36.95655803272372,100 174.84420508006573,-36.95656236309238,100 174.8442050500492,-36.9565638191889,100 174.8441976928129,-36.95656885468876,100 174.84419404038167,-36.95657136391985,100 174.84418985376055,-36.95657789412188,100 174.844180301649,-36.95657779375303,100 174.84417802152117,-36.95657922712124,100 174.84416844160404,-36.95658132640179,100 174.84416522706175,-36.95658275986495,100 174.844158830568,-36.95658488269654,100 174.84414927425345,-36.95658661026544,100 174.84414106848178,-36.956588361918925,100 174.84413332074584,-36.95658973331023,100 174.84412920622177,-36.95659115101001,100 174.8441173004025,-36.9565968835832,100 174.84411447584387,-36.95660452107474,100 174.8441175834594,-36.95660819975285,100 174.84413071624735,-36.956610870945,100 174.84413254917018,-36.956610173692056,100 174.84415387986843,-36.956611465595614,100 174.84415569627936,-36.95661148064084,100 174.84417618852342,-36.95660985988431,100 174.84418208157695,-36.95661028569116,100 174.84418436172732,-36.95660885322386,100 174.844201672018,-36.95660792183211,100 174.8442075943678,-36.956606163286594,100 174.84421257916284,-36.95660692857836,100 174.84422805969206,-36.95660417159595,100 174.84423490215678,-36.95660386880575,100 174.84424080344377,-36.95660393755945,100 174.84425581197775,-36.95660298423501,100 174.84425901900264,-36.95660193755204,100 174.84427035714296,-36.95660349373778,100 174.8443027008386,-36.95659798441306,100 174.84430821581148,-36.95659330560895,100 174.84434952509824,-36.95659770938912,100 174.84435408903644,-36.9565962991204,100 174.8443936003548,-36.95659814673823,100 174.84439677515053,-36.95659781259431,100 174.84443680201784,-36.95659565844321,100 174.84448155775434,-36.95659176155963,100 174.8444823005963,-36.95659173469506,100 174.84452730016227,-36.95659179980912,100 174.8445622317774,-36.95659580057787,100 174.84456449842432,-36.956595810423494,100 174.84460270202456,-36.95659400902217,100 174.84460676216048,-36.95659513206798,100 174.84464821745271,-36.95659008584995,100 174.84468471840708,-36.95658023055578,100 174.84471801453037,-36.95657216459856,100 174.84472029612547,-36.956571444140586,100 174.8447531068029,-36.95656592743671,100 174.8447553790573,-36.95656486642464,100 174.84478904649512,-36.956562275597754,100 174.84479090116287,-36.95656047838769,100 174.84482915429712,-36.95655537821798,100 174.84483098010355,-36.9565550379872,100 174.84486557639505,-36.95655100681704,100 174.84490196171245,-36.95654916057084,100 174.84493650023254,-36.9565487860274,100 174.84497452292848,-36.956559734671444,100 174.8449961300472,-36.95657271403614,100 174.84501218621273,-36.95659292803163,100 174.84503146786156,-36.95660955601887,100 174.84503328687578,-36.956610283953445,100 174.8450498584879,-36.956626492582934,100 174.84506866934527,-36.956644926012345,100 174.84508922837273,-36.95666664281107,100 174.84511937593433,-36.956685919417154,100 174.84513779020807,-36.956701786635215,100 174.84513959764044,-36.95670142956022,100 174.84514230914954,-36.95670256093129,100 174.84516078801934,-36.956713705132096,100 174.8451643788334,-36.95671664800579,100 174.84518054201143,-36.956729193695665,100 174.84520073529976,-36.956746922415284,100 174.84520164802635,-36.956745465216464,100 174.84522631069584,-36.956767963640615,100 174.84524613933547,-36.95677909856382,100 174.84527912338493,-36.95679183793586,100 174.84528269133918,-36.95679588077014,100 174.84529975148484,-36.95681027011825,100 174.84530334980624,-36.95681287217236,100 174.84532223130142,-36.95682617776025,100 174.8453240308768,-36.95682619304924,100 174.845341050111,-36.95684423787491,100 174.84535717281116,-36.95686045524052,100 174.84537470121575,-36.95687228115805,100 174.84539446318055,-36.95688744508587,100 174.84539626498122,-36.95688820392715,100 174.84541738155167,-36.95690481594252,100 174.845421443961,-36.95690668341403,100 174.84543577616594,-36.95691995695508,100 174.84544593155857,-36.9569401166077,100 174.84545732649755,-36.956967240407124,100 174.84546420469977,-36.95699428660703,100 174.84547329557142,-36.95702320019025,100 174.84547608247667,-36.9570505785864,100 174.8454824325952,-36.95708054605671,100 174.84549290769638,-36.95710948228274,100 174.8454975883616,-36.95713068063752,100 174.8455140514509,-36.9571538301385,100 174.845522860926,-36.957172154892405,100 174.84552512152172,-36.95717326261973,100 174.84553892448716,-36.957192012675684,100 174.8455416109299,-36.957193500447865,100 174.8455573338109,-36.957206409850976,100 174.84555820076324,-36.95720970962013,100 174.84557161697714,-36.95722369680743,100 174.8455734420209,-36.95722337099806,100 174.84557571689143,-36.95722302287273,100 174.84559017516668,-36.95722937230563,100 174.84561048906548,-36.95723794438203,100 174.84561727726063,-36.95723948555204,100 174.8456359269937,-36.957238205945806,100 174.84563686482826,-36.95723639323384,100 174.84563871838745,-36.95723385244004,100 174.84564347774668,-36.95721894994742,100 174.84564773213083,-36.95720913603943,100 174.84563468583033,-36.9572006096076,100 174.84562906651342,-36.957181238404715,100 174.84561394076596,-36.95715956792236,100 174.84559335822155,-36.957138935871676,100 174.84559250702736,-36.957134893171116,100 174.84557920597123,-36.957112881557364,100 174.84557927014052,-36.957108142327094,100 174.84557051768167,-36.957085433577795,100 174.8455867726784,-36.95706371955822,100 174.84558951799406,-36.95706155156656,100 174.84560121215074,-36.957039422642616,100 174.84560216572083,-36.95703686609827,100 174.84561486970588,-36.957007811963315,100 174.8456329040432,-36.956987927891234,100 174.8456554213219,-36.95697137389108,100 174.84566492513662,-36.95697291429747,100 174.8456873238358,-36.95696619642383,100 174.8456918371456,-36.95696808571752,100 174.84572502125044,-36.95696621688399,100 174.8457304749572,-36.95696700456414,100 174.84576137070377,-36.95696692526704,100 174.8457636560198,-36.95696696364152,100 174.8458023287341,-36.95696332758478,100 174.8458045957173,-36.9569633509211,100 174.84583385307013,-36.956953046382694,100 174.8458406543887,-36.95695313170643,100 174.84586080412393,-36.95694383494585,100 174.8458784139622,-36.956950935709955,100 174.84588515900788,-36.95695538879534,100 174.84589959329037,-36.95696209458505,100 174.84590727506236,-36.9569647358737,100 174.84592666341246,-36.95697623535096,100 174.84593478748215,-36.95697924020202,100 174.8459496887868,-36.9569859378219,100 174.8459614108402,-36.95699152938789,100 174.84597092513948,-36.95699345717363,100 174.84597632568344,-36.95699678738786,100 174.84599799082574,-36.95700611081603,100 174.84600932452994,-36.95700878183446,100 174.84603500519307,-36.957023983402706,100 174.84604134244168,-36.957025500916444,100 174.8460526382701,-36.957029998591345,100 174.8460548692793,-36.957032578622076,100 174.8460883033471,-36.95704529364229,100 174.8460919395413,-36.95704606720865,100 174.84612430537322,-36.95703947275621,100 174.84612931949707,-36.95703805541816,100 174.84615583386864,-36.957027364431156,100 174.8461576945075,-36.95702446659715,100 174.84616275358735,-36.95702086466341,100 174.8461775248827,-36.95700641032706,100 174.84617892036846,-36.957004248893654,100 174.84620148027565,-36.95698476754653,100 174.84622679366754,-36.95696276023846,100 174.84623006627785,-36.956957686291865,100 174.8462604570547,-36.95693209207771,100 174.846291280391,-36.95690650554932,100 174.84629310959625,-36.95690505031198,100 174.84631069130253,-36.956884429590865,100 174.8463139271963,-36.95688118408735,100 174.84634016708455,-36.956859549011114,100 174.8463461422281,-36.95685523429971,100 174.84637315688832,-36.95684126640087,100 174.84638140084957,-36.9568377023488,100 174.84640699977265,-36.95682775471216,100 174.8464161122472,-36.95682564719948,100 174.84644498413417,-36.95681059495271,100 174.8464808198599,-36.95678873307449,100 174.84648167419033,-36.956788346639684,100 174.8465204501782,-36.95677815705849,100 174.84652546464696,-36.95677675502099,100 174.8465614013115,-36.95677562818681,100 174.8465940496878,-36.95677962241068,100 174.8466035632126,-36.95678151861175,100 174.84663261505185,-36.95678363724587,100 174.84663628723845,-36.956781855898754,100 174.84668065534353,-36.95677576770191,100 174.84668273783817,-36.95677536035722,100 174.84669095217797,-36.95677326769664,100 174.84671830113584,-36.956767331577836,100 174.84672375978636,-36.95676702223071,100 174.8467520495313,-36.956760001603335,100 174.8467588931651,-36.95675714341102,100 174.84679455571296,-36.95674439015534,100 174.84679821741273,-36.9567422213994,100 174.84681829322096,-36.95673405588158,100 174.84684117007268,-36.95672189359907,100 174.84684620438617,-36.956718663365216,100 174.8468699276687,-36.956709089114185,100 174.84689826317128,-36.95669406132717,100 174.84690010429034,-36.95669300698205,100 174.84693254677228,-36.95667694907602,100 174.84693889823276,-36.95667700979,100 174.84695936088463,-36.956674305628546,100 174.8469855600203,-36.95668037577716,100 174.84698738319676,-36.95667932261117,100 174.84701178351165,-36.95668610574385,100 174.84702087423045,-36.956685098132255,100 174.84704257505092,-36.95668859829634,100 174.84704711722043,-36.95668828787191,100 174.84707622639763,-36.95668348337879,100 174.84708029971438,-36.95668315140612,100 174.84711668354063,-36.95667733870179,100 174.84711940105586,-36.95667736942388,100 174.84715525121126,-36.956676243756476,100 174.84718563675867,-36.956675831330216,100 174.84719198036876,-36.95667626439738,100 174.84723232700938,-36.95667702820476,100 174.8472727578984,-36.956673795142216,100 174.8472790352236,-36.95667822478136,100 174.8473153726339,-36.95667458221236,100 174.8473176545755,-36.956673877021686,100 174.84735796638256,-36.956677196566496,100 174.8473665590045,-36.95667765321065,100 174.84740562551954,-36.95667512543624,100 174.84740743220843,-36.956674784562104,100 174.84744827545398,-36.95667337199519,100 174.84745914438003,-36.956674191589656,100 174.8474868798036,-36.956669751778065,100 174.847491413359,-36.95666978216913,100 174.8475281889322,-36.95666833103174,100 174.84756544538945,-36.95666214768688,100 174.84756728725023,-36.95666182158531,100 174.84760738926116,-36.956649488407905,100 174.84764883577705,-36.9566382311951,100 174.84769090235022,-36.95662563126673,100 174.84769666631917,-36.95662378217733,100 174.8477021384117,-36.95662203136783,100 174.84773907303406,-36.95660964289368,100 174.84776890257746,-36.95658701606372,100 174.84777168337084,-36.956582322877,100 174.84779096911376,-36.956567217624276,100 174.84779552924894,-36.95656435165371,100 174.84782398689154,-36.956543513650416,100 174.84784708664412,-36.95651572244894,100 174.84786654562663,-36.95648896674849,100 174.84788908548012,-36.95646807573585,100 174.84791086383748,-36.95643807613106,100 174.84791570649045,-36.95643413390326,100 174.84815890069436,-36.95642993144726,100</coordinates></LinearRing></outerBoundaryIs>
    </Polygon>
  </Placemark>

  <Placemark>
    <name>Middlemore Hospital</name>
    <Point>
      <altitudeMode>relativeToGround</altitudeMode>
      <coordinates>174.843089881512,-36.96035120983101,100</coordinates>
    </Point>
  </Placemark>

</Document>
</kml>