<?xml version="1.0" encoding="utf-8"?>
<kml xmlns="http://www.opengis.net/kml/2.2">
<Document>
  <name>Mission Bay (polygon: official_shp)</name>
  <open>1</open>

  <Placemark>
    <name>Mission Bay (polygon: official_shp)</name>
    <Style>
      <LineStyle><color>ffff0000</color><width>2</width></LineStyle>
      <PolyStyle><color>66ff0000</color><fill>1</fill><outline>1</outline></PolyStyle>
    </Style>
    <Polygon>
      <tessellate>1</tessellate>
      <altitudeMode>relativeToGround</altitudeMode>
      <outerBoundaryIs><LinearRing><coordinates>174.8271685530001,-36.86380264199994,100 174.82695138247942,-36.863872323337496,100 174.8269463565059,-36.86387136678062,100 174.82716499703562,-36.862528003032565,100 174.82726200740603,-36.8615959944195,100 174.82727099768425,-36.86150499535178,100 174.82728900282214,-36.86132200626673,100 174.82731699249842,-36.86103000496253,100 174.8273420006746,-36.86077700426732,100 174.827343006262,-36.86076600694359,100 174.82739100785312,-36.86027800370067,100 174.82741399483356,-36.86004800456246,100 174.8274129931935,-36.86004800554539,100 174.82745100604296,-36.85966099266252,100 174.82747900464187,-36.85937199617386,100 174.82749399946508,-36.8592230047819,100 174.82750299578615,-36.859127003170144,100 174.82751100770696,-36.85905400163229,100 174.82751799713128,-36.858974992199244,100 174.82752000445888,-36.85895999736834,100 174.8275340005704,-36.85881899903748,100 174.82753599488643,-36.85879700644343,100 174.82755399475354,-36.85860399539852,100 174.8275709916832,-36.85843000531647,100 174.82761299539496,-36.85843399935719,100 174.82804800491255,-36.85831100597645,100 174.82830299309956,-36.8582390060209,100 174.82836599578408,-36.857978993036745,100 174.82826200483973,-36.857845995858874,100 174.82810099403017,-36.857641999777115,100 174.82765200317,-36.85760599477085,100 174.82706199897694,-36.857559004948875,100 174.82706899955443,-36.85750400060296,100 174.8276329999059,-36.85754900091256,100 174.82765499471833,-36.85755099707597,100 174.82766100007677,-36.85749100559881,100 174.8276720083747,-36.857374993117844,100 174.82767799418565,-36.85731300458109,100 174.82767600747377,-36.8573129927757,100 174.8276799926725,-36.85719799685798,100 174.82768200743655,-36.85716099581489,100 174.82769999116252,-36.857013998106005,100 174.82770099178876,-36.857010000617606,100 174.82771699859515,-36.85686599419593,100 174.8277219982226,-36.85682099656435,100 174.82773099961452,-36.856736998808394,100 174.82773300329947,-36.856717993085425,100 174.8277419994794,-36.85664300695495,100 174.82775300353828,-36.85653600696833,100 174.8277599954795,-36.85648400686262,100 174.8277729933062,-36.85635499715084,100 174.82777699981412,-36.856329994683314,100 174.8277890038156,-36.85619999526543,100 174.8277910081105,-36.85617899127112,100 174.82779900557193,-36.85609499542573,100 174.8278080080843,-36.85601500587651,100 174.82780800260923,-36.8560030037831,100 174.8278209993301,-36.855869997555885,100 174.82782400605032,-36.85585100614497,100 174.82783600053483,-36.855720000069844,100 174.8278400039842,-36.85568700730985,100 174.82784999183636,-36.855568996900885,100 174.8278540006174,-36.85553100164793,100 174.8278710055123,-36.85535800280447,100 174.82787899841173,-36.85528300324164,100 174.82788299679294,-36.855240004834954,100 174.8278970078106,-36.855096992586006,100 174.8279000041555,-36.85507299982223,100 174.82791200686148,-36.85493900387174,100 174.82792699838592,-36.85478799971485,100 174.82792999724174,-36.854769998987315,100 174.82794200036096,-36.85463800128268,100 174.82794600224187,-36.85460499321638,100 174.8279560070647,-36.8544869987458,100 174.82796199974624,-36.854440993445415,100 174.82796199878575,-36.854436997841034,100 174.82797799719702,-36.85427699366989,100 174.82799400240071,-36.85411200320221,100 174.82800999193788,-36.853948994105096,100 174.8280239919817,-36.853802994061084,100 174.82804199476266,-36.85362200208722,100 174.8280529965343,-36.853513003808814,100 174.82807100321384,-36.853322998410405,100 174.82810699605827,-36.85295400042419,100 174.82813899866298,-36.85262900390102,100 174.8281629934687,-36.85238100725839,100 174.8281920047335,-36.852091992965654,100 174.82821200295965,-36.85189300210568,100 174.82822100373426,-36.85179399613417,100 174.8282360032018,-36.85164200028975,100 174.8282380057133,-36.85161899894407,100 174.82825500763175,-36.851444001748774,100 174.82825700786657,-36.851433994091536,100 174.82827200123268,-36.851267998784735,100 174.82827599332697,-36.85123200111451,100 174.82828900302962,-36.851093001579,100 174.82829800529132,-36.85101699314878,100 174.82830399631155,-36.85094800558119,100 174.82830700624345,-36.85091800157886,100 174.82832400795962,-36.850743006164656,100 174.82834100017246,-36.85056700229585,100 174.82835799394232,-36.85039299665827,100 174.8283759938786,-36.85021000724318,100 174.82839199574312,-36.85004300220667,100 174.8284079917767,-36.84987900320928,100 174.82842299548363,-36.84972000656552,100 174.82844000143157,-36.849554998746825,100 174.82845599616235,-36.84939099885201,100 174.8284709997386,-36.849232003096155,100 174.82848699548614,-36.84906800317512,100 174.82850399155313,-36.848904002278616,100 174.82852000188862,-36.8487360055986,100 174.8285369950441,-36.84856200080773,100 174.82855499184484,-36.84837500042819,100 174.82859500353263,-36.84796399385965,100 174.82863599988852,-36.8475530009485,100 174.82868499875474,-36.84756700364646,100 174.82889400306408,-36.84762500698382,100 174.82908700161937,-36.84767999887013,100 174.82928099287312,-36.84773399811018,100 174.82934500560853,-36.84775200390115,100 174.8294100037699,-36.84776999268494,100 174.82942500060747,-36.84777399629933,100 174.82950200674355,-36.84760400232728,100 174.82921099389313,-36.84752300383295,100 174.82881799932986,-36.84687600629994,100 174.8287229981825,-36.84666799318351,100 174.82843229810837,-36.84603045185485,100 174.82856227100012,-36.84611033799996,100 174.8289634020001,-36.84639640899996,100 174.82919061800013,-36.84650519599995,100 174.83072049700002,-36.84710829999994,100 174.831287362,-36.84730142399995,100 174.8314550870001,-36.84736615499998,100 174.83298247400012,-36.84778984799994,100 174.8332924670001,-36.84785220199996,100 174.8334612240001,-36.84787095699994,100 174.8342751240001,-36.84790210299997,100 174.83439291900004,-36.84785865099997,100 174.8348966430001,-36.847776411999966,100 174.83516611200002,-36.847613229999986,100 174.83561640900007,-36.84717348199995,100 174.83580722400006,-36.84703446399993,100 174.83588381670594,-36.8470146007973,100 174.83588957723714,-36.84702156167619,100 174.83589942308322,-36.84701890025602,100 174.83590928945125,-36.84701639354762,100 174.835919195378,-36.847014040355575,100 174.8359291898467,-36.84701177863239,100 174.8359392067128,-36.84700970313872,100 174.835949261284,-36.84700775054462,100 174.83595937074287,-36.84700593590733,100 174.83596950147876,-36.84700426064741,100 174.83597968863296,-36.84700274044601,100 174.8359898958785,-36.847001356936254,100 174.8360001412173,-36.84700011254406,100 174.8360104078549,-36.84699900843021,100 174.83602067931992,-36.84699805927054,100 174.83603098922325,-36.84699726364444,100 174.83604130244512,-36.84699660677178,100 174.83605165378214,-36.84699608991763,100 174.83606199123375,-36.84699569585868,100 174.83607233314632,-36.846995488306284,100 174.8360826955822,-36.84699538859609,100 174.83609304490872,-36.84699544411722,100 174.83610339830847,-36.846995669926805,100 174.8361137389873,-36.84699602031629,100 174.83612408184254,-36.846996508575515,100 174.83613439481564,-36.846997154127855,100 174.836144712229,-36.8469979384163,100 174.83615499820812,-36.8469988619951,100 174.83616527144466,-36.846999956122254,100 174.83617549571983,-36.847001160066526,100 174.83618572406868,-36.84700253429931,100 174.83619590380107,-36.84700403276532,100 174.8362060536086,-36.847005686722426,100 174.8362161727801,-36.84700746643762,100 174.83622622606615,-36.847009398594224,100 174.83623624839265,-36.847011489863334,100 174.83624625795588,-36.84701370391036,100 174.83625616621222,-36.8470160430048,100 174.83626604454406,-36.847018537590415,100 174.8362758746909,-36.847021174429344,100 174.83628563936244,-36.847023933959385,100 174.83629535617237,-36.847026849257816,100 174.83630497245193,-36.84702987517034,100 174.83631455768617,-36.84703305659146,100 174.8363240427565,-36.84703636394373,100 174.8363334623949,-36.84703979578924,100 174.83634283417186,-36.84704338340318,100 174.8363521054187,-36.847047081631324,100 174.8363612757256,-36.8470509202241,100 174.83637039819305,-36.84705486861692,100 174.83637942010867,-36.84705897359245,100 174.83638832467807,-36.84706318944213,100 174.83643375285988,-36.84708254575891,100 174.8364345416604,-36.84708429658093,100 174.83701995997515,-36.847351805259606,100 174.83708124212225,-36.847384055011275,100 174.8370947773187,-36.847390234438386,100 174.83762150129496,-36.84763044734192,100 174.83765200191908,-36.84785400697117,100 174.8376120056463,-36.84831599976954,100 174.83776200871353,-36.84837600294535,100 174.83793900117,-36.84844799538753,100 174.83811700535625,-36.84851899576683,100 174.838227006381,-36.84856300186345,100 174.83840299748283,-36.84863299821322,100 174.83852000599057,-36.84867999802223,100 174.8385670020409,-36.84872199960945,100 174.83868200351446,-36.84882500407993,100 174.83884399398426,-36.84897100058167,100 174.83886599559438,-36.849138997860656,100 174.8388950060395,-36.84937399642827,100 174.8389040058107,-36.849447003153394,100 174.83891000512898,-36.84950000522232,100 174.83905899989253,-36.84978599403559,100 174.83876900424104,-36.84985499272394,100 174.83851699982847,-36.84991499440496,100 174.83845499686,-36.85012700197797,100 174.83812799706544,-36.850064992989765,100 174.83806699635602,-36.850094996440085,100 174.83802699243103,-36.85023100642648,100 174.8379470050765,-36.850216003314266,100 174.83791000496765,-36.850209000746844,100 174.83785799890376,-36.8503850010316,100 174.83783200511846,-36.85047399970026,100 174.83780699410835,-36.850560999327094,100 174.83775500551872,-36.85073699839158,100 174.83774700523009,-36.85076499587852,100 174.8377010074797,-36.85092000122869,100 174.83769200788058,-36.850953995419935,100 174.83767399724113,-36.851014995932026,100 174.83765200283798,-36.8510900025891,100 174.8375999975263,-36.851268000998395,100 174.8375809939993,-36.85133199215329,100 174.83754800036846,-36.85144700514602,100 174.8375140028958,-36.85156000564886,100 174.83749600000314,-36.85162199657836,100 174.8374780059328,-36.8516829986048,100 174.83706799089674,-36.851671995190515,100 174.8367110073096,-36.851662004027375,100 174.83666000826,-36.851838992316026,100 174.83661100437854,-36.85201500154132,100 174.83656100576135,-36.85218999228743,100 174.836523001628,-36.85232399874355,100 174.8365149916254,-36.85235100573193,100 174.83643000856657,-36.852654003779215,100 174.83633000074192,-36.853003006397046,100 174.83632200792954,-36.853047002354984,100 174.8363099956209,-36.85310099312861,100 174.83629800477365,-36.85316300634517,100 174.83629399759064,-36.8531819998917,100 174.83628100551243,-36.853245997091875,100 174.83626400841177,-36.853331001382806,100 174.8362600005074,-36.85334799668111,100 174.83623400116815,-36.85348000224223,100 174.83621400420944,-36.853578995617696,100 174.83620300910627,-36.85362900478959,100 174.83617299216857,-36.85377699989056,100 174.83616599684407,-36.853813002713146,100 174.8361370044772,-36.8539539948288,100 174.83630400080636,-36.85396899938224,100 174.83629700553,-36.85400500221022,100 174.83628300744425,-36.85409300576025,100 174.83627299809507,-36.85414699441512,100 174.83625200391793,-36.85426900163908,100 174.83624300626056,-36.85432599232377,100 174.83621300632865,-36.854504000682034,100 174.8361409990428,-36.854637999724936,100 174.83606999308148,-36.854771997674234,100 174.83618599778185,-36.85501000242342,100 174.8361289935662,-36.85520699369654,100 174.83594699620613,-36.855172995247095,100 174.8358929925247,-36.85535999293008,100 174.83576200170626,-36.85533599512014,100 174.83569499403086,-36.85556699663874,100 174.83552199170995,-36.85555500526921,100 174.83555599863507,-36.85569499974566,100 174.835591006134,-36.85583499227174,100 174.8357629983999,-36.85584599414911,100 174.8357549951828,-36.85588699959222,100 174.8357209955301,-36.85605499358369,100 174.83567799975964,-36.85626300605469,100 174.83563600496026,-36.856471000339646,100 174.83604499190963,-36.85649900089044,100 174.8360379997518,-36.856526005629995,100 174.83602799724605,-36.8565599998566,100 174.83599899931886,-36.85666100520874,100 174.83595199615078,-36.85682400216735,100 174.83592900869272,-36.85690399738294,100 174.83599199666293,-36.85686200538486,100 174.83593000670055,-36.857075002835394,100 174.83586499785412,-36.85729999226814,100 174.8358180046893,-36.857463995801346,100 174.8358619969658,-36.85745500584003,100 174.83602500287674,-36.857424004270925,100 174.8360210034857,-36.85763599575355,100 174.83601900619863,-36.85777799928384,100 174.83632800376728,-36.857962993981,100 174.8363220071046,-36.85831299154939,100 174.83609000045158,-36.85832799841145,100 174.836047999659,-36.85832999939522,100 174.83585699932425,-36.85834199627069,100 174.8356549943712,-36.858353994292344,100 174.83555900305598,-36.85836000094125,100 174.83551899280647,-36.85832100627674,100 174.8354870013577,-36.858432996319245,100 174.83554200765386,-36.858420999841755,100 174.83546200099337,-36.858696996437814,100 174.83540600116567,-36.8588909955917,100 174.835382003252,-36.858973997824606,100 174.83547600162834,-36.858969000942686,100 174.83571099845693,-36.85895399322797,100 174.8361050083861,-36.85892999610674,100 174.8361150056897,-36.859031001887836,100 174.83611899297543,-36.859072005027926,100 174.836144994552,-36.85921300263081,100 174.83617899778713,-36.85939199306473,100 174.83643099848106,-36.8593770032707,100 174.8364790022216,-36.85996299781558,100 174.83714599388017,-36.86031700167783,100 174.83712399432846,-36.86064000104375,100 174.8370200003281,-36.86070999839426,100 174.83699099149712,-36.86068199809239,100 174.83689899996432,-36.86067799420441,100 174.83667899953457,-36.86066900707548,100 174.83659699443288,-36.860665002718385,100 174.8365289940387,-36.86066199864938,100 174.83646099252692,-36.8606589945586,100 174.83639200770278,-36.860656007428375,100 174.83632400729806,-36.86065300234057,100 174.83618800652118,-36.86064699294872,100 174.83605799197292,-36.86068700130835,100 174.8359170074477,-36.86073100698462,100 174.8358750015203,-36.860744005168975,100 174.83574200620407,-36.86078499392265,100 174.83556699775355,-36.860840002828525,100 174.835391996341,-36.86089400367962,100 174.83521600105468,-36.86094899757222,100 174.83541799803618,-36.861366995801404,100 174.83552999872043,-36.861567002109496,100 174.835819002723,-36.86188399418108,100 174.83580600689984,-36.86199299578891,100 174.83575700525262,-36.8623850017192,100 174.83571699239596,-36.86254199397299,100 174.83568200079986,-36.86268499385833,100 174.835645998974,-36.86282900170638,100 174.83561000550452,-36.86297200442659,100 174.83553599077675,-36.863266992292886,100 174.83550899803572,-36.86337400271213,100 174.83535400698085,-36.86367199983628,100 174.83528799755368,-36.86379799735702,100 174.8352190028882,-36.86392999335218,100 174.83515100055092,-36.86406099693621,100 174.83510899805393,-36.86421799175927,100 174.8350660025577,-36.86437399781703,100 174.8350249998566,-36.86452300037016,100 174.8349389922079,-36.86483899204329,100 174.83398700334462,-36.86467199476464,100 174.83379999940198,-36.864638991772495,100 174.83357900485365,-36.86460000179136,100 174.83348693708965,-36.86505374388896,100 174.8334657328882,-36.86505432165958,100 174.83346158248375,-36.86505484177814,100 174.83346055984575,-36.8650534037081,100 174.8334521206151,-36.865051843932235,100 174.83344357447456,-36.865048814829954,100 174.8334378161972,-36.865046032937975,100 174.83342743894775,-36.86504308076158,100 174.83341805073886,-36.8650415689758,100 174.83340729180546,-36.865040482137196,100 174.83338147699777,-36.86503588888287,100 174.83337026806288,-36.865034794563144,100 174.83335412442602,-36.86502872080725,100 174.83334002812845,-36.86502626675938,100 174.83332542964726,-36.86502307685855,100 174.83331465073155,-36.865021247621385,100 174.83328571742447,-36.86501899996098,100 174.83327410752977,-36.86501905831429,100 174.83326041405306,-36.86501548219135,100 174.8332487140725,-36.86501407095658,100 174.83323510181256,-36.865011593203945,100 174.83322330913848,-36.86500869709858,100 174.83321168925266,-36.865008384250686,100 174.83319917511184,-36.86500886034516,100 174.83319034381867,-36.86500882534574,100 174.8331777016667,-36.86500708973897,100 174.83316437226307,-36.865009454082085,100 174.83314075077632,-36.86501073968084,100 174.8331297078024,-36.86501264692098,100 174.8331197065202,-36.86501603880856,100 174.83310030825464,-36.86502609501196,100 174.83308943918033,-36.86503063235941,100 174.83308152277624,-36.865038417624454,100 174.83307455651533,-36.86504615668393,100 174.83306576306066,-36.86505469997975,100 174.833059801852,-36.865063892705926,100 174.83304772644487,-36.865079678369,100 174.83304207609527,-36.86508624792599,100 174.83302940630406,-36.865091946925176,100 174.83301861008866,-36.865097984763146,100 174.83301221043382,-36.86509972031172,100 174.83299928382942,-36.865100962572164,100 174.83297047879955,-36.86510877894415,100 174.83296030396446,-36.86510955602454,100 174.83294245997882,-36.865114336157454,100 174.83293015541824,-36.865118185384475,100 174.83291436716183,-36.86511839288473,100 174.83290012536315,-36.865120835267895,100 174.83288627582897,-36.86512246490516,100 174.83287528684124,-36.86512513021153,100 174.83282841820107,-36.865134029183714,100 174.83281262141583,-36.86513387987414,100 174.8328043213194,-36.865134950699996,100 174.83279465938313,-36.8651368185797,100 174.83278323188568,-36.86513986379361,100 174.83277739024388,-36.865143076119146,100 174.83277702497358,-36.86514497184899,100 174.83277307461947,-36.865140625264374,100 174.83275984712063,-36.86514486186208,100 174.8327342872055,-36.86514473965424,100 174.83271715655175,-36.865145760106174,100 174.83270581983612,-36.86515030463206,100 174.83269335137857,-36.86515189581928,100 174.83267619313546,-36.86515255976298,100 174.8326674448845,-36.86515365371571,100 174.8326563003242,-36.865153704831485,100 174.83264250592782,-36.86515609341383,100 174.8326274852251,-36.86516114902555,100 174.8326049237477,-36.86517248335604,100 174.83259733575474,-36.86517763073004,100 174.83259325932218,-36.86517965129846,100 174.83258614738762,-36.8651851455532,100 174.83257674942027,-36.86519111401504,100 174.83255028487687,-36.865214919890754,100 174.8325440503585,-36.865219624562684,100 174.83253005330783,-36.86523400398829,100 174.83252110345938,-36.86523994840915,100 174.83249445624853,-36.86525291585503,100 174.83248628339163,-36.86525621459462,100 174.83248005006985,-36.865257682557505,100 174.83242147656216,-36.865254547021976,100 174.83241642302806,-36.86525684764528,100 174.8324029979753,-36.8652588735761,100 174.8323915011525,-36.86526385498404,100 174.8323721360643,-36.865269295732645,100 174.8323491596658,-36.86528190639231,100 174.83234526198683,-36.865283521299794,100 174.8323445611106,-36.865283812422895,100 174.83233947310674,-36.86528349610307,100 174.83233758597342,-36.8652820262882,100 174.83233574178502,-36.865283528407765,100 174.83229552486264,-36.86529110599023,100 174.83229002243922,-36.86529339910921,100 174.8322816812471,-36.86529425331123,100 174.83227709100882,-36.86529580318439,100 174.83225019508671,-36.86529610617384,100 174.8322437197498,-36.86529692889655,100 174.83221573429745,-36.865288671592985,100 174.8321708221375,-36.865291806757554,100 174.83214937533097,-36.86528645726259,100 174.83212797738528,-36.86528296555934,100 174.832106496148,-36.86527500001722,100 174.8320902633612,-36.865274068668214,100 174.83208658921686,-36.86527560260586,100 174.83208614720647,-36.865277855543624,100 174.83207869562963,-36.865275706292024,100 174.8320629413423,-36.86527588160904,100 174.83205830391046,-36.86527630102829,100 174.83205084474562,-36.86527453856387,100 174.83204303888348,-36.865277986643854,100 174.83203608671266,-36.86527843003554,100 174.8320136757216,-36.865271223313414,100 174.83200571286073,-36.865266077796946,100 174.83200009807157,-36.86526352526514,100 174.83199068492905,-36.86525580266385,100 174.83196630922873,-36.86524227993824,100 174.8319467875311,-36.8652391441429,100 174.8319154676318,-36.865225693320475,100 174.83190427951882,-36.865222089229725,100 174.83189070430615,-36.86521515005363,100 174.83186407832764,-36.86520538270394,100 174.8318622304149,-36.86520541389784,100 174.83185610996694,-36.86520136843517,100 174.83184537833245,-36.86519738505048,100 174.83184300268582,-36.865194435559275,100 174.83182099820667,-36.865182359840105,100 174.83181353661718,-36.86517983757402,100 174.83180838832004,-36.8651772778411,100 174.8317918998055,-36.86516403908274,100 174.83167722348864,-36.865106013414746,100 174.83166375304043,-36.86510430573801,100 174.83165585798193,-36.865104394095866,100 174.83165258792587,-36.86510293206841,100 174.83164561484796,-36.86510188855949,100 174.8316400084262,-36.86509898075598,100 174.8316103820091,-36.86507766394877,100 174.83160711195504,-36.86507620191999,100 174.83160189837204,-36.86507179995773,100 174.83159582319416,-36.86506617284484,100 174.8315922822973,-36.86506426702808,100 174.83158794060765,-36.86506015897954,100 174.83157074223783,-36.86504880590514,100 174.83155898996526,-36.865037592408676,100 174.83155367435313,-36.865034554832896,100 174.83150521878662,-36.864978729566694,100 174.8314983890425,-36.86496874802112,100 174.83149016808545,-36.86495908535949,100 174.83148551277543,-36.864950955885284,100 174.83147950970226,-36.8649428039214,100 174.83147746295438,-36.8649372787502,100 174.83146282088987,-36.86491872786712,100 174.83145742821773,-36.86490621305338,100 174.8314531139058,-36.864889390369704,100 174.83145102687993,-36.86488495012279,100 174.83144765820515,-36.864866670729626,100 174.83143185096537,-36.8648320634233,100 174.83141442995614,-36.86481490556457,100 174.8313946316545,-36.86480130585457,100 174.83138159355548,-36.86478786873952,100 174.83137432253608,-36.864777491992896,100 174.8313586827315,-36.864761079114245,100 174.83135382435015,-36.86475769287641,100 174.83133085848843,-36.864732731997776,100 174.83132687224548,-36.864719171585605,100 174.83132396689632,-36.86471254559674,100 174.83132375180378,-36.86470635494897,100 174.83132434025157,-36.86470309296725,100 174.83132681425047,-36.86469733587592,100 174.83133119288408,-36.86468908428203,100 174.83133880879328,-36.864679090088345,100 174.83134125932744,-36.86467441766241,100 174.8313479763109,-36.864664406677804,100 174.83136302311337,-36.86464987240373,100 174.83137103926597,-36.86464132588976,100 174.83137682387436,-36.86463201158373,100 174.8313801986424,-36.86462630189825,100 174.83138684188864,-36.864618089306774,100 174.8313920408734,-36.86461276611721,100 174.831395487149,-36.8646052121024,100 174.83139516556616,-36.864601562152224,100 174.83137136181125,-36.86460968141286,100 174.8313497335225,-36.86461969689323,100 174.83132446550601,-36.864629962254554,100 174.83131526158385,-36.864634098821206,100 174.8313019459182,-36.86463957594899,100 174.83128780395847,-36.864643238807716,100 174.8312831930479,-36.86464528469433,100 174.8312694425172,-36.8646500258221,100 174.83125169537718,-36.86465322417112,100 174.83123801025025,-36.86465652305517,100 174.83123076769664,-36.86465706461318,100 174.83122405536866,-36.86465542939082,100 174.83120959980778,-36.86465507171855,100 174.8311753679603,-36.86465237161151,100 174.83112930928505,-36.86463955872916,100 174.83112176069017,-36.86463573803655,100 174.83104373119542,-36.86460902082027,100 174.83103575848688,-36.864604819985786,100 174.83101663331098,-36.864597045971735,100 174.83099155589215,-36.8645909536304,100 174.830988006685,-36.864589403048456,100 174.830972259178,-36.86458717786362,100 174.83096050345284,-36.86458760958646,100 174.83095513966822,-36.864586029280154,100 174.83095522820517,-36.8645834879582,100 174.83094042154497,-36.864580921087025,100 174.83093061761537,-36.86457740283156,100 174.83092168909664,-36.86457498423263,100 174.83091582573462,-36.86457409212942,100 174.83088556326064,-36.864562063262476,100 174.83087130404897,-36.86455733556263,100 174.83086111461913,-36.864551623987836,100 174.83085128718378,-36.86454918858943,100 174.8308454964869,-36.86454649990677,100 174.8308379172614,-36.86454412089998,100 174.83082376284094,-36.86453612244316,100 174.83081660050996,-36.864534478808714,100 174.8308005486712,-36.864528619606915,100 174.83079830050593,-36.86452856501527,100 174.83078718871454,-36.864523922206146,100 174.83078224979107,-36.86452270579365,100 174.83074896082613,-36.8645072903446,100 174.8307458771591,-36.864505034950206,100 174.8307267592413,-36.864496904750126,100 174.83072503413226,-36.8644950304177,100 174.83072190221344,-36.86449423141967,100 174.830717478344,-36.8644915649351,100 174.83070185341452,-36.86448681319029,100 174.8306983528582,-36.86448382242036,100 174.8306939526502,-36.86448078422094,100 174.8306872076053,-36.864479892170735,100 174.8306805675611,-36.86447644322191,100 174.83067520488945,-36.864474861984306,100 174.83066902205135,-36.86447106438514,100 174.83065516334855,-36.86446708941101,100 174.83064894703796,-36.86446400437996,100 174.83054364855028,-36.864429310137275,100 174.83054010880815,-36.86442740336914,100 174.83053473669364,-36.86442617829731,100 174.8305310973002,-36.8644264416726,100 174.83052663520672,-36.864425604575345,100 174.83051299113578,-36.86442780311641,100 174.83050520043184,-36.86443052258449,100 174.83046279602024,-36.86443963756942,100 174.8304233700857,-36.86445426337687,100 174.83041016808602,-36.86445684266948,100 174.83039776679442,-36.86446162239964,100 174.8303909583465,-36.86446291524042,100 174.830372655079,-36.86446861601498,100 174.83036617333312,-36.86447245910218,100 174.83034238499263,-36.86447986406384,100 174.83033181382598,-36.86448396212833,100 174.83030945776522,-36.86448994885449,100 174.8303016821963,-36.86449193979867,100 174.83028273905657,-36.86449108600391,100 174.8302750213608,-36.86449197642796,100 174.83025358616254,-36.864496878174556,100 174.83021597218416,-36.864499578400086,100 174.83015118189178,-36.86450374816353,100 174.8301246750434,-36.86449980119689,100 174.83011666209387,-36.86449668522397,100 174.8301086962882,-36.86449211287066,100 174.83010567090327,-36.86448877315873,100 174.8300967814584,-36.86448455843896,100 174.83009462424184,-36.86448267362729,100 174.83009281610035,-36.864482255316766,100 174.83007474807278,-36.864458884414475,100 174.83006970800747,-36.864449289831605,100 174.83006361488805,-36.86444295086061,100 174.83005599258232,-36.8644409275924,100 174.83005369729676,-36.86444233026743,100 174.83004914421522,-36.864443321556756,100 174.82996420246758,-36.86443096828136,100 174.8299579793642,-36.86442825556915,100 174.82993336889504,-36.864422170232196,100 174.82991027650573,-36.864411397109016,100 174.82990713741032,-36.86441095512799,100 174.82989118384515,-36.864402910357164,100 174.82988805271538,-36.86440209690349,100 174.82987270281515,-36.86439006164271,100 174.82986785301037,-36.86438703123748,100 174.82986611865752,-36.86438481542915,100 174.82986299471665,-36.864383644935984,100 174.829857303529,-36.86437948279421,100 174.8298478845809,-36.86437742859465,100 174.82984301111372,-36.86437476990223,100 174.82983321520135,-36.864370879180846,100 174.82982431022253,-36.86436737583171,100 174.8298132552693,-36.864361632427986,100 174.8297341140186,-36.86433925425796,100 174.82972880811334,-36.86433657157469,100 174.8297162169862,-36.86433480416567,100 174.82970017487753,-36.86432930069037,100 174.82963906579036,-36.864296812128686,100 174.8296328689605,-36.86429374206639,100 174.82961968590863,-36.8642839465694,100 174.82961522104623,-36.86428238120269,100 174.8295739711689,-36.86425077656782,100 174.82955411620216,-36.864238261720935,100 174.82954136725567,-36.86422921755233,100 174.82952768668724,-36.864220854713906,100 174.82952366388298,-36.86421966920923,100 174.82950518181474,-36.864206819550596,100 174.82945382161844,-36.86417967801779,100 174.82944943019515,-36.86417629983322,100 174.8294378836914,-36.86417092089018,100 174.82943252106463,-36.86416933959507,100 174.82942815290073,-36.86416557257675,100 174.82941792534388,-36.86416168936762,100 174.82939927282183,-36.86415283883011,100 174.82939527478908,-36.86415128068878,100 174.82938653185371,-36.86414342227071,100 174.829379932227,-36.86413888922249,100 174.82936089591578,-36.864128573611055,100 174.8293469954961,-36.86412566630382,100 174.82933539353718,-36.86412210078652,100 174.82932152658452,-36.86411848000604,100 174.82930946575684,-36.86411453487864,100 174.82922816387804,-36.8641019186264,100 174.8291622346437,-36.86407731678055,100 174.82915656737526,-36.86407208525418,100 174.8291521521117,-36.864069776407185,100 174.82913500981178,-36.86405661042708,100 174.82913146176486,-36.86405505886955,100 174.82911920323076,-36.86404493812304,100 174.82911436144587,-36.864041536213264,100 174.82911179294516,-36.86403783161228,100 174.82909244521747,-36.864024238093215,100 174.8290877255227,-36.8640175822906,100 174.82907850914165,-36.86401080102043,100 174.8290745742024,-36.86400704264239,100 174.82906662681447,-36.864002485256606,100 174.82906315905828,-36.86399874943056,100 174.82905427248406,-36.86399526196322,100 174.82903717586765,-36.86399299689746,100 174.82903027607523,-36.863996103648425,100 174.82901432674416,-36.86399933257501,100 174.82901065701944,-36.8640010520245,100 174.82898852533194,-36.8640004985753,100 174.82895862446233,-36.863991005404856,100 174.8288973938913,-36.8639381517836,100 174.82889619152218,-36.86393448744068,100 174.82888963333792,-36.863928867619336,100 174.82888312919155,-36.86392142086354,100 174.82888007151305,-36.863918793669974,100 174.82887715124335,-36.86391289612488,100 174.8288754013805,-36.8639113925939,100 174.8288711956947,-36.86390328763783,100 174.8288682182883,-36.863898475276514,100 174.82886644249302,-36.863897342592765,100 174.82885590253298,-36.863866518767786,100 174.8288533908237,-36.863861713659446,100 174.8288534797957,-36.86385918765395,100 174.8288465083011,-36.86384117093666,100 174.82884038186114,-36.863835545368424,100 174.8288408490636,-36.86383556882274,100 174.82883434641667,-36.86382813736361,100 174.82883050174172,-36.86382256500546,100 174.8288274988161,-36.86381814060934,100 174.82882226605724,-36.86381362975493,100 174.82881791463606,-36.86380915130322,100 174.82881359517717,-36.86380394318032,100 174.82880575401006,-36.86379682886011,100 174.82880180317565,-36.86379381431772,100 174.8287948033721,-36.86378783174102,100 174.82878691077576,-36.863781430264815,100 174.82878077710464,-36.86377620679953,100 174.82877603356647,-36.86377061943135,100 174.82876899306095,-36.86376570556015,100 174.82876232119946,-36.86376298617066,100 174.82875522445576,-36.863759901069244,100 174.82874860008664,-36.863755738813836,100 174.8287455644329,-36.86375201165031,100 174.82873850081762,-36.863748198661554,100 174.8287243384199,-36.86374055609869,100 174.8287137795333,-36.8637326516685,100 174.8286983817008,-36.86372207444539,100 174.82868167487788,-36.8637103708693,100 174.8286707002319,-36.8637017301347,100 174.82866286591693,-36.86369424344829,100 174.82865671636614,-36.86368971785318,100 174.82864755666984,-36.86368112309342,100 174.82864066878585,-36.863672211252336,100 174.8286376986184,-36.8636670427465,100 174.82863561254143,-36.863662633978976,100 174.82862934632368,-36.863649731377954,100 174.828624699777,-36.863641247426216,100 174.8286186955809,-36.86363307820309,100 174.82860732922143,-36.86362334476465,100 174.82859193823288,-36.86361239426954,100 174.82857742410062,-36.863602558748134,100 174.8285703009548,-36.86359911801474,100 174.82855883765293,-36.8635922820492,100 174.82855002940897,-36.86358586580503,100 174.82854206378914,-36.86358129334083,100 174.8285300854049,-36.86357590743341,100 174.82852340514518,-36.863573540580916,100 174.8285076583137,-36.863571332180335,100 174.82849704923015,-36.86357722702369,100 174.82848820591073,-36.86358392842726,100 174.82848038284087,-36.86358736031449,100 174.82847035232112,-36.863589667956504,100 174.82846211236318,-36.863592363558666,100 174.8284521632464,-36.86359248601438,100 174.82844261399768,-36.86359404264761,100 174.82843223005304,-36.863593429093754,100 174.8284214799281,-36.86359133577548,100 174.82840896884588,-36.863587366837926,100 174.8283969333033,-36.86358306519992,100 174.82838671233858,-36.863578794225006,100 174.82837156973216,-36.863573321791755,100 174.82835902703277,-36.86357009693587,100 174.8283460260022,-36.86356722073677,100 174.82833210369913,-36.86356541327291,100 174.8283181794013,-36.86356286313891,100 174.82830558043366,-36.86356146614707,100 174.82828711990194,-36.863559906972235,100 174.82826044250743,-36.863559941597295,100 174.82824275264144,-36.86356205521074,100 174.82822085871425,-36.863566577876725,100 174.82820857970756,-36.86356881643943,100 174.8281912495313,-36.863572749712255,100 174.82817435990913,-36.86357704755377,100 174.8281557056605,-36.863580586580014,100 174.82813606872756,-36.86358553598763,100 174.82811730068477,-36.86359197274476,100 174.82810171960875,-36.86359737891348,100 174.82808758566551,-36.863600670819444,100 174.8280788888445,-36.8636037303524,100 174.82806652749736,-36.86360740959771,100 174.82805473878182,-36.86360856981665,100 174.82804344802102,-36.86360826671906,100 174.82802586155537,-36.863607094248515,100 174.82800647698926,-36.86360587643042,100 174.82799346187136,-36.86360372688457,100 174.8279759573737,-36.863601098392486,100 174.82796563007514,-36.863598672245,100 174.82794858352722,-36.86359567887405,100 174.82793560044695,-36.86359280235372,100 174.82792294396327,-36.8635924751882,100 174.82791622381717,-36.863591211246444,100 174.82791299372238,-36.86359259761603,100 174.82788372478186,-36.863590029313094,100 174.8278759751497,-36.86359164834973,100 174.82786784894697,-36.86359144527341,100 174.82783376622893,-36.86359639242419,100 174.8278054575748,-36.86360404397753,100 174.8277904402912,-36.86360656076934,100 174.8277669877665,-36.863616902004104,100 174.82775748031855,-36.863617388957245,100 174.82768605462093,-36.86362938296881,100 174.82767974175408,-36.86362849942121,100 174.82765018206877,-36.86363392676057,100 174.82764295511615,-36.863633754903695,100 174.82763930777028,-36.86363438966196,100 174.82762234577015,-36.86364050112149,100 174.8276209241902,-36.86364227608205,100 174.82760942372042,-36.86364781410941,100 174.8275778605356,-36.8636571939517,100 174.82756130744866,-36.86366441406331,100 174.82754742136535,-36.86367316778273,100 174.82753040107065,-36.863680364430756,100 174.8275147640278,-36.86368761461201,100 174.82748916068357,-36.86369497300939,100 174.82746748306596,-36.86370641355465,100 174.8274357501376,-36.86372053608604,100 174.82743157321332,-36.86372333226988,100 174.82739931865362,-36.863739243850326,100 174.827325024573,-36.863778837345926,100 174.82731859102046,-36.863781222971255,100 174.82731454310797,-36.86378039380403,100 174.82731403757316,-36.86378219883867,100 174.82726782475558,-36.86379630335218,100 174.827258015713,-36.86380104251812,100 174.8271685530001,-36.86380264199994,100</coordinates></LinearRing></outerBoundaryIs>
    </Polygon>
  </Placemark>

  <Placemark>
    <name>Mission Bay</name>
    <Point>
      <altitudeMode>relativeToGround</altitudeMode>
      <coordinates>174.83224969009717,-36.85571602819203,100</coordinates>
    </Point>
  </Placemark>

</Document>
</kml>