<?xml version="1.0" encoding="UTF-8"?>
<kml xmlns="http://www.opengis.net/kml/2.2">
  <Document>
    <name>Northpark (polygon: official_shp)</name>
    <Style id="icon-1899-0288D1-nodesc-normal">
      <IconStyle>
        <color>ffd18802</color>
        <scale>1</scale>
        <Icon>
          <href>https://www.gstatic.com/mapspro/images/stock/503-wht-blank_maps.png</href>
        </Icon>
        <hotSpot x="32" xunits="pixels" y="64" yunits="insetPixels"/>
      </IconStyle>
      <LabelStyle>
        <scale>0</scale>
      </LabelStyle>
      <BalloonStyle>
        <text><![CDATA[<h3>$[name]</h3>]]></text>
      </BalloonStyle>
    </Style>
    <Style id="icon-1899-0288D1-nodesc-highlight">
      <IconStyle>
        <color>ffd18802</color>
        <scale>1</scale>
        <Icon>
          <href>https://www.gstatic.com/mapspro/images/stock/503-wht-blank_maps.png</href>
        </Icon>
        <hotSpot x="32" xunits="pixels" y="64" yunits="insetPixels"/>
      </IconStyle>
      <LabelStyle>
        <scale>1</scale>
      </LabelStyle>
      <BalloonStyle>
        <text><![CDATA[<h3>$[name]</h3>]]></text>
      </BalloonStyle>
    </Style>
    <StyleMap id="icon-1899-0288D1-nodesc">
      <Pair>
        <key>normal</key>
        <styleUrl>#icon-1899-0288D1-nodesc-normal</styleUrl>
      </Pair>
      <Pair>
        <key>highlight</key>
        <styleUrl>#icon-1899-0288D1-nodesc-highlight</styleUrl>
      </Pair>
    </StyleMap>
    <Style id="poly-0000FF-2000-102-nodesc-normal">
      <LineStyle>
        <color>ffff0000</color>
        <width>2</width>
      </LineStyle>
      <PolyStyle>
        <color>66ff0000</color>
        <fill>1</fill>
        <outline>1</outline>
      </PolyStyle>
      <BalloonStyle>
        <text><![CDATA[<h3>$[name]</h3>]]></text>
      </BalloonStyle>
    </Style>
    <Style id="poly-0000FF-2000-102-nodesc-highlight">
      <LineStyle>
        <color>ffff0000</color>
        <width>3</width>
      </LineStyle>
      <PolyStyle>
        <color>66ff0000</color>
        <fill>1</fill>
        <outline>1</outline>
      </PolyStyle>
      <BalloonStyle>
        <text><![CDATA[<h3>$[name]</h3>]]></text>
      </BalloonStyle>
    </Style>
    <StyleMap id="poly-0000FF-2000-102-nodesc">
      <Pair>
        <key>normal</key>
        <styleUrl>#poly-0000FF-2000-102-nodesc-normal</styleUrl>
      </Pair>
      <Pair>
        <key>highlight</key>
        <styleUrl>#poly-0000FF-2000-102-nodesc-highlight</styleUrl>
      </Pair>
    </StyleMap>
    <Placemark>
      <name>Northpark (polygon: official_shp)</name>
      <styleUrl>#poly-0000FF-2000-102-nodesc</styleUrl>
      <Polygon>
        <outerBoundaryIs>
          <LinearRing>
            <tessellate>1</tessellate>
            <coordinates>
              174.927983,-36.918743,0
              174.928065,-36.918686,0
              174.928077,-36.918659,0
              174.928087,-36.918632,0
              174.928097,-36.918604,0
              174.928106,-36.918576,0
              174.928114,-36.918548,0
              174.928121,-36.91852,0
              174.928127,-36.918491,0
              174.928132,-36.918463,0
              174.927857,-36.918335,0
              174.927843,-36.918328,0
              174.927712,-36.918267,0
              174.927663,-36.918245,0
              174.927479,-36.918159,0
              174.927598,-36.91799,0
              174.92766,-36.917902,0
              174.927719,-36.917818,0
              174.927724,-36.917802,0
              174.927742,-36.917631,0
              174.927747,-36.91755,0
              174.927752,-36.91746,0
              174.927758,-36.917347,0
              174.927762,-36.917289,0
              174.927769,-36.917171,0
              174.927772,-36.917118,0
              174.927779,-36.916988,0
              174.927782,-36.916947,0
              174.927842,-36.916949,0
              174.927899,-36.916951,0
              174.927904,-36.91676,0
              174.92791,-36.916573,0
              174.927865,-36.916571,0
              174.927875,-36.9164,0
              174.927885,-36.916229,0
              174.927893,-36.916058,0
              174.927895,-36.916042,0
              174.927908,-36.915826,0
              174.927914,-36.915718,0
              174.927919,-36.915634,0
              174.927924,-36.915547,0
              174.927934,-36.915376,0
              174.927935,-36.915358,0
              174.927943,-36.915223,0
              174.927945,-36.915183,0
              174.927908,-36.915071,0
              174.927856,-36.914917,0
              174.92782,-36.914865,0
              174.927792,-36.914823,0
              174.927765,-36.914783,0
              174.927643,-36.914656,0
              174.927505,-36.914512,0
              174.927546,-36.914488,0
              174.927533,-36.914475,0
              174.927521,-36.914462,0
              174.927467,-36.914495,0
              174.927311,-36.914363,0
              174.927337,-36.914345,0
              174.927113,-36.91413,0
              174.926868,-36.913888,0
              174.926784,-36.913715,0
              174.926801,-36.913639,0
              174.926708,-36.91353,0
              174.926695,-36.913516,0
              174.926682,-36.913503,0
              174.926669,-36.91349,0
              174.926654,-36.913477,0
              174.926639,-36.913466,0
              174.926623,-36.913454,0
              174.926607,-36.913443,0
              174.92659,-36.913433,0
              174.926573,-36.913423,0
              174.926555,-36.913414,0
              174.926536,-36.913406,0
              174.926517,-36.913398,0
              174.926498,-36.913391,0
              174.926419,-36.913535,0
              174.926256,-36.913628,0
              174.92613,-36.913587,0
              174.925926,-36.913521,0
              174.925722,-36.913455,0
              174.925625,-36.913424,0
              174.925415,-36.913356,0
              174.925363,-36.913308,0
              174.925228,-36.913182,0
              174.925198,-36.913155,0
              174.925129,-36.91309,0
              174.925074,-36.913064,0
              174.924929,-36.912995,0
              174.924919,-36.912991,0
              174.924904,-36.912984,0
              174.924719,-36.912909,0
              174.924522,-36.912829,0
              174.92449,-36.912816,0
              174.92426,-36.912722,0
              174.924168,-36.912852,0
              174.924003,-36.913,0
              174.923859,-36.91313,0
              174.923731,-36.913244,0
              174.923717,-36.913256,0
              174.923528,-36.913156,0
              174.923352,-36.913134,0
              174.923174,-36.913054,0
              174.923061,-36.913036,0
              174.922914,-36.913147,0
              174.922758,-36.91327,0
              174.922716,-36.913296,0
              174.922601,-36.913383,0
              174.922457,-36.913491,0
              174.92244,-36.913504,0
              174.922274,-36.913629,0
              174.922119,-36.913746,0
              174.92184,-36.913956,0
              174.921612,-36.914129,0
              174.921366,-36.914314,0
              174.921338,-36.914335,0
              174.92114,-36.914366,0
              174.92108,-36.914376,0
              174.920881,-36.914362,0
              174.920615,-36.914343,0
              174.920351,-36.914324,0
              174.920334,-36.914323,0
              174.920299,-36.914295,0
              174.920237,-36.914247,0
              174.92008,-36.914124,0
              174.919856,-36.914098,0
              174.919307,-36.914189,0
              174.918529,-36.914081,0
              174.918307,-36.913902,0
              174.918149,-36.913604,0
              174.917997,-36.913595,0
              174.917635,-36.913695,0
              174.917562,-36.913733,0
              174.917446,-36.913711,0
              174.917105,-36.913742,0
              174.916894,-36.913665,0
              174.916738,-36.913608,0
              174.91664,-36.913618,0
              174.916737,-36.913747,0
              174.916745,-36.913757,0
              174.916752,-36.913768,0
              174.916758,-36.913778,0
              174.916763,-36.91379,0
              174.916767,-36.913801,0
              174.916769,-36.913813,0
              174.916771,-36.913824,0
              174.916772,-36.913836,0
              174.916772,-36.913848,0
              174.916771,-36.91386,0
              174.916769,-36.913872,0
              174.916766,-36.913883,0
              174.916762,-36.913895,0
              174.916757,-36.913906,0
              174.916751,-36.913917,0
              174.91674,-36.913935,0
              174.91673,-36.913955,0
              174.916721,-36.913974,0
              174.916713,-36.913993,0
              174.916705,-36.914013,0
              174.916699,-36.914033,0
              174.916693,-36.914053,0
              174.916688,-36.914073,0
              174.916684,-36.914094,0
              174.916681,-36.914114,0
              174.916679,-36.914135,0
              174.916678,-36.914156,0
              174.916678,-36.914176,0
              174.916679,-36.914197,0
              174.91668,-36.914217,0
              174.916683,-36.914238,0
              174.916686,-36.914258,0
              174.91669,-36.914279,0
              174.916696,-36.914299,0
              174.916702,-36.914319,0
              174.916708,-36.91434,0
              174.916713,-36.914361,0
              174.916718,-36.914382,0
              174.916722,-36.914403,0
              174.916724,-36.914424,0
              174.916726,-36.914445,0
              174.916727,-36.914467,0
              174.916727,-36.914488,0
              174.916726,-36.914509,0
              174.916724,-36.91453,0
              174.916721,-36.914552,0
              174.916718,-36.914571,0
              174.916713,-36.91459,0
              174.916708,-36.914609,0
              174.916701,-36.914628,0
              174.916694,-36.914646,0
              174.916686,-36.914665,0
              174.916677,-36.914683,0
              174.916667,-36.9147,0
              174.916656,-36.914718,0
              174.916644,-36.914735,0
              174.916631,-36.914751,0
              174.916617,-36.914767,0
              174.916603,-36.914783,0
              174.916588,-36.914798,0
              174.916572,-36.914813,0
              174.916555,-36.914827,0
              174.915863,-36.91539,0
              174.915835,-36.915413,0
              174.915808,-36.915437,0
              174.915781,-36.915462,0
              174.915755,-36.915486,0
              174.91573,-36.915512,0
              174.915705,-36.915538,0
              174.915682,-36.915564,0
              174.915659,-36.915591,0
              174.915636,-36.915618,0
              174.915615,-36.915646,0
              174.915595,-36.915674,0
              174.915575,-36.915702,0
              174.915556,-36.915731,0
              174.915538,-36.91576,0
              174.915521,-36.915789,0
              174.915505,-36.915819,0
              174.915489,-36.915849,0
              174.915475,-36.915879,0
              174.915461,-36.91591,0
              174.915449,-36.915941,0
              174.915437,-36.915972,0
              174.915426,-36.916003,0
              174.915416,-36.916035,0
              174.915407,-36.916066,0
              174.915399,-36.916098,0
              174.915392,-36.91613,0
              174.915376,-36.916182,0
              174.915361,-36.916233,0
              174.915347,-36.916285,0
              174.915335,-36.916338,0
              174.915323,-36.91639,0
              174.915492,-36.916465,0
              174.915484,-36.916492,0
              174.91547,-36.916544,0
              174.915457,-36.916596,0
              174.915445,-36.916649,0
              174.91544,-36.916677,0
              174.915435,-36.916706,0
              174.915431,-36.916735,0
              174.915429,-36.916764,0
              174.915427,-36.916793,0
              174.915427,-36.916822,0
              174.915428,-36.916851,0
              174.915429,-36.91688,0
              174.915432,-36.916909,0
              174.915435,-36.916941,0
              174.915437,-36.916973,0
              174.915439,-36.917006,0
              174.915439,-36.917038,0
              174.915439,-36.91707,0
              174.915437,-36.917103,0
              174.915435,-36.917135,0
              174.915432,-36.917167,0
              174.915427,-36.917199,0
              174.915422,-36.917232,0
              174.915416,-36.917264,0
              174.915409,-36.917295,0
              174.915402,-36.917327,0
              174.915393,-36.917359,0
              174.915383,-36.91739,0
              174.915373,-36.917422,0
              174.915361,-36.917453,0
              174.915349,-36.917483,0
              174.915336,-36.917514,0
              174.915322,-36.917545,0
              174.915307,-36.917575,0
              174.915292,-36.917604,0
              174.915275,-36.917634,0
              174.915258,-36.917663,0
              174.915249,-36.917679,0
              174.915241,-36.917695,0
              174.915234,-36.917711,0
              174.915228,-36.917727,0
              174.915223,-36.917744,0
              174.915218,-36.917761,0
              174.915215,-36.917778,0
              174.915212,-36.917795,0
              174.915208,-36.917834,0
              174.915206,-36.917873,0
              174.915204,-36.917912,0
              174.915204,-36.917951,0
              174.915204,-36.91799,0
              174.915206,-36.91803,0
              174.915209,-36.918069,0
              174.915213,-36.918108,0
              174.915215,-36.918125,0
              174.915219,-36.918142,0
              174.915223,-36.918159,0
              174.915228,-36.918176,0
              174.915235,-36.918193,0
              174.915242,-36.918209,0
              174.91525,-36.918225,0
              174.91526,-36.918241,0
              174.915269,-36.918256,0
              174.915281,-36.918274,0
              174.915292,-36.918292,0
              174.915302,-36.918311,0
              174.915311,-36.918329,0
              174.91532,-36.918348,0
              174.915327,-36.918368,0
              174.915333,-36.918387,0
              174.915339,-36.918407,0
              174.915343,-36.918427,0
              174.915347,-36.918447,0
              174.91535,-36.918467,0
              174.915351,-36.918487,0
              174.915352,-36.918507,0
              174.915352,-36.918525,0
              174.915354,-36.918542,0
              174.915357,-36.918559,0
              174.91536,-36.918576,0
              174.915365,-36.918593,0
              174.91537,-36.91861,0
              174.915377,-36.918627,0
              174.915384,-36.918643,0
              174.915393,-36.918659,0
              174.915412,-36.918692,0
              174.915433,-36.918726,0
              174.915454,-36.918759,0
              174.915476,-36.918791,0
              174.915499,-36.918823,0
              174.915522,-36.918855,0
              174.915547,-36.918887,0
              174.915572,-36.918917,0
              174.915599,-36.918948,0
              174.915626,-36.918978,0
              174.915654,-36.919007,0
              174.915682,-36.919037,0
              174.915728,-36.919082,0
              174.915772,-36.919128,0
              174.915816,-36.919175,0
              174.915859,-36.919222,0
              174.915901,-36.91927,0
              174.915942,-36.919318,0
              174.915982,-36.919367,0
              174.916022,-36.919416,0
              174.916061,-36.919465,0
              174.916098,-36.919515,0
              174.916135,-36.919565,0
              174.916168,-36.919612,0
              174.916175,-36.919601,0
              174.916259,-36.919737,0
              174.916212,-36.919748,0
              174.916166,-36.919758,0
              174.916119,-36.919768,0
              174.916072,-36.919777,0
              174.916014,-36.919786,0
              174.915957,-36.919795,0
              174.915899,-36.919802,0
              174.915846,-36.919999,0
              174.915794,-36.920003,0
              174.915742,-36.920006,0
              174.91569,-36.920009,0
              174.915637,-36.92001,0
              174.915585,-36.92001,0
              174.91558,-36.920235,0
              174.915579,-36.920287,0
              174.915575,-36.920417,0
              174.915567,-36.920469,0
              174.915548,-36.920596,0
              174.915543,-36.920625,0
              174.915521,-36.920766,0
              174.91552,-36.920777,0
              174.915497,-36.920919,0
              174.915493,-36.920949,0
              174.915446,-36.921016,0
              174.915424,-36.921048,0
              174.915275,-36.921264,0
              174.915229,-36.921431,0
              174.915183,-36.921598,0
              174.915105,-36.92188,0
              174.915187,-36.922121,0
              174.91526,-36.922338,0
              174.915334,-36.922555,0
              174.915408,-36.922773,0
              174.915481,-36.92299,0
              174.915547,-36.923184,0
              174.915719,-36.923216,0
              174.915918,-36.923253,0
              174.916205,-36.923307,0
              174.916372,-36.923338,0
              174.916305,-36.923623,0
              174.916248,-36.923867,0
              174.916215,-36.924007,0
              174.916148,-36.924292,0
              174.916109,-36.924459,0
              174.916074,-36.924611,0
              174.915669,-36.924535,0
              174.915376,-36.924481,0
              174.915124,-36.924434,0
              174.914871,-36.924386,0
              174.914516,-36.92432,0
              174.914204,-36.924262,0
              174.91383,-36.924191,0
              174.913631,-36.924155,0
              174.913194,-36.924073,0
              174.913204,-36.92428,0
              174.913216,-36.924504,0
              174.913225,-36.924699,0
              174.913234,-36.924888,0
              174.913241,-36.925035,0
              174.913249,-36.925185,0
              174.913259,-36.925402,0
              174.913262,-36.925451,0
              174.913264,-36.925575,0
              174.913271,-36.926041,0
              174.913345,-36.926094,0
              174.913337,-36.926329,0
              174.913251,-36.926392,0
              174.913229,-36.92654,0
              174.913192,-36.926719,0
              174.913155,-36.926895,0
              174.91312,-36.927063,0
              174.913075,-36.927277,0
              174.913013,-36.927575,0
              174.912949,-36.927886,0
              174.912914,-36.928072,0
              174.912884,-36.928232,0
              174.912822,-36.928533,0
              174.912822,-36.928661,0
              174.91261,-36.929163,0
              174.912605,-36.92918,0
              174.912554,-36.929363,0
              174.912527,-36.929358,0
              174.912326,-36.929832,0
              174.912049,-36.930387,0
              174.912019,-36.930448,0
              174.911764,-36.93081,0
              174.911693,-36.930934,0
              174.911944,-36.931003,0
              174.912418,-36.931133,0
              174.913619,-36.931165,0
              174.914245,-36.931182,0
              174.915235,-36.931567,0
              174.915331,-36.931604,0
              174.915354,-36.931395,0
              174.915445,-36.930606,0
              174.915454,-36.930606,0
              174.915547,-36.929794,0
              174.915489,-36.92965,0
              174.915758,-36.929268,0
              174.915949,-36.929213,0
              174.916871,-36.928581,0
              174.917206,-36.928344,0
              174.917386,-36.92822,0
              174.917419,-36.928192,0
              174.917589,-36.928048,0
              174.917744,-36.927916,0
              174.917785,-36.927882,0
              174.917881,-36.927779,0
              174.918028,-36.92762,0
              174.918156,-36.927483,0
              174.918287,-36.927342,0
              174.918441,-36.927176,0
              174.918576,-36.927032,0
              174.918589,-36.927017,0
              174.91872,-36.926877,0
              174.918854,-36.926732,0
              174.918983,-36.926593,0
              174.918673,-36.926407,0
              174.918796,-36.926274,0
              174.918809,-36.926254,0
              174.9189,-36.926112,0
              174.918918,-36.926084,0
              174.918976,-36.925994,0
              174.919005,-36.925856,0
              174.919321,-36.925882,0
              174.919325,-36.925705,0
              174.919369,-36.925727,0
              174.919455,-36.925778,0
              174.919466,-36.925784,0
              174.919544,-36.925702,0
              174.91957,-36.92568,0
              174.919579,-36.925665,0
              174.919606,-36.925637,0
              174.919777,-36.925739,0
              174.919944,-36.92556,0
              174.92002,-36.925478,0
              174.920078,-36.925414,0
              174.919808,-36.925254,0
              174.919862,-36.925136,0
              174.919921,-36.925071,0
              174.919995,-36.92499,0
              174.920084,-36.924894,0
              174.920128,-36.924845,0
              174.92021,-36.924756,0
              174.920261,-36.9247,0
              174.920338,-36.924616,0
              174.920394,-36.924555,0
              174.920411,-36.924537,0
              174.920502,-36.924439,0
              174.920554,-36.924383,0
              174.92063,-36.924302,0
              174.920686,-36.924243,0
              174.920757,-36.924165,0
              174.920847,-36.924069,0
              174.920922,-36.923989,0
              174.921071,-36.923829,0
              174.921089,-36.923837,0
              174.921245,-36.923611,0
              174.921352,-36.923675,0
              174.921601,-36.923408,0
              174.921753,-36.923261,0
              174.921785,-36.923226,0
              174.921982,-36.923014,0
              174.922189,-36.923138,0
              174.92233,-36.922986,0
              174.922502,-36.922802,0
              174.922621,-36.922674,0
              174.922729,-36.922558,0
              174.92291,-36.922363,0
              174.923092,-36.922169,0
              174.923273,-36.921974,0
              174.923297,-36.921948,0
              174.923587,-36.921761,0
              174.923352,-36.92163,0
              174.923468,-36.921489,0
              174.923504,-36.921445,0
              174.923533,-36.921426,0
              174.923559,-36.921453,0
              174.923634,-36.921526,0
              174.923875,-36.921386,0
              174.923752,-36.921286,0
              174.92381,-36.921248,0
              174.923959,-36.921152,0
              174.924072,-36.921264,0
              174.924291,-36.921123,0
              174.924288,-36.921121,0
              174.924512,-36.920977,0
              174.924655,-36.920858,0
              174.924866,-36.920722,0
              174.924876,-36.920731,0
              174.925082,-36.920597,0
              174.925085,-36.9206,0
              174.925292,-36.920467,0
              174.925172,-36.920348,0
              174.925251,-36.920297,0
              174.925097,-36.920173,0
              174.925306,-36.92005,0
              174.925184,-36.919937,0
              174.925226,-36.91984,0
              174.925285,-36.919707,0
              174.925529,-36.919775,0
              174.925899,-36.91988,0
              174.925953,-36.919895,0
              174.926014,-36.919912,0
              174.926165,-36.92009,0
              174.926171,-36.920097,0
              174.926869,-36.919648,0
              174.926573,-36.919515,0
              174.926527,-36.919495,0
              174.926853,-36.919285,0
              174.92687,-36.919274,0
              174.927048,-36.91916,0
              174.927076,-36.919142,0
              174.927218,-36.918995,0
              174.927323,-36.919071,0
              174.927563,-36.918768,0
              174.927636,-36.918809,0
              174.927707,-36.918851,0
              174.927779,-36.918893,0
              174.927825,-36.918959,0
              174.927983,-36.918743,0
            </coordinates>
          </LinearRing>
        </outerBoundaryIs>
      </Polygon>
    </Placemark>
    <Placemark>
      <name>Northpark</name>
      <styleUrl>#icon-1899-0288D1-nodesc</styleUrl>
      <Point>
        <coordinates>
          174.919754,-36.920491,100
        </coordinates>
      </Point>
    </Placemark>
  </Document>
</kml>
