<?xml version="1.0" encoding="utf-8"?>
<kml xmlns="http://www.opengis.net/kml/2.2">
<Document>
  <name>Ōpaheke (polygon: official_shp)</name>
  <open>1</open>

  <Placemark>
    <name>Ōpaheke (polygon: official_shp)</name>
    <Style>
      <LineStyle><color>ffff0000</color><width>2</width></LineStyle>
      <PolyStyle><color>66ff0000</color><fill>1</fill><outline>1</outline></PolyStyle>
    </Style>
    <Polygon>
      <tessellate>1</tessellate>
      <altitudeMode>relativeToGround</altitudeMode>
      <outerBoundaryIs><LinearRing><coordinates>174.94312099904786,-37.07050999401914,100 174.94351599263166,-37.07069600681112,100 174.94361000629752,-37.07072699871277,100 174.94379999821962,-37.070844996747596,100 174.94399500090267,-37.07096499519467,100 174.94407499935429,-37.0710140016393,100 174.94397999837634,-37.071024007015666,100 174.94391799840892,-37.071089004208716,100 174.9437389998099,-37.07133299477011,100 174.94377399348218,-37.071401007403566,100 174.94386499888725,-37.07145700239317,100 174.94388899975726,-37.07147199842476,100 174.9440620073165,-37.0715780015939,100 174.9441799976628,-37.071650999237455,100 174.9442409938875,-37.071688995139645,100 174.94424800130224,-37.07169300543517,100 174.94441999823147,-37.07180000343704,100 174.94443199282915,-37.0718070044304,100 174.94459899198182,-37.071910003988336,100 174.94477900244505,-37.07202099342305,100 174.94472800034774,-37.07207400736508,100 174.944696994861,-37.0722660010225,100 174.94467000728588,-37.072430001435066,100 174.9448390088235,-37.0724440042723,100 174.9450580044557,-37.07221699600187,100 174.94507200169778,-37.07220200057015,100 174.94518600601396,-37.07227299321076,100 174.94536500198575,-37.072382993433905,100 174.94524400461583,-37.072510007156275,100 174.94548099966318,-37.072560005911626,100 174.94571799500213,-37.07261000418373,100 174.94600300005757,-37.072671002882444,100 174.9463828998892,-37.07275092674568,100 174.94642601084513,-37.07299513066575,100 174.9466545091799,-37.07296920589194,100 174.9466677914875,-37.07270249305047,100 174.94671299737627,-37.072643000357985,100 174.94674200372984,-37.072661001428884,100 174.9468809999736,-37.0727470004077,100 174.94715000455997,-37.07291299326816,100 174.94733099169517,-37.07307599767273,100 174.94744899781196,-37.07328500062479,100 174.947542001672,-37.07345000404835,100 174.94772700416996,-37.07333599311182,100 174.94781253292498,-37.073488322618324,100 174.94806325810964,-37.073373688411486,100 174.94822005858302,-37.073302043661286,100 174.94823597866986,-37.073326072689376,100 174.94834400108113,-37.07348899365981,100 174.94835100756788,-37.07350099544369,100 174.94856299646005,-37.07340399771106,100 174.9487670055219,-37.07331099999021,100 174.94906400119376,-37.07317499432793,100 174.9491599973041,-37.07331000556462,100 174.94931800555938,-37.0733099991259,100 174.9495790016188,-37.073311005682946,100 174.94974900023826,-37.07331099979702,100 174.9510020041097,-37.073315003576035,100 174.95090500651028,-37.073179005415795,100 174.95055300480723,-37.07268500555354,100 174.95045999982867,-37.072555996595746,100 174.95044699189512,-37.07253699601939,100 174.95049599868628,-37.07249699373767,100 174.95059711365212,-37.07241512109662,100 174.9508289216493,-37.07222733285072,100 174.95111052740475,-37.07224973965131,100 174.9512939936457,-37.07210099664797,100 174.95142386881108,-37.0722045153841,100 174.95143983373586,-37.072217143749334,100 174.95147934340642,-37.07218513317038,100 174.9516065966405,-37.07208197367898,100 174.95150415453435,-37.072000866598216,100 174.9514610026634,-37.07196599307332,100 174.9514860073045,-37.07194500603256,100 174.95118200596195,-37.07170399715122,100 174.9513620054786,-37.07162200460087,100 174.95165499212803,-37.07134400022974,100 174.9519000062654,-37.07154400600174,100 174.9521300084145,-37.0717320008901,100 174.95217000449975,-37.07175999432415,100 174.95248500427203,-37.071989001829635,100 174.95255800526974,-37.07204099369221,100 174.9527360031178,-37.07215699355455,100 174.95301700143276,-37.07233999454177,100 174.95328800869885,-37.072516997330276,100 174.95377700045296,-37.07283500034325,100 174.95393999262464,-37.07294100156882,100 174.95430399939772,-37.07320999141028,100 174.9543949961158,-37.07327700736565,100 174.95476600432823,-37.073578005804734,100 174.95491699906282,-37.073716993160076,100 174.95526300781444,-37.07403400613937,100 174.95536700888533,-37.07414199838224,100 174.95563300442373,-37.07441899312663,100 174.95591700462484,-37.074749001341374,100 174.95623699779102,-37.07516600292171,100 174.9564439965729,-37.07546699698391,100 174.95650100484104,-37.07554899627409,100 174.9565520039752,-37.07563299280685,100 174.95677099261368,-37.07598500309335,100 174.95682199194536,-37.07608499823066,100 174.95697700825707,-37.07638400202472,100 174.9569679961329,-37.076564003386174,100 174.9570469942036,-37.076752003836766,100 174.9572559932392,-37.077285998081386,100 174.95731700224607,-37.07748499354783,100 174.95761199074985,-37.078444995164034,100 174.95834200035932,-37.07844400541283,100 174.95874900445298,-37.07844300515788,100 174.95876899704595,-37.07844100297295,100 174.95877500226158,-37.07843700659928,100 174.95878200067528,-37.078432002401904,100 174.95878899906492,-37.07842699730324,100 174.9587949930211,-37.07842199527951,100 174.95880200268945,-37.07841799673012,100 174.95880299623548,-37.078417002420075,100 174.95880999576988,-37.07841199820256,100 174.95881600656625,-37.078406994998296,100 174.95882300536863,-37.07840200611398,100 174.9588289993206,-37.07839700408866,100 174.95883599770386,-37.07839199898736,100 174.95884200852007,-37.07838699668276,100 174.95884800244642,-37.07838199375561,100 174.95885500795345,-37.07837599802232,100 174.9588610007537,-37.078370995113154,100 174.9588669947007,-37.07836599308601,100 174.95887399349598,-37.078361004198854,100 174.95888000428405,-37.07835600099154,100 174.95888599822865,-37.07835099896351,100 174.95889299660394,-37.078345993859045,100 174.95889899764956,-37.078340000298546,100 174.95890500845752,-37.07833499799094,100 174.95891200683008,-37.07832999288543,100 174.9589180011647,-37.07832500617121,100 174.95892399397994,-37.078320004159956,100 174.95893099347427,-37.0783149990348,100 174.95893700427817,-37.07830999672568,100 174.95894400264632,-37.07830499161839,100 174.9589510014309,-37.07830000272695,100 174.95895699534321,-37.078294999794636,100 174.95896400499126,-37.078291001236146,100 174.95896700436165,-37.07828800357194,100 174.95897400389657,-37.07828300024619,100 174.95897999668162,-37.07827799733136,100 174.95898699619156,-37.078272993104,100 174.9589940005069,-37.07826699557976,100 174.95899999443697,-37.07826199354631,100 174.95900699321388,-37.07825700465175,100 174.9590139927201,-37.078252000422886,100 174.95902100794368,-37.07824699503261,100 174.959028000718,-37.07824299674922,100 174.95903399351957,-37.078237994732724,100 174.95904099339324,-37.0782330049168,100 174.95904900748414,-37.07822900417708,100 174.9590560058374,-37.07822399906354,100 174.95906299860772,-37.07822000077818,100 174.95907000824317,-37.07821600221374,100 174.95907800546485,-37.07821200175085,100 174.9590849970853,-37.07820800258193,100 174.9590929943285,-37.07820400301896,100 174.9591000039377,-37.078200003551935,100 174.959107994056,-37.07819699461889,100 174.95911600255815,-37.07819400070341,100 174.9591239930462,-37.07819100618377,100 174.95913200115285,-37.0781879969519,100 174.9591359933855,-37.07818699454733,100 174.95914399478585,-37.078184992161795,100 174.95915199658003,-37.07818300509109,100 174.95916100350988,-37.07818099870667,100 174.95916999249536,-37.07817899442068,100 174.95917799424177,-37.07817700554644,100 174.9591869944886,-37.07817600690812,100 174.9591960003154,-37.07817400144057,100 174.95920500056155,-37.0781730028009,100 174.95921400751186,-37.078170997313435,100 174.95922300663298,-37.07816999869099,100 174.95923200685505,-37.07816899914838,100 174.95924100712318,-37.07816800140691,100 174.9592499960584,-37.078165995313135,100 174.95926200515768,-37.07816599514269,100 174.9593389941276,-37.07816099603497,100 174.95943100701015,-37.07815600364612,100 174.95950600270518,-37.078159001134026,100 174.95959799318098,-37.07816799423805,100 174.95969000765683,-37.07817599636053,100 174.9597439926425,-37.078182996594855,100 174.9598379991622,-37.078190993614534,100 174.95992899630645,-37.07818499737358,100 174.95996499437916,-37.078175998697965,100 174.9600059962482,-37.078165005663855,100 174.96008499851024,-37.0781779967013,100 174.96015499368272,-37.07818800643343,100 174.96017499456298,-37.078189999275025,100 174.96019799594535,-37.07818100360044,100 174.9602720048231,-37.07817599457363,100 174.96035999400755,-37.07819000129947,100 174.9603990026271,-37.0781949956469,100 174.96048500055076,-37.07820099934138,100 174.96052599390416,-37.078194001668294,100 174.96061100097575,-37.078179006377916,100 174.96066700271933,-37.07818499404367,100 174.96071999734812,-37.078186994554926,100 174.96078200551892,-37.078169999191495,100 174.96079099443168,-37.07816799388293,100 174.96087499696233,-37.07815300059674,100 174.96090500225162,-37.07814900464603,100 174.9609900050219,-37.07814000360686,100 174.96103100249996,-37.0781350029406,100 174.96106000182553,-37.078130994748506,100 174.9611199950171,-37.07812800516888,100 174.96113299834266,-37.07812699514657,100 174.9612250039542,-37.078122993801564,100 174.96126099805505,-37.0781200036709,100 174.96135199204153,-37.07810900425629,100 174.9613680059865,-37.07810600483721,100 174.96145700458933,-37.07808999205422,100 174.96150800100034,-37.07807700534789,100 174.96159400431134,-37.07805000487472,100 174.96165800233544,-37.07802800103792,100 174.96167899846319,-37.07802099314453,100 174.9616999962766,-37.07801099565546,100 174.9617209940844,-37.078000998162814,100 174.9617280078296,-37.077998998426224,100 174.96175100186915,-37.07799099308707,100 174.96177400167696,-37.07798500111992,100 174.96179799996568,-37.07797999756015,100 174.9618160058948,-37.077976993961414,100 174.96183999327548,-37.07797100006092,100 174.9618630028711,-37.07796599932873,100 174.96188700117045,-37.07796099665218,100 174.96189499577426,-37.077960000029016,100 174.9619199918489,-37.07795600199163,100 174.96194399435302,-37.07795299558142,100 174.96196799619509,-37.07795000720303,100 174.96199299762299,-37.07794800631039,100 174.96201799083948,-37.07794699606113,100 174.96202000125487,-37.07794700695469,100 174.96204500691795,-37.07794700322965,100 174.96206999461378,-37.077947000697975,100 174.9620940049265,-37.077948006651205,100 174.96210299803695,-37.077947999324174,100 174.96212600463164,-37.07794899213927,100 174.96212899994546,-37.07797599465198,100 174.96213199878852,-37.07799999222031,100 174.96216600408397,-37.078006996637654,100 174.96217000055046,-37.078007993112486,100 174.96219799938626,-37.0780140063708,100 174.96223099672775,-37.0780080047775,100 174.9622570020174,-37.07799799371408,100 174.96229299844697,-37.077992000149294,100 174.96233400777845,-37.07797699456935,100 174.96235499899117,-37.0779759946071,100 174.9624160058766,-37.07796900571598,100 174.96246499183317,-37.07796400031335,100 174.96252600257537,-37.07795899412988,100 174.96258599666479,-37.07795600379509,100 174.9626479936679,-37.07795399872656,100 174.9626970077695,-37.07794999859686,100 174.9627470092406,-37.07793800572568,100 174.96277300351915,-37.07792700421966,100 174.96283500176278,-37.07792199504889,100 174.96289700151618,-37.077917001142616,100 174.962959000865,-37.07791199188883,100 174.9630209994748,-37.07790699793678,100 174.96308200030455,-37.077901000218105,100 174.96314400554698,-37.077894999356324,100 174.96320499614058,-37.077887995008304,100 174.9632659981929,-37.07787899319102,100 174.9632820053055,-37.07787699856084,100 174.96334299754065,-37.07786700635411,100 174.963403007261,-37.07785599210613,100 174.96346400608581,-37.07784499209138,100 174.96352399389696,-37.077831996219,100 174.96358300190064,-37.07781799628881,100 174.96362300285665,-37.077809002316535,100 174.9636810064928,-37.07779200056795,100 174.96373999878247,-37.077774995935414,100 174.9637979925377,-37.07775700287998,100 174.96385499831362,-37.07773899732019,100 174.96391299201207,-37.07772100420997,100 174.96397200105602,-37.07770399918551,100 174.96402200763524,-37.077690998058635,100 174.96408200300593,-37.07767699594648,100 174.96414200191677,-37.07766500631542,100 174.96420300046563,-37.07765400592754,100 174.9642639919392,-37.077643996138114,100 174.96432499362396,-37.077634992883844,100 174.96438699891834,-37.07762900669597,100 174.96444899792317,-37.07762399757309,100 174.96450899711633,-37.07761999854688,100 174.9645709996199,-37.077620006756824,100 174.96463300611092,-37.07761899281088,100 174.96466299726671,-37.0776169933949,100 174.9647250032409,-37.077610991697455,100 174.9647859938936,-37.077600997877155,100 174.96484500848493,-37.07758600580004,100 174.964867996564,-37.07757900759643,100 174.96492299311566,-37.07755800200042,100 174.96497699340802,-37.07753300307319,100 174.9650290039597,-37.07750500427504,100 174.9650799975679,-37.077476002054794,100 174.9650879943792,-37.07747200119735,100 174.9651389992826,-37.07744400459907,100 174.96519000377577,-37.077415993565424,100 174.96523999604204,-37.07738899160335,100 174.96527100697915,-37.07737399572462,100 174.96532400692993,-37.077350996951566,100 174.96537800578753,-37.07732900275244,100 174.9654330020101,-37.07730799692831,100 174.96546699828116,-37.07729500644027,100 174.96552700555756,-37.07727900525616,100 174.9655860072455,-37.077263006292554,100 174.96564599760362,-37.0772470053292,100 174.96570500583508,-37.07722999856169,100 174.96576499501535,-37.07721399755814,100 174.9658239977457,-37.077197999361076,100 174.96583999990088,-37.07719399190033,100 174.96590099933945,-37.07718000196905,100 174.96596099980937,-37.07716500741527,100 174.96602100684598,-37.07714900508582,100 174.96607800723223,-37.077129000407226,100 174.9660820063407,-37.07712700714396,100 174.96613499348427,-37.077094993572196,100 174.96618700009174,-37.07706199310774,100 174.96623799182925,-37.0770359953114,100 174.96625000223068,-37.0770330048507,100 174.9662700034479,-37.07702700496554,100 174.96632700625815,-37.077028000969754,100 174.96638600641498,-37.0770420009071,100 174.96644400602293,-37.07706599283148,100 174.96650099676887,-37.07709599680755,100 174.96651200773175,-37.077102998318935,100 174.96656100519405,-37.07713099429253,100 174.96660699704356,-37.07716299403678,100 174.9666509946994,-37.077198002883996,100 174.96669300327338,-37.07723499959578,100 174.96673500528303,-37.07727300313604,100 174.96676799164894,-37.07730099513151,100 174.96681300050113,-37.077334994827005,100 174.96685799952724,-37.07736800325439,100 174.9669039960324,-37.077402000950045,100 174.96695099260512,-37.07743399740677,100 174.96699800720714,-37.07746599354506,100 174.96704699300113,-37.07749600297474,100 174.96704999492565,-37.077497992777595,100 174.9671010032145,-37.07752599842062,100 174.96715200125118,-37.0775529965748,100 174.9672030026419,-37.07758199460172,100 174.9672250068709,-37.077595998683414,100 174.96726899369142,-37.07763000163806,100 174.9673119973739,-37.07766600461683,100 174.96735399628193,-37.077701995410905,100 174.96739699999887,-37.07773799655425,100 174.9674110065301,-37.07774799641591,100 174.9674619982276,-37.07777600127266,100 174.96751600001363,-37.07780200126827,100 174.9675700029602,-37.077828001219416,100 174.96762299924964,-37.07785400343113,100 174.96767199212778,-37.077883005741796,100 174.96770799503514,-37.07791100418289,100 174.96773800323123,-37.07795500166819,100 174.96776499444678,-37.07800199641894,100 174.96779300299315,-37.078047005872214,100 174.96782700118172,-37.078084998545336,100 174.96783499649058,-37.07809199410224,100 174.96788500650183,-37.078118995711385,100 174.96794399312006,-37.07813799721023,100 174.96800600483192,-37.07815000587038,100 174.9680699971054,-37.07815299581406,100 174.96807699818805,-37.078152992258936,100 174.96813899330763,-37.078154004551564,100 174.9682019924276,-37.078146993132655,100 174.96826100668724,-37.078131999363166,100 174.96827200134067,-37.0781280053053,100 174.9683219940349,-37.078101002045855,100 174.96836800364449,-37.078068000149855,100 174.96841399304404,-37.07803300042403,100 174.96842100875216,-37.07802799537804,100 174.96846799594377,-37.0779939993198,100 174.968518007914,-37.07796400699953,100 174.96855400794553,-37.07794899683049,100 174.96861399156543,-37.07793400121306,100 174.96867599524734,-37.07793100236856,100 174.96868200762745,-37.077931001675786,100 174.96874200444321,-37.077941001999065,100 174.96879900242837,-37.077962006301284,100 174.96885100476692,-37.077992006336636,100 174.96885500575004,-37.077995000657445,100 174.96889699451086,-37.078029998745436,100 174.9689350000895,-37.07806999479487,100 174.9689580013664,-37.07809599881533,100 174.96899400840607,-37.078137005928234,100 174.96903200379901,-37.078175995379056,100 174.96904000504782,-37.0781819984402,100 174.96908599310225,-37.07821500399335,100 174.96913799674974,-37.07824199989531,100 174.9691939950649,-37.07826500433241,100 174.96925299896105,-37.07828400488636,100 174.96931400288,-37.07829900473601,100 174.96933000640132,-37.0783030046926,100 174.96938900804213,-37.07831700308721,100 174.96944899827605,-37.078327994568866,100 174.9695100068816,-37.07833699979663,100 174.9695720052158,-37.07834299899097,100 174.96963499808223,-37.07834800373721,100 174.96969699196964,-37.07835200479246,100 174.96975500575883,-37.07835499400419,100 174.96981699309143,-37.07836000183991,100 174.96987900496077,-37.078364001599596,100 174.9699410043295,-37.078366996602455,100 174.9700030051992,-37.07837000596844,100 174.97006500455151,-37.07837300000525,100 174.9701140083879,-37.07837599815413,100 174.9701159997362,-37.078398000562146,100 174.97025900345096,-37.08084800184747,100 174.97050499181503,-37.08081000461726,100 174.97051699256767,-37.08090099164767,100 174.97073000620927,-37.08266600032431,100 174.97083700252716,-37.083558004701054,100 174.9747440040763,-37.082989995595405,100 174.9810640007879,-37.08203000214249,100 174.98522500288047,-37.08223199825689,100 174.9854959954996,-37.081730995564456,100 174.98603099508384,-37.081308997090545,100 174.98796699665235,-37.08142299357844,100 174.98828699436865,-37.081509007369846,100 174.9901149965922,-37.0820020036834,100 174.99030000721567,-37.08163899484882,100 174.99097200082628,-37.081669004678446,100 174.99211300207358,-37.0822399979761,100 174.9923709943617,-37.08274900032207,100 174.9942060049665,-37.083691005610994,100 174.99507499705732,-37.083703003349775,100 174.99531100721094,-37.08368700744071,100 174.9967929967598,-37.083701993937204,100 174.997987005967,-37.08336099741209,100 174.9984020016172,-37.083454000586975,100 174.99964900166037,-37.08329699610578,100 175.00042699889076,-37.08376599309688,100 175.00055700836657,-37.08374300137057,100 175.0002689979794,-37.08415500579846,100 174.99961700478707,-37.085051996198565,100 174.9989409990565,-37.08600000560082,100 174.99822200282418,-37.086898002876644,100 174.99789200017838,-37.087274006664515,100 174.99776000741267,-37.08742700329107,100 174.99774699404148,-37.08744099503155,100 174.99774799353497,-37.087441999337365,100 174.99774899188037,-37.087443002761226,100 174.99774999137395,-37.08744400706702,100 174.99772200501047,-37.087480993995634,100 174.99773799914374,-37.087489992320265,100 174.99778799235915,-37.08752000242088,100 174.99780999832552,-37.08753499206872,100 174.9978560045923,-37.087568001188714,100 174.99790000551351,-37.087602999861346,100 174.9979169916065,-37.08761699796149,100 174.99796000486683,-37.08765199793432,100 174.99800299513683,-37.087688005908014,100 174.99801000124106,-37.08769300258489,100 174.99805400230545,-37.08772800119541,100 174.9980980033867,-37.08776299888733,100 174.9981400045627,-37.08779899373775,100 174.9981719966672,-37.08783100689065,100 174.99820999408897,-37.0878700028619,100 174.99825300762765,-37.08790500271875,100 174.9982869951903,-37.0879250069129,100 174.99833699353655,-37.08795399373557,100 174.99837000311936,-37.08798400596652,100 174.99840700643875,-37.08802399561512,100 174.99844500445712,-37.088063005917476,100 174.99848000691895,-37.08808999227556,100 174.99852700151087,-37.08812299888344,100 174.9985750016556,-37.08815299807701,100 174.9985980024203,-37.08816999867854,100 174.99864500216503,-37.08820199842279,100 174.99869600168626,-37.08822899981688,100 174.9987529996149,-37.08824700082849,100 174.99881299684685,-37.088262004060546,100 174.99884899705464,-37.08827300372766,100 174.99890599371594,-37.08829399422705,100 174.9989609972072,-37.08831799432943,100 174.99901299641255,-37.088345998974674,100 174.99906100868162,-37.08837700358841,100 174.99910499880068,-37.08841099525008,100 174.99910599832492,-37.08841199954337,100 174.9991450076362,-37.08845000025038,100 174.9991810008719,-37.08849099988891,100 174.99918499233405,-37.08849600587372,100 174.99921999750663,-37.088536992420075,100 174.999253998547,-37.088577996790924,100 174.99928600718408,-37.08861600285213,100 174.99932100104613,-37.08865599815091,100 174.99933400818898,-37.08866900143887,100 174.99937200772865,-37.08870799608248,100 174.99941000660928,-37.08874700694729,100 174.9994180008245,-37.08875500615501,100 174.999454000498,-37.08879499796711,100 174.99948599568745,-37.08883800719394,100 174.99949400657954,-37.08884899475418,100 174.99952200413142,-37.08889399742913,100 174.99953900204318,-37.08894099900106,100 174.99954299276408,-37.08897499821023,100 174.99954499767532,-37.08902500156714,100 174.9995460079065,-37.089033005003834,100 174.99955900707465,-37.08908200095185,100 174.99958000798833,-37.08912900619697,100 174.99958200047828,-37.08913200539047,100 174.99961000435715,-37.08917600120608,100 174.99964399933822,-37.08921799696312,100 174.99966700588163,-37.089236993581224,100 174.99971400698723,-37.08927199862227,100 174.99974499884752,-37.08931200541402,100 174.99974799742162,-37.08933800087364,100 174.9997390089177,-37.08938899631317,100 174.9997360014585,-37.08940199841481,100 174.99972200560654,-37.089450004060375,100 174.99970599794065,-37.08949800037922,100 174.99969600425302,-37.089522995570185,100 174.99967500498582,-37.08957399532584,100 174.99965799290632,-37.0896249990222,100 174.9996509917382,-37.08967400605868,100 174.99966199951493,-37.0897169988176,100 174.9996899995023,-37.08975300303833,100 174.99973699546067,-37.089788997753736,100 174.99979300488837,-37.08981299489862,100 174.9998350036659,-37.089821003562065,100 174.99989800755898,-37.08982899673155,100 174.99994600144467,-37.08983999289673,100 175.00000500627553,-37.08985600455201,100 175.0000279927253,-37.08986100187919,100 175.0000869919336,-37.08987500103379,100 175.0001459964158,-37.089890997302156,100 175.00014700100564,-37.089890994772816,100 175.0002050062002,-37.08990899158502,100 175.00026000600872,-37.08993099388787,100 175.00027099859747,-37.089935995261754,100 175.0003200001123,-37.08996699706684,100 175.00036299281928,-37.090003004099344,100 175.00038000318168,-37.090018999552655,100 175.00041699825587,-37.0900579972682,100 175.0004500002356,-37.090101002742685,100 175.00047699384206,-37.090145992369735,100 175.0005010002079,-37.09019199766968,100 175.00051999876013,-37.090234996991285,100 175.00053799606383,-37.09028300268152,100 175.0005409934558,-37.0902890032793,100 175.0005640067526,-37.090336002308625,100 175.00057999994416,-37.09038300624391,100 175.0005809932008,-37.09038800599526,100 175.00058199932644,-37.090437005923796,100 175.00057899700076,-37.090486992802646,100 175.0005769945124,-37.09050299724369,100 175.0005739976114,-37.09055199262461,100 175.00057699214457,-37.09060199366268,100 175.00058000580046,-37.090614002805104,100 175.00058699802227,-37.09063300091007,100 175.00062299422714,-37.090674000023824,100 175.0006499970897,-37.090696997363025,100 175.00070100426598,-37.09072599495601,100 175.0007559932351,-37.09074999533266,100 175.00076299453335,-37.0907529946876,100 175.00081800166288,-37.09077400518934,100 175.00087500073013,-37.09079499466176,100 175.00093000134706,-37.09081699572496,100 175.00098199116442,-37.09084399379642,100 175.0009990039399,-37.09085399471453,100 175.00104400133387,-37.09088799655117,100 175.00108300793963,-37.090927005152885,100 175.0010850005144,-37.09093000341621,100 175.00112100214713,-37.09096999555251,100 175.00114900802822,-37.09101400626011,100 175.00116600176088,-37.0910589941806,100 175.00117399401017,-37.091108004141695,100 175.00118000387147,-37.09115799571135,100 175.00118700633888,-37.09118699868931,100 175.00119600435067,-37.091236006089446,100 175.0012020027921,-37.091285006443876,100 175.00119899558405,-37.09133299617813,100 175.00120000212456,-37.09138199518104,100 175.00120999680976,-37.09141500068953,100 175.00123299905886,-37.09146099393183,100 175.0012649975243,-37.09150400167725,100 175.0012719918054,-37.091514001343725,100 175.0013069933983,-37.091555994010434,100 175.00135199904517,-37.09158900507583,100 175.00138500692162,-37.091601995812994,100 175.00144599626014,-37.09161400579541,100 175.0014499989171,-37.09161399409527,100 175.001512000769,-37.09161599538338,100 175.00157300838683,-37.09161899221393,100 175.001629993603,-37.091630999409595,100 175.00168500033396,-37.09165499723704,100 175.00172800047918,-37.091686992031825,100 175.00176500893508,-37.09172699579861,100 175.00179700220073,-37.09176500138996,100 175.00182900614627,-37.091807003056886,100 175.00186199978327,-37.09184599666084,100 175.0018990072644,-37.09188600039936,100 175.00194000182054,-37.09192300403516,100 175.00194299406527,-37.09192700654817,100 175.00198499317642,-37.091966996259885,100 175.0020359910743,-37.091991998048,100 175.00205900752218,-37.09199199237199,100 175.00212200565934,-37.09198400116977,100 175.00215800413932,-37.09198099937915,100 175.0022170020337,-37.09198700583585,100 175.00224199678877,-37.09200099509597,100 175.00227899413542,-37.09204299701487,100 175.00230700076335,-37.09208400255597,100 175.0023299977608,-37.092131002385294,100 175.0023359929593,-37.09214300257302,100 175.00235700796338,-37.09219099843892,100 175.00238799591395,-37.09223199596002,100 175.00243500011322,-37.09226699891234,100 175.00249300765947,-37.092284995428926,100 175.00253600776873,-37.09228499276513,100 175.0025949981843,-37.09226600222482,100 175.00262599200326,-37.092241998548005,100 175.00265999907901,-37.09219800679797,100 175.00267699966187,-37.09217799332915,100 175.00270900169016,-37.0921360056314,100 175.0027410032569,-37.09209400170999,100 175.00274600218256,-37.09208700265397,100 175.00278000255108,-37.09204400058624,100 175.00282199899803,-37.092009000146426,100 175.00286099296238,-37.09199200386857,100 175.0029220086669,-37.091982005243956,100 175.00296999402576,-37.09198299521981,100 175.0030290022319,-37.091999005276755,100 175.0030680005474,-37.09202199944009,100 175.00311399914742,-37.092057003791886,100 175.00312499870807,-37.0920640029072,100 175.00317400773372,-37.09209399663531,100 175.00322300148068,-37.09212400682369,100 175.00325399263028,-37.092144003393884,100 175.0033009979066,-37.09217600112143,100 175.00334899748893,-37.09220700504144,100 175.0033839990311,-37.09222599827579,100 175.00343600750114,-37.09225299402421,100 175.00348800567693,-37.09227899941937,100 175.00350799919462,-37.09228899194917,100 175.003559008903,-37.09231800355555,100 175.00360699569336,-37.09234800175853,100 175.0036120048969,-37.0923510066717,100 175.00365700507498,-37.09238499301409,100 175.00369899500333,-37.09242100221502,100 175.00374000870016,-37.092458004886325,100 175.0037839971446,-37.09249300058612,100 175.0038259986527,-37.092530000047894,100 175.00385899827572,-37.092571006426354,100 175.00387700197336,-37.092600999424434,100 175.00389399737688,-37.092649007069525,100 175.00390200563209,-37.09268099591907,100 175.00390600710008,-37.09273099332555,100 175.0039040049741,-37.09275300842111,100 175.00389499557753,-37.09280200544019,100 175.00389499226063,-37.092829000551795,100 175.00389899909658,-37.09287800556042,100 175.00389900560063,-37.09288000358207,100 175.00389700398838,-37.09292800609561,100 175.00388700798348,-37.09297700717338,100 175.00387299582414,-37.09302499821305,100 175.0038589912669,-37.09305999540906,100 175.00384399171824,-37.093108004037454,100 175.00384400320232,-37.09310899524825,100 175.00383999764767,-37.093159000023945,100 175.00385000228403,-37.093208004587645,100 175.0038509946753,-37.09321300432089,100 175.00387500480204,-37.09325899259088,100 175.0039120090786,-37.093300003351644,100 175.0039150064625,-37.0933029989985,100 175.00396099549843,-37.09333699733614,100 175.00401600422143,-37.09336099581839,100 175.00404600552375,-37.09336999799977,100 175.00410700165145,-37.09338100064491,100 175.0041429931165,-37.09339099207473,100 175.0042009958209,-37.09340999544513,100 175.00425999275166,-37.09342800228844,100 175.00431899543943,-37.0934419992229,100 175.0043789927029,-37.09344899261083,100 175.00442600351283,-37.09345100609043,100 175.00448400472703,-37.093440999941215,100 175.00451700336222,-37.0934149916829,100 175.00454800590126,-37.09336899529999,100 175.0045659957664,-37.093337006693595,100 175.00458599879929,-37.09329000481633,100 175.00459200392393,-37.09326799502437,100 175.00460099484573,-37.09321899556927,100 175.0046069937983,-37.09316900032647,100 175.00461300351785,-37.093123000262324,100 175.00462199943158,-37.0930729957966,100 175.00463300652703,-37.09302899407333,100 175.00464599608887,-37.09301300296167,100 175.004693994154,-37.09297999674495,100 175.0047430073017,-37.09295699193844,100 175.0048009965895,-37.09294300580069,100 175.00486400015564,-37.09293699585208,100 175.0049300062432,-37.092938999714825,100 175.00499699401638,-37.09294499671826,100 175.00506099560272,-37.09295499719417,100 175.0050740003969,-37.0929570033801,100 175.00513400812775,-37.092967991573936,100 175.00519399875898,-37.09298200110692,100 175.00522799736757,-37.09298899402238,100 175.00528799950976,-37.093003993815955,100 175.00534499752197,-37.09302299830108,100 175.00539199961827,-37.09303800615911,100 175.00544100584455,-37.09306600084147,100 175.00545400288314,-37.09307799687025,100 175.00547599747233,-37.0931249976897,100 175.00546299742055,-37.093171994797096,100 175.00543399699612,-37.09319899828023,100 175.005378998098,-37.093226000853065,100 175.0053720011801,-37.093230993326024,100 175.0053219935958,-37.09326100191321,100 175.00526799991508,-37.093284996993496,100 175.00523200033922,-37.093293993245716,100 175.0051719997884,-37.093308000999585,100 175.0051680009337,-37.09330999557168,100 175.00511299105682,-37.09333300284763,100 175.00506299477647,-37.09336400163933,100 175.00501399276152,-37.093394008411586,100 175.00497999262754,-37.09343400443982,100 175.00497600536528,-37.093481004075386,100 175.00497000018373,-37.09349400111615,100 175.004936994283,-37.09353599286764,100 175.0049159944534,-37.0935639938142,100 175.00488100035858,-37.09360499983293,100 175.00487399231375,-37.093612005917976,100 175.00483799203275,-37.09365300010092,100 175.00480199931073,-37.09369300183938,100 175.00476700471683,-37.09373399341319,100 175.00473199357305,-37.09377499877593,100 175.00470100898187,-37.09381800626695,100 175.00469299401684,-37.09382800358402,100 175.0046629967272,-37.093870992566124,100 175.00464000156947,-37.09391699686828,100 175.004639006628,-37.09392099643661,100 175.00462999875236,-37.0939699943744,100 175.0046250059468,-37.094020002340365,100 175.00461900438847,-37.09405000459591,100 175.00461500429418,-37.09409900256628,100 175.00461700762858,-37.09411200656063,100 175.00463700813586,-37.09415899889299,100 175.00466799857085,-37.09420300059476,100 175.00468000068034,-37.09421899356993,100 175.0047160012724,-37.09426000841785,100 175.0047379960428,-37.094300999650166,100 175.00474799502334,-37.09431300409562,100 175.00478399437375,-37.09434799210369,100 175.00482299997878,-37.09438199643519,100 175.00484099931703,-37.094400991961635,100 175.00486199298447,-37.09441799729456,100 175.00488199194692,-37.094432991574216,100 175.00493600723718,-37.094463993111475,100 175.00505600498434,-37.09447799357332,100 175.00512399578807,-37.09447000282831,100 175.00520899445894,-37.09446699500992,100 175.00525400095407,-37.09447400088179,100 175.00530500373281,-37.094477999583106,100 175.00532099531253,-37.09448800541585,100 175.00534100046616,-37.09450199278552,100 175.00713300813968,-37.097390004736056,100 175.00771400626198,-37.09832599787339,100 175.0082139977423,-37.0991330033752,100 175.00891499238278,-37.100261004293806,100 175.00917200814754,-37.10067700564024,100 175.00531099438655,-37.101967991806745,100 175.00510600351552,-37.1020609978016,100 175.0053149985038,-37.10222600257998,100 175.00532599790222,-37.10258500280894,100 175.00578100091658,-37.10291200633203,100 175.0060220047775,-37.10344000571972,100 175.00632300891095,-37.104099997349046,100 175.0060899971611,-37.10459000267748,100 175.00631000740333,-37.104949001545215,100 175.00652699171727,-37.10502200086252,100 175.0064039993885,-37.10508100203626,100 175.00643899759044,-37.10527500391859,100 175.00606799074495,-37.10519899281333,100 175.00566900893736,-37.10493499724581,100 175.00542700538315,-37.10481599586077,100 175.00504900034773,-37.10485699354393,100 175.0048169960743,-37.10473300622989,100 175.00488799809787,-37.10405100335929,100 175.0053740076541,-37.10378500693333,100 175.00550699319345,-37.10361900415466,100 175.00251199658646,-37.10466799632199,100 175.00158599441676,-37.104992000749476,100 174.99970800717307,-37.1046949985714,100 174.99679500291722,-37.10423499601225,100 174.99016200394436,-37.10593599628181,100 174.98889300613482,-37.10454800115222,100 174.99329600093398,-37.10181800241146,100 174.9934759967795,-37.10170699961842,100 174.9937659973961,-37.10152699479356,100 174.99319800307606,-37.10077199342897,100 174.9925730043523,-37.099940999865545,100 174.99147600743777,-37.098485000953104,100 174.99070499751213,-37.097461006569375,100 174.99009800097178,-37.09787300689495,100 174.9893230033704,-37.09807000089913,100 174.9885719996028,-37.09825999900923,100 174.98926899252425,-37.09931200135329,100 174.98939400198338,-37.0995300064022,100 174.98920799446947,-37.09959799486798,100 174.98912199877208,-37.099968992818106,100 174.9886699958018,-37.10038299412085,100 174.98857799511077,-37.1004100014195,100 174.98819899318988,-37.10035599507096,100 174.98788600720985,-37.100311992261055,100 174.98725999183822,-37.099879003301794,100 174.98703599121558,-37.099780001001434,100 174.98678100300302,-37.09976199194894,100 174.98595200590688,-37.099843004928346,100 174.98578199663743,-37.099860005950696,100 174.98526400877114,-37.09997299295581,100 174.9850849947843,-37.09995199625742,100 174.9848450066813,-37.09974499406351,100 174.98461999318195,-37.09969000455702,100 174.9847579947083,-37.09907500071107,100 174.98469599322686,-37.0990859997824,100 174.98392999638938,-37.09922499371241,100 174.9835209982963,-37.09938100464695,100 174.98325999233072,-37.09948100397239,100 174.98308999683843,-37.099545995830795,100 174.9823239949464,-37.099837996077696,100 174.98218699515292,-37.099252003903,100 174.9817340021769,-37.09730600541127,100 174.98171499683357,-37.09722100077153,100 174.98159199555877,-37.096684994663335,100 174.9801719932667,-37.09659099523845,100 174.97902800538805,-37.09651599983082,100 174.9786019999987,-37.09648800280396,100 174.97671899313372,-37.0963640039674,100 174.9764120044015,-37.09634300097453,100 174.9761529918356,-37.09632499628945,100 174.97491500656912,-37.09624100015292,100 174.97362399366804,-37.096153000702586,100 174.97339800645176,-37.09613700606335,100 174.97233400614772,-37.09606499801627,100 174.97202700399617,-37.09604400006959,100 174.97093599966317,-37.09596700294494,100 174.96980199145406,-37.095888004700456,100 174.96743500508998,-37.095718000723494,100 174.9661260037682,-37.09562999613403,100 174.9644210078293,-37.09550999482551,100 174.9627379995689,-37.09539200315378,100 174.9599059995702,-37.095192995225794,100 174.95988300575277,-37.09519200183553,100 174.9597960007767,-37.095186000187084,100 174.95976300251104,-37.095183002782754,100 174.95914499907386,-37.09514000458985,100 174.96005900487592,-37.09192400064611,100 174.96029399804547,-37.091115993967776,100 174.96029900331553,-37.09109799998353,100 174.9606545712469,-37.089869810071725,100 174.9614427017716,-37.08714986477421,100 174.9616808369262,-37.08715276079205,100 174.9617314826772,-37.086972084071405,100 174.96188246873862,-37.0864338792384,100 174.96164181561937,-37.08640858778641,100 174.96160103445334,-37.086610319295986,100 174.96042691007767,-37.086686041564334,100 174.9603215280238,-37.08704143019845,100 174.9595636401519,-37.0870911920326,100 174.95973987976888,-37.08622367641311,100 174.95879854983497,-37.08626273175497,100 174.95861754346046,-37.087153346373405,100 174.95701058669505,-37.08726029715676,100 174.95595506782908,-37.08737699777424,100 174.95562581114567,-37.087414947148005,100 174.9527832836139,-37.08773974571255,100 174.9517092913731,-37.087485432795575,100 174.9517493079691,-37.08768384817955,100 174.95170975429906,-37.08770593283685,100 174.9516996008822,-37.08771158341521,100 174.95169973269907,-37.08772246787511,100 174.95169975665374,-37.08772270001246,100 174.95170135281185,-37.08774128708719,100 174.95170190491248,-37.08774803043039,100 174.9517021681789,-37.08776667099346,100 174.95170196990674,-37.08778494962765,100 174.95170237151504,-37.08780358881435,100 174.95170223105617,-37.08781096364368,100 174.95170002960393,-37.087829479848025,100 174.9516991497714,-37.0878382926836,100 174.95169937820086,-37.08785693472122,100 174.9516992085025,-37.08786014338815,100 174.95169544102677,-37.08787844022406,100 174.95169123134156,-37.08789212885595,100 174.95168614152652,-37.087910232955146,100 174.95168084205167,-37.08792827741571,100 174.95168066751037,-37.08792888505186,100 174.95167561213552,-37.08794697236044,100 174.9516705912804,-37.087965089744216,100 174.95167002482367,-37.087967128765015,100 174.9516646372577,-37.087985160254455,100 174.95165977349473,-37.088003305695274,100 174.95165937035728,-37.08800500134136,100 174.95165610747756,-37.0880233655768,100 174.95165370233687,-37.08803709930629,100 174.95164948193772,-37.08805532698754,100 174.95164458369942,-37.088073488317065,100 174.95163914512366,-37.08809150532313,100 174.95163874818522,-37.08809282863609,100 174.95163371125378,-37.08811097782778,100 174.9516273189519,-37.08812839225203,100 174.95161772042653,-37.0881451519488,100 174.95160752714426,-37.08816175109289,100 174.95160615840788,-37.08816422331983,100 174.95159928620052,-37.08818183220903,100 174.95159334143145,-37.088199764713586,100 174.95159056985327,-37.08820785341294,100 174.9515832278641,-37.08822539342554,100 174.9515756420841,-37.08824285903911,100 174.95157331847022,-37.08824836809442,100 174.9515664317604,-37.08826607005284,100 174.95155931624097,-37.08828366762322,100 174.9515591055815,-37.08828418302133,100 174.95155169694524,-37.088301800738364,100 174.9515432711844,-37.088319019705935,100 174.9515368992015,-37.08832972732428,100 174.95152544064788,-37.08834568484495,100 174.95151331607292,-37.088360150885116,100 174.95150039873394,-37.08837542130289,100 174.95148899480796,-37.08838714908861,100 174.95147328312993,-37.08840041057074,100 174.9514566536851,-37.08841306797499,100 174.95145402442228,-37.08841508236713,100 174.95143842447828,-37.088428621404006,100 174.95142220056712,-37.08844151908032,100 174.95141946394668,-37.08844342708463,100 174.9514011913054,-37.08845434861475,100 174.95138172226476,-37.08846402262776,100 174.9513773076005,-37.08846603756557,100 174.95135749637615,-37.08847522240131,100 174.9513373202477,-37.08848377783374,100 174.95133182077618,-37.088486044960135,100 174.95131126569333,-37.08849408117625,100 174.95129065490275,-37.088501963284635,100 174.95128602625437,-37.088503750110775,100 174.95126572588606,-37.08851219942183,100 174.95124922591728,-37.08851898459286,100 174.9512286339377,-37.08852689882726,100 174.95120784247047,-37.088534536041635,100 174.95118699571174,-37.08854203536444,100 174.95116616892844,-37.08854961186543,100 174.95116591075157,-37.08854967830337,100 174.95114513574694,-37.08855729991406,100 174.95112454490064,-37.088565259176214,100 174.95112257438478,-37.088566069417034,100 174.95110265373685,-37.0885750694455,100 174.95108289614242,-37.08858432996254,100 174.95106743713544,-37.088591128620195,100 174.95104686434095,-37.08859913443877,100 174.95103690888283,-37.088602596085956,100 174.95101562147747,-37.088609189628514,100 174.95100607606685,-37.08861183877543,100 174.9509848043461,-37.08861838608882,100 174.95096373368239,-37.08862531583992,100 174.95096024976883,-37.088626555661236,100 174.9509396517757,-37.08863428157624,100 174.95091924156694,-37.08864248658527,100 174.9509108270252,-37.08864589041748,100 174.95089050500178,-37.08865420032211,100 174.95087277550866,-37.08866099305678,100 174.95085161038523,-37.08866766206848,100 174.95083019124397,-37.08867390173807,100 174.95081661771405,-37.0886781105862,100 174.95081085684686,-37.088680319801455,100 174.95073979070938,-37.088731947700495,100 174.95068347307517,-37.088774296587424,100 174.9506330255622,-37.08880592991196,100 174.95057823306652,-37.08883773565057,100 174.9505285243918,-37.08888156018335,100 174.95049405352503,-37.088924832058,100 174.95047914252783,-37.08896731884699,100 174.9504805054526,-37.088989983586885,100 174.9504828943307,-37.08903006771999,100 174.95048301792036,-37.08906850462051,100 174.95048458220015,-37.08909463509573,100 174.95048761044654,-37.08914517714183,100 174.9505102185903,-37.089194965321234,100 174.95052143382594,-37.08923647066435,100 174.95054860714336,-37.08928958337236,100 174.9505808475653,-37.089354716065074,100 174.9506094444111,-37.08939555235641,100 174.95066718838575,-37.08944923094329,100 174.9507036690264,-37.08947578459757,100 174.9507629552343,-37.089518919755314,100 174.9507997376878,-37.08955070398043,100 174.95085175737853,-37.089581904873995,100 174.9508949664518,-37.089611683400825,100 174.95092668107853,-37.08963141697604,100 174.9509526924069,-37.089665346816886,100 174.95097964204743,-37.089678305419376,100 174.9510220096197,-37.089694129623666,100 174.9510639905321,-37.089702991436475,100 174.9511081200391,-37.0897117998463,100 174.95115142552643,-37.089706638357065,100 174.95118700088418,-37.08971200671984,100 174.9512109976118,-37.08971299973504,100 174.95132499250394,-37.08973800515655,100 174.95141900040898,-37.08977399356955,100 174.95151499347145,-37.08981899272561,100 174.95157499651947,-37.08993899260816,100 174.95160000050464,-37.090059994041106,100 174.9515710001496,-37.09009999282198,100 174.95149300715823,-37.09017099567307,100 174.9514430064755,-37.09019199943801,100 174.95144199464423,-37.090192992186104,100 174.95142800880458,-37.0902060053403,100 174.9514130067612,-37.090217998742375,100 174.95140399328864,-37.090225998209874,100 174.95139100595804,-37.09023999985664,100 174.95137700283965,-37.09025299796752,100 174.95137300813937,-37.090257003241476,100 174.95135899382387,-37.09026899479878,100 174.951344002948,-37.09028199474426,100 174.95133699180246,-37.090285992887964,100 174.95132100239798,-37.090298004333505,100 174.95130400288392,-37.09030800541252,100 174.95130300794105,-37.09030899878273,100 174.95128500382935,-37.09031900287554,100 174.95127399358157,-37.09032499288733,100 174.95125599665857,-37.09033400544351,100 174.951241997997,-37.09034099369421,100 174.9512229949326,-37.090349993063676,100 174.95120900387784,-37.09035600599451,100 174.9511920043357,-37.09036600705816,100 174.95117699825522,-37.09037600324886,100 174.95115800197897,-37.090383995760504,100 174.95114200738243,-37.09038900698386,100 174.9511210035792,-37.0903939997055,100 174.95110699696113,-37.0903969935744,100 174.95108699813983,-37.09040199859076,100 174.9510790049253,-37.090404992627455,100 174.9510580083351,-37.0904089947066,100 174.95104800475963,-37.090411992986624,100 174.95102799307193,-37.09041899725596,100 174.95102499498722,-37.09041900423729,100 174.95100600590604,-37.09042600609371,100 174.95099700806816,-37.09042900223803,100 174.95097700203053,-37.090434998768735,100 174.95096700679596,-37.090437006392015,100 174.9509459938948,-37.09043800383422,100 174.95093599428122,-37.09043799805527,100 174.9509139976146,-37.09044099541091,100 174.95091299302004,-37.09044099842404,100 174.95089600400735,-37.090438995952844,100 174.9508740066194,-37.09043700740179,100 174.9508519959075,-37.09043700009134,100 174.95085100815857,-37.090437001925444,100 174.9508290003272,-37.09043899361448,100 174.95080799292148,-37.090442004413525,100 174.95080400669383,-37.09044199790763,100 174.95078199812318,-37.09043900278762,100 174.9507620009923,-37.09043600160278,100 174.95074099416394,-37.090431005360266,100 174.95071999700352,-37.09042700036895,100 174.9507140072507,-37.09042599215262,100 174.95069300440647,-37.090422993985875,100 174.95068100622328,-37.090420994981926,100 174.95065999371693,-37.090417005554244,100 174.9506519925278,-37.090416003393685,100 174.9506309965001,-37.09041199836782,100 174.95061600138283,-37.090410007210856,100 174.9505949930529,-37.09040499564507,100 174.95057499196156,-37.09039999634363,100 174.9505650052451,-37.09039799217111,100 174.9505440084713,-37.090394001562544,100 174.95052300169033,-37.09038900618152,100 174.9505200032135,-37.090388997834644,100 174.95049899641222,-37.09038400154837,100 174.95048000392194,-37.09038099820647,100 174.95045900109758,-37.090377999997614,100 174.95044200134492,-37.090375007124855,100 174.9504210013667,-37.09036900397642,100 174.95041399472487,-37.090366992220076,100 174.95039299190648,-37.09036399399933,100 174.95037900536755,-37.09036399788794,100 174.9503579996822,-37.09036400369285,100 174.95034600052597,-37.090364994234875,100 174.95032499593873,-37.09037000215066,100 174.950317991545,-37.090372993387696,100 174.95030000018272,-37.09038099897262,100 174.95029500651532,-37.090384000390316,100 174.95029200122215,-37.09038499888577,100 174.95027499585524,-37.09039600665111,100 174.95027200134535,-37.09039799638276,100 174.9502570034363,-37.09041200304469,100 174.95025100190503,-37.09041799618478,100 174.95023999875886,-37.09042799760672,100 174.95023400158416,-37.090436004146234,100 174.95022200569073,-37.09045200102662,100 174.9502189914575,-37.090456995967465,100 174.95020999403818,-37.09047300120117,100 174.95020799160866,-37.09047700160186,100 174.95019700144678,-37.09049299635519,100 174.95019099308698,-37.090499996340604,100 174.95018000331095,-37.0905160064079,100 174.95017799654417,-37.0905179943088,100 174.95016899913253,-37.09053400044061,100 174.95016300694948,-37.090549005376765,100 174.9501580061102,-37.09056599215463,100 174.95015499231584,-37.090583996242195,100 174.9501550034911,-37.09058500279431,100 174.95014899729597,-37.09060200701157,100 174.9501439957557,-37.09061400698741,100 174.9501389949085,-37.09063099376454,100 174.9501340056269,-37.09064900240899,100 174.9501320071532,-37.09065500089334,100 174.95012499593446,-37.09067199189981,100 174.9501189926043,-37.090685992083664,100 174.9501129975919,-37.09070400375229,100 174.95010999845738,-37.090712002426706,100 174.95010400302544,-37.09072999787863,100 174.9500990025554,-37.09074699996963,100 174.95009299746098,-37.090764004165834,100 174.95009099177008,-37.09077099418229,100 174.95008399894152,-37.090788001106894,100 174.950080999801,-37.09079599978064,100 174.95007400584353,-37.0908130067232,100 174.95007200127438,-37.09081999672087,100 174.95006799859624,-37.09083800355354,100 174.95006700871733,-37.0908409949803,100 174.95006300713862,-37.0908590008934,100 174.95006299992693,-37.090859992426104,100 174.9500589983465,-37.09087799833908,100 174.9500570071138,-37.090895999122246,100 174.95005699310596,-37.090897998403946,100 174.95005799313574,-37.09091699817687,100 174.95005900719707,-37.09093399956896,100 174.95006099500728,-37.09095299841494,100 174.95006200188158,-37.09097099224046,100 174.95006299793263,-37.090975000996785,100 174.9500619944328,-37.090992999051146,100 174.95006200060328,-37.090999999234135,100 174.95006099600167,-37.09101799820785,100 174.95006100721812,-37.091031998592285,100 174.95006199722548,-37.09104999269502,100 174.9500620055205,-37.09105400327901,100 174.9500610020433,-37.0910720022341,100 174.95005999856582,-37.09109000118912,100 174.9500599996492,-37.09109500330577,100 174.95006199428468,-37.09111299530306,100 174.9500640061596,-37.09113100143724,100 174.9500649961263,-37.09113600170753,100 174.95006600302904,-37.0911539964333,100 174.95006600517385,-37.09116399976557,100 174.9500660074266,-37.09118199569565,100 174.950065996712,-37.091193999191866,100 174.95006799172205,-37.09121200560315,100 174.95005999727377,-37.09120999655688,100 174.9500519971314,-37.0912089943396,100 174.95004400307639,-37.09120700060764,100 174.9500360029345,-37.091205998389256,100 174.95003399941922,-37.091204997571666,100 174.95002599815305,-37.09120399537112,100 174.9500170034329,-37.091204001827016,100 174.9500090032916,-37.091202999606814,100 174.9500009963307,-37.09120300423412,100 174.94999299902622,-37.09120400011608,100 174.94998900593754,-37.091205000432005,100 174.94998100293722,-37.09120700314274,100 174.9499740056661,-37.09120900282899,100 174.94996599545215,-37.0912119970714,100 174.9499590082287,-37.09121500332739,100 174.94995099799036,-37.091217996667936,100 174.94990500103597,-37.091230996316064,100 174.94845699187198,-37.09164099863095,100 174.947795022914,-37.09013839010904,100 174.94689668383725,-37.09046829499117,100 174.946809072759,-37.090315211896495,100 174.94640876622947,-37.09041975130466,100 174.94634032963674,-37.0901230512314,100 174.94623838481274,-37.08968110915529,100 174.94620119631514,-37.08948789086048,100 174.94642821747365,-37.08937823909853,100 174.94683989978626,-37.08897675986434,100 174.94506408140884,-37.08843481185253,100 174.94485257665593,-37.08837032212904,100 174.9447920030259,-37.08849800159141,100 174.9438999939775,-37.08839599956451,100 174.94390699183015,-37.08838099195625,100 174.94395199826374,-37.088286007307424,100 174.94402900374672,-37.088123001450015,100 174.94413499792367,-37.08789899784627,100 174.94383800652267,-37.08780799259854,100 174.94380600512616,-37.08779899521436,100 174.94363100184793,-37.08735600688481,100 174.94338100669387,-37.0873870023566,100 174.94330499548954,-37.08726599959834,100 174.94322799510041,-37.087139997337935,100 174.94321799908053,-37.08712399299821,100 174.94322899696442,-37.08710200518701,100 174.94319900618805,-37.0870930026163,100 174.9430170081207,-37.08703800132932,100 174.94280600620178,-37.086973995334176,100 174.94288700398235,-37.08680000024724,100 174.94271500415522,-37.086752996682584,100 174.94273999861682,-37.08668299510927,100 174.94270100389608,-37.08645699193638,100 174.94253599245178,-37.08640699757311,100 174.94248099276987,-37.08644199445009,100 174.94218500816393,-37.08639299817559,100 174.942157340574,-37.0861970996891,100 174.94174709324994,-37.08629941658168,100 174.9417216402318,-37.08611702985638,100 174.9416961367748,-37.0859346448465,100 174.9415320246462,-37.085975822085544,100 174.9415192897108,-37.08594301558343,100 174.94146475459084,-37.085802749039146,100 174.941773354654,-37.08572576316196,100 174.942025607137,-37.08566284210378,100 174.94208000111152,-37.08564899776073,100 174.94205299334004,-37.085454992832915,100 174.94203499939275,-37.08532500559374,100 174.94200599373553,-37.08511900298506,100 174.94197700718948,-37.08490999515538,100 174.94195199607017,-37.084730991847934,100 174.94192800124492,-37.084557996088165,100 174.94188928322217,-37.08428092555121,100 174.94188302866436,-37.08423623310281,100 174.94189522380407,-37.08406093119112,100 174.94149269776932,-37.08416134328519,100 174.9415059957622,-37.08396900162044,100 174.94151900890716,-37.08377700530104,100 174.94164900670285,-37.08374500314876,100 174.9415739982995,-37.08355100634329,100 174.94155399782343,-37.08349999293062,100 174.94191300071552,-37.08340999322483,100 174.9419239950972,-37.08325500164997,100 174.94186300843631,-37.08321700456419,100 174.94184593166753,-37.08303104486643,100 174.94191513610238,-37.08295989570225,100 174.94193028624395,-37.082742710278964,100 174.9416025069189,-37.08274796159673,100 174.9415212001166,-37.08276795609571,100 174.94152065795535,-37.082768399395036,100 174.9413938562462,-37.082800035406365,100 174.94118520522704,-37.08285210705461,100 174.94097653667265,-37.08290416420486,100 174.94076786820838,-37.08295623631098,100 174.94074983211382,-37.082960740574435,100 174.9405403715366,-37.08301299559329,100 174.94036978721326,-37.08305552719297,100 174.94033087623436,-37.0830652679376,100 174.94001661488736,-37.08285927597215,100 174.93999268511092,-37.082797848197465,100 174.93992542082592,-37.08262474157546,100 174.9399144234416,-37.08259636601126,100 174.93985817492333,-37.08245163731007,100 174.93984714158583,-37.082423261425255,100 174.93979085730732,-37.08227848730459,100 174.93978122436144,-37.08225367833049,100 174.93972355915318,-37.08210538199856,100 174.93971528906448,-37.08208408016489,100 174.93965627894517,-37.0819322619318,100 174.9396493544901,-37.08191449816599,100 174.93958892697805,-37.08175905015982,100 174.93955110715913,-37.08166181690976,100 174.9395277525352,-37.081601694591264,100 174.939463463323,-37.08143638829998,100 174.93978977290095,-37.08135497120214,100 174.93988731521003,-37.08133062941616,100 174.94006421217586,-37.08128650000937,100 174.94028667797008,-37.081230975866475,100 174.940420636493,-37.08119757276627,100 174.94050916182735,-37.08117546723681,100 174.94066050157906,-37.081137710062926,100 174.9407316438051,-37.08111994200031,100 174.94095414345531,-37.081064416961375,100 174.94117660937522,-37.08100890557959,100 174.94143839657684,-37.0809435702728,100 174.94153084464338,-37.08092048043629,100 174.94163477196076,-37.080894551845425,100 174.9416629979468,-37.08088699915318,100 174.94168099299353,-37.08063200402786,100 174.9420762755985,-37.08064967161212,100 174.94208637578754,-37.08050488638036,100 174.9420331074515,-37.08045711822453,100 174.94204342595518,-37.08030898293271,100 174.94210302501088,-37.080266286040455,100 174.94211249182334,-37.08013049431346,100 174.94167799750198,-37.08011100487744,100 174.94168900649333,-37.07994599158484,100 174.9416950033667,-37.07986900627636,100 174.94169699426521,-37.07984100038793,100 174.94147379857023,-37.07989068611498,100 174.94133747052786,-37.07992105127849,100 174.94113929807335,-37.07996519290184,100 174.94109564109993,-37.079974910641404,100 174.9409843983221,-37.07965964602623,100 174.94149788184538,-37.0795433399135,100 174.94150599784737,-37.079433002882105,100 174.94150899430852,-37.079386998924235,100 174.94151700759392,-37.07926800579619,100 174.94151999509143,-37.07923099954539,100 174.9415279931367,-37.07910400142059,100 174.94152999835615,-37.079073997140426,100 174.94154099907945,-37.078917997754395,100 174.94219473252704,-37.078946940895186,100 174.94220220604754,-37.07883906224326,100 174.94213754901375,-37.07878118255093,100 174.94214895073648,-37.07861661340838,100 174.94156400272487,-37.07859100674959,100 174.94157499874993,-37.078427991798556,100 174.9415859993697,-37.07827199329855,100 174.94159700728693,-37.0781150032576,100 174.9416020019211,-37.07804000185897,100 174.94160399646287,-37.07800900723229,100 174.94157700821205,-37.077846006832345,100 174.9415929988072,-37.07784400187779,100 174.94178300051527,-37.07782399558521,100 174.9417500008842,-37.07763000463007,100 174.94153499138108,-37.07765299897079,100 174.94155700012342,-37.07740400278944,100 174.9416469945468,-37.077395003271484,100 174.94160500830233,-37.07711799211759,100 174.94175700184408,-37.07710399440653,100 174.9417619984345,-37.07692100055902,100 174.94174799615936,-37.07671599834489,100 174.94187600017935,-37.07672099957246,100 174.94188299780058,-37.07659299661181,100 174.94188400265276,-37.076569994589626,100 174.94189299309204,-37.076419004065734,100 174.94190200106237,-37.07626799612658,100 174.94191025812978,-37.076117405161064,100 174.94238487467373,-37.0761348884147,100 174.94239116818022,-37.07602512642346,100 174.94239105194237,-37.07601849934972,100 174.94238993361674,-37.0760119220404,100 174.94238783053308,-37.07600550056361,100 174.94238478225566,-37.07599933070904,100 174.94239215363,-37.07579780167325,100 174.94238674909815,-37.07580283918911,100 174.94238063584234,-37.07580730067513,100 174.9423738985329,-37.07581115410028,100 174.94236662287057,-37.07581431964838,100 174.94235891000048,-37.07581674969661,100 174.94235091694347,-37.07581842635062,100 174.94234271074805,-37.07581933228878,100 174.94233443078798,-37.07581941926208,100 174.9419283321424,-37.075804486324785,100 174.94193758815226,-37.075643098671996,100 174.9419460029855,-37.07549199317562,100 174.94194899169364,-37.075441993898465,100 174.94195499324704,-37.07534100172739,100 174.94196399417413,-37.07519100241982,100 174.94196500270985,-37.07516999758834,100 174.94196900618343,-37.07509800375974,100 174.94197100004806,-37.07506200697407,100 174.94197199752622,-37.07503999558365,100 174.94198100461122,-37.07488900475029,100 174.9419869945746,-37.07478200476848,100 174.9419900054734,-37.07473900543295,100 174.94246499885165,-37.07473800408014,100 174.942536995198,-37.07473799982529,100 174.94257700012858,-37.07419400512693,100 174.94201199321205,-37.0741949923283,100 174.94201199149208,-37.07401300138525,100 174.9420120004561,-37.073832001680124,100 174.94201100506274,-37.07365100490111,100 174.94261800864652,-37.07364999213244,100 174.9426239978531,-37.073566007437854,100 174.94264000408936,-37.07346900173414,100 174.9426699945829,-37.073286999774474,100 174.9420109940478,-37.07328799920045,100 174.94201100306842,-37.07310699857346,100 174.94201099528937,-37.0729260000193,100 174.94201099331718,-37.07274399372387,100 174.94201000592534,-37.072671995991676,100 174.94203799874836,-37.0726630067979,100 174.9422470080719,-37.07259500497691,100 174.94245699344486,-37.07252599358027,100 174.94266600820583,-37.07245700042199,100 174.94245191353218,-37.072037926884946,100 174.942496991934,-37.07182599559744,100 174.94250699443253,-37.07148099396618,100 174.94247799381833,-37.07142899601356,100 174.94239200293893,-37.07127699628365,100 174.94241099925645,-37.071271003360735,100 174.94242600301519,-37.07126599515635,100 174.94245600818851,-37.07108699785336,100 174.94248547809156,-37.07090686377009,100 174.9425150822595,-37.070727191640735,100 174.94252800458005,-37.07064700042154,100 174.94306699580542,-37.07047600721829,100 174.94312099904786,-37.07050999401914,100</coordinates></LinearRing></outerBoundaryIs>
    </Polygon>
  </Placemark>

  <Placemark>
    <name>Ōpaheke</name>
    <Point>
      <altitudeMode>relativeToGround</altitudeMode>
      <coordinates>174.97463443739255,-37.088511721499344,100</coordinates>
    </Point>
  </Placemark>

</Document>
</kml>