<?xml version="1.0" encoding="utf-8"?>
<kml xmlns="http://www.opengis.net/kml/2.2">
<Document>
  <name>Orakei (polygon: official_shp)</name>
  <open>1</open>

  <Placemark>
    <name>Orakei (polygon: official_shp)</name>
    <Style>
      <LineStyle><color>ffff0000</color><width>2</width></LineStyle>
      <PolyStyle><color>66ff0000</color><fill>1</fill><outline>1</outline></PolyStyle>
    </Style>
    <Polygon>
      <tessellate>1</tessellate>
      <altitudeMode>relativeToGround</altitudeMode>
      <outerBoundaryIs><LinearRing><coordinates>174.8162030340997,-36.863409528943784,100 174.81619536788025,-36.8634040732872,100 174.81617048754305,-36.86338169756108,100 174.8161620675103,-36.86337291926076,100 174.81613142714136,-36.863344338441166,100 174.81610622059696,-36.86331543120024,100 174.81609475097446,-36.86329975110881,100 174.8160823709937,-36.86328622379989,100 174.81606767602202,-36.86327337091901,100 174.81604771456784,-36.86325540232795,100 174.81602277431213,-36.86323665175607,100 174.81600812173622,-36.86322345661329,100 174.81598989353753,-36.86320767430109,100 174.81597568222924,-36.86319482843766,100 174.81594809881855,-36.86317279141512,100 174.81592003639295,-36.86315293212306,100 174.81589249776502,-36.86312799931217,100 174.81588364420745,-36.863118484915724,100 174.8158783621259,-36.863110102997155,100 174.8158747964145,-36.86310788702489,100 174.81587257807556,-36.86310567840294,100 174.8158602570346,-36.86308781384243,100 174.81583948435585,-36.86306258112823,100 174.81580994146097,-36.86302315480144,100 174.81579316238293,-36.86300195942289,100 174.8157737825803,-36.862973868005746,100 174.81576049277075,-36.86295924141507,100 174.81574320405227,-36.86294238924219,100 174.81573037228506,-36.86292810987349,100 174.81571659613854,-36.862916015351026,100 174.81569876495172,-36.86290349426744,100 174.81567743720282,-36.86288480559102,100 174.8156569724262,-36.86286935484233,100 174.81563604084704,-36.862853896801475,100 174.81561462675893,-36.862839189731694,100 174.8155932715226,-36.862823366806204,100 174.81556787464,-36.86280569209607,100 174.81556608264015,-36.86280386542947,100 174.81555315264856,-36.86279576619881,100 174.81553188577942,-36.86277343787202,100 174.8155297133259,-36.86276833255006,100 174.81552048669488,-36.86275447307707,100 174.81551654632,-36.86274718379056,100 174.8155117452592,-36.86273736859138,100 174.81550383469585,-36.86272494286318,100 174.81549590842735,-36.86271327539785,100 174.81548753594345,-36.86270232860768,100 174.8154852802072,-36.862698801835606,100 174.81546453800001,-36.862541782999976,100 174.81540004800001,-36.86242959299994,100 174.81525565798742,-36.86235067968147,100 174.81522107495556,-36.862323874404076,100 174.8152036327619,-36.862314984190476,100 174.81519518315358,-36.862308359560934,100 174.81514739119464,-36.86228067142381,100 174.81514028358464,-36.86227515476232,100 174.8151305160521,-36.86226635280351,100 174.81512735875518,-36.862265229297456,100 174.81512470953732,-36.86226301282138,100 174.81512385039517,-36.862261215161546,100 174.81512476269697,-36.86225975998906,100 174.81511761644455,-36.86225607092451,100 174.81510501312013,-36.86225447159451,100 174.8150923891539,-36.86225541344464,100 174.81508433410326,-36.86225133626472,100 174.8150741012985,-36.862243255266534,100 174.81506121008061,-36.86223261632402,100 174.81504647489137,-36.86222482763028,100 174.81503309205775,-36.86221526608,100 174.8150175494176,-36.86220170043523,100 174.81500637871986,-36.86219541479728,100 174.81499514800473,-36.86219346730397,100 174.8149853040008,-36.862189018151206,100 174.81497455274504,-36.86218491004053,100 174.81496474436548,-36.862177177676045,100 174.81495674674807,-36.86216803590413,100 174.81495054918287,-36.86216035113732,100 174.81494219486206,-36.86214613578422,100 174.81493519864495,-36.86213299841501,100 174.81493311536187,-36.86212137055266,100 174.81493417413336,-36.86211230857212,100 174.81493469723836,-36.862107251297566,100 174.81493525131194,-36.86209999428998,100 174.8149349160401,-36.86209312401968,100 174.8149336257195,-36.862088747011164,100 174.81493109435937,-36.86207785607492,100 174.81493071359554,-36.86207385184673,100 174.81492776935525,-36.86206039660638,100 174.81492567232533,-36.862050226414105,100 174.81491074546463,-36.8620232376656,100 174.8149094562681,-36.8620188606396,100 174.81490545364383,-36.86201448359714,100 174.81489471773418,-36.862009647866174,100 174.81488839851264,-36.862008484317634,100 174.81487799707205,-36.86200982123389,100 174.81486573822514,-36.86201476842825,100 174.81485124313673,-36.86201750635135,100 174.81481423922406,-36.86201709357815,100 174.81479748258914,-36.8620205357286,100 174.81477264838696,-36.86202098622751,100 174.8147437959091,-36.862017772869066,100 174.81471100545153,-36.86200869426261,100 174.81468675520694,-36.862000446945125,100 174.81465892402343,-36.86199071122322,100 174.81464055828062,-36.8619821784382,100 174.81461184817962,-36.86196990264253,100 174.81459390836966,-36.861962446751505,100 174.81457779150648,-36.86195466557812,100 174.81455716851343,-36.861945737313654,100 174.81452622023403,-36.861933065738945,100 174.81450111594492,-36.86192190568782,100 174.8144773521171,-36.86191112535511,100 174.81445581609714,-36.861902909550516,100 174.81443655152617,-36.861894360714544,100 174.8144163307817,-36.86188759399622,100 174.81439881953435,-36.86188198918486,100 174.8143799640883,-36.8618752295539,100 174.8143651502521,-36.86187037041557,100 174.81435255388823,-36.861867686590955,100 174.81433590292482,-36.861864592375454,100 174.814325964544,-36.86186449716021,100 174.81431240119926,-36.861865794876735,100 174.81430878815974,-36.861865747291915,100 174.8142993468115,-36.86186347496912,100 174.81427821604964,-36.861858876315395,100 174.8142521229859,-36.86185352509704,100 174.81422828381335,-36.861847098416504,100 174.81421208170127,-36.86184401085036,100 174.8141819205833,-36.86183896058217,100 174.8141584804787,-36.86183726611891,100 174.81413274632334,-36.861836988423825,100 174.81411514330108,-36.861837130989635,100 174.81410022493748,-36.86183952015682,100 174.8140852419539,-36.86184406269957,100 174.81406216035467,-36.86184742554938,100 174.81404360638226,-36.861850852670436,100 174.81402821392538,-36.861853590672915,100 174.81401054960344,-36.8618566914432,100 174.8140105148429,-36.86185669197388,100 174.8140069381141,-36.861857326137034,100 174.813986638451,-36.861856755433536,100 174.81397178635353,-36.861854404347234,100 174.81395240738328,-36.86185273257092,100 174.8139298864671,-36.86184849758474,100 174.81392266076296,-36.86184770655443,100 174.81390286245397,-36.86184385993784,100 174.8138835906934,-36.861835668050034,100 174.81387702748628,-36.86183443155823,100 174.81386108660516,-36.86183143279382,100 174.81384625822716,-36.86182799702213,100 174.81383909114865,-36.8618228534404,100 174.81382437031252,-36.861813623136264,100 174.81381319678167,-36.86180588267036,100 174.8137988747698,-36.86179738987742,100 174.81378502070814,-36.86178890526234,100 174.81377293337883,-36.86178260465521,100 174.8137630581362,-36.86177958088881,100 174.81374911946875,-36.86177582056287,100 174.81373475231533,-36.86177021002305,100 174.81371731620698,-36.8617602360877,100 174.81370123514787,-36.86174917158027,100 174.81368877441955,-36.861738510591,100 174.81367675675642,-36.8617282286095,100 174.81365934717113,-36.861714630888684,100 174.8136397427314,-36.8616977254124,100 174.81362455701256,-36.86168923135947,100 174.81360937485007,-36.861678182863194,100 174.81359731555128,-36.861668985816365,100 174.81358347684323,-36.861659772663,100 174.8135736387817,-36.861654239894065,100 174.81355753553942,-36.861644987391045,100 174.8135472670705,-36.861636905900596,100 174.81352401584283,-36.86162322065545,100 174.81351104238595,-36.86161473608739,100 174.81349320193954,-36.86160184255149,100 174.81348561124844,-36.861596334062355,100 174.81347000434587,-36.86158492067947,100 174.8134566352541,-36.86157388685492,100 174.8134490361825,-36.86156873542045,100 174.8134365682112,-36.86155842964069,100 174.8134280928453,-36.86155146456971,100 174.81341734566294,-36.8615455283433,100 174.81341378884238,-36.861542970552726,100 174.81339819353636,-36.86152938926917,100 174.81338840257845,-36.86152167182761,100 174.81337366093726,-36.86151098702647,100 174.81336653668313,-36.86150546960844,100 174.8133584777033,-36.861499937611974,100 174.81334867685797,-36.86149184896734,100 174.8133451250958,-36.86148817614436,100 174.81333532461537,-36.861480102815705,100 174.81332509600227,-36.86147019368826,100 174.81331262880897,-36.86145991942987,100 174.8133041293841,-36.861454023701754,100 174.8132974482235,-36.86144959824662,100 174.81328804152722,-36.861444042646404,100 174.81328181768052,-36.8614392704078,100 174.81326350244356,-36.861426740109394,100 174.81324693433214,-36.86141822293664,100 174.81323843864894,-36.86141376658079,100 174.81322544304606,-36.86140709490585,100 174.81321065848536,-36.86140005033501,100 174.8132012686181,-36.86139378241519,100 174.81319548334307,-36.86138862942488,100 174.81318792482617,-36.86138239214524,100 174.8131757228205,-36.86137697743648,100 174.81317259131245,-36.861371531575955,100 174.81317046573812,-36.86136356014365,100 174.81317007644324,-36.86135596331153,100 174.8131679988756,-36.86134257141081,100 174.81316807357405,-36.86133752098444,100 174.8131672901269,-36.86132739020079,100 174.81316697404623,-36.861320565598064,100 174.8131652405765,-36.86131110187858,100 174.81316123543604,-36.861305283576684,100 174.81315767305713,-36.86130054372749,100 174.8131563384001,-36.861299079592236,100 174.81315141946763,-36.86129398999347,100 174.8131410982036,-36.86128846456071,100 174.8131347882419,-36.86128768925235,100 174.81312262909427,-36.861283232905784,100 174.81311497566205,-36.86128062044193,100 174.8131095725906,-36.86127948878629,100 174.813105513507,-36.861276893583195,100 174.8131040277744,-36.86127558678243,100 174.81309969495626,-36.861271803287906,100 174.81309164591235,-36.861265930415826,100 174.8130911962925,-36.86126593817775,100 174.81308131663053,-36.861260777352044,100 174.81307231211096,-36.861256717223974,100 174.813064186462,-36.861255197171126,100 174.81305089900187,-36.86125288158195,100 174.81304660313904,-36.86125213322266,100 174.81304165695687,-36.861250636761994,100 174.81303501706122,-36.86125042440971,100 174.81295440737247,-36.8612706644253,100 174.8129395552109,-36.86127162742297,100 174.8129252069874,-36.861269374873686,100 174.81290724113225,-36.861268160875305,100 174.812861525907,-36.86125310478947,100 174.8128439813193,-36.861249543583504,100 174.8128395517684,-36.86124864402912,100 174.81283552275625,-36.86124717863379,100 174.8128148537722,-36.86124701625975,100 174.81279820259036,-36.86125050338809,100 174.81275905872562,-36.86125416871654,100 174.8127527835088,-36.86125339195639,100 174.81272222853994,-36.86130600491411,100 174.81252449020252,-36.86122515559899,100 174.81262564357573,-36.86106745061929,100 174.81261636620798,-36.8610562551316,100 174.81260612722014,-36.86104789459419,100 174.81259638531554,-36.86103811678282,100 174.81258882103901,-36.861032296870384,100 174.8125648494744,-36.86101089616344,100 174.81255593710702,-36.86100508419412,100 174.81254750893305,-36.86099531518152,100 174.812542178942,-36.86099167306398,100 174.81252937473346,-36.860975766902484,100 174.81250129350238,-36.86095646408825,100 174.81249732074275,-36.860953200557994,100 174.81248928541427,-36.86094918689193,100 174.81248839158897,-36.86094738974078,100 174.81248617755327,-36.86094663844846,100 174.81245910429917,-36.860920906337796,100 174.81243737640455,-36.86089808963165,100 174.8124231566708,-36.86088754997493,100 174.81241243092836,-36.86088241912277,100 174.81238395900235,-36.86086134209923,100 174.81235154596772,-36.86083230959357,100 174.81234218514095,-36.860826505348996,100 174.8123280295499,-36.860809135274835,100 174.81231472984618,-36.86079608757386,100 174.81230093605316,-36.86078662571343,100 174.81229155337698,-36.86078260283906,100 174.81228397380048,-36.86077822257432,100 174.8122582529492,-36.860755318914116,100 174.81224270426634,-36.86074545297254,100 174.812234236545,-36.860742127293754,100 174.8122279993158,-36.86073882528203,100 174.81222177629414,-36.8607340827174,100 174.8122093762317,-36.86072174776075,100 174.81220094214547,-36.860716996553364,100 174.81217463169946,-36.86070593371215,100 174.8121630882512,-36.860698616947445,100 174.81213592606244,-36.860684688217965,100 174.8121310216239,-36.86068281973126,100 174.81212790217361,-36.86068243916939,100 174.81212660007952,-36.86067955041356,100 174.81209991479653,-36.86066273192805,100 174.81206475864312,-36.860644400381204,100 174.81205717406922,-36.86064180212034,100 174.8120473954668,-36.86063521465191,100 174.8120389277741,-36.860631176902494,100 174.8120117925487,-36.860614350836705,100 174.81199312878073,-36.860602291641854,100 174.81197394830565,-36.86059561589523,100 174.81194903463845,-36.860583136434045,100 174.81192451727676,-36.86057390114447,100 174.8119151124066,-36.86057235635262,100 174.81190532445135,-36.86056936174281,100 174.81188877660566,-36.86056558329462,100 174.8118815979307,-36.86056658778512,100 174.81185208285703,-36.860564452803935,100 174.81184449831906,-36.86056185543005,100 174.81182448611804,-36.8605497879263,100 174.81181466340894,-36.86054679383883,100 174.81179735358208,-36.86053369004942,100 174.81179203787337,-36.8605286073433,100 174.811784050075,-36.86052313544212,100 174.81177691404866,-36.86051981826779,100 174.81174446581852,-36.860499349727185,100 174.81173692506036,-36.86049243067053,100 174.81171735594882,-36.86048145512178,100 174.8117089181948,-36.86047526359844,100 174.81170224633735,-36.86047122458234,100 174.81168367637696,-36.86045021363361,100 174.8116806251651,-36.86044516940452,100 174.81167676548853,-36.86043039855829,100 174.81167326022793,-36.86042317911545,100 174.8116676718192,-36.86040374406969,100 174.81166192542346,-36.860395432125046,100 174.8116527541278,-36.86037703326047,100 174.81165020606795,-36.86036479500135,100 174.81164673109078,-36.860356150082495,100 174.8116440626029,-36.860352540353304,100 174.8116325338589,-36.860343799199114,100 174.81159684625007,-36.86033154701686,100 174.81159154702652,-36.860326448727236,100 174.81156250018202,-36.860321099578016,100 174.81155175060255,-36.86032098675117,100 174.8115401083571,-36.86031978970428,100 174.81151827310416,-36.860312692871176,100 174.8115129045202,-36.86031154529311,100 174.81150395917643,-36.860311075968035,100 174.8114816561772,-36.86030720943932,100 174.81146337614092,-36.86030194219075,100 174.81144641538486,-36.86029886760922,100 174.81143439329824,-36.8602936969405,100 174.81142369120022,-36.86029212681795,100 174.81141300952783,-36.8602873359067,100 174.81140451046664,-36.86028543475735,100 174.81139877080642,-36.860280684779696,100 174.81138138159312,-36.86027509297722,100 174.81137383765832,-36.86027069768808,100 174.81136671923684,-36.860268076953446,100 174.8113257165022,-36.86024220899793,100 174.81132053468505,-36.860236333756504,100 174.81131442150578,-36.860231155925376,100 174.81131051319093,-36.860226389744476,100 174.81130711077105,-36.860219818586295,100 174.81129757030635,-36.86020915428312,100 174.811293300862,-36.86020111183913,100 174.8112898582237,-36.860196352980445,100 174.81128290904653,-36.86018826215163,100 174.81127775904037,-36.860180930764315,100 174.8112738339168,-36.860176877795794,100 174.8112650413946,-36.86017166779534,100 174.81125580486128,-36.86016860343458,100 174.81123144149996,-36.860165264900814,100 174.81122614864017,-36.86016371325775,100 174.81117195330955,-36.86016063113562,100 174.81116031619885,-36.86015898510708,100 174.81115675953683,-36.86015709333215,100 174.81114882559007,-36.860149670073156,100 174.81114528759684,-36.860148521616246,100 174.8111140302225,-36.860118044329454,100 174.8110825007205,-36.860102933567106,100 174.81107537282102,-36.860100623018965,100 174.8110647200517,-36.860094963647725,100 174.81105103735223,-36.86008378109506,100 174.81104350772185,-36.8600792774059,100 174.81102536260926,-36.860066559384386,100 174.81101560066216,-36.86006128842779,100 174.81100277805902,-36.860051948613254,100 174.81099839235097,-36.860046772378546,100 174.8109854320513,-36.8600447147587,100 174.81095835489245,-36.860020825585856,100 174.81092192819204,-36.85999283630283,100 174.81089027712218,-36.85996843635995,100 174.81088354749494,-36.85996218359213,100 174.81088193600598,-36.85996067858223,100 174.81086316633164,-36.859943262370564,100 174.81086252867246,-36.85994266909388,100 174.81085836803064,-36.85993880627703,100 174.81085399950248,-36.85993297900962,100 174.81085225663386,-36.85993042233862,100 174.81082442741214,-36.859905508958825,100 174.81081645806557,-36.85990071811993,100 174.81081071698634,-36.859895239854154,100 174.8107806189506,-36.859872098816204,100 174.8107651152157,-36.85985998676008,100 174.81075329457823,-36.859844668403554,100 174.81073740781522,-36.859831107422686,100 174.81072985329163,-36.85982630755242,100 174.81072367181366,-36.85982117940265,100 174.81067741074307,-36.859796390026276,100 174.81067343815738,-36.85979379341948,100 174.81066464523403,-36.85978395231003,100 174.81066249879484,-36.859778505790004,100 174.81065361382707,-36.85977370004921,100 174.81064559404683,-36.859769622924475,100 174.8106367708327,-36.85976192024574,100 174.81062924854206,-36.859756394301456,100 174.8106203555199,-36.85975196003167,100 174.81060485293378,-36.8597405599925,100 174.8105959964502,-36.85973287314026,100 174.81057520497222,-36.85971742556253,100 174.8105680840689,-36.85971336538151,100 174.81054782629465,-36.85969253679686,100 174.81053641546035,-36.859679038282096,100 174.81052845053483,-36.859672436569795,100 174.81049718627307,-36.85964098307008,100 174.81049141269423,-36.85963693029714,100 174.8104892129125,-36.85963473661036,100 174.81048443505966,-36.859627104779165,100 174.81046985512327,-36.859614636099415,100 174.81044480677608,-36.859608879636134,100 174.81044430890321,-36.8596103122356,100 174.81042106924968,-36.85960495904894,100 174.81041303561895,-36.85960233777837,100 174.8104058587494,-36.85960080128232,100 174.8103911476442,-36.85959518024584,100 174.81038581708336,-36.85959221854645,100 174.81037868193795,-36.859589598005954,100 174.81034936788927,-36.85957262357551,100 174.81034178239216,-36.859569979248526,100 174.81033112972466,-36.85956298763178,100 174.81030379137977,-36.85953699766061,100 174.81028869169228,-36.859527789801675,100 174.81028167426817,-36.8595197468207,100 174.81022829630743,-36.85946922976218,100 174.81022481941739,-36.85946377556048,100 174.81022126279873,-36.85946121766794,100 174.81021732021463,-36.85945646819536,100 174.8101997145482,-36.859415446150166,100 174.8101830497011,-36.85939395256026,100 174.81017918535468,-36.85938557761802,100 174.81017521095688,-36.85938157133031,100 174.8101721672004,-36.85937683700632,100 174.81016819244206,-36.85937281540112,100 174.81014512321437,-36.85935880222015,100 174.81011604536607,-36.859351548657635,100 174.8101106541767,-36.859352196822776,100 174.81009044735148,-36.859351205809865,100 174.81008064131726,-36.85934819599898,100 174.81006281376182,-36.859340366346785,100 174.81004992194266,-36.85933297977602,100 174.81003892907404,-36.85932093140505,100 174.81003102014128,-36.85931180235721,100 174.81000059911548,-36.85928289026556,100 174.8099939424746,-36.85927810911818,100 174.80998201275105,-36.8592678560542,100 174.8099607313697,-36.85925350283966,100 174.80995633958113,-36.85924872955475,100 174.80994699521014,-36.859243559406124,100 174.80992662912587,-36.85922849280593,100 174.80992133812342,-36.859223735018865,100 174.80991557560526,-36.85922005339934,100 174.8098533231251,-36.85916510155775,100 174.8098408238749,-36.85915623800199,100 174.8098203290255,-36.85913889656636,100 174.8098087074273,-36.85913186107163,100 174.80980294012926,-36.85912669231293,100 174.80979541941014,-36.8591178989426,100 174.809790037348,-36.85911493890131,100 174.80977401917457,-36.85910164207672,100 174.80976035688676,-36.859082606608794,100 174.80972132951527,-36.858992063189795,100 174.80971645959792,-36.85898618222322,100 174.80970987649536,-36.85897557639949,100 174.80970247866406,-36.85896024555509,100 174.80969941741256,-36.85895548083911,100 174.80969288620508,-36.85894160597524,100 174.80968799254347,-36.858936810578996,100 174.8096767099671,-36.858911617877155,100 174.80967861656686,-36.85890656658954,100 174.80967371195763,-36.85890668094322,100 174.80953608496986,-36.85876331634397,100 174.8095311119513,-36.85876076738047,100 174.80952256221065,-36.85875095312394,100 174.80950772837585,-36.8587433049333,100 174.8094145367246,-36.858695829182686,100 174.80938793216836,-36.85868599420189,100 174.8093824264982,-36.85868159568657,100 174.80936819519934,-36.85867319379863,100 174.80935162150342,-36.858658783208135,100 174.8093479877765,-36.858655616257074,100 174.80932768630075,-36.85862515462583,100 174.80930862310203,-36.85857000273124,100 174.8093067153037,-36.85855711832028,100 174.80930533287756,-36.85855381343486,100 174.80930530980754,-36.85855159829899,100 174.8093002303149,-36.85854167890872,100 174.80929835837455,-36.85853616598956,100 174.8092821915075,-36.858504567000494,100 174.8092780313416,-36.85849943323264,100 174.80926325827082,-36.85847556902635,100 174.80926186448377,-36.858471163780436,100 174.80926047913286,-36.85846968504839,100 174.80925721194205,-36.85845903862421,100 174.809253793969,-36.85841745158459,100 174.8092529383052,-36.858416459621665,100 174.80925269614806,-36.85841575125223,100 174.80925234240738,-36.85841411620425,100 174.80925332279426,-36.85841264381452,100 174.80925374128475,-36.8584041810956,100 174.80924756906128,-36.858366280098195,100 174.80924599816694,-36.85833057860877,100 174.809241766633,-36.85830814655796,100 174.8092359935604,-36.85825772711647,100 174.80923129050623,-36.85823308855957,100 174.80922968412435,-36.85819074385155,100 174.80923190684464,-36.85817859603474,100 174.80923097398943,-36.858175281599124,100 174.80923946317785,-36.858138434564204,100 174.80924897598092,-36.858122927330065,100 174.8092637484515,-36.85806138171962,100 174.80926826705345,-36.858051796599455,100 174.80928471491495,-36.85796374057839,100 174.80928464174303,-36.857952312734156,100 174.8092868538009,-36.85793647860842,100 174.8092902800119,-36.85789559765844,100 174.809291641226,-36.8578908205749,100 174.80929332173326,-36.85786319423289,100 174.80929306264383,-36.85781752831198,100 174.80929519711867,-36.85778808156656,100 174.8092987931138,-36.85777628328802,100 174.80930196038017,-36.85777184735203,100 174.80930915763525,-36.8576609949408,100 174.80930867036733,-36.8576562180609,100 174.80931133971148,-36.857643318936816,100 174.8093140098082,-36.85763373401899,100 174.8093171320246,-36.85761568586904,100 174.8093161955282,-36.857614214724286,100 174.8093196970537,-36.85758290302618,100 174.8093295817688,-36.85755120570706,100 174.80933177152133,-36.85753314201051,100 174.80933528549684,-36.85750625929438,100 174.8093506274092,-36.85745724011506,100 174.8093880350001,-36.85739987299996,100 174.80938631264343,-36.857384936262015,100 174.80938767723856,-36.85738270569026,100 174.80941455926904,-36.857360137878025,100 174.8094346016024,-36.85734494800316,100 174.809443676758,-36.85733386126695,100 174.80946496168366,-36.85729145641015,100 174.80947309150966,-36.85727262625507,100 174.80947583217932,-36.85727041139668,100 174.80948082557526,-36.857260463009865,100 174.80948442698875,-36.85725417632155,100 174.8095020028101,-36.85720402776445,100 174.80950197060426,-36.85719814342247,100 174.80950422363333,-36.85719113636704,100 174.8095080743565,-36.85714143656695,100 174.80951028127845,-36.85713000104106,100 174.80950873957573,-36.857095397835465,100 174.80950777564917,-36.857090242442105,100 174.80950768483268,-36.857072217075114,100 174.80950675198113,-36.85706890264104,100 174.80951075170643,-36.85704606944199,100 174.80951071618637,-36.85703942622417,100 174.8095120448458,-36.85703536259152,100 174.80950968706702,-36.857019187039064,100 174.8095118888563,-36.857002254333686,100 174.8095109105893,-36.85699192458002,100 174.8095082870804,-36.85693047167991,100 174.8095068640043,-36.85692163680776,100 174.8095072381926,-36.85690615965122,100 174.80950706464586,-36.85687634965405,100 174.80950475780054,-36.85686937327757,100 174.80950375869898,-36.856857589082104,100 174.80950188089687,-36.85684654654792,100 174.80949978425687,-36.85679797024321,100 174.80948672740269,-36.856753835880205,100 174.80948623392035,-36.856746845410065,100 174.80948203027359,-36.85673139740222,100 174.809473165369,-36.856700882409264,100 174.80947119098013,-36.85667290070566,100 174.80946135224167,-36.85663024510204,100 174.80945949608756,-36.85662730255775,100 174.80945094208073,-36.85656697108804,100 174.80942526205578,-36.85647539684541,100 174.80942241633085,-36.856454413773974,100 174.80942420694234,-36.85644558674937,100 174.80942409728283,-36.85644079192909,100 174.80943979000006,-36.85640728999994,100 174.8094373173401,-36.85635378834109,100 174.8094414832412,-36.85634425940057,100 174.8094451172363,-36.856339831676394,100 174.80945054109364,-36.85632654539163,100 174.80945372509197,-36.856322108295316,100 174.80945596311545,-36.85631584507213,100 174.8094673416841,-36.856303651568744,100 174.8094709364415,-36.856291138541586,100 174.809479118921,-36.85628225113927,100 174.8094836425323,-36.85627488142144,100 174.80949049122756,-36.85626784224121,100 174.80949957761896,-36.85626118540376,100 174.80950865811678,-36.85624899894916,100 174.80955602729793,-36.85620644834033,100 174.80956737177615,-36.85619095554968,100 174.8095696555101,-36.85618910457724,100 174.80957328765876,-36.85618393327382,100 174.8095746385716,-36.856178768768046,100 174.80958145030377,-36.85617101899019,100 174.80958642933982,-36.856162510253114,100 174.80958962505215,-36.85615918883081,100 174.809592804654,-36.85615328171614,100 174.8095941178865,-36.85614666212372,100 174.80959592826338,-36.85614186107057,100 174.80959257582586,-36.85611537313811,100 174.80959072662333,-36.856112059138596,100 174.80958932556186,-36.85610801003379,100 174.80958427221444,-36.85610104844241,100 174.80958243071802,-36.856100677192714,100 174.8095796721106,-36.85609627921246,100 174.80958016119985,-36.856093808408765,100 174.8095805591836,-36.85609185005087,100 174.8095764104816,-36.85608781574758,100 174.80956949806088,-36.85607716895491,100 174.80956628734506,-36.856074621995894,100 174.80954457555652,-36.85603973916595,100 174.80951007762908,-36.85600415961253,100 174.80950499609918,-36.85599681087146,100 174.809499947538,-36.85599204936851,100 174.80949579556608,-36.855986544128974,100 174.80948569107818,-36.85597737455853,100 174.8094787586226,-36.85596858842614,100 174.80947418083105,-36.85596528803244,100 174.809469116508,-36.85595795525179,100 174.80946543715808,-36.85595465559829,100 174.80945296042552,-36.85593335589202,100 174.80944835814836,-36.85592782776343,100 174.80943541900155,-36.8559047071836,100 174.8094280416579,-36.85589479574218,100 174.80942758876895,-36.855893331655246,100 174.80942389409603,-36.85589076141587,100 174.80942114684905,-36.85588746289057,100 174.80941532170178,-36.855877872829375,100 174.80941170300002,-36.85579958199997,100 174.80928340100002,-36.85558053899996,100 174.80927169665802,-36.855570714052554,100 174.80927201820134,-36.85554848440225,100 174.8092009194711,-36.85547910842835,100 174.80848856995394,-36.854892390920654,100 174.80844545988538,-36.85485903501336,100 174.80833696218812,-36.85479155081359,100 174.80825283259892,-36.854769232204,100 174.8081901266438,-36.85476560938329,100 174.80817010219698,-36.85476445211079,100 174.808075179718,-36.854773945380934,100 174.8079705402725,-36.854795655331046,100 174.80784555009535,-36.85484859069134,100 174.80777982382205,-36.854874782996916,100 174.80768069748592,-36.85490675618398,100 174.80755963848335,-36.85493613356213,100 174.80742176210256,-36.854963423131174,100 174.80731068526057,-36.85498327541424,100 174.80722908863052,-36.85498568722743,100 174.80712023725408,-36.854976211097444,100 174.80702712961667,-36.854954192193965,100 174.80691974758744,-36.85491422830589,100 174.80683083353742,-36.854884529172644,100 174.80673281561673,-36.854839735773034,100 174.80663918429013,-36.85479546056864,100 174.8065652854695,-36.85475323058543,100 174.8064712407711,-36.854691386335425,100 174.80640687146345,-36.8546513539619,100 174.80633861016497,-36.854600835055834,100 174.8062779538661,-36.85456367642035,100 174.80622545204596,-36.854532250703194,100 174.806188571774,-36.85451406343297,100 174.80615763205645,-36.854500472818714,100 174.8060980079199,-36.854476186637484,100 174.8060566723077,-36.854454551821284,100 174.80601451787962,-36.85450163353541,100 174.80600435474582,-36.85449581462073,100 174.8059561584076,-36.85446331717191,100 174.805952792038,-36.854466292301794,100 174.80592921533002,-36.85445279340088,100 174.80593250657864,-36.85444961574015,100 174.80590723183016,-36.854428909429316,100 174.80589649397137,-36.85443405869227,100 174.80584754695658,-36.85440603390263,100 174.8058452526707,-36.8544043632342,100 174.80580666428455,-36.85436962058212,100 174.80582244169548,-36.854357549187945,100 174.80579144697896,-36.854341615832354,100 174.8057824335396,-36.85434780465985,100 174.80571690958084,-36.85428881069321,100 174.80573305856254,-36.854276885658685,100 174.80570913122327,-36.85425147096802,100 174.8056867752957,-36.85426167948937,100 174.80567168348935,-36.85424809167121,100 174.80569414219377,-36.85423412263219,100 174.80568047295276,-36.854210896441515,100 174.80565045851387,-36.85422388234761,100 174.80551597300007,-36.854044896999945,100 174.8054536960001,-36.85390819999998,100 174.80539730074574,-36.85359973177356,100 174.80559434822302,-36.853576047599,100 174.80561801696507,-36.8534970470808,100 174.80562662866635,-36.853456675069644,100 174.8056654196348,-36.85308855133409,100 174.80562348292298,-36.85304178166117,100 174.8055515100001,-36.85291947999997,100 174.8054896696086,-36.852892546647695,100 174.80545515650385,-36.85285405585869,100 174.8054111156163,-36.852858333944134,100 174.80537249400004,-36.85284151299993,100 174.80525003744992,-36.85287398076502,100 174.80516400845917,-36.85288233736269,100 174.80503342556764,-36.85252272277094,100 174.80505270773136,-36.852522983104095,100 174.8053210084608,-36.85255300254422,100 174.8055140084454,-36.85247300409654,100 174.80564799558218,-36.85241499786198,100 174.80582700095115,-36.852336999809566,100 174.80809300849657,-36.85176999695033,100 174.80809577131055,-36.851768758081555,100 174.80818976700004,-36.851745666999925,100 174.80844916900003,-36.85160757399996,100 174.80853122638183,-36.85150467045039,100 174.80872190932965,-36.85131634069378,100 174.80872407248128,-36.851289960747216,100 174.808740964591,-36.85124942643476,100 174.80922093003704,-36.85068415385633,100 174.80964231106927,-36.85018398195292,100 174.8099920751284,-36.84976830473652,100 174.81039106071393,-36.84930993469351,100 174.8104090453731,-36.849290411473596,100 174.81041335600005,-36.84929307499993,100 174.8104772201311,-36.849333188077736,100 174.81046697441607,-36.849363694942234,100 174.8108493918132,-36.84960006916782,100 174.8107920960001,-36.84967092699998,100 174.81081224510137,-36.84968350092207,100 174.81080569224713,-36.84969427911933,100 174.81103397958083,-36.84983739941151,100 174.81104207610306,-36.849826924992605,100 174.8111248130001,-36.84987855599996,100 174.81301833313853,-36.85106014940123,100 174.81336647752602,-36.85130729972014,100 174.81346786060715,-36.851338511825574,100 174.81353673600006,-36.851378214999954,100 174.81404140300003,-36.851696125999986,100 174.814173439632,-36.851705880170805,100 174.81423282601824,-36.85173544988037,100 174.81441875665985,-36.85183597655887,100 174.81445352866467,-36.851818617670446,100 174.81445718666146,-36.85181978042602,100 174.81446130145147,-36.851819865417845,100 174.8144793575789,-36.85181469636103,100 174.81451840020108,-36.85179813212223,100 174.81452948128285,-36.85179576095489,100 174.81456617967973,-36.85178137317181,100 174.81457403778106,-36.85177930358843,100 174.81458475843334,-36.851774353784975,100 174.81460965345454,-36.85177040164086,100 174.81461752689677,-36.85176760534237,100 174.81464759068314,-36.851760452931266,100 174.81465402820973,-36.85176020500618,100 174.81467524378584,-36.85175693456297,100 174.81470393221105,-36.85174938942625,100 174.81471228002593,-36.851746211822416,100 174.81472293638726,-36.85174347667329,100 174.81474894510356,-36.85173255187159,100 174.81478042947182,-36.85172357956495,100 174.8147877825636,-36.85172334739485,100 174.81479749849285,-36.85172096820774,100 174.81485271013614,-36.8517010175748,100 174.81486376019893,-36.851700134057054,100 174.81489193436232,-36.85169403616515,100 174.814909169785,-36.85168589344658,100 174.81491897176633,-36.85168018159211,100 174.81492873477887,-36.85167633159387,100 174.81495183880747,-36.851671249414416,100 174.8149569873957,-36.85166729142429,100 174.81497231021945,-36.85166131678138,100 174.81500655763136,-36.85165166226571,100 174.8150277907362,-36.851648376169514,100 174.81503749975178,-36.85164636932092,100 174.81504630664986,-36.85164358757985,100 174.81505331178698,-36.851642585557734,100 174.81505553248272,-36.85164230106769,100 174.8150642314017,-36.85164330028252,100 174.81507210384908,-36.851642407594056,100 174.81509379729678,-36.851641561586106,100 174.81510170226196,-36.85163995724377,100 174.81512111165563,-36.851638281735056,100 174.81512913819014,-36.85163408779416,100 174.81514600206793,-36.85162754608401,100 174.81515528934062,-36.851625964789655,100 174.81517211230477,-36.85162053865518,100 174.8151805884186,-36.851616337843694,100 174.81519647097747,-36.85161126857851,100 174.81520352426662,-36.85160812964228,100 174.81520641082017,-36.85160489030908,100 174.8152092740407,-36.85160275096387,100 174.81521493695988,-36.851599959549056,100 174.81522991853717,-36.85159411627301,100 174.81523745312282,-36.85159027234777,100 174.8152626550622,-36.851582846131706,100 174.81528283132144,-36.85157418884013,100 174.81531653529234,-36.85156223601476,100 174.81535226798442,-36.85155587112634,100 174.8153607700563,-36.85155129855461,100 174.81536840284372,-36.851545252956335,100 174.81539088834091,-36.851537020953366,100 174.81539969165402,-36.85153541638779,100 174.81541226795954,-36.85153210743932,100 174.81544872770488,-36.85151982855637,100 174.815452082511,-36.85151732476587,100 174.8154585799307,-36.85151605376583,100 174.8154669994153,-36.85151296875367,100 174.81548455320518,-36.85151236257901,100 174.81549291496606,-36.851510393401284,100 174.81550324888138,-36.851505882967466,100 174.81551398490026,-36.8515028671164,100 174.81555205551012,-36.85148548185167,100 174.81555901930452,-36.851484202819606,100 174.81559800546023,-36.85146683329681,100 174.81560638405165,-36.85146486475539,100 174.81561472361943,-36.8514639964412,100 174.8156465196103,-36.8514530821719,100 174.81571234175956,-36.851422079070254,100 174.8157268182465,-36.85141807136185,100 174.81578087526438,-36.8513929976166,100 174.81579066973885,-36.85139033863556,100 174.81579962782257,-36.851385416556816,100 174.81581973210209,-36.85137860441124,100 174.81589322926743,-36.85134116826434,100 174.8159217919693,-36.85133016993115,100 174.8159425422218,-36.8513196596214,100 174.81596596683596,-36.85131035859526,100 174.81597296271184,-36.85130835076832,100 174.81597851973495,-36.85130814867538,100 174.8159828145209,-36.851304560618395,100 174.8159889415212,-36.85130105001875,100 174.81600068435776,-36.851296220570404,100 174.81601197353152,-36.851290609383426,100 174.8160283873101,-36.85128405910494,100 174.81607695471803,-36.85125848955795,100 174.81609303826977,-36.85124860125696,100 174.81610009146596,-36.851245461368244,100 174.8161284082522,-36.85122966622135,100 174.81613354595277,-36.85122795357877,100 174.81614767530306,-36.85122060626189,100 174.81616848091636,-36.85120826715496,100 174.81617419248226,-36.85120601755658,100 174.8161755092767,-36.8512054998937,100 174.81618403535057,-36.85120057086875,100 174.81622254756346,-36.85118356531648,100 174.8162376753614,-36.85117476058951,100 174.81624817199594,-36.85116656113497,100 174.81625281006734,-36.85116558440407,100 174.81628118445983,-36.851148671583864,100 174.8162887916015,-36.85114296882755,100 174.8163325564738,-36.851122049570506,100 174.81635907956246,-36.851105059571516,100 174.8163662714782,-36.851098635777646,100 174.81637194777582,-36.85109508607918,100 174.81638552316176,-36.85109030339428,100 174.81645685805327,-36.85104948208218,100 174.81646453047267,-36.851042320854525,100 174.81647501869188,-36.8510344784385,100 174.81648269877707,-36.85102693041879,100 174.81652298406908,-36.851001113234105,100 174.81653212281515,-36.85099250277092,100 174.8165473384484,-36.85098110982432,100 174.81655537250228,-36.85097652899971,100 174.81657702093744,-36.8509660661418,100 174.81664376457607,-36.85092474886304,100 174.81666678479317,-36.850903962732914,100 174.8166827857172,-36.85089618114046,100 174.8167181006915,-36.850879152199866,100 174.81673178336086,-36.850872555246475,100 174.81675894805562,-36.850860930025405,100 174.81676987241892,-36.85085521618415,100 174.8167779169777,-36.850853686210954,100 174.81678562231008,-36.85085038128216,100 174.81680018124658,-36.85084228281657,100 174.81680475954857,-36.85083243331221,100 174.81681200174302,-36.85082860998266,100 174.81682368022524,-36.8508213514325,100 174.81683671384823,-36.85081372695085,100 174.81685107132515,-36.850806499546984,100 174.81686545895107,-36.8507971346097,100 174.8168794470508,-36.85078704839977,100 174.8168915838439,-36.850780152384274,100 174.81690013569172,-36.850774231443566,100 174.81690736708788,-36.85076867319907,100 174.81691728244317,-36.850761365884225,100 174.81693119799064,-36.850753758553864,100 174.81694016805218,-36.850749301297284,100 174.81694687662218,-36.850746199076276,100 174.81695095772452,-36.850743063118,100 174.81695998314186,-36.85073611191455,100 174.81697167915007,-36.850728836858025,100 174.81698515239964,-36.85072088115716,100 174.81699546957444,-36.85071571918432,100 174.8170036390295,-36.850708379970094,100 174.81700908020363,-36.8507024335754,100 174.81701359442482,-36.850699306315335,100 174.81701725804763,-36.85069473820374,100 174.81705736132335,-36.85066660087748,100 174.81706093600843,-36.85066524018128,100 174.81706492701286,-36.850664599597124,100 174.8171134805948,-36.85061810710105,100 174.81711753725506,-36.85061531311771,100 174.81711983770532,-36.850612145794564,100 174.81713706412933,-36.85059573222348,100 174.81714156846422,-36.8505929458153,100 174.8171460818799,-36.85058912182889,100 174.81716491038188,-36.850579835867734,100 174.81717784777365,-36.85057577670846,100 174.8171859198559,-36.85057200015459,100 174.8171923654537,-36.850562150023386,100 174.8172663772953,-36.85048905457474,100 174.81727493899206,-36.85048350480788,100 174.81728611364338,-36.85047941310494,100 174.81728928799595,-36.85047663441104,100 174.81732101256685,-36.8504643417455,100 174.81732547143605,-36.85046370932058,100 174.81733130567738,-36.850460249999344,100 174.81733350874376,-36.85045993328861,100 174.81733667507808,-36.850457479197516,100 174.8173371734942,-36.85045607720658,100 174.81735325270716,-36.850449950985855,100 174.81736001810006,-36.850445082153115,100 174.8173644746671,-36.85044373680416,100 174.81736495590286,-36.850442319753085,100 174.81736990095277,-36.850439200312465,100 174.81739590687403,-36.850409056667495,100 174.81744309355204,-36.85038030433342,100 174.81744536266575,-36.850378561596294,100 174.81745610567555,-36.85037447738029,100 174.81746098548518,-36.85037348158302,100 174.81746591525282,-36.85037109065273,100 174.817488496118,-36.85035331704541,100 174.81753051488988,-36.85033764640669,100 174.81753496303696,-36.85033665630708,100 174.8175385544549,-36.85033458238298,100 174.81754211343704,-36.8503339330678,100 174.8175506907533,-36.85032767098602,100 174.81757114022463,-36.8503070375705,100 174.8175729086411,-36.8503059848013,100 174.81757703814887,-36.850300727234895,100 174.81759618091715,-36.850279000649266,100 174.81764295625152,-36.850215409730346,100 174.8176474753824,-36.850211213385485,100 174.81764890375504,-36.85020768894137,100 174.81766489662215,-36.850188400870074,100 174.81766680473845,-36.850183444073586,100 174.81768641104432,-36.85015960305708,100 174.81768831077008,-36.85015500241681,100 174.81769015509943,-36.85015218276502,100 174.81777835470453,-36.850078614912775,100 174.81781715249994,-36.850032318231825,100 174.8178425155375,-36.85000999080722,100 174.8178550268795,-36.85000485378389,100 174.81785958949214,-36.85000031606047,100 174.81792393896353,-36.84995869759792,100 174.81792532463564,-36.84995621214433,100 174.817937444385,-36.84994931628446,100 174.81794340024746,-36.84994124022627,100 174.81794706375803,-36.84993667118693,100 174.81794983811008,-36.8499324429351,100 174.81795074175824,-36.849930677812935,100 174.81795492764664,-36.849922925370855,100 174.81795994626603,-36.84991732700445,100 174.8179641562359,-36.84990921816543,100 174.81798993610158,-36.84986983193319,100 174.81800757233972,-36.84983811086698,100 174.81802219235843,-36.849819867669844,100 174.81803197344018,-36.849800840426326,100 174.81804722758895,-36.84977513616955,100 174.81805539565832,-36.8497670839477,100 174.81806436633966,-36.849763323331935,100 174.81806708382913,-36.849760861667086,100 174.81806715633172,-36.84975838278165,100 174.81810669001,-36.849717788326885,100 174.81810545694648,-36.84971421626386,100 174.81811491411406,-36.849707272790276,100 174.81811850628893,-36.84970589557114,100 174.8181743857293,-36.8496318051901,100 174.8181780286247,-36.84962358350548,100 174.81820579100008,-36.84960869799995,100 174.8183367050001,-36.84938393799996,100 174.81833366600006,-36.84925561599994,100 174.81813814128296,-36.84894933667884,100 174.81813786052405,-36.84894819758597,100 174.81716214517093,-36.847413455996175,100 174.8170967083517,-36.847250576667804,100 174.8169761040001,-36.84659083599996,100 174.81681764747586,-36.8458501491408,100 174.81681767698035,-36.84584908780927,100 174.81681609430265,-36.84584288893131,100 174.81681118100005,-36.84581992199998,100 174.81683266284494,-36.84570934428997,100 174.81683981935285,-36.8456847535554,100 174.81684155460886,-36.8456738217384,100 174.81684869395252,-36.845654869220446,100 174.81685948951045,-36.84564099572877,100 174.8168961611667,-36.84556108309098,100 174.81689797000857,-36.845558899436355,100 174.81689882601674,-36.845552705874574,100 174.81690000360294,-36.84555081218684,100 174.81690421137725,-36.845543941853606,100 174.8169136578871,-36.84553263165635,100 174.81691364037417,-36.8455293330269,100 174.81693399041237,-36.845497009082656,100 174.81694025765862,-36.84548897337848,100 174.81693120697605,-36.8454843830835,100 174.81698090212964,-36.84540712956891,100 174.81699744960213,-36.84541558903802,100 174.81700951405102,-36.845421781549526,100 174.8170104143015,-36.84541921068939,100 174.8170153856004,-36.84541446484974,100 174.8170207728378,-36.845406444398776,100 174.81702211770303,-36.84540242640255,100 174.81702570106017,-36.845394761618465,100 174.8170297530524,-36.84538855975145,100 174.81703471556156,-36.845383442694114,100 174.81703687530782,-36.84537883808633,100 174.81704369998693,-36.84536701544497,100 174.8170653950777,-36.84535309606556,100 174.8170344795141,-36.84532384074776,100 174.8170629813872,-36.845279533027764,100 174.8170946531017,-36.84531002804654,100 174.81710957111488,-36.84530051436629,100 174.8171258598875,-36.845293904567036,100 174.81713401269738,-36.84529057655364,100 174.8171362634065,-36.84528877281322,100 174.81713807490593,-36.845288028551195,100 174.81714123163468,-36.84528257135442,100 174.81715161531346,-36.84527669629876,100 174.8172168107122,-36.84525826303498,100 174.81724857038327,-36.84525924387323,100 174.81727397124575,-36.845259510734,100 174.81727712832597,-36.845258048258444,100 174.8173097583986,-36.845254676729425,100 174.81731700522744,-36.84525500396316,100 174.81734912855796,-36.845242875561546,100 174.81735548582617,-36.84524286126895,100 174.8173704664015,-36.84524499278806,100 174.8173745564932,-36.84524679691247,100 174.8173813571617,-36.84524788989167,100 174.81738453793199,-36.84524932305003,100 174.81740587420865,-36.84525397936326,100 174.8174172344502,-36.84525903790322,100 174.81741679899423,-36.845260871574595,100 174.81742950401542,-36.84526446740738,100 174.81745221451803,-36.845273499423264,100 174.8174694721389,-36.845277450159365,100 174.81747855791232,-36.8452807029447,100 174.81754436692339,-36.845293589724704,100 174.8175561453755,-36.84529281740922,100 174.8176457771848,-36.84526556104135,100 174.81766118170867,-36.84526404643683,100 174.81766570877608,-36.845261475983946,100 174.81804024155852,-36.845295061585205,100 174.81872845564948,-36.84539743837323,100 174.81929747649215,-36.84546690733311,100 174.81990463336297,-36.845527503562664,100 174.8207084050565,-36.845576634587815,100 174.82130113584546,-36.845596288696015,100 174.82168026830786,-36.84559772720611,100 174.82191791170348,-36.845573811360374,100 174.82266577678237,-36.84535369236755,100 174.82308693895996,-36.845229588002745,100 174.82332001641646,-36.84516081856919,100 174.82343229396295,-36.84512766088639,100 174.82355358931167,-36.84505702593442,100 174.823660840442,-36.84496208279043,100 174.8236093931234,-36.84488576172453,100 174.8236658190001,-36.844772657999954,100 174.8234282449746,-36.84452418845993,100 174.82395651682674,-36.8441171465633,100 174.82395810183868,-36.84411437856682,100 174.82395977649674,-36.84411170203221,100 174.8239615550184,-36.84410905454898,100 174.82396331636036,-36.84410639200665,100 174.82396504294994,-36.84410372999768,100 174.8239667172222,-36.844101037244826,100 174.82396825030162,-36.84409825472249,100 174.82396962496583,-36.84409536556966,100 174.8239707908322,-36.844092373263535,100 174.82397167461272,-36.844089214032685,100 174.82397227786453,-36.84408585901042,100 174.8239726005369,-36.844082353264355,100 174.82397267662515,-36.8440787115955,100 174.82397266592912,-36.84407807768674,100 174.8241639040001,-36.84389395899995,100 174.82434267183663,-36.843897563755334,100 174.82434478403667,-36.843909766082014,100 174.8243476478565,-36.84391555557461,100 174.8243493585684,-36.84392935672787,100 174.82435085892698,-36.843935155433165,100 174.8243527573896,-36.84393840535499,100 174.82435275888835,-36.8439384684256,100 174.82435330233236,-36.843942035687945,100 174.824362350602,-36.843958995155965,100 174.82436827908003,-36.84396109259517,100 174.824380913669,-36.843961178727234,100 174.82441410400008,-36.84411053999998,100 174.8245423180001,-36.84434302499996,100 174.82476968200012,-36.84437478499995,100 174.825676648,-36.844704553999975,100 174.82615786300008,-36.84480585099993,100 174.82740068000012,-36.845271447999934,100 174.8277280850001,-36.84541580299998,100 174.82797846300002,-36.84553757399992,100 174.82812718600007,-36.84562950299994,100 174.8282831670001,-36.845752723999965,100 174.82841985200005,-36.84602280199992,100 174.82843229810837,-36.84603045185485,100 174.8287229981825,-36.84666799318351,100 174.82881799932986,-36.84687600629994,100 174.82921099389313,-36.84752300383295,100 174.82950200674355,-36.84760400232728,100 174.82942500060747,-36.84777399629933,100 174.8294100037699,-36.84776999268494,100 174.82934500560853,-36.84775200390115,100 174.82928099287312,-36.84773399811018,100 174.82908700161937,-36.84767999887013,100 174.82889400306408,-36.84762500698382,100 174.82868499875474,-36.84756700364646,100 174.82863599988852,-36.8475530009485,100 174.82859500353263,-36.84796399385965,100 174.82855499184484,-36.84837500042819,100 174.8285369950441,-36.84856200080773,100 174.82852000188862,-36.8487360055986,100 174.82850399155313,-36.848904002278616,100 174.82848699548614,-36.84906800317512,100 174.8284709997386,-36.849232003096155,100 174.82845599616235,-36.84939099885201,100 174.82844000143157,-36.849554998746825,100 174.82842299548363,-36.84972000656552,100 174.8284079917767,-36.84987900320928,100 174.82839199574312,-36.85004300220667,100 174.8283759938786,-36.85021000724318,100 174.82835799394232,-36.85039299665827,100 174.82834100017246,-36.85056700229585,100 174.82832400795962,-36.850743006164656,100 174.82830700624345,-36.85091800157886,100 174.82830399631155,-36.85094800558119,100 174.82829800529132,-36.85101699314878,100 174.82828900302962,-36.851093001579,100 174.82827599332697,-36.85123200111451,100 174.82827200123268,-36.851267998784735,100 174.82825700786657,-36.851433994091536,100 174.82825500763175,-36.851444001748774,100 174.8282380057133,-36.85161899894407,100 174.8282360032018,-36.85164200028975,100 174.82822100373426,-36.85179399613417,100 174.82821200295965,-36.85189300210568,100 174.8281920047335,-36.852091992965654,100 174.8281629934687,-36.85238100725839,100 174.82813899866298,-36.85262900390102,100 174.82810699605827,-36.85295400042419,100 174.82807100321384,-36.853322998410405,100 174.8280529965343,-36.853513003808814,100 174.82804199476266,-36.85362200208722,100 174.8280239919817,-36.853802994061084,100 174.82800999193788,-36.853948994105096,100 174.82799400240071,-36.85411200320221,100 174.82797799719702,-36.85427699366989,100 174.82796199878575,-36.854436997841034,100 174.82796199974624,-36.854440993445415,100 174.8279560070647,-36.8544869987458,100 174.82794600224187,-36.85460499321638,100 174.82794200036096,-36.85463800128268,100 174.82792999724174,-36.854769998987315,100 174.82792699838592,-36.85478799971485,100 174.82791200686148,-36.85493900387174,100 174.8279000041555,-36.85507299982223,100 174.8278970078106,-36.855096992586006,100 174.82788299679294,-36.855240004834954,100 174.82787899841173,-36.85528300324164,100 174.8278710055123,-36.85535800280447,100 174.8278540006174,-36.85553100164793,100 174.82784999183636,-36.855568996900885,100 174.8278400039842,-36.85568700730985,100 174.82783600053483,-36.855720000069844,100 174.82782400605032,-36.85585100614497,100 174.8278209993301,-36.855869997555885,100 174.82780800260923,-36.8560030037831,100 174.8278080080843,-36.85601500587651,100 174.82779900557193,-36.85609499542573,100 174.8277910081105,-36.85617899127112,100 174.8277890038156,-36.85619999526543,100 174.82777699981412,-36.856329994683314,100 174.8277729933062,-36.85635499715084,100 174.8277599954795,-36.85648400686262,100 174.82775300353828,-36.85653600696833,100 174.8277419994794,-36.85664300695495,100 174.82773300329947,-36.856717993085425,100 174.82773099961452,-36.856736998808394,100 174.8277219982226,-36.85682099656435,100 174.82771699859515,-36.85686599419593,100 174.82770099178876,-36.857010000617606,100 174.82769999116252,-36.857013998106005,100 174.82768200743655,-36.85716099581489,100 174.8276799926725,-36.85719799685798,100 174.82767600747377,-36.8573129927757,100 174.82767799418565,-36.85731300458109,100 174.8276720083747,-36.857374993117844,100 174.82766100007677,-36.85749100559881,100 174.82765499471833,-36.85755099707597,100 174.8276329999059,-36.85754900091256,100 174.82706899955443,-36.85750400060296,100 174.82706199897694,-36.857559004948875,100 174.82765200317,-36.85760599477085,100 174.82810099403017,-36.857641999777115,100 174.82826200483973,-36.857845995858874,100 174.82836599578408,-36.857978993036745,100 174.82830299309956,-36.8582390060209,100 174.82804800491255,-36.85831100597645,100 174.82761299539496,-36.85843399935719,100 174.8275709916832,-36.85843000531647,100 174.82755399475354,-36.85860399539852,100 174.82753599488643,-36.85879700644343,100 174.8275340005704,-36.85881899903748,100 174.82752000445888,-36.85895999736834,100 174.82751799713128,-36.858974992199244,100 174.82751100770696,-36.85905400163229,100 174.82750299578615,-36.859127003170144,100 174.82749399946508,-36.8592230047819,100 174.82747900464187,-36.85937199617386,100 174.82745100604296,-36.85966099266252,100 174.8274129931935,-36.86004800554539,100 174.82741399483356,-36.86004800456246,100 174.82739100785312,-36.86027800370067,100 174.827343006262,-36.86076600694359,100 174.8273420006746,-36.86077700426732,100 174.82731699249842,-36.86103000496253,100 174.82728900282214,-36.86132200626673,100 174.82727099768425,-36.86150499535178,100 174.82726200740603,-36.8615959944195,100 174.82716499703562,-36.862528003032565,100 174.8269463565059,-36.86387136678062,100 174.82693745667896,-36.8638686842485,100 174.82693348332762,-36.86386608730705,100 174.8269134120046,-36.86386175224102,100 174.82691077251414,-36.86386062018866,100 174.82690180879626,-36.86386010634474,100 174.82684968549657,-36.863847270562054,100 174.82684472553473,-36.8638478984374,100 174.82683626896,-36.863846306006316,100 174.8268120187253,-36.86384732239883,100 174.8267744112163,-36.86386145125037,100 174.82675224152115,-36.863868626908136,100 174.82674226795592,-36.863872435152146,100 174.8267314590518,-36.86387404436379,100 174.82670932969737,-36.86388013508844,100 174.8267057413718,-36.86387971615259,100 174.82670396027711,-36.86387897199257,100 174.8266913783648,-36.863880176719206,100 174.82667256052918,-36.863879489870385,100 174.8266672730794,-36.86387686985804,100 174.826655612339,-36.86387629380442,100 174.8266140988695,-36.86386941036184,100 174.82660471828092,-36.863868160204674,100 174.82660154958398,-36.863869205792106,100 174.82656624874758,-36.86386460184233,100 174.8265536896306,-36.863864738122984,100 174.82654612237812,-36.8638628066185,100 174.82652017101245,-36.86386087830447,100 174.82651574047532,-36.86385863088374,100 174.82646943578285,-36.863846269724135,100 174.82646450094086,-36.863846539367835,100 174.82646136983928,-36.86384577179061,100 174.82645370754096,-36.8638474335579,100 174.8264514425968,-36.863847380042884,100 174.8264162361006,-36.863856867859425,100 174.82640948591742,-36.863857122140864,100 174.8263973384695,-36.863859048436126,100 174.82639239401044,-36.86385896129633,100 174.82638157860325,-36.86386095724851,100 174.82637620858543,-36.863860475555576,100 174.8263505482929,-36.86386436534923,100 174.82634205825386,-36.86386348725388,100 174.826307400384,-36.863867561304446,100 174.82630518573077,-36.86386679315698,100 174.82629392828485,-36.86386840922313,100 174.82627151617152,-36.86386837243606,100 174.8262562071989,-36.86387098635561,100 174.82623602490352,-36.86387098829777,100 174.82623106491258,-36.86387161524665,100 174.8262274776893,-36.86387119537804,100 174.82621669230826,-36.863871719876364,100 174.82619884448667,-36.86386852315054,100 174.8261682844749,-36.863854979793544,100 174.8261359218867,-36.86382480387031,100 174.82613282355436,-36.86382329218001,100 174.8261306400538,-36.86382109944237,100 174.82612441174555,-36.863818820148445,100 174.82611903762194,-36.863819438134676,100 174.82609255799375,-36.86383556075428,100 174.82602339032138,-36.863872974549594,100 174.8259175961058,-36.8639046634458,100 174.82589352475043,-36.863915788971184,100 174.82586181577207,-36.863927493339425,100 174.82584857692018,-36.86393592685793,100 174.82584497464654,-36.86393694844251,100 174.82579770785335,-36.86395957177098,100 174.82578863275498,-36.86396338055099,100 174.82577176880574,-36.86397390407565,100 174.82576129724427,-36.86397913137952,100 174.82574883144275,-36.86397951310696,100 174.82574650139568,-36.86397959938438,100 174.82569157461936,-36.86400139306913,100 174.825666950418,-36.864015780860406,100 174.82566242519457,-36.86401714290362,100 174.82565649440113,-36.864020294960916,100 174.82561112469722,-36.864037558576634,100 174.82560655274747,-36.864041105268605,100 174.8255997477207,-36.86404315670607,100 174.82559076730627,-36.86404335597527,100 174.82558758300732,-36.86404511382964,100 174.82553481985605,-36.86405393915187,100 174.82553209928287,-36.86405496160207,100 174.82552624907203,-36.86405523084916,100 174.82551813714016,-36.864056902168606,100 174.82551183656716,-36.86405714859021,100 174.82550640411378,-36.86405885175025,100 174.82549653313157,-36.864058678022275,100 174.82548245112824,-36.86406458539567,100 174.8254739055131,-36.864065520675496,100 174.8254707664525,-36.86406507857612,100 174.82546307137926,-36.86406748618692,100 174.82545361851717,-36.864068761686575,100 174.82544769604064,-36.86407155667743,100 174.82543102688783,-36.86407306291742,100 174.8253849100091,-36.864084904683224,100 174.82536375761015,-36.86408741627441,100 174.82535379193024,-36.864090852931945,100 174.8252972745421,-36.86410539530118,100 174.82529413620955,-36.864104983831325,100 174.8252468054631,-36.86411210677799,100 174.8252400487768,-36.8641127017975,100 174.82519264684694,-36.86412234955227,100 174.8251867339666,-36.86412550131122,100 174.82516954561063,-36.86413026840569,100 174.82516407961882,-36.864132684119504,100 174.8251573237949,-36.86413402272191,100 174.82513873134315,-36.8641405482511,100 174.8251222848929,-36.864151840419275,100 174.82511093675177,-36.86415596527918,100 174.82510636317113,-36.86415878460041,100 174.8250882116185,-36.864165690021885,100 174.82508502018507,-36.86416851605374,100 174.8250818331477,-36.864169546559985,100 174.82508446699197,-36.864171762143755,100 174.82506764839448,-36.864179435755354,100 174.8250290442619,-36.86419573265488,100 174.82502676568598,-36.86419713407578,100 174.8249938722325,-36.86420196841073,100 174.82492429167087,-36.864200748613655,100 174.82491524842737,-36.864203117407385,100 174.82489456044036,-36.86420492414999,100 174.8248287146689,-36.86423267981709,100 174.82481370140826,-36.86423999667978,100 174.8248069115422,-36.864241319561195,100 174.82478966881158,-36.86424861297517,100 174.82474948941726,-36.86425693012783,100 174.82474635108082,-36.86425651864361,100 174.82472872789054,-36.86426055055451,100 174.82469628472938,-36.864265406735015,100 174.82469400578077,-36.86426679283267,100 174.82468362195877,-36.864268781102155,100 174.82466955667093,-36.86427468812342,100 174.82466592793634,-36.86427535315048,100 174.82466090632153,-36.86427886164522,100 174.82465683717433,-36.86427987504094,100 174.8246508922147,-36.86428375464301,100 174.82463527024262,-36.86429684306171,100 174.82460703458145,-36.864311880074084,100 174.82460520525754,-36.86431330523362,100 174.82460115281805,-36.86431360631675,100 174.82457622814445,-36.86432183517435,100 174.82457040235465,-36.86432171732718,100 174.8245658538976,-36.86432417931368,100 174.82453321580152,-36.86433508459445,100 174.82453094552397,-36.86433584502979,100 174.82449664580324,-36.86435947201181,100 174.82448035588274,-36.86436423963319,100 174.82447530108615,-36.864368476006526,100 174.82447534982217,-36.86436703492585,100 174.82447263643584,-36.86436770031323,100 174.82442493040344,-36.86440518293565,100 174.82441628038984,-36.86440937175739,100 174.82441029515604,-36.86441504922676,100 174.82441787236527,-36.86441735206409,100 174.82440687145726,-36.86442546804256,100 174.82439549284595,-36.864431050760416,100 174.8243885706784,-36.864438509230105,100 174.82436891172992,-36.86445118459592,100 174.82436430582143,-36.86445542939503,100 174.8243299611498,-36.8644832554355,100 174.82431004827143,-36.86449940482793,100 174.82430355801256,-36.86450620499664,100 174.82426213020858,-36.86453675183605,100 174.8242436591959,-36.86455315578992,100 174.82422937268296,-36.86456382069527,100 174.8242209639497,-36.86457457201971,100 174.82421314000305,-36.86458062111726,100 174.82421219272513,-36.86458206157167,100 174.8242080747297,-36.86458380488173,100 174.82419980911607,-36.86458948940945,100 174.82418922451347,-36.86459766026743,100 174.8241814289991,-36.864601508769155,100 174.82417778652268,-36.864602917593345,100 174.82417042667785,-36.864608246607474,100 174.82416581301447,-36.86461216613638,100 174.82413230456623,-36.86463303810642,100 174.82412715372607,-36.86464021879651,100 174.82412208316433,-36.86464450136518,100 174.82411742075362,-36.864649861972964,100 174.8240702590006,-36.864692322281556,100 174.82405126559823,-36.864711244441885,100 174.82404280193637,-36.86472383892475,100 174.8240381258971,-36.86473065539375,100 174.8240150064535,-36.86475169142448,100 174.82401241459215,-36.86475369431891,100 174.82401177136035,-36.86475419361782,100 174.82398569353015,-36.86476719639728,100 174.82396691085515,-36.86477705509609,100 174.8239582515548,-36.86478090332317,100 174.82395544289298,-36.86478449769564,100 174.82394410050006,-36.8647868422218,100 174.82394090618385,-36.864788228836616,100 174.82392366280703,-36.86479158781187,100 174.8239164600617,-36.86479036259917,100 174.8239024753713,-36.864790135614435,100 174.82389080057604,-36.864787746922964,100 174.8238817132483,-36.864789775611264,100 174.82387810807163,-36.86478935684899,100 174.82387456648812,-36.864786753177164,100 174.82387049717815,-36.864787053593275,100 174.82386738892257,-36.86478517154786,100 174.82386466705412,-36.864785481024676,100 174.82382970814098,-36.86477616154397,100 174.82379242105443,-36.864768989615314,100 174.82377814351324,-36.864762200889565,100 174.82374988704242,-36.864754813721056,100 174.82373873423586,-36.86474989236475,100 174.82370246366514,-36.86473800975406,100 174.82368555904182,-36.86472792009204,100 174.82367984163946,-36.86472273684098,100 174.8236753527758,-36.86472157361336,100 174.82366600463706,-36.8647163117884,100 174.8236583754725,-36.86471399437797,100 174.82365350330107,-36.86471138227877,100 174.82357372795354,-36.864687848798816,100 174.82357061281314,-36.864686337299595,100 174.82356837300253,-36.86468592641566,100 174.82356438293968,-36.864683331420025,100 174.82356351409908,-36.8646818431312,100 174.8235407817104,-36.8646709388503,100 174.82351702174125,-36.864664326265995,100 174.823512114816,-36.8646617146942,100 174.82348513083303,-36.864657976364406,100 174.8234810531889,-36.864658633823474,100 174.82346844709568,-36.864656988561926,100 174.82344674573193,-36.864657698359046,100 174.82340436416968,-36.86465587729568,100 174.82337039144315,-36.86466038794347,100 174.82336041206665,-36.86466202828584,100 174.8233341761556,-36.86466375855578,100 174.82330615118505,-36.86466511698224,100 174.8232755993483,-36.864659131345675,100 174.8232613151139,-36.864653426964985,100 174.82325681104405,-36.86465299223301,100 174.823237541048,-36.86464758878704,100 174.82323121364996,-36.864647464150046,100 174.8232200376767,-36.86464364272795,100 174.82320975064124,-36.86463946515746,100 174.8232035667984,-36.86463428904017,100 174.82320088496624,-36.86463349825927,100 174.82319820952026,-36.8646316546216,100 174.82319059829717,-36.864629336004185,100 174.82317812587686,-36.86462222296794,100 174.82317046674086,-36.864622089017956,100 174.82316514101964,-36.86461799755703,100 174.82316245993786,-36.86461723831043,100 174.82316070058718,-36.864615378812665,100 174.8231553540127,-36.864613100255,100 174.823152608932,-36.864614509699756,100 174.82314917007446,-36.86462500622852,100 174.82314774159127,-36.86462786464676,100 174.8231448887033,-36.86465145308187,100 174.82313126512827,-36.864688651085714,100 174.8231312095333,-36.864690465423834,100 174.823124662371,-36.86469907718353,100 174.82312464075878,-36.86470090542156,100 174.82311373068646,-36.86472035597264,100 174.82309296150478,-36.86477232742252,100 174.82309139201115,-36.86478029766911,100 174.82307635034482,-36.86480365940652,100 174.82305820029282,-36.86482442522028,100 174.82305316050025,-36.86482726784071,100 174.8230516462772,-36.86483341023364,100 174.82304182518786,-36.86484633823723,100 174.823040081445,-36.86484768454519,100 174.82303813391462,-36.86484918810807,100 174.82302410240615,-36.86486497574878,100 174.82302165562703,-36.864871149574775,100 174.8230197621616,-36.86487403134965,100 174.82301711925422,-36.86488785961348,100 174.82301796975995,-36.864889331963646,100 174.8230153656507,-36.864901347048416,100 174.82301573729816,-36.8649049962578,100 174.82301549116906,-36.86491337883984,100 174.8230210456799,-36.864941965970395,100 174.82302079267433,-36.86495072000768,100 174.8230080015978,-36.86498736262079,100 174.8230027224968,-36.86499821456392,100 174.8230016487045,-36.8650040563637,100 174.82299880758657,-36.865008364167615,100 174.82299734014603,-36.8650123687779,100 174.82299035686756,-36.86501882131464,100 174.82298652077012,-36.8650260565956,100 174.82297337437214,-36.86504260309424,100 174.82296824265217,-36.8650472425799,100 174.82295673820778,-36.86505395826709,100 174.8229499126199,-36.86505458485986,100 174.82293758492304,-36.86505691556468,100 174.82292706621945,-36.86506036230804,100 174.8229147941423,-36.865060879573484,100 174.8229093340359,-36.86506222701306,100 174.82289025284658,-36.865063356191904,100 174.82288843981303,-36.86506405279724,100 174.82287301060967,-36.86506341611387,100 174.82285704049994,-36.8650678685495,100 174.8227955729472,-36.86507623673028,100 174.82278922869324,-36.865076112328744,100 174.82277102318506,-36.86507835742692,100 174.82276552413407,-36.86508080418416,100 174.822758199406,-36.86508284901166,100 174.82274137484714,-36.86508438880776,100 174.82273263072437,-36.86508896742726,100 174.82272625634863,-36.86509031356108,100 174.82271387383258,-36.86509520036717,100 174.82270240816405,-36.86510010285141,100 174.82269468172024,-36.86509997080516,100 174.82266042523958,-36.865108837248314,100 174.82264161163025,-36.865116885433395,100 174.82261781981185,-36.86512484593582,100 174.82258923609788,-36.865141127148746,100 174.8225772963253,-36.86514637759788,100 174.82257312223757,-36.865149964941466,100 174.822527202256,-36.86517066000267,100 174.82250944633495,-36.865172896362274,100 174.8225071664707,-36.86517358570098,100 174.82247550686273,-36.8651708391233,100 174.82246422176195,-36.865168800341735,100 174.82244823284498,-36.865172510311616,100 174.82244463597848,-36.86517173354868,100 174.82243013095982,-36.86517146930533,100 174.82239183522353,-36.865179166402214,100 174.8223268083325,-36.86521776200973,100 174.822319557541,-36.86521800931665,100 174.82231081176002,-36.86522185875125,100 174.82227209674983,-36.865244537914315,100 174.82226930321644,-36.865247403737435,100 174.82226145105307,-36.86525236883566,100 174.82225354249414,-36.865259162704795,100 174.8222480434129,-36.86526160943883,100 174.82224692514532,-36.86526246483015,100 174.82224460304624,-36.865262226436975,100 174.8222391011602,-36.86526323288094,100 174.8222344612087,-36.865264209881815,100 174.8222289585649,-36.86526523165963,100 174.82222142209412,-36.865265778078246,100 174.8222132874639,-36.86526659685952,100 174.82220864700886,-36.865266891556814,100 174.8222022740016,-36.86526768241964,100 174.82219587863068,-36.86526824017947,100 174.8221883358585,-36.86526856856967,100 174.822182215131,-36.86526841006252,100 174.8221766811919,-36.865268256076234,100 174.8221731924291,-36.865268299664386,100 174.8221694098719,-36.86526834775797,100 174.82216651261697,-36.86526793341008,100 174.82216445380752,-36.8652671618942,100 174.82214903964072,-36.86526711255675,100 174.82211694443137,-36.86526288806587,100 174.82210840640607,-36.86526018339983,100 174.8220998995925,-36.865256006375134,100 174.8220477065824,-36.8652411884239,100 174.82203969030112,-36.86523664694413,100 174.82203825932888,-36.865238080377544,100 174.82203321787736,-36.86524019470234,100 174.82201697671587,-36.8652369700087,100 174.82200934560922,-36.86523390982256,100 174.82200032708772,-36.86523265284948,100 174.8219715624126,-36.8652229971812,100 174.82194651524946,-36.86522656566803,100 174.82194064505342,-36.86522609234632,100 174.82193610888507,-36.865226385433836,100 174.8219202693359,-36.86522462554677,100 174.8219144296187,-36.86522269610098,100 174.82183422328137,-36.86522088121407,100 174.82182790947365,-36.86521929973768,100 174.82182065831535,-36.865219531697065,100 174.82181427433716,-36.865220521902266,100 174.8217652997199,-36.86522034623398,100 174.82174890151117,-36.86522297807998,100 174.82174475857602,-36.86522509213641,100 174.821739732026,-36.865226464421944,100 174.821713390836,-36.8652281644037,100 174.82168479907065,-36.86522838644507,100 174.82167475545498,-36.86523148328728,100 174.82167105341694,-36.86523397725413,100 174.82165115140913,-36.86523214621715,100 174.821615110582,-36.86523952457345,100 174.8216101240641,-36.86523979571015,100 174.8216037248495,-36.86524151441607,100 174.82158163581587,-36.86525316390863,100 174.8215541329786,-36.865263246951315,100 174.82154142881208,-36.865263757179406,100 174.82151357300225,-36.86525448765894,100 174.82150246172986,-36.86524587989778,100 174.82147821150377,-36.865237045420976,100 174.82146871093119,-36.86523650965428,100 174.82140268365004,-36.865246270176044,100 174.82139401143735,-36.86524830673316,100 174.82131025263587,-36.86525991724919,100 174.82128607235813,-36.86526494238602,100 174.82128153616253,-36.86526523454766,100 174.82126592439235,-36.8652715091848,100 174.821222058408,-36.86528423961505,100 174.82119755589443,-36.86528750485975,100 174.82118992298402,-36.86528800582178,100 174.82118849962632,-36.86528810695569,100 174.82109704878843,-36.865309449758875,100 174.82100069388028,-36.86533954840638,100 174.82096650679367,-36.86534974457195,100 174.82093007551705,-36.865357361249835,100 174.82092223918835,-36.865359028034014,100 174.82090699674208,-36.86536224414363,100 174.82089077364807,-36.86536426929381,100 174.82086118447586,-36.86536202955472,100 174.82082887481735,-36.86535751236383,100 174.82080305196794,-36.86535198811486,100 174.82077677754506,-36.86534568121086,100 174.82075556499066,-36.86534133194793,100 174.8207408671483,-36.865336300589604,100 174.82071793340128,-36.865325600751234,100 174.82068900867762,-36.86531184344598,100 174.82067123449124,-36.86529823704977,100 174.82064983589393,-36.865278249755555,100 174.82062135325629,-36.865267473584204,100 174.82059744122026,-36.86525898887028,100 174.82056302333172,-36.86524329581103,100 174.82053454676557,-36.86523140367294,100 174.82051627455843,-36.86521926234186,100 174.8204900585237,-36.86520926801937,100 174.82046260460456,-36.865192914811665,100 174.82043965642217,-36.86518297406345,100 174.82041856184549,-36.86517191790187,100 174.8204025161896,-36.865164259930175,100 174.82038591061456,-36.86516032944226,100 174.82037357367128,-36.86515310407135,100 174.82036667499602,-36.86514965940477,100 174.82033905167066,-36.86514261594703,100 174.82031687083472,-36.86514085474996,100 174.820291438985,-36.865139039700395,100 174.8202691391529,-36.8651439402808,100 174.82024583845367,-36.86515218662224,100 174.82023601897174,-36.865157261945114,100 174.8202336898061,-36.865158710919644,100 174.82023041852497,-36.865159788555395,100 174.82020439467837,-36.865165030093735,100 174.82016364824258,-36.86516561282602,100 174.820138761824,-36.86516083030602,100 174.8201332590635,-36.865158538681655,100 174.82010100716036,-36.86515030420244,100 174.8200821712054,-36.865143002594074,100 174.820069399929,-36.86513241014777,100 174.82002024351806,-36.86511208810282,100 174.8199754967334,-36.86510443615921,100 174.81993206689577,-36.86510089754915,100 174.81989934132005,-36.865093027198306,100 174.81984442886008,-36.86508451059667,100 174.81982691789094,-36.865080950825664,100 174.81979087718497,-36.86507713224488,100 174.819758487168,-36.865077448047714,100 174.81975017048575,-36.86507659837346,100 174.81973532195218,-36.865079017829046,100 174.8197199596163,-36.865082901708995,100 174.81970687728415,-36.86508941140967,100 174.81969987748448,-36.8650926732834,100 174.81969377928397,-36.86509667937157,100 174.8196802484279,-36.86510319683977,100 174.81967135952755,-36.86510754400746,100 174.81966021739015,-36.86510963719236,100 174.81963671129398,-36.86510411957013,100 174.81963028482994,-36.865102184575434,100 174.81962707272686,-36.86510027156026,100 174.81961740822553,-36.86509679619812,100 174.8196128440931,-36.8650934040664,100 174.81960646001724,-36.86508847959445,100 174.81959958655773,-36.86508467756797,100 174.81958810549108,-36.865080426932856,100 174.81957429101058,-36.8650761696674,100 174.81956371190805,-36.86507267856278,100 174.81954992226574,-36.86506804956405,100 174.81953283963975,-36.86506632642004,100 174.81951200927537,-36.86506531503308,100 174.81949394902148,-36.86506583765827,100 174.81947127812907,-36.86506516901433,100 174.81946434361757,-36.86506432609625,100 174.8194504894644,-36.86506378743064,100 174.819433916379,-36.86505909558437,100 174.81943204906173,-36.86505906559116,100 174.8194247645247,-36.86505339687491,100 174.81941379187006,-36.86504546730015,100 174.8193864340362,-36.86502355203268,100 174.8193736930156,-36.865011487166576,100 174.81936881480223,-36.8650013785792,100 174.81935518936803,-36.864987827431726,100 174.81934245673793,-36.86497540640627,100 174.8193338965658,-36.86496263396579,100 174.81932487034254,-36.86494988668735,100 174.8193207654333,-36.86494684263857,100 174.81931581891783,-36.86494009707432,100 174.81930400278637,-36.86492767643275,100 174.81928803708934,-36.864915200349394,100 174.81928257060136,-36.86491032129804,100 174.81926603539935,-36.864903772097435,100 174.8192569057253,-36.86489697340616,100 174.81924646871616,-36.86488641723559,100 174.8192359725097,-36.86487885169881,100 174.81922269745382,-36.864870139846666,100 174.81920808723487,-36.86485990264566,100 174.8191948431321,-36.864849704916175,100 174.81917564557227,-36.86483717644797,100 174.8191651409777,-36.864829966159164,100 174.8191518521893,-36.864821999011866,100 174.81914252944316,-36.864815714324436,100 174.81913512466238,-36.86481074416266,100 174.8191274844175,-36.86480667713778,100 174.8191180753314,-36.864800393770224,100 174.81910154015839,-36.86478859336748,100 174.81908092650048,-36.864776754452954,100 174.8190625599325,-36.86476492439711,100 174.8190469621877,-36.8647513105701,100 174.8190340539854,-36.864738104431055,100 174.8190162121743,-36.864721911984226,100 174.81900781604995,-36.86470947861332,100 174.81899624797927,-36.86469663502126,100 174.8189838435416,-36.86468087759663,100 174.8189740417019,-36.86467278944754,100 174.81896247931775,-36.86465886055744,100 174.8189432810242,-36.864643033174914,100 174.81892858182908,-36.864628708844094,100 174.81890530778853,-36.864614282330635,100 174.81888072058976,-36.864595851452755,100 174.81886240825088,-36.864581479670804,100 174.81883685351863,-36.864567044791656,100 174.81882390226372,-36.86455746085228,100 174.81881450851247,-36.86455044984758,100 174.81880421656652,-36.86454345259097,100 174.81879568511985,-36.864538982769055,100 174.8187839817353,-36.8645348598416,100 174.8187664806509,-36.864527025629094,100 174.81875797399428,-36.86452222914159,100 174.81874720385838,-36.86451739429192,100 174.81873870063765,-36.864510755421314,100 174.81872112970657,-36.86450622025652,100 174.81871085501146,-36.864499192983516,100 174.8186996153575,-36.86449362171454,100 174.8186843403745,-36.864487655233354,100 174.81867583144034,-36.86448209985048,100 174.8186542583862,-36.86447388539168,100 174.81864572849474,-36.86447014291242,100 174.818628666759,-36.86446196034852,100 174.81861524870573,-36.8644523682077,100 174.81860093369988,-36.86444350455249,100 174.81858523615674,-36.86443461789035,100 174.8185722460296,-36.864426846201425,100 174.81855654737177,-36.864417959552455,100 174.818548033115,-36.86441350387057,100 174.8185319328726,-36.864402440330636,100 174.8185199385514,-36.86438850358481,100 174.81851460805666,-36.86438225959644,100 174.81850310422774,-36.86436724635831,100 174.81849774165454,-36.864361731138956,100 174.81849244889534,-36.86435296193198,100 174.81849159046104,-36.86435186101963,100 174.8184823145757,-36.86433614398943,100 174.81847221921004,-36.864317514667235,100 174.81845848547283,-36.864299193400775,100 174.81845364962115,-36.86429006027049,100 174.8184411988182,-36.86427650365499,100 174.8184296850994,-36.86426111921037,100 174.81841813243466,-36.864247546143126,100 174.81840929596703,-36.86423474901739,100 174.8183923717024,-36.86421930135486,100 174.81838702477313,-36.86421307293454,100 174.81837902010375,-36.864204985172314,100 174.81837633788479,-36.864203512878035,100 174.8183688015264,-36.86419289240677,100 174.81835496366477,-36.86418110830302,100 174.81834699561756,-36.86417049533792,100 174.81833271499775,-36.86415763640476,100 174.81832115017465,-36.864146246547605,100 174.81831041445196,-36.864138127565965,100 174.8182988500409,-36.864126754825584,100 174.81829172478822,-36.86411795506462,100 174.8182833410844,-36.86410660575544,100 174.81827887780494,-36.86410112183061,100 174.8182717732059,-36.86409376118476,100 174.81826957117627,-36.86409082498193,100 174.81825619825761,-36.86407835234171,100 174.81824329522289,-36.86406402837745,100 174.81823442713602,-36.864052687378134,100 174.81822245776686,-36.86403837886824,100 174.8182113261988,-36.86402699859399,100 174.81820014769892,-36.86401780297229,100 174.81819392028027,-36.864012286550924,100 174.81818094399424,-36.864003058949,100 174.81816570504358,-36.86399453656194,100 174.81815045042592,-36.86398672556618,100 174.81813698025465,-36.86398041863237,100 174.81812756717574,-36.86397594692846,100 174.818117252911,-36.8639707472142,100 174.8181038201271,-36.863961899741476,100 174.8180945238083,-36.863948722954184,100 174.81809228285255,-36.86394759902755,100 174.81809231184943,-36.86394541464829,100 174.81808666760645,-36.86393047304741,100 174.8180841723648,-36.863917010125135,100 174.81808352721842,-36.863900295719084,100 174.81808146561016,-36.86388756976327,100 174.81807713101293,-36.86387516070447,100 174.8180723341726,-36.863864215276195,100 174.81806797896618,-36.863853634440446,100 174.81805819675014,-36.86384300504762,100 174.8180478905308,-36.86383743385369,100 174.81803572425096,-36.8638340308892,100 174.81801223153738,-36.86383232267801,100 174.81799092783916,-36.86383499030222,100 174.81797150252896,-36.8638355056369,100 174.81795340622912,-36.863835300296984,100 174.8179389704339,-36.86383368604472,100 174.81792180513574,-36.86383276882217,100 174.81791050072937,-36.86383193768826,100 174.8178988070532,-36.86382817055021,100 174.81788890467902,-36.863824777099296,100 174.81788304943183,-36.863822893657975,100 174.8178564772106,-36.86381643742608,100 174.81782319503907,-36.86380445500353,100 174.81781333047223,-36.86379924838233,100 174.81780075349727,-36.86379403999252,100 174.81778094149345,-36.86378836633352,100 174.81777013757863,-36.863785886197554,100 174.8177642704988,-36.86378454463391,100 174.81775073207865,-36.863782218996576,100 174.8177444378801,-36.86378069919234,100 174.81772602215113,-36.86377359267228,100 174.8176985788652,-36.86376422219277,100 174.81768151740633,-36.86375604038582,100 174.81765289096566,-36.86374303578391,100 174.81764391422016,-36.86374002834543,100 174.81762110291083,-36.86373000743189,100 174.81760236392932,-36.863717825910555,100 174.81758357531837,-36.86370965698944,100 174.81757321955848,-36.86370881041049,100 174.81756289429518,-36.863705794751034,100 174.81754635998988,-36.86369727767579,100 174.81752343306107,-36.86369340742222,100 174.81750275471532,-36.863690273411315,100 174.81749066257873,-36.86368578404831,100 174.81748036672028,-36.86368060021999,100 174.81746466262769,-36.863676065153065,100 174.81744761837984,-36.86367116481107,100 174.81742657401347,-36.86366332871011,100 174.81741269134878,-36.863657740056745,100 174.81739434975637,-36.86364883598879,100 174.81738271338997,-36.863643271560946,100 174.81737161219695,-36.86363373397157,100 174.81735654709172,-36.863618006247286,100 174.81734947505996,-36.8636092209359,100 174.817343842792,-36.863595393164445,100 174.8173434458608,-36.86359213279555,100 174.81733395009346,-36.86356669362282,100 174.81733247756262,-36.863546771392635,100 174.8173322084912,-36.86353517622133,100 174.81733376126553,-36.86352325574463,100 174.81733707556486,-36.86351386180939,100 174.8173412894992,-36.863505225657526,100 174.81734790048264,-36.86348649934672,100 174.81734898872415,-36.86347528360846,100 174.81734782267247,-36.86346441601397,100 174.81734403095902,-36.8634469799864,100 174.8173419580152,-36.86343646877001,100 174.81734026481914,-36.86342920286265,100 174.8173372567015,-36.863421216168845,100 174.81733150192767,-36.86341462258616,100 174.81732174241108,-36.86340546556513,100 174.8173048169685,-36.86339260278907,100 174.8172949693993,-36.86338967263701,100 174.81727564830405,-36.86338392829,100 174.81726442611722,-36.863381640179234,100 174.81725183977582,-36.863380057044495,100 174.81724195617326,-36.863377405050414,100 174.81723070996244,-36.86337618628781,100 174.81721991222093,-36.863374247708954,100 174.81720774343827,-36.863374096715006,100 174.8171991896947,-36.86337473768845,100 174.81718656248773,-36.863374223254354,100 174.81717938660643,-36.86337270158083,100 174.81715864539424,-36.86337245003984,100 174.81714692281255,-36.86337413544701,100 174.8171383346387,-36.86337474359319,100 174.81713204093023,-36.86337395292885,100 174.8171166868735,-36.86337486283773,100 174.81710723233275,-36.863374744234434,100 174.8170968765607,-36.863373184657,100 174.8170784251052,-36.86337261416472,100 174.8170716103042,-36.86337435520558,100 174.8170626142084,-36.8633746009382,100 174.81704088541673,-36.86338015556018,100 174.81703180414723,-36.86338438289087,100 174.8170186826203,-36.86338677289068,100 174.8169973786867,-36.86339340531451,100 174.81696893215042,-36.86339778996426,100 174.8169589634589,-36.86339983340342,100 174.81693365630264,-36.86340533997232,100 174.81690021444481,-36.86340966759304,100 174.8168726248123,-36.863415137844946,100 174.81685820402976,-36.86341604787138,100 174.81682839099312,-36.86342042363829,100 174.81678237044667,-36.863422781254926,100 174.816734536104,-36.86342585160117,100 174.81670206344086,-36.86342691232872,100 174.81666284585197,-36.86342646007638,100 174.81663309390075,-36.86342721058992,100 174.81660967391383,-36.863426956644304,100 174.81658347018336,-36.86342989361842,100 174.8165586004299,-36.863434309113835,100 174.81653828891984,-36.86343661970184,100 174.81650485661245,-36.86344130489581,100 174.8164967330043,-36.86344121006247,100 174.816482730501,-36.86344358372733,100 174.81646867908873,-36.86344739757125,100 174.81644684450626,-36.8634601887237,100 174.81642782686424,-36.8634650320958,100 174.81640521594846,-36.86347057124456,100 174.8163893453776,-36.86347635357167,100 174.8162030340997,-36.863409528943784,100</coordinates></LinearRing></outerBoundaryIs>
    </Polygon>
  </Placemark>

  <Placemark>
    <name>Orakei</name>
    <Point>
      <altitudeMode>relativeToGround</altitudeMode>
      <coordinates>174.81953109651045,-36.85498995492763,100</coordinates>
    </Point>
  </Placemark>

</Document>
</kml>