<?xml version="1.0" encoding="UTF-8"?>
<kml xmlns="http://www.opengis.net/kml/2.2">
  <Document>
    <name>Pahurehure (polygon: official_shp)</name>
    <Style id="icon-1899-0288D1-nodesc-normal">
      <IconStyle>
        <color>ffd18802</color>
        <scale>1</scale>
        <Icon>
          <href>https://www.gstatic.com/mapspro/images/stock/503-wht-blank_maps.png</href>
        </Icon>
        <hotSpot x="32" xunits="pixels" y="64" yunits="insetPixels"/>
      </IconStyle>
      <LabelStyle>
        <scale>0</scale>
      </LabelStyle>
      <BalloonStyle>
        <text><![CDATA[<h3>$[name]</h3>]]></text>
      </BalloonStyle>
    </Style>
    <Style id="icon-1899-0288D1-nodesc-highlight">
      <IconStyle>
        <color>ffd18802</color>
        <scale>1</scale>
        <Icon>
          <href>https://www.gstatic.com/mapspro/images/stock/503-wht-blank_maps.png</href>
        </Icon>
        <hotSpot x="32" xunits="pixels" y="64" yunits="insetPixels"/>
      </IconStyle>
      <LabelStyle>
        <scale>1</scale>
      </LabelStyle>
      <BalloonStyle>
        <text><![CDATA[<h3>$[name]</h3>]]></text>
      </BalloonStyle>
    </Style>
    <StyleMap id="icon-1899-0288D1-nodesc">
      <Pair>
        <key>normal</key>
        <styleUrl>#icon-1899-0288D1-nodesc-normal</styleUrl>
      </Pair>
      <Pair>
        <key>highlight</key>
        <styleUrl>#icon-1899-0288D1-nodesc-highlight</styleUrl>
      </Pair>
    </StyleMap>
    <Style id="poly-0000FF-2000-102-nodesc-normal">
      <LineStyle>
        <color>ffff0000</color>
        <width>2</width>
      </LineStyle>
      <PolyStyle>
        <color>66ff0000</color>
        <fill>1</fill>
        <outline>1</outline>
      </PolyStyle>
      <BalloonStyle>
        <text><![CDATA[<h3>$[name]</h3>]]></text>
      </BalloonStyle>
    </Style>
    <Style id="poly-0000FF-2000-102-nodesc-highlight">
      <LineStyle>
        <color>ffff0000</color>
        <width>3</width>
      </LineStyle>
      <PolyStyle>
        <color>66ff0000</color>
        <fill>1</fill>
        <outline>1</outline>
      </PolyStyle>
      <BalloonStyle>
        <text><![CDATA[<h3>$[name]</h3>]]></text>
      </BalloonStyle>
    </Style>
    <StyleMap id="poly-0000FF-2000-102-nodesc">
      <Pair>
        <key>normal</key>
        <styleUrl>#poly-0000FF-2000-102-nodesc-normal</styleUrl>
      </Pair>
      <Pair>
        <key>highlight</key>
        <styleUrl>#poly-0000FF-2000-102-nodesc-highlight</styleUrl>
      </Pair>
    </StyleMap>
    <Placemark>
      <name>Pahurehure (polygon: official_shp)</name>
      <styleUrl>#poly-0000FF-2000-102-nodesc</styleUrl>
      <Polygon>
        <outerBoundaryIs>
          <LinearRing>
            <tessellate>1</tessellate>
            <coordinates>
              174.923221,-37.060513,0
              174.923222,-37.060549,0
              174.924694,-37.063791,0
              174.924819,-37.063728,0
              174.925213,-37.064716,0
              174.926037,-37.066813,0
              174.926623,-37.068305,0
              174.927023,-37.06935,0
              174.927096,-37.069428,0
              174.927478,-37.070385,0
              174.92772,-37.07099,0
              174.929314,-37.0737,0
              174.931851,-37.07382,0
              174.933401,-37.074835,0
              174.936007,-37.074894,0
              174.936828,-37.075597,0
              174.937344,-37.075595,0
              174.93788,-37.075593,0
              174.9380119,-37.0742696,0
              174.939088,-37.073631,0
              174.942453,-37.072527,0
              174.942457,-37.072526,0
              174.942666,-37.072457,0
              174.942452,-37.072038,0
              174.942497,-37.071826,0
              174.942507,-37.071481,0
              174.942478,-37.071429,0
              174.942392,-37.071277,0
              174.942411,-37.071271,0
              174.942426,-37.071266,0
              174.942456,-37.071087,0
              174.942485,-37.070907,0
              174.942515,-37.070727,0
              174.942528,-37.070647,0
              174.943067,-37.070476,0
              174.943121,-37.07051,0
              174.943158,-37.070252,0
              174.943179,-37.070091,0
              174.943181,-37.06987,0
              174.943206,-37.069681,0
              174.943178,-37.069678,0
              174.942721,-37.069639,0
              174.942717,-37.0696,0
              174.942528,-37.069613,0
              174.942502,-37.069614,0
              174.942266,-37.06963,0
              174.942263,-37.069607,0
              174.941979,-37.069581,0
              174.941704,-37.069555,0
              174.941465,-37.069572,0
              174.941239,-37.069587,0
              174.941235,-37.069547,0
              174.941208,-37.069549,0
              174.941027,-37.069561,0
              174.94082,-37.069576,0
              174.940613,-37.06959,0
              174.940597,-37.069439,0
              174.940213,-37.069377,0
              174.940114,-37.069361,0
              174.939991,-37.069341,0
              174.939841,-37.069316,0
              174.939788,-37.069308,0
              174.939758,-37.069023,0
              174.939746,-37.069021,0
              174.939612,-37.069135,0
              174.939599,-37.069187,0
              174.939584,-37.069247,0
              174.939578,-37.069273,0
              174.939404,-37.069245,0
              174.939365,-37.069239,0
              174.939351,-37.069237,0
              174.939183,-37.069209,0
              174.939167,-37.069207,0
              174.939075,-37.069192,0
              174.938961,-37.069173,0
              174.938859,-37.069157,0
              174.938739,-37.069137,0
              174.938599,-37.069115,0
              174.938553,-37.069001,0
              174.938519,-37.068995,0
              174.938263,-37.068954,0
              174.938209,-37.068945,0
              174.938062,-37.068921,0
              174.938007,-37.068912,0
              174.937834,-37.068884,0
              174.937806,-37.068879,0
              174.937626,-37.06885,0
              174.937604,-37.068847,0
              174.937537,-37.068836,0
              174.937419,-37.068912,0
              174.937152,-37.068626,0
              174.93691,-37.068615,0
              174.936896,-37.068629,0
              174.936881,-37.068642,0
              174.936865,-37.068656,0
              174.936848,-37.068668,0
              174.936831,-37.06868,0
              174.936814,-37.068692,0
              174.936796,-37.068702,0
              174.936777,-37.068713,0
              174.936757,-37.068722,0
              174.936738,-37.068731,0
              174.936717,-37.068739,0
              174.936697,-37.068747,0
              174.936676,-37.068754,0
              174.936654,-37.06876,0
              174.936633,-37.068765,0
              174.936611,-37.06877,0
              174.936581,-37.068775,0
              174.936478,-37.06879,0
              174.936282,-37.068819,0
              174.936196,-37.068831,0
              174.936105,-37.068636,0
              174.935994,-37.068397,0
              174.935934,-37.068268,0
              174.93591,-37.068216,0
              174.935752,-37.067767,0
              174.935719,-37.067674,0
              174.935634,-37.067434,0
              174.935619,-37.06739,0
              174.93565,-37.067156,0
              174.935665,-37.067035,0
              174.935687,-37.066855,0
              174.93571,-37.066687,0
              174.935726,-37.066577,0
              174.93553,-37.066561,0
              174.935447,-37.066345,0
              174.936183,-37.065981,0
              174.935779,-37.06561,0
              174.935728,-37.065564,0
              174.934465,-37.066189,0
              174.933824,-37.066486,0
              174.933698,-37.066304,0
              174.933685,-37.066159,0
              174.933685,-37.066141,0
              174.933694,-37.066136,0
              174.933706,-37.06613,0
              174.933721,-37.066122,0
              174.933737,-37.066118,0
              174.93375,-37.066116,0
              174.933761,-37.066113,0
              174.933773,-37.06611,0
              174.933783,-37.066108,0
              174.933786,-37.066108,0
              174.933796,-37.066105,0
              174.933808,-37.066101,0
              174.933822,-37.066097,0
              174.933834,-37.066095,0
              174.933846,-37.066092,0
              174.933847,-37.066091,0
              174.933866,-37.066082,0
              174.933877,-37.066073,0
              174.933879,-37.066071,0
              174.933894,-37.066057,0
              174.9339,-37.066048,0
              174.93391,-37.066035,0
              174.933911,-37.066034,0
              174.933921,-37.066018,0
              174.933922,-37.066016,0
              174.933935,-37.066001,0
              174.933936,-37.066,0
              174.933949,-37.065985,0
              174.933961,-37.065969,0
              174.933972,-37.065957,0
              174.933983,-37.065949,0
              174.933995,-37.065943,0
              174.934014,-37.065933,0
              174.934026,-37.065928,0
              174.934042,-37.065926,0
              174.934055,-37.065926,0
              174.934064,-37.065924,0
              174.934074,-37.065923,0
              174.934094,-37.065916,0
              174.934104,-37.065909,0
              174.934106,-37.0659,0
              174.934103,-37.065889,0
              174.934094,-37.06588,0
              174.934084,-37.065875,0
              174.934077,-37.065871,0
              174.934063,-37.065863,0
              174.934051,-37.065855,0
              174.934047,-37.065853,0
              174.934034,-37.065839,0
              174.934032,-37.065837,0
              174.933774,-37.065947,0
              174.93326,-37.065663,0
              174.933034,-37.065644,0
              174.932832,-37.065456,0
              174.932452,-37.064876,0
              174.932021,-37.064557,0
              174.931754,-37.064054,0
              174.931553,-37.063911,0
              174.931356,-37.063914,0
              174.931193,-37.064097,0
              174.931109,-37.064099,0
              174.931022,-37.064033,0
              174.931013,-37.063694,0
              174.931284,-37.063284,0
              174.931251,-37.063104,0
              174.931134,-37.06296,0
              174.93076,-37.062628,0
              174.930439,-37.062182,0
              174.930267,-37.062061,0
              174.930083,-37.062031,0
              174.929521,-37.062041,0
              174.928753,-37.062244,0
              174.928614,-37.06236,0
              174.928566,-37.062654,0
              174.928617,-37.063026,0
              174.928923,-37.063256,0
              174.928971,-37.063423,0
              174.928804,-37.063426,0
              174.928495,-37.063323,0
              174.928346,-37.06317,0
              174.928146,-37.063139,0
              174.927922,-37.063216,0
              174.92765,-37.063289,0
              174.927492,-37.063236,0
              174.927265,-37.063158,0
              174.92713,-37.063138,0
              174.926978,-37.063098,0
              174.927002,-37.062981,0
              174.927079,-37.062814,0
              174.927339,-37.062682,0
              174.927581,-37.0627,0
              174.927763,-37.062623,0
              174.927872,-37.062307,0
              174.92785,-37.062088,0
              174.927657,-37.061867,0
              174.927472,-37.061779,0
              174.927244,-37.061693,0
              174.92716,-37.061573,0
              174.926954,-37.061261,0
              174.9264,-37.061056,0
              174.926032,-37.061026,0
              174.925679,-37.060999,0
              174.925344,-37.06096,0
              174.925069,-37.060752,0
              174.924957,-37.060692,0
              174.924833,-37.060668,0
              174.924492,-37.060717,0
              174.924209,-37.060653,0
              174.923864,-37.060389,0
              174.923447,-37.059517,0
              174.922806,-37.059708,0
              174.922853,-37.059899,0
              174.923219,-37.060445,0
              174.923221,-37.060513,0
            </coordinates>
          </LinearRing>
        </outerBoundaryIs>
      </Polygon>
    </Placemark>
    <Placemark>
      <name>Pahurehure</name>
      <styleUrl>#icon-1899-0288D1-nodesc</styleUrl>
      <Point>
        <coordinates>
          174.931988,-37.067956,100
        </coordinates>
      </Point>
    </Placemark>
  </Document>
</kml>
