<?xml version="1.0" encoding="utf-8"?>
<kml xmlns="http://www.opengis.net/kml/2.2">
<Document>
  <name>Pakuranga Heights (polygon: official_shp)</name>
  <open>1</open>

  <Placemark>
    <name>Pakuranga Heights (polygon: official_shp)</name>
    <Style>
      <LineStyle><color>ffff0000</color><width>2</width></LineStyle>
      <PolyStyle><color>66ff0000</color><fill>1</fill><outline>1</outline></PolyStyle>
    </Style>
    <Polygon>
      <tessellate>1</tessellate>
      <altitudeMode>relativeToGround</altitudeMode>
      <outerBoundaryIs><LinearRing><coordinates>174.88039291551632,-36.92198545603423,100 174.88035811739843,-36.9218196849459,100 174.88030445928854,-36.92178769595705,100 174.88026821707297,-36.92176608837201,100 174.88037673301866,-36.92164802787839,100 174.88051350348942,-36.92149924365871,100 174.8806207086299,-36.92138259894557,100 174.88066095784407,-36.92133884333567,100 174.88070120551427,-36.92129507241442,100 174.8808616972482,-36.92117814867188,100 174.88092835988323,-36.921129579780825,100 174.88105269627752,-36.92103901157975,100 174.88125130870094,-36.92089433574754,100 174.88131554561429,-36.9208475283926,100 174.88144486764563,-36.920753356646465,100 174.88147257713354,-36.92073317333656,100 174.88156948524883,-36.92060101970347,100 174.88158155849524,-36.92056407443688,100 174.88184722243582,-36.92046519924018,100 174.881776218944,-36.920204458930634,100 174.88176491155468,-36.92016299629261,100 174.88188645922892,-36.920101699385754,100 174.88193249500324,-36.91993958242976,100 174.88207916327647,-36.919613063595655,100 174.88210219115754,-36.91961991097767,100 174.88222156299523,-36.919360122882715,100 174.8822333341735,-36.91933437941829,100 174.88260515702464,-36.91940512269059,100 174.8826830406554,-36.91941983858466,100 174.8829466984854,-36.919469966309414,100 174.88304844263595,-36.9191167729716,100 174.88297378991328,-36.91910260455886,100 174.88294975141008,-36.919098022158956,100 174.88309177242292,-36.918600096325235,100 174.88313604724448,-36.918444607188256,100 174.88319121745735,-36.91845451568133,100 174.88341146841077,-36.918494373431116,100 174.88352551556218,-36.91851510206131,100 174.8836646841525,-36.91854017574385,100 174.88382073191988,-36.91856851737378,100 174.88401708765576,-36.918603929192024,100 174.88403658693127,-36.918607569409986,100 174.88417087372872,-36.91863176725147,100 174.88426127042928,-36.918648199782,100 174.88444654159667,-36.91868165244222,100 174.88448657289163,-36.91865363243294,100 174.88459971103953,-36.91857443716783,100 174.88476138367784,-36.918461312896824,100 174.88447116058973,-36.918179981808386,100 174.8843940075967,-36.91820813841043,100 174.88415669204716,-36.918294706274416,100 174.8841604247256,-36.9182563572387,100 174.88417961077587,-36.918060126012634,100 174.88420946322074,-36.91775471106165,100 174.88402596587338,-36.91772153720551,100 174.88387729077436,-36.91769463183539,100 174.88384246791952,-36.91768833242818,100 174.8838365946721,-36.917687273713,100 174.88365895178302,-36.91765511233089,100 174.88347545452308,-36.917621923194346,100 174.88329195738837,-36.91758873286854,100 174.8831084431931,-36.917555527204875,100 174.8829249463753,-36.91752233720342,100 174.88274047603423,-36.91748894603389,100 174.8827889721727,-36.91731439658266,100 174.88241676703663,-36.9172470523652,100 174.88245170013522,-36.91712138474423,100 174.88253333150516,-36.917079847735394,100 174.88257052993538,-36.91694588628496,100 174.88271305244362,-36.916971676785295,100 174.88280397731768,-36.9166443661013,100 174.8830131897895,-36.916682217584984,100 174.88302052832447,-36.91665568356628,100 174.88305426917134,-36.91653389322316,100 174.88305660808388,-36.916525799246266,100 174.88309032582114,-36.91640444279277,100 174.8830998754405,-36.9163701421941,100 174.8831431235593,-36.91621448542974,100 174.88315520790636,-36.91617097281079,100 174.8831863714851,-36.91605878178261,100 174.88321909439358,-36.91594094268881,100 174.88322963572438,-36.91590306343842,100 174.8832395631171,-36.915867377818735,100 174.8832729020611,-36.91574743697826,100 174.8832756276184,-36.91573758560236,100 174.88331616860364,-36.91559177985272,100 174.88335943423803,-36.91543613804676,100 174.88340271576465,-36.91528046442534,100 174.8831647452085,-36.9152378500686,100 174.88298404211346,-36.91520547743866,100 174.88306474706604,-36.91491522044499,100 174.88314577109836,-36.91487561337529,100 174.8831342594131,-36.9146663203418,100 174.88322161668788,-36.91435618460622,100 174.88376378899991,-36.91438568000097,100 174.8837721461468,-36.91428695935334,100 174.8837766088272,-36.91423402259466,100 174.88378509997824,-36.914133860412036,100 174.8837999236338,-36.913958535020136,100 174.88380143854684,-36.91394045035703,100 174.88384292249674,-36.9137931251526,100 174.88384418426693,-36.913788658929946,100 174.88388438834642,-36.91364580021948,100 174.8838911403202,-36.91362186313414,100 174.88389938526367,-36.91348902571307,100 174.883694053819,-36.91345177387837,100 174.88348674133456,-36.91341415291878,100 174.8835607781278,-36.91315106612662,100 174.88356307763058,-36.913144706900894,100 174.88356633617175,-36.91313859474826,100 174.8835704681703,-36.91313285540807,100 174.8835754256981,-36.91312754822615,100 174.88358115729176,-36.91312277136112,100 174.8835875451038,-36.913118570846635,100 174.8835945383499,-36.91311502680418,100 174.88360200010843,-36.91311218556995,100 174.88360982720684,-36.91311009655017,100 174.88361793556086,-36.91310876378241,100 174.88362616803062,-36.91310823302229,100 174.88363442403408,-36.91310852208886,100 174.8836425622117,-36.913109588158264,100 174.8836833897648,-36.912964876414186,100 174.88367545619914,-36.91296304728979,100 174.88366784695364,-36.9129604396888,100 174.88366070149866,-36.912957110886175,100 174.8836540935489,-36.91295313722622,100 174.88364814131464,-36.91294853305788,100 174.88364293609422,-36.91294340509143,100 174.88363853025362,-36.91293778314128,100 174.8836349795635,-36.91293178980368,100 174.88363238801048,-36.9129255000415,100 174.88363072500636,-36.912918993656085,100 174.88363007956082,-36.912912375591354,100 174.883630418872,-36.912905772552314,100 174.883631745915,-36.9128992142353,100 174.8836587822239,-36.912803249170274,100 174.88409913798534,-36.9128831662974,100 174.88414060369757,-36.91273587281507,100 174.8841527301501,-36.91269269921484,100 174.8841820665796,-36.91258847030223,100 174.8841914810096,-36.91255496130843,100 174.88422351326818,-36.91244114554397,100 174.884309437528,-36.91245675679615,100 174.8843225257291,-36.912410160030674,100 174.88432642289473,-36.91239638642553,100 174.8843614669866,-36.91227182958462,100 174.88425823972966,-36.91225312917641,100 174.88430140711893,-36.91209974996454,100 174.88434457434795,-36.91194637073807,100 174.88438772418783,-36.911792975546675,100 174.88443089071956,-36.91163958097464,100 174.88450322612877,-36.911652735307165,100 174.8846133356693,-36.91167272514581,100 174.8846313149606,-36.91160883643002,100 174.88465859746645,-36.91151181359035,100 174.88454287681375,-36.911490852878444,100 174.88456643861812,-36.91140710514469,100 174.88457962363552,-36.91136025894846,100 174.884616371441,-36.91122966408916,100 174.8845780246544,-36.91122212558137,100 174.88458154006375,-36.911209582016376,100 174.8846186073158,-36.911076736898536,100 174.8846260951036,-36.91105001473132,100 174.88466708754578,-36.910903177416515,100 174.88470804583713,-36.91075637217438,100 174.88474903686634,-36.910609534851076,100 174.88478999448986,-36.9104627142662,100 174.8848309683985,-36.91031587718369,100 174.8848719261082,-36.91016907188899,100 174.88491290124702,-36.9100222509798,100 174.88495389154878,-36.90987541359074,100 174.88499484844525,-36.90972859294017,100 174.88503583883298,-36.90958177084126,100 174.88488822629523,-36.90955522009146,100 174.88495102774758,-36.90933021028708,100 174.88471395885793,-36.90928770705072,100 174.8847604255326,-36.90912153872944,100 174.88470862874001,-36.90905592715786,100 174.8847386218805,-36.908948588918484,100 174.8851796271521,-36.90902771599768,100 174.88522148921945,-36.90887734772012,100 174.88523330521994,-36.90883487654884,100 174.8854205622131,-36.90886847856924,100 174.88549766880564,-36.908882322708365,100 174.88558529470458,-36.90856739398896,100 174.88559126495002,-36.90854593341975,100 174.88557397439695,-36.90848273791097,100 174.88551783850536,-36.908277493739405,100 174.8854787303784,-36.90813465877715,100 174.88522479191315,-36.90819359656388,100 174.8851294696676,-36.90821572281689,100 174.88497587804252,-36.90809921889142,100 174.8852129465885,-36.907689017596276,100 174.88511303511555,-36.90762790318191,100 174.8851846248927,-36.90737320575519,100 174.8851921285965,-36.907346421100584,100 174.88533352234742,-36.90737205807002,100 174.885515929662,-36.907246009591994,100 174.8856175540156,-36.907175795818056,100 174.88564513691134,-36.907163930054054,100 174.8856881685471,-36.90714543044488,100 174.88586908261325,-36.90706763386167,100 174.88597589333634,-36.907021689289245,100 174.88599756310325,-36.90701235901854,100 174.8860499948041,-36.90698982171357,100 174.88614050198964,-36.90695089940363,100 174.8862200377841,-36.906916707442804,100 174.88623100908097,-36.90691197702705,100 174.88616958671295,-36.90681972630958,100 174.88606282324886,-36.90665955198937,100 174.88597364600864,-36.90652566199951,100 174.88624908224074,-36.90640727720012,100 174.8862861535893,-36.906462879407854,100 174.88665657908524,-36.90633254770418,100 174.8865745518296,-36.906209234239725,100 174.88650207110973,-36.90610066789209,100 174.88647769973645,-36.906063909813824,100 174.88630829220256,-36.90580977214739,100 174.88657671848298,-36.90569439028259,100 174.88661840124695,-36.90567653278061,100 174.88675767870876,-36.90561659164777,100 174.886778888143,-36.90560750199321,100 174.8869386920643,-36.905538823442654,100 174.8869830736502,-36.9055197719509,100 174.88677788527824,-36.90536339634628,100 174.88674716361683,-36.90531815412837,100 174.88673689924923,-36.905303047927596,100 174.8868370381134,-36.90518142561799,100 174.88694658323337,-36.90504838007377,100 174.88724882014372,-36.90513172333493,100 174.88737846937838,-36.90516745995911,100 174.88750244553344,-36.90516553842484,100 174.88766062275948,-36.90516307859359,100 174.88789272997028,-36.90515951101064,100 174.88792008630344,-36.90515907886556,100 174.8882955614939,-36.90515332609104,100 174.88834118753644,-36.90515718839029,100 174.88843923167613,-36.905165491746565,100 174.88864346616919,-36.90518279157962,100 174.88866048212313,-36.905184212768475,100 174.8889070167619,-36.90520512435135,100 174.88892521184633,-36.90520666374957,100 174.88915360119836,-36.9052260021806,100 174.88920600401494,-36.90523045757948,100 174.88960093897106,-36.90526389866477,100 174.88961988543426,-36.905256814795514,100 174.8896668548142,-36.905239513861396,100 174.8897866249684,-36.90519535162874,100 174.88992499743284,-36.90514422079654,100 174.8900914303001,-36.90508294865947,100 174.890096031579,-36.90508111786115,100 174.89039642311857,-36.90497044819494,100 174.89044498006646,-36.904774877665375,100 174.89047049139072,-36.904672183561374,100 174.89052408159816,-36.904456376673124,100 174.8905616062486,-36.90430526171876,100 174.89057042512638,-36.904269734636685,100 174.89061281300812,-36.90409908276366,100 174.89065550887733,-36.90392709291916,100 174.89068080139702,-36.90382528554003,100 174.8906935033064,-36.90377420475432,100 174.89070219177532,-36.903756133789386,100 174.89070962181188,-36.90374073273634,100 174.89074855333882,-36.90365987390607,100 174.89088783986034,-36.903870828431764,100 174.8908975219834,-36.903885464938035,100 174.89101594759745,-36.904064818570205,100 174.8911959844476,-36.90433748886819,100 174.89126127406908,-36.904436344247706,100 174.89144677701248,-36.904357390029034,100 174.89157232507526,-36.90430392612387,100 174.89180974854423,-36.904202858865595,100 174.891863679079,-36.90428455255576,100 174.8919640964978,-36.90443668558539,100 174.89207216103628,-36.9043906831768,100 174.89207408882018,-36.90439357634537,100 174.89224129647675,-36.904646939411066,100 174.89236470853425,-36.90459437937623,100 174.89240691054,-36.90448318539819,100 174.8926788051941,-36.90436743357225,100 174.89261417269222,-36.90427053429946,100 174.89293566279642,-36.90413367042755,100 174.89294308052843,-36.90413050484391,100 174.8928460103323,-36.903985173842045,100 174.89274897451216,-36.90383981065902,100 174.89265196009094,-36.903694571429924,100 174.89256602991532,-36.90356591011348,100 174.89285907467922,-36.90362403236468,100 174.89294551633634,-36.90364116238182,100 174.8932002625273,-36.903746727621666,100 174.89324909990222,-36.903766978716305,100 174.89329195803558,-36.903784749135006,100 174.89336607164637,-36.90383172245081,100 174.89341769472378,-36.90380820427397,100 174.8936254496549,-36.903713555100374,100 174.89369752960323,-36.90368071187392,100 174.89380393472047,-36.903632226897564,100 174.89396259317414,-36.90355995108245,100 174.89398243662788,-36.90355091438513,100 174.89414129846506,-36.90347852603145,100 174.89416092017606,-36.90346960099933,100 174.89419680758292,-36.903443432997584,100 174.89428427913188,-36.90337966935559,100 174.8941008395147,-36.90300839698594,100 174.89403380238147,-36.902872729626,100 174.89401759169078,-36.902839903414915,100 174.89426432108604,-36.9028840602838,100 174.89482610689774,-36.9029846012134,100 174.89532969511802,-36.90307471698123,100 174.89537114797517,-36.90308218176272,100 174.89574219884938,-36.90282363908718,100 174.89519179804222,-36.90272411056721,100 174.89575999355466,-36.90232821820859,100 174.8960441562101,-36.902130239346555,100 174.8961287854761,-36.901981918341725,100 174.89661778878315,-36.90167090515531,100 174.89642850322494,-36.90148061273403,100 174.89633472393987,-36.9015436980942,100 174.89580785332157,-36.90119514431347,100 174.89577967296833,-36.901176684440856,100 174.8951993101961,-36.900792935211776,100 174.8956754128305,-36.90030930018055,100 174.8957145281822,-36.90026970914176,100 174.89597202526,-36.90000823632552,100 174.89616714957097,-36.899939079958926,100 174.8971050522614,-36.900568852669274,100 174.8971728205689,-36.900778146181636,100 174.89720119073715,-36.9008181306934,100 174.8972360149449,-36.900867851802246,100 174.89733897577264,-36.9010147796056,100 174.89735536955567,-36.90103841889586,100 174.8978729018933,-36.90133972361481,100 174.8983764086082,-36.90101957371921,100 174.89838968051006,-36.90101114697066,100 174.89812059836643,-36.900666415407244,100 174.8983080001024,-36.90056954441685,100 174.8984953493903,-36.90047270461814,100 174.89877100464994,-36.90081499763482,100 174.89881600349878,-36.90112100601452,100 174.89953399564735,-36.900742003622696,100 174.8998679964306,-36.90056599590243,100 174.90082099824784,-36.90006799286573,100 174.90218833869108,-36.89934068380658,100 174.9024836171085,-36.89969087655778,100 174.90260167940704,-36.89983088986979,100 174.90339701308113,-36.90081812338677,100 174.90372383593575,-36.90064491038498,100 174.90399767896537,-36.90049979535253,100 174.90416739181455,-36.90070902135853,100 174.90423900074498,-36.90079699471572,100 174.90425799821216,-36.900814005352984,100 174.90425099730697,-36.90082600688168,100 174.90424400786148,-36.90084099789777,100 174.90423200669622,-36.90086300039925,100 174.9042249926669,-36.900884000894905,100 174.90422200024955,-36.900888994402344,100 174.9042179993252,-36.90090199606453,100 174.9042150072874,-36.90090700488811,100 174.90420699893394,-36.900928999254084,100 174.9041949940369,-36.90094200305365,100 174.90417899323378,-36.90096500524116,100 174.90415799348304,-36.9009930051603,100 174.90415299934725,-36.9010070006734,100 174.90414399245023,-36.901030993943145,100 174.90413099278314,-36.90106199677926,100 174.90412300095818,-36.901088992287605,100 174.90411699964804,-36.90109899488386,100 174.90411399444625,-36.901113001772565,100 174.90411300893572,-36.9011250060013,100 174.9041030034199,-36.90117700300062,100 174.904097993797,-36.90118599644527,100 174.9040900075361,-36.901198000241514,100 174.90408600659774,-36.90121100280067,100 174.9040880067883,-36.90122600561847,100 174.9040800025584,-36.901293005415475,100 174.90408099516145,-36.901303998199246,100 174.90406000289627,-36.901452999004015,100 174.90404999359586,-36.901488997665986,100 174.9040490018939,-36.90149700554957,100 174.90404599883752,-36.90151299620228,100 174.90403900036793,-36.90152699590106,100 174.90403899148401,-36.901533005129615,100 174.90404200110808,-36.90155200172826,100 174.90404099316294,-36.90157899793526,100 174.90403000665628,-36.901609004076114,100 174.90402999582716,-36.90163200317715,100 174.90403100758576,-36.90165699672505,100 174.90403000160367,-36.90166700396022,100 174.90402999323868,-36.90168499980625,100 174.90402799152187,-36.901694002712226,100 174.90402799629155,-36.901702999590384,100 174.90401800261125,-36.901793993708274,100 174.9040200025664,-36.90181399884355,100 174.9040200062363,-36.9018229966405,100 174.9040169915284,-36.901855000291015,100 174.90401799458485,-36.90186700058015,100 174.90401799939647,-36.90188299799284,100 174.9040189937916,-36.90188900555865,100 174.90401700189526,-36.901911001704335,100 174.90401699372964,-36.901916994697324,100 174.9040179945236,-36.90192199538854,100 174.90401999348285,-36.901977992863024,100 174.9040160077392,-36.90200799943689,100 174.90401800230717,-36.902030993427644,100 174.90401700811367,-36.90203700493148,100 174.90401700364166,-36.90205199662195,100 174.90401600016287,-36.90205700240397,100 174.90401400412705,-36.90209400375392,100 174.90400299997714,-36.90215500108433,100 174.9040050072821,-36.902193001811504,100 174.90400699451322,-36.90219800020884,100 174.9040150034499,-36.902213996392774,100 174.9040190049958,-36.90224400200718,100 174.90401799838588,-36.90225899624271,100 174.90401899529357,-36.90226700108798,100 174.90402099570466,-36.902270001052244,100 174.90402200400203,-36.90227399394956,100 174.9040299965259,-36.90229000661898,100 174.90403199515006,-36.902290993067815,100 174.904035001757,-36.90229600486629,100 174.90403800543197,-36.90229900226649,100 174.90404799663378,-36.902323001917345,100 174.90404900858488,-36.90232899297724,100 174.90405700730506,-36.90235600072037,100 174.9040790055296,-36.902398000976994,100 174.90408300497748,-36.90240200360513,100 174.90410000414542,-36.902442001054766,100 174.90410700341485,-36.90245200613547,100 174.90411099225483,-36.9024670050088,100 174.90412700864698,-36.9025090020098,100 174.90412700729172,-36.902514004344816,100 174.90412899728275,-36.90251599770217,100 174.90414299281278,-36.90255299774615,100 174.90414900139342,-36.90256599395658,100 174.90415799531343,-36.90259899301839,100 174.90416000617066,-36.90260299958436,100 174.90416399984298,-36.90262699623237,100 174.90416399849047,-36.90263199856721,100 174.90416800048854,-36.90263799937255,100 174.9041840075975,-36.90263099457441,100 174.9042029911633,-36.902717001301134,100 174.9041999961441,-36.902719996628,100 174.90419899380979,-36.90273200112438,100 174.90418299271855,-36.90276200384985,100 174.90418499959372,-36.90281199210097,100 174.9041959921744,-36.90282200255385,100 174.90419599454285,-36.90283600358434,100 174.90422299958342,-36.90294599735352,100 174.9042240065541,-36.902954992582615,100 174.90423600588417,-36.90299800666151,100 174.90423999983082,-36.90301700098776,100 174.90425300456369,-36.903061993560534,100 174.9042570027804,-36.90307799904826,100 174.90426300619978,-36.90309900173823,100 174.90426700143385,-36.903105993195915,100 174.90427400337396,-36.90312499607557,100 174.90427800652978,-36.90313099685777,100 174.90428400244357,-36.903153006438465,100 174.904325002816,-36.90326399165967,100 174.9043340026677,-36.90327699758117,100 174.90434200034667,-36.90329000514962,100 174.90434399402454,-36.903293996664765,100 174.9043529937455,-36.90331900543283,100 174.90435399453884,-36.90332400431702,100 174.90435499901537,-36.90333100226451,100 174.9043580000917,-36.90334400522341,100 174.90435999751222,-36.90335699543276,100 174.904363992006,-36.90336400131958,100 174.90436600202943,-36.90339700057641,100 174.90435999343788,-36.903451002017654,100 174.90436599245157,-36.90350599886355,100 174.90436600103476,-36.90352399533321,100 174.90439099319678,-36.90367100688582,100 174.9044050029944,-36.903705993116176,100 174.90442400505418,-36.90379199858938,100 174.90441800520765,-36.90385199365129,100 174.9044099968761,-36.90388600528999,100 174.90440999264402,-36.90388899502794,100 174.90440299643666,-36.903916994873214,100 174.9044010064638,-36.90392200115264,100 174.9043830040929,-36.90397299342532,100 174.904305996415,-36.904103003904844,100 174.90426200432555,-36.90420500471963,100 174.9042559998896,-36.90421299382797,100 174.90423899871433,-36.90425699833558,100 174.904226008476,-36.904300994414704,100 174.90422399914036,-36.904304003682114,100 174.9041910007975,-36.90439899531834,100 174.90419100198767,-36.90440599583185,100 174.90418299732158,-36.904430002772024,100 174.9041790039958,-36.9044369961245,100 174.90415800155608,-36.904554000279376,100 174.9041560036545,-36.904559998130914,100 174.90415099214303,-36.904597998704894,100 174.9041270018416,-36.90468099988497,100 174.9041279931903,-36.904696995895186,100 174.90412300775677,-36.904729003189956,100 174.90412299221916,-36.90479099875416,100 174.90411900776755,-36.904816002987864,100 174.9041180000438,-36.90483099723649,100 174.9041159918535,-36.9048410061146,100 174.9041180060706,-36.90484699642496,100 174.90411399751426,-36.90491599885311,100 174.9040920027218,-36.90498600258083,100 174.9040920043297,-36.90502399218117,100 174.9040920072444,-36.90502600567745,100 174.9040830036053,-36.90505899673333,100 174.90408000080762,-36.90507500179694,100 174.90405899532823,-36.90512999534147,100 174.90405000093855,-36.90515699338722,100 174.9040400075095,-36.90518100516042,100 174.90403899858916,-36.90518899889507,100 174.90400300033266,-36.90526600140478,100 174.90399500322806,-36.905276998595134,100 174.90397299646276,-36.90530300288247,100 174.90396000837694,-36.905341995682534,100 174.90395200128117,-36.90535900301431,100 174.903948000133,-36.90537200556706,100 174.90394200853862,-36.90538299944584,100 174.90394100385416,-36.90538800344201,100 174.90393899775654,-36.90539999428006,100 174.9039400028167,-36.90545000037926,100 174.90396900851215,-36.90559900174214,100 174.9039710051485,-36.90560500675713,100 174.90397999649474,-36.905635992312256,100 174.90399700320208,-36.905674999080354,100 174.9040099959843,-36.90571200077043,100 174.90401800103103,-36.90574800624729,100 174.9040250064548,-36.905768991974035,100 174.9040300017392,-36.90579300139826,100 174.9040320020412,-36.90580100457355,100 174.9040359932413,-36.90584200640537,100 174.90405099201698,-36.90590999296077,100 174.9040700066329,-36.90595599509561,100 174.9041020008515,-36.90612699742009,100 174.90410399986987,-36.90614700255426,100 174.90411900519797,-36.906231003595565,100 174.90413899606574,-36.90628299734295,100 174.90414300504065,-36.90628800658272,100 174.90414400701204,-36.906293006348584,100 174.90414900463028,-36.90629999615506,100 174.90417200383396,-36.906339997408494,100 174.90419199660894,-36.90637500038466,100 174.90419499801777,-36.90638300102495,100 174.90420599197424,-36.90639999755245,100 174.90420799616814,-36.90640499566977,100 174.9042369931089,-36.90645000129936,100 174.90423800514355,-36.90645599235172,100 174.9042450074196,-36.9064749952144,100 174.90424599749664,-36.90649599354932,100 174.90424900801602,-36.906510003123344,100 174.90424799325046,-36.906549993710556,100 174.90421800461377,-36.90665899492068,100 174.90421399837481,-36.9066680011216,100 174.9042130037719,-36.906673997307635,100 174.90421299301948,-36.90669699458665,100 174.90420699743376,-36.906729996001744,100 174.90420899615003,-36.90676700628679,100 174.90420100124908,-36.906811006983745,100 174.9042009992336,-36.90683999878237,100 174.90420800118864,-36.90687600680084,100 174.90423099387243,-36.906923998317446,100 174.90425999988486,-36.90696299470882,100 174.90428399408356,-36.9069849969014,100 174.90429900885536,-36.90699600639299,100 174.90430800391337,-36.90699999830855,100 174.90431099887982,-36.90700200528946,100 174.90431600464245,-36.907003000296946,100 174.90434800599414,-36.90702699758973,100 174.90436300652044,-36.90704000642258,100 174.9043840058022,-36.90706000161371,100 174.90442800556076,-36.90714400185045,100 174.9044559945506,-36.90723999305689,100 174.9044010079742,-36.90734399896938,100 174.904388001776,-36.90739499583635,100 174.90435899904813,-36.90738900295422,100 174.90435599464035,-36.90739799219381,100 174.9043180045363,-36.90745399809406,100 174.90430399253273,-36.90749099740253,100 174.9042989997407,-36.907500005003214,100 174.90426299728145,-36.90754400411798,100 174.9042110049547,-36.90757800260921,100 174.90419999757677,-36.90758200698892,100 174.90419799527155,-36.90758399314798,100 174.90414900366807,-36.90760700421607,100 174.90414599802892,-36.90760899294095,100 174.904141005179,-36.90761100180943,100 174.9041259992327,-36.907618003176616,100 174.90410599641393,-36.90762500083253,100 174.90399399144852,-36.9076759940027,100 174.90398200734205,-36.90768599335823,100 174.9039770015553,-36.90769199706439,100 174.90391799551747,-36.90775399642143,100 174.9039060011386,-36.90777500642295,100 174.9039029980187,-36.90777899332126,100 174.9039009975141,-36.90778299389009,100 174.9038889940726,-36.9077979958559,100 174.90386000433202,-36.90783099902805,100 174.90383500757147,-36.907875996904814,100 174.90381299262546,-36.90793899855463,100 174.90380899892813,-36.907957995639705,100 174.90380400836247,-36.907974004614935,100 174.9038029968636,-36.90798000016648,100 174.90379799221304,-36.907993004376294,100 174.90378699847787,-36.90800699779625,100 174.90377899856574,-36.90801599769797,100 174.9037380065934,-36.90806600099502,100 174.90373099205695,-36.90807499861817,100 174.90370700300443,-36.90811200275827,100 174.9036939997855,-36.90812900543056,100 174.90368699705041,-36.908141006951574,100 174.90366900304753,-36.908162000433784,100 174.90360299431683,-36.90826700556019,100 174.9035990043771,-36.90827599615648,100 174.9035989954813,-36.90828200537955,100 174.90358400260644,-36.90832300144368,100 174.90357899611521,-36.90833399213164,100 174.9035800037647,-36.90833800126246,100 174.90357900129837,-36.90835000574772,100 174.90356599600824,-36.90838399736353,100 174.9035530081445,-36.90840600118253,100 174.90354800230116,-36.90841200577317,100 174.90354800594687,-36.908414003934524,100 174.9035460028846,-36.908416006318646,100 174.90354100683507,-36.908435004137814,100 174.90349299149025,-36.90851900132929,100 174.90347900250518,-36.90859100011402,100 174.9034800017568,-36.908655997894705,100 174.903485003009,-36.90868900598421,100 174.9034839960052,-36.908723001773616,100 174.90346700166066,-36.90879700458168,100 174.90344700437043,-36.908827000044695,100 174.9034230020175,-36.90885399972284,100 174.9034180061816,-36.90886099559634,100 174.90341099945852,-36.90887600215576,100 174.90340999834606,-36.908883004308265,100 174.9034099963348,-36.908899994165026,100 174.9034190003531,-36.90892199701759,100 174.9034219928698,-36.90892900636802,100 174.9034269985114,-36.90893500462359,100 174.9034299999533,-36.90894300527938,100 174.90344400560787,-36.90896199327975,100 174.90344900622864,-36.90897099570413,100 174.90345600240528,-36.90897900263697,100 174.90347499250927,-36.908995006702554,100 174.90349999942762,-36.90901799777882,100 174.90355100609563,-36.90905099855774,100 174.90359700829828,-36.90907100322302,100 174.90360900750693,-36.90907799258527,100 174.90362100072082,-36.90908600503704,100 174.9036370047416,-36.90909399285667,100 174.90365300777904,-36.90910699832098,100 174.9036749996349,-36.909119000160885,100 174.90371300480007,-36.90913299589965,100 174.90373300675148,-36.90913800205819,100 174.9039049960075,-36.90913899356919,100 174.90393499814604,-36.90914800526471,100 174.9039440013425,-36.90915100562469,100 174.90395199692375,-36.9091569973845,100 174.9039569925688,-36.90916200432854,100 174.9039839949049,-36.90920800457325,100 174.9039849928962,-36.90921099176125,100 174.90398499139653,-36.909227996929786,100 174.90397900630623,-36.909237999254984,100 174.9039690071053,-36.90924599741101,100 174.9039579981084,-36.90925500320341,100 174.90390400658816,-36.909275996070036,100 174.90389699257673,-36.90928000670807,100 174.9038909983894,-36.909284000095504,100 174.90388500821535,-36.90929000605878,100 174.90385100242668,-36.90933499243078,100 174.903832007717,-36.90935800019837,100 174.90382800772437,-36.90936600041522,100 174.9037800030071,-36.909427000445376,100 174.90376600099538,-36.90945300165907,100 174.90375700243092,-36.90947800242157,100 174.90374599939435,-36.909510007000456,100 174.90374499771391,-36.90952899577628,100 174.90373399564388,-36.90958000370212,100 174.9037260017498,-36.909654994315076,100 174.90373100589053,-36.909677996823056,100 174.90374800049966,-36.909713998797315,100 174.90376100340174,-36.90973300463203,100 174.90377100446824,-36.90975099503128,100 174.9037729947918,-36.90975800601541,100 174.90378499396664,-36.90977699909497,100 174.90381499556608,-36.9098099993715,100 174.90382599558683,-36.909819004748734,100 174.90383899192238,-36.909826999292534,100 174.9038540085378,-36.909833005590684,100 174.90387899557734,-36.90984199764622,100 174.9038859932314,-36.90984500221944,100 174.90393200116424,-36.90985699755295,100 174.90394800459342,-36.90985800103336,100 174.90413899510972,-36.9098880055916,100 174.90425600745002,-36.90993399837278,100 174.90426199611403,-36.90993799703051,100 174.90427599900391,-36.90994300013969,100 174.90433699396715,-36.9099770022043,100 174.90434799369115,-36.909985992214224,100 174.90438300564796,-36.91002200171406,100 174.90440599456338,-36.91004199201708,100 174.9044459919862,-36.91008900233931,100 174.9044470083405,-36.91009200455058,100 174.90448300044366,-36.91013100058729,100 174.9045040085524,-36.91015000504841,100 174.9045090064478,-36.91015699392636,100 174.90451599111933,-36.9101689974149,100 174.90453700797912,-36.91019399458363,100 174.90454199328994,-36.91019799489601,100 174.9045580084396,-36.910207003599226,100 174.90456599416441,-36.91021200582717,100 174.90464900618545,-36.91024499938059,100 174.90476599481335,-36.9103090030348,100 174.90477400724222,-36.910319996772536,100 174.90477599617108,-36.9103269924379,100 174.90477400095816,-36.91034000610088,100 174.90475699978964,-36.910378993026164,100 174.90472299444994,-36.91042399495558,100 174.90470299203457,-36.91044299464243,100 174.9046980004306,-36.91044700083312,100 174.90468399479332,-36.91046400526595,100 174.9046759999715,-36.910484001207024,100 174.90467200743947,-36.91050299559022,100 174.90467100517628,-36.9105150018784,100 174.90467299410167,-36.9105219975454,100 174.90466900025504,-36.910557997990026,100 174.90467199253715,-36.9105769948187,100 174.90467000235327,-36.91060600676759,100 174.90467600855223,-36.91067700178203,100 174.90468500018366,-36.91069600063619,100 174.90469299215872,-36.91070499738904,100 174.9047219924408,-36.91073299765501,100 174.90478300614745,-36.91077900110579,100 174.9047900022976,-36.91078699443465,100 174.9047950019091,-36.91078899538605,100 174.90480799485127,-36.910794992556305,100 174.9048239922296,-36.910804002407204,100 174.90485599654951,-36.91081599845095,100 174.9049010018117,-36.91082799505898,100 174.90492200381172,-36.91083600257618,100 174.90496599404125,-36.91085199925913,100 174.9049809941363,-36.91085800657642,100 174.9049900076417,-36.91086199813595,100 174.90500099875567,-36.91086499356399,100 174.90509000342468,-36.910903999790804,100 174.90511900888228,-36.910928995785454,100 174.90513200738235,-36.91095100561785,100 174.90513399367362,-36.9109610063072,100 174.9051309973215,-36.91097600541084,100 174.90512899788297,-36.910980004178974,100 174.90511099869613,-36.911004002045104,100 174.90505399696988,-36.91106099543895,100 174.90503500586712,-36.91107399782261,100 174.90502899108827,-36.91107599337929,100 174.90501300282446,-36.91108499531854,100 174.90494599941283,-36.91116000507604,100 174.90494000511725,-36.91116399761691,100 174.90492200456708,-36.91118099585354,100 174.904900000175,-36.91119699475539,100 174.9048709946756,-36.91120800720176,100 174.90481299954357,-36.911222999748205,100 174.9047910002717,-36.91123099305551,100 174.90474699308652,-36.91125800469922,100 174.90466799946506,-36.911309995006576,100 174.9046489990948,-36.91132899303514,100 174.9045939915311,-36.91136600178842,100 174.90455500294073,-36.91138499588456,100 174.90450099744783,-36.911415002421435,100 174.9044549941558,-36.91143099222442,100 174.90444799793383,-36.91143500261055,100 174.9044260052378,-36.91145400622752,100 174.9044190031018,-36.91146599335746,100 174.90441100048946,-36.91147999565034,100 174.904373995414,-36.911537998402856,100 174.90437100917683,-36.91154700176893,100 174.90436300654778,-36.91156100405889,100 174.90435900771874,-36.91157600389663,100 174.90435700411624,-36.911589992910365,100 174.90435900219447,-36.9116029984128,100 174.9043689971742,-36.91163399754957,100 174.90438799314813,-36.91166599972459,100 174.90439699778224,-36.91168800157503,100 174.9043990047145,-36.9116949987592,100 174.9043999963925,-36.91171799526786,100 174.9044030027571,-36.91173999596209,100 174.904401999112,-36.911776005226145,100 174.90440100700283,-36.91178399868698,100 174.90438699686715,-36.91182299527781,100 174.90438099595386,-36.91185200032886,100 174.90438300279357,-36.91187099944384,100 174.90438699352606,-36.911880994140866,100 174.90439199448417,-36.911889997413695,100 174.9043999969755,-36.911899999884014,100 174.90440599343356,-36.91190999216033,100 174.9044150035581,-36.91191700322588,100 174.9044229994733,-36.911922994942046,100 174.9044670003352,-36.91196900456461,100 174.9044810031988,-36.9119859960528,100 174.90450099412544,-36.91200699971085,100 174.90451299240115,-36.91202399359844,100 174.90452799272754,-36.91206100714992,100 174.90453600396822,-36.91208900605369,100 174.90454100208513,-36.91211499827701,100 174.90457700251184,-36.91221300060387,100 174.90458500632036,-36.912230003563295,100 174.90460400503926,-36.91227600580025,100 174.9046079971643,-36.91228099996335,100 174.90461199332657,-36.91228800670091,100 174.90461600228258,-36.91229300059379,100 174.90466800574166,-36.912392006275574,100 174.90470500244095,-36.91244300155205,100 174.90472499854354,-36.91246100189983,100 174.90473200271353,-36.91246800275042,100 174.90474500763935,-36.91248200612279,100 174.90479799688066,-36.91254500186585,100 174.90480199945762,-36.912551001723195,100 174.90485099904166,-36.912616003768456,100 174.90490199668065,-36.91270099558119,100 174.9049090008816,-36.91271999834682,100 174.90490999147215,-36.91273599524134,100 174.904912006322,-36.912741999037344,100 174.90491500006374,-36.912767996351405,100 174.90492700791523,-36.91282200439129,100 174.90492700117156,-36.912834998775054,100 174.90492399831376,-36.912863005770326,100 174.9049149931641,-36.91289599778309,100 174.90491200071625,-36.912901005725786,100 174.9048980086097,-36.91291599732654,100 174.90489300003082,-36.91292000379812,100 174.90487500414608,-36.912928993759245,100 174.90485500407897,-36.912938004147264,100 174.90484899959873,-36.91294100630113,100 174.90478400518379,-36.91296499718887,100 174.90476199278928,-36.912970001039625,100 174.90473700310346,-36.912972996736286,100 174.904710996865,-36.91297799343008,100 174.90468700311504,-36.91298199523545,100 174.90467500696815,-36.912984002884514,100 174.90465599871914,-36.912992004983174,100 174.90458799500973,-36.91302800359295,100 174.90455300181193,-36.913054005344904,100 174.9045480007135,-36.91305700491199,100 174.90452800783396,-36.91307199356084,100 174.9045140072158,-36.91308100592194,100 174.90447599382978,-36.91311099393673,100 174.9044269983322,-36.91315799463876,100 174.90441300260636,-36.9131760056509,100 174.90440900249348,-36.91318400588642,100 174.90437799696676,-36.91326099779716,100 174.90437900292395,-36.9132629934036,100 174.90437899271132,-36.91328600687431,100 174.90438100462646,-36.91328999808712,100 174.9043849916856,-36.913322002080605,100 174.9043870077564,-36.91333500638871,100 174.90438800546704,-36.913398005911766,100 174.9043909965152,-36.91342200506359,100 174.904390992399,-36.91343199441697,100 174.90439200375965,-36.91345000362133,100 174.90439100655436,-36.91345400162741,100 174.90440700811578,-36.91355599574125,100 174.90441799826235,-36.913575997266555,100 174.90445500346988,-36.9136330033479,100 174.90445700786773,-36.913638000548424,100 174.90447300794185,-36.9136609961154,100 174.90447599529134,-36.91366399465673,100 174.90448100680686,-36.91367400362133,100 174.90451799785353,-36.91372100439769,100 174.90452300148974,-36.91373200493442,100 174.90452600311852,-36.91373300502755,100 174.9045259963518,-36.913733996583815,100 174.90445299936027,-36.913858004897016,100 174.90445599298462,-36.913884001320255,100 174.9045630062574,-36.91384299226898,100 174.90464400524678,-36.913880002761196,100 174.90464500242473,-36.91388800758022,100 174.9046469963962,-36.91389199817426,100 174.9046599923314,-36.91393600019765,100 174.9046590055812,-36.91394100480797,100 174.90466399324694,-36.91399499837108,100 174.90466400623043,-36.91399800224933,100 174.90466400621565,-36.91401000507573,100 174.90466199130987,-36.91401600320259,100 174.90466299982225,-36.91401999608162,100 174.9046619925597,-36.91402300280318,100 174.90466899262347,-36.914032991582765,100 174.90466899263217,-36.91404499531004,100 174.9048035790404,-36.91405243930374,100 174.90476809710657,-36.91412504970274,100 174.90471593825197,-36.91421122558741,100 174.9046599930096,-36.914208992599626,100 174.90452399210318,-36.914183996369026,100 174.9044850075295,-36.91417599597135,100 174.90449399268823,-36.91426299922673,100 174.90435800507032,-36.91442299591542,100 174.90427700020692,-36.91455899294996,100 174.9041999976698,-36.914808998115454,100 174.90409099119822,-36.91494600012687,100 174.903627994438,-36.91540499833878,100 174.90357399783224,-36.91547400157405,100 174.9034699983354,-36.915790999399654,100 174.90336199267043,-36.91592799913425,100 174.90316900413129,-36.916066992568496,100 174.90252200570802,-36.91601200612901,100 174.9021880059824,-36.916107998305144,100 174.90204999923603,-36.91617800038759,100 174.90166600650804,-36.916476994897714,100 174.90156099733883,-36.91672699533082,100 174.90107500716363,-36.91745800234321,100 174.90044299321193,-36.917896997053965,100 174.9002850034704,-36.9182839997595,100 174.90026000776604,-36.918397000264946,100 174.9002340010426,-36.918712993328214,100 174.90019600085878,-36.919097001418656,100 174.8996560049362,-36.919804991914866,100 174.89960000176146,-36.91982800067656,100 174.89929900451173,-36.92012600523203,100 174.89921700185084,-36.92017400223157,100 174.89907600397697,-36.92017600391934,100 174.8987590004094,-36.919866000019454,100 174.89874900437903,-36.91955099842832,100 174.89880399680283,-36.919330004184395,100 174.89885100438832,-36.91914399689759,100 174.89888200014647,-36.9182869984259,100 174.89879299202778,-36.91810799975524,100 174.89847499483866,-36.91775299181179,100 174.89824400205953,-36.91757700156652,100 174.89747499644798,-36.91716300476381,100 174.89650799590834,-36.91672999531235,100 174.89619899432662,-36.91667400426409,100 174.89605699834402,-36.91664800258717,100 174.89557900150163,-36.91661199978145,100 174.89523200030175,-36.916235005672654,100 174.89495600106156,-36.915405996275275,100 174.89471699394585,-36.914891994871816,100 174.89471500374418,-36.914823995186204,100 174.89492099722528,-36.9141900052698,100 174.894920992674,-36.914167006424314,100 174.8948869960175,-36.91396500120592,100 174.8948570004182,-36.913875005557756,100 174.89470999519946,-36.91367500073717,100 174.8946239927346,-36.91360900294074,100 174.89439700338994,-36.913523999280045,100 174.89433299310838,-36.91304200329023,100 174.8943260000392,-36.91304299272094,100 174.89429400495624,-36.91286300608435,100 174.89430900285254,-36.91286199893242,100 174.8942539917665,-36.912444998433074,100 174.8943850010708,-36.912103995187195,100 174.89441200052426,-36.912058004690095,100 174.89463099865827,-36.91185099894929,100 174.8948240036993,-36.91171299511969,100 174.89546100792617,-36.911348001891994,100 174.89501099937814,-36.91141599706376,100 174.89489999621736,-36.911482001562725,100 174.89396300626265,-36.91204400399865,100 174.89382399536407,-36.912113999952524,100 174.89371200892708,-36.91211599662303,100 174.89365500219733,-36.912095005401795,100 174.89334100532102,-36.9118749932078,100 174.89304400131476,-36.91133899287314,100 174.89309000838549,-36.911039005660996,100 174.89328300711747,-36.91080800460176,100 174.89325500263482,-36.91077199272382,100 174.89294400577765,-36.91102100006686,100 174.8928689917706,-36.911094997875324,100 174.89277999272693,-36.911178006380744,100 174.89275000771806,-36.91125599943845,100 174.8927430074736,-36.91131899958008,100 174.89275899658787,-36.91141800692361,100 174.89291200529914,-36.91163500674765,100 174.89301500202833,-36.91174300317934,100 174.89324200645987,-36.91200799895646,100 174.8933149967578,-36.912182993433994,100 174.89343599697554,-36.912401003040124,100 174.89352500671527,-36.91264300641393,100 174.89360899274394,-36.912783007449754,100 174.89383500902403,-36.91337100406428,100 174.89392000161163,-36.913472996451596,100 174.89405000503618,-36.91365699384821,100 174.89415000805528,-36.91399400317895,100 174.8941089949246,-36.91424999699351,100 174.89405999380995,-36.914498992372046,100 174.89403700855672,-36.91470199768177,100 174.89407099911057,-36.914881005224956,100 174.89409799799228,-36.91494099262648,100 174.89410100787796,-36.91494800193635,100 174.89411200065948,-36.914957999777066,100 174.89424499716404,-36.915081002057335,100 174.89426800528688,-36.91514999594294,100 174.8942759948986,-36.9151709953817,100 174.89427899601068,-36.91530600632239,100 174.89445399201978,-36.91552799166043,100 174.89463300435543,-36.91578699914667,100 174.89464900488838,-36.91584499600821,100 174.89466499687754,-36.91604299641777,100 174.89474000669625,-36.91617700625552,100 174.89479200814407,-36.916235006433595,100 174.89486000816854,-36.91637000501302,100 174.89490900242865,-36.91661599397063,100 174.89502499420072,-36.91678299943816,100 174.89505599392712,-36.917033005108415,100 174.89506799906172,-36.91740900704235,100 174.89507199228203,-36.917540995273505,100 174.8950780015071,-36.917746992717085,100 174.89505300208177,-36.91788300561311,100 174.89494900646335,-36.918132997778415,100 174.89482900352795,-36.91830699656009,100 174.8947839928302,-36.918373003444515,100 174.89476000057053,-36.91840700087267,100 174.89467799782844,-36.91847599544526,100 174.8945670058074,-36.91854599505346,100 174.89428899917962,-36.91864099617643,100 174.89359200235566,-36.918789006229204,100 174.8933969972073,-36.91885999918214,100 174.89324899472146,-36.918932999595434,100 174.89306499601568,-36.919023994319566,100 174.89289999680818,-36.91913900074279,100 174.89283699502607,-36.919201001612315,100 174.89273699178605,-36.9192999991114,100 174.89259600500378,-36.91941800593535,100 174.89251700410838,-36.919484995341044,100 174.89201999638067,-36.91976399339542,100 174.89171000358522,-36.919724005865305,100 174.89151400345256,-36.91972799958031,100 174.89143100722472,-36.919773996243016,100 174.8914940032659,-36.920043002237264,100 174.89150600894249,-36.92042600419269,100 174.89134199719066,-36.92061000120742,100 174.8912309976878,-36.920656998957746,100 174.89083900174532,-36.920686992834355,100 174.89070000537194,-36.92073400054512,100 174.8902860081396,-36.92098900343317,100 174.88969800777798,-36.92102299855515,100 174.88961399699218,-36.92104700354984,100 174.88955899399926,-36.92109300413398,100 174.8895630074343,-36.92122799636164,100 174.889804001424,-36.921809992322686,100 174.8898089965917,-36.92199000501295,100 174.88970299472015,-36.92219500564552,100 174.88889100873484,-36.92336100119261,100 174.88818299694225,-36.92429699835174,100 174.88789199804341,-36.92468400357498,100 174.88776999321263,-36.92483300212887,100 174.8875759926789,-36.925072992825896,100 174.8877249493304,-36.92510521654678,100 174.8876878270239,-36.92514111488247,100 174.88766793986733,-36.9251583289204,100 174.88765028114057,-36.92517226639416,100 174.88763669773135,-36.9251885329796,100 174.88761730390837,-36.925199713862405,100 174.88758970187695,-36.925220654893515,100 174.8875550923045,-36.92525802655673,100 174.88753533121243,-36.92528818508707,100 174.88750794247957,-36.92532970518513,100 174.8874804731838,-36.92536195020251,100 174.88745099519568,-36.92539723393575,100 174.88742391570472,-36.925438732875634,100 174.8873858438268,-36.925474058553384,100 174.88732110818054,-36.925512066717694,100 174.88727067036746,-36.92554352035805,100 174.88721963326805,-36.92557266170916,100 174.88716983525217,-36.92560989700236,100 174.88714051935887,-36.92565882222154,100 174.88709576274246,-36.925713577381714,100 174.8870498467881,-36.925765116122385,100 174.88701290423037,-36.92579813078532,100 174.88697236023896,-36.92581821378783,100 174.88690952807266,-36.92581737716504,100 174.88686400846868,-36.925826164574936,100 174.88680615407873,-36.92586412891418,100 174.88676307991813,-36.92588654860573,100 174.88672574387485,-36.92588466232379,100 174.88664307711647,-36.9258832430005,100 174.88660610987378,-36.92588597998585,100 174.8865556287622,-36.92588786991252,100 174.8865322334799,-36.92587390705886,100 174.8864900255129,-36.925871578044934,100 174.88646095502673,-36.925861338548664,100 174.8864376025043,-36.925852206957806,100 174.8864111172552,-36.92581745291406,100 174.8863912547457,-36.9257852155852,100 174.88637624287122,-36.925752009792355,100 174.88633776756336,-36.92572147689608,100 174.88629721921438,-36.92571337374844,100 174.88624987318036,-36.925712234888316,100 174.88620756403546,-36.92570228854567,100 174.88616135169002,-36.925700231225946,100 174.8861083280773,-36.925706501189076,100 174.88603591421906,-36.925722836770255,100 174.8859527378832,-36.92572556030066,100 174.8859285479939,-36.92571806968656,100 174.8858822231835,-36.925706071613945,100 174.88585195732455,-36.92569260080127,100 174.88582475174212,-36.92567079016177,100 174.88579932327934,-36.92565522085572,100 174.88575158481848,-36.925645989692825,100 174.88568479863343,-36.925626232569385,100 174.88561171297798,-36.9256069603039,100 174.88557109863854,-36.92559193493599,100 174.8855047971283,-36.925564551178404,100 174.885457894093,-36.92555231605969,100 174.88541716629226,-36.9255273500084,100 174.88540624275137,-36.92550012881298,100 174.88538162507834,-36.92545197743961,100 174.8853701371179,-36.92542244160582,100 174.885355474451,-36.925395734938384,100 174.88532024685577,-36.92537397223208,100 174.88528068994967,-36.92532333965397,100 174.88526440974942,-36.92530584488223,100 174.8852529140586,-36.92527795225993,100 174.88524655112752,-36.92524609797473,100 174.88521597992178,-36.92520535888,100 174.88519126511332,-36.925202709309694,100 174.8851787796191,-36.92521548721626,100 174.88517738977274,-36.92524461191889,100 174.88518294140815,-36.925279718423,100 174.885172917926,-36.925308635889245,100 174.88517282812944,-36.925355083101095,100 174.88516112975466,-36.92541221856161,100 174.88515780650556,-36.92545035919052,100 174.8851527844904,-36.925489675968024,100 174.885150645927,-36.925531977197195,100 174.88514549640632,-36.9255601917684,100 174.88511168238986,-36.92558994478752,100 174.88507331818812,-36.92562411438166,100 174.8850398411902,-36.92565802701804,100 174.8850113185327,-36.92567503520454,100 174.88497083652356,-36.92569997915223,100 174.88491576195082,-36.92572823002158,100 174.8848431122815,-36.92575054705933,100 174.88482407612264,-36.92574048767784,100 174.88479204317898,-36.92572495628927,100 174.88475664710975,-36.925714268774925,100 174.8847188875443,-36.925697366324826,100 174.884665221202,-36.92567038092409,100 174.8846395236883,-36.92565572957266,100 174.8846065610448,-36.925633942423254,100 174.8845908366408,-36.92561207095338,100 174.88456185050532,-36.92558518141379,100 174.88452808117347,-36.925566877116644,100 174.88448942570164,-36.92554882791321,100 174.88446621177508,-36.92552306081776,100 174.8844066578208,-36.92550790118243,100 174.88433576196923,-36.925506879303185,100 174.8842957589222,-36.9254971552581,100 174.88421127864572,-36.925485575420424,100 174.8841268036403,-36.925446754017855,100 174.8840520095579,-36.92540461893283,100 174.8840293192892,-36.92537517057137,100 174.88397872924318,-36.925339831303575,100 174.8839397889169,-36.925293368795245,100 174.88389774039956,-36.92525221026666,100 174.88386393981042,-36.92520525608938,100 174.8838222481338,-36.9251447018255,100 174.88378716904472,-36.925111845587054,100 174.88375684678985,-36.9250930483387,100 174.88372655642374,-36.9250786481052,100 174.88368048325952,-36.925089983889436,100 174.88363842176008,-36.92510129567717,100 174.8835791285434,-36.925111081758466,100 174.883517553212,-36.92512087606822,100 174.88347714988248,-36.92512639757101,100 174.8834205417626,-36.92514333890646,100 174.88334568216598,-36.925148564142326,100 174.8832931678365,-36.925147467312016,100 174.88324931609623,-36.92515208983532,100 174.88319855856275,-36.925153269770284,100 174.8831471922405,-36.92515306770366,100 174.88305323967924,-36.92516973042453,100 174.88302352321085,-36.92518098142506,100 174.88302172435098,-36.925226962733376,100 174.88305245573915,-36.92528320343338,100 174.88309216410298,-36.92534653213498,100 174.88310486547658,-36.92538066100036,100 174.88311992888086,-36.92541962673152,100 174.88313849482617,-36.92546598089696,100 174.88307804260336,-36.92555365535299,100 174.8830251002183,-36.92559298658902,100 174.88298974479602,-36.92561373766173,100 174.88295449780452,-36.9256455596922,100 174.8829511329849,-36.92567840478824,100 174.88294825945556,-36.92573131173382,100 174.88290006629285,-36.92575953457627,100 174.88285237070633,-36.92575376983377,100 174.8828088762086,-36.925712186792474,100 174.88273747557673,-36.925690605696865,100 174.88263509817344,-36.92566756703637,100 174.8825612425499,-36.925656854088665,100 174.88244440716545,-36.92562488258261,100 174.8824157705474,-36.92560446023262,100 174.88237025300782,-36.92558783143366,100 174.8823227345348,-36.92557260073334,100 174.8822791737439,-36.925549031378544,100 174.8822440122984,-36.92553672873481,100 174.88222365188307,-36.92553776531493,100 174.88218882096308,-36.92552685085275,100 174.88216696159435,-36.92552235365717,100 174.88212186271153,-36.92551795261335,100 174.88209459865263,-36.925516957064254,100 174.8820533359917,-36.92552201400756,100 174.88201571156446,-36.9255196657302,100 174.881958106982,-36.925524139817014,100 174.88191590867132,-36.92552273917826,100 174.88189305394266,-36.92550574741536,100 174.88185562187144,-36.92549391687876,100 174.881813537621,-36.925475648034755,100 174.88176565161675,-36.9254532691734,100 174.8816915724199,-36.925448335769126,100 174.88162958270317,-36.92542047139944,100 174.88158850852435,-36.925389719439416,100 174.881502673975,-36.925358740230976,100 174.8814881917516,-36.92534886412415,100 174.88145372805278,-36.925317623412255,100 174.88142084656133,-36.92530137898565,100 174.88138937776293,-36.92528492289023,100 174.88136218357724,-36.92526287938917,100 174.8813480058691,-36.92525209982597,100 174.88129929245778,-36.925233636588146,100 174.881277139383,-36.92523043006071,100 174.88127583423642,-36.925232047873656,100 174.88125147725512,-36.92522344401459,100 174.88124519471026,-36.92521813293601,100 174.88122973488555,-36.92521301321715,100 174.88121227088945,-36.92520605501258,100 174.88119830405674,-36.925187775828554,100 174.88119085989564,-36.92518106086998,100 174.88118715998488,-36.92517344386115,100 174.88117719799686,-36.92515933832429,100 174.88117123007504,-36.925147780630205,100 174.8811630032928,-36.9251281324378,100 174.88115644802602,-36.92511912396173,100 174.88115102464363,-36.92510916739382,100 174.88114855937022,-36.92508769919845,100 174.88115152018992,-36.9250673906645,100 174.8811565183239,-36.92504314354304,100 174.88116929156737,-36.92500646394732,100 174.88117284223367,-36.924984301971634,100 174.88117260718664,-36.92497944308459,100 174.88116900555474,-36.92494987922677,100 174.8811742133744,-36.92493973711342,100 174.88118120739915,-36.92492082932555,100 174.88117809543186,-36.924904885638924,100 174.88117270582148,-36.92489424714009,100 174.8811650332249,-36.92487782499767,100 174.88115597223936,-36.924856116086296,100 174.8811499936487,-36.92484225028381,100 174.88113917343287,-36.92482583654315,100 174.88113405857933,-36.924813815574346,100 174.88112896913063,-36.9248008640426,100 174.88111499466945,-36.92478099143704,100 174.88111099236622,-36.924777513561324,100 174.8811113701959,-36.924759495635946,100 174.88111000536483,-36.92474612276942,100 174.88111754726708,-36.92472511524765,100 174.88112508539453,-36.924710349412706,100 174.88113148314798,-36.92469052181424,100 174.88114823708955,-36.9246667662501,100 174.88115256526135,-36.92466052726018,100 174.88117329232358,-36.92464303690474,100 174.881184818267,-36.92463312458069,100 174.88120154619733,-36.924616077030244,100 174.88121277198752,-36.9246084777342,100 174.88123029882422,-36.92459858570568,100 174.88124583417172,-36.92459308039406,100 174.88127487500657,-36.92458690504763,100 174.88129774131068,-36.92458131873656,100 174.8813146348766,-36.924578685128495,100 174.88134335422617,-36.92458108008419,100 174.88137418977624,-36.92459201844677,100 174.88141385506412,-36.924600138184985,100 174.88144630751543,-36.92460181780834,100 174.88147736043726,-36.92460926730288,100 174.88150954499096,-36.9246125618089,100 174.881542302524,-36.924616559268415,100 174.88157616008291,-36.924617765031584,100 174.88160925383838,-36.924625210094185,100 174.88167070849724,-36.924632066933015,100 174.88171307801477,-36.924621911858296,100 174.8817574696452,-36.92461359495894,100 174.8817909070098,-36.92460117939182,100 174.8818103669691,-36.924569416807884,100 174.88180824247036,-36.92453245497793,100 174.8817998328022,-36.92449715203124,100 174.8817814112598,-36.92443945857049,100 174.88176518972097,-36.9244247663747,100 174.8817301061669,-36.92436418864332,100 174.88172977700896,-36.92430732610017,100 174.88172657969983,-36.924250514415164,100 174.88172331618125,-36.92421425292874,100 174.88175794037895,-36.92417733155647,100 174.8817892820584,-36.92415844889586,100 174.88183950971822,-36.92416003419937,100 174.88189810513134,-36.92416412232259,100 174.88195078511933,-36.924153446841835,100 174.88205372919512,-36.92414830464753,100 174.88209620107455,-36.924148306571894,100 174.88215128687114,-36.924147313585436,100 174.8822032032521,-36.92414681155538,100 174.88221508649517,-36.92412966129413,100 174.88219588282462,-36.924105728344045,100 174.8821555620978,-36.92409254032659,100 174.88209627822542,-36.9240764306466,100 174.88203178963334,-36.92404117741296,100 174.88200454121076,-36.92402732699101,100 174.88198612790586,-36.924010195443266,100 174.88193108338822,-36.92397692859901,100 174.8819066234063,-36.923957500770165,100 174.88188559194418,-36.92393629437956,100 174.88186119208265,-36.92391392278468,100 174.88182553556408,-36.923881403173475,100 174.88181350929148,-36.9238664353915,100 174.8817942850694,-36.92385896527347,100 174.88177433986667,-36.92384212295513,100 174.8817596943263,-36.92383194031209,100 174.88174972481215,-36.92381309580837,100 174.88173634280278,-36.92379403228116,100 174.88173115298554,-36.9237594633483,100 174.8817298097617,-36.92373089842899,100 174.88172870314335,-36.9237091725672,100 174.88173920994026,-36.92368845331269,100 174.88176077030897,-36.92367172298271,100 174.8817910811233,-36.923656899971746,100 174.88182449522424,-36.923646203580866,100 174.88185052350212,-36.92363476887789,100 174.8818708700164,-36.92362236516415,100 174.88186079233387,-36.92361039944051,100 174.88184193307342,-36.923597223609676,100 174.8818215522007,-36.92359110577585,100 174.88179259273068,-36.92358879224977,100 174.88176440893739,-36.92359337232394,100 174.8817401545248,-36.92360070313763,100 174.88170820877264,-36.92360751679245,100 174.88168609143972,-36.92360369056308,100 174.88166372525342,-36.92359960508802,100 174.88164543019315,-36.9236054065516,100 174.88162899282898,-36.92360183731465,100 174.88159923287958,-36.923596781096,100 174.8815790776926,-36.92359454612801,100 174.88155057468745,-36.92360139441944,100 174.88151828801392,-36.9236141603224,100 174.88146946940077,-36.92362882675336,100 174.88142929229193,-36.923636264676674,100 174.88139201734325,-36.92363914460659,100 174.88136204547575,-36.92362816101248,100 174.88134121757926,-36.923613811228776,100 174.8813157416765,-36.92360538193136,100 174.88129475247285,-36.923604246216826,100 174.88126738131857,-36.92361398416118,100 174.88125685742463,-36.92362894242059,100 174.88126531498034,-36.92365967677543,100 174.88127157412802,-36.923701816087096,100 174.88127710936203,-36.9237363795706,100 174.88127339988208,-36.92377952855805,100 174.88125381253184,-36.92380720559828,100 174.88123538862067,-36.923819095642344,100 174.88119963782378,-36.92383100961413,100 174.8811497488177,-36.923826567802536,100 174.88109806433079,-36.92381201278048,100 174.88102087920214,-36.923779799269035,100 174.8809743712092,-36.92374884743217,100 174.88088804404995,-36.92367722158995,100 174.88083610791676,-36.92363227077581,100 174.88078578678832,-36.92359328542085,100 174.8807211939075,-36.92352921075573,100 174.88067665030326,-36.923484579022556,100 174.8806120658202,-36.92343422673292,100 174.88055624798233,-36.92338511458938,100 174.88048680499963,-36.92333608569449,100 174.88044203511876,-36.92330288797148,100 174.88040529574673,-36.9232654151978,100 174.88038346288045,-36.9232356893421,100 174.8803327016294,-36.92321816033074,100 174.88028892033287,-36.92319206911156,100 174.8802569492632,-36.92317111495935,100 174.88021239541675,-36.923154839584015,100 174.88016055880155,-36.92313525359101,100 174.88012105994676,-36.923092967212405,100 174.88009790848875,-36.923057951610446,100 174.8800321837737,-36.92303637811738,100 174.87999081770383,-36.9230164703478,100 174.8799607541387,-36.92300338056231,100 174.87996371866893,-36.922967214193,100 174.87997040876706,-36.9228852793766,100 174.8799799421525,-36.92276905304768,100 174.8799843885066,-36.922714786373255,100 174.88007983433417,-36.92254432941667,100 174.88022208078763,-36.92229038581956,100 174.88047272855366,-36.92208296405129,100 174.88039291551632,-36.92198545603423,100</coordinates></LinearRing></outerBoundaryIs>
    </Polygon>
  </Placemark>

  <Placemark>
    <name>Pakuranga Heights</name>
    <Point>
      <altitudeMode>relativeToGround</altitudeMode>
      <coordinates>174.89331223407015,-36.91229916780088,100</coordinates>
    </Point>
  </Placemark>

</Document>
</kml>