<?xml version="1.0" encoding="utf-8"?>
<kml xmlns="http://www.opengis.net/kml/2.2">
<Document>
  <name>Panmure (polygon: official_shp)</name>
  <open>1</open>

  <Placemark>
    <name>Panmure (polygon: official_shp)</name>
    <Style>
      <LineStyle><color>ffff0000</color><width>2</width></LineStyle>
      <PolyStyle><color>66ff0000</color><fill>1</fill><outline>1</outline></PolyStyle>
    </Style>
    <Polygon>
      <tessellate>1</tessellate>
      <altitudeMode>relativeToGround</altitudeMode>
      <outerBoundaryIs><LinearRing><coordinates>174.86764194800003,-36.89106779499998,100 174.86774392777448,-36.89126364013879,100 174.86775224210245,-36.89129343158441,100 174.86775796390975,-36.89130950236492,100 174.86776844013912,-36.891353288024945,100 174.86779306353446,-36.89143594888761,100 174.86780485683468,-36.89146696640094,100 174.86786160114372,-36.891580044806744,100 174.86790334516309,-36.891679692280206,100 174.8679193835918,-36.89174390279846,100 174.86792485755376,-36.89177521525741,100 174.8679303728292,-36.891788748441726,100 174.86793666798417,-36.89180043967324,100 174.8679436999599,-36.89181552791654,100 174.86795069000004,-36.89207645299996,100 174.86791740102998,-36.8921710097306,100 174.86790492379347,-36.89218085701331,100 174.86789702860946,-36.89219067310723,100 174.8678864946739,-36.89220134008436,100 174.8678794498566,-36.892209996320496,100 174.86787649998715,-36.892219214583946,100 174.86787764164183,-36.89222825584296,100 174.86788458392994,-36.89224278598634,100 174.8678883737656,-36.89225346097517,100 174.86774316900008,-36.89266590899996,100 174.867711058305,-36.89293863447142,100 174.8676833670651,-36.89297749454655,100 174.86767816659875,-36.89299299527054,100 174.8676743285722,-36.893008409676874,100 174.86766970697033,-36.89305000995995,100 174.86766610912034,-36.89308140287206,100 174.86766625297446,-36.8931202260557,100 174.86767245367702,-36.893179836787645,100 174.8676751937418,-36.89319239602075,100 174.86767658362473,-36.89322354736871,100 174.8676764243343,-36.8932327890612,100 174.86765278400003,-36.89343357099995,100 174.86765397400006,-36.89347860899994,100 174.86782076800012,-36.89442218399994,100 174.86805652769957,-36.89499479503403,100 174.86805780065032,-36.89500262421637,100 174.86805893636836,-36.89502495197922,100 174.86806228948893,-36.89504617319479,100 174.86806484214785,-36.89507101680155,100 174.86806722954833,-36.89513409987381,100 174.86807290436346,-36.89515743333166,100 174.8680762775086,-36.895179383402464,100 174.86808931905662,-36.895222767223956,100 174.86809849262536,-36.895243144292714,100 174.86810706419956,-36.89525848341436,100 174.86813152900442,-36.89529336925357,100 174.86815704377193,-36.89533325444136,100 174.86817622196915,-36.895356679260196,100 174.86818346560048,-36.895372783755064,100 174.86819488601878,-36.895393121871585,100 174.86821114957831,-36.89543931670419,100 174.86821502783565,-36.89546269643656,100 174.86821946190202,-36.89550482217433,100 174.86821814209722,-36.89552000680578,100 174.86821864607458,-36.89553621279449,100 174.8682203783554,-36.895549176329766,100 174.86822672038008,-36.895579343937314,100 174.8682406904182,-36.89562379742661,100 174.8682464041714,-36.895648585898975,100 174.86824938561028,-36.89567269358341,100 174.86825221322718,-36.89572063919653,100 174.86825094836632,-36.89578161742592,100 174.86825287989524,-36.895830275658405,100 174.8682561365764,-36.89584790570489,100 174.86826535725154,-36.89588415523049,100 174.86828689712394,-36.895926650044856,100 174.86829512569986,-36.8959459585671,100 174.86830399426455,-36.895971033606564,100 174.8683140283861,-36.895989970323235,100 174.86833602350578,-36.89604616259503,100 174.86834788296005,-36.89606613686304,100 174.8683674740622,-36.89611007468799,100 174.8683749492386,-36.89613410537251,100 174.8683989182063,-36.896196226135004,100 174.86841807599694,-36.89627416509289,100 174.86842177633423,-36.89630699528857,100 174.86842483562043,-36.89639250802612,100 174.86842862482982,-36.89641835156396,100 174.8684467848076,-36.89650290660302,100 174.86845473574286,-36.89652730024048,100 174.86846082175967,-36.89655239199559,100 174.86849147130883,-36.89670157375694,100 174.86849253019255,-36.89672552960594,100 174.86849216461513,-36.896754992417435,100 174.8684949830781,-36.89678525058275,100 174.8685005777551,-36.896813293786785,100 174.8685107987549,-36.896839196577275,100 174.8685334931164,-36.896930811175814,100 174.8685137750001,-36.897159221999964,100 174.86842915959684,-36.89752336355844,100 174.8684268311179,-36.897528200334854,100 174.86841328630064,-36.89754906542682,100 174.86840294323932,-36.897568137894545,100 174.86835287607616,-36.89764834557856,100 174.8683429967422,-36.89766927017732,100 174.86831932228026,-36.89772873244002,100 174.8682934851943,-36.89781322872637,100 174.8682825755458,-36.897843354914656,100 174.86826242590647,-36.8979124356286,100 174.8682487283078,-36.897944344318645,100 174.8682346507148,-36.897971116933086,100 174.8682197074567,-36.89799271784729,100 174.86820524930397,-36.89801175407469,100 174.8681898945953,-36.89802964439843,100 174.86816423517928,-36.89806477958116,100 174.8681502553067,-36.89808235264193,100 174.86813671490864,-36.898102117117155,100 174.86812544285465,-36.8981226309673,100 174.86811600749226,-36.89814464727781,100 174.8680979578571,-36.898195338579576,100 174.8680894189781,-36.89821661161754,100 174.86808228193124,-36.8982379374173,100 174.8680802380938,-36.89825449713169,100 174.86808000927047,-36.898271071563755,100 174.8680702881985,-36.89835381813557,100 174.86806467180628,-36.89841436094002,100 174.86805906346265,-36.89843468385801,100 174.86805251126378,-36.8984513685559,100 174.86804634248568,-36.89846371095582,100 174.86804424856422,-36.898477112317984,100 174.86804266866434,-36.898494887830815,100 174.8680448839828,-36.89853032998436,100 174.86804281262457,-36.898545899575886,100 174.86803716636342,-36.898562228423216,100 174.86801730326673,-36.89859566805807,100 174.86800808038308,-36.89861526366823,100 174.86798226674014,-36.898678790223634,100 174.86797531866196,-36.8986994460651,100 174.86796570701156,-36.8987245007931,100 174.8679570262449,-36.898752063685116,100 174.86793975285897,-36.89881370555094,100 174.86792326654694,-36.898866664304386,100 174.86791768957633,-36.898888783059476,100 174.86791343475076,-36.89891053942026,100 174.8679031075519,-36.89895149482736,100 174.8679034493344,-36.899016285596254,100 174.86790100065684,-36.899038383095004,100 174.8678944244936,-36.89912819794009,100 174.86788993413535,-36.89916694614775,100 174.86787918632368,-36.899286119605875,100 174.86787814847716,-36.89931181463149,100 174.8678784007516,-36.899332795276095,100 174.86787623649852,-36.89937769899365,100 174.86787473421114,-36.89944142274939,100 174.86787109818337,-36.89951456914567,100 174.8678713617527,-36.8995359209573,100 174.8678757631353,-36.89960321394699,100 174.86787547107113,-36.89965282377361,100 174.86786443315694,-36.89974771833088,100 174.86786132406277,-36.89982627519321,100 174.86786399863988,-36.899862096788986,100 174.86786691422597,-36.89988055330409,100 174.86787492003833,-36.89991018098889,100 174.86788753327596,-36.89994917487357,100 174.86789543922296,-36.89996867595675,100 174.86790289642187,-36.89999145139353,100 174.86792215164826,-36.900057573401774,100 174.86792512196664,-36.900079976850016,100 174.86793465878662,-36.90012480199983,100 174.86795874999189,-36.900218405905704,100 174.86797291860236,-36.900312073021574,100 174.8679721939292,-36.90032690667974,100 174.86796444128376,-36.90035686961628,100 174.86799060861998,-36.9003894338939,100 174.86800577573976,-36.90040764724667,100 174.86801311337925,-36.90041566628751,100 174.86802737583474,-36.90043497905851,100 174.8680610472204,-36.90049333834248,100 174.86809347621008,-36.90056849258406,100 174.86810093271276,-36.90058930132858,100 174.86811246219196,-36.90061044259409,100 174.86812444833103,-36.900628679823036,100 174.86817798299688,-36.900724962584256,100 174.86818631444095,-36.90074358897707,100 174.86820244487222,-36.9007712943074,100 174.86820985866686,-36.900786621868036,100 174.86821680935918,-36.90080596940312,100 174.86822655043466,-36.90082749661141,100 174.86824641364532,-36.90086542100915,100 174.8682626270973,-36.90090264930608,100 174.8682741498242,-36.90092162297779,100 174.86829265966955,-36.90096065384768,100 174.86832313897915,-36.901017923084325,100 174.8683434897025,-36.90105986510397,100 174.8683592617747,-36.90109928513575,100 174.8683763863446,-36.90112849956335,100 174.86840231000008,-36.90119456799994,100 174.86854978400004,-36.90146240899998,100 174.8685554755128,-36.90147104677521,100 174.86856534494459,-36.90150236863336,100 174.86856867388775,-36.901518805065145,100 174.8685744464082,-36.90155863024169,100 174.86857553787803,-36.90158055668051,100 174.8685722747667,-36.9016244258349,100 174.86856366134407,-36.9016873285761,100 174.8685639170181,-36.901715479180304,100 174.86856253648529,-36.90176958388409,100 174.86856766538924,-36.90178674820771,100 174.86858056374373,-36.90180606884393,100 174.86861039180866,-36.90184103238286,100 174.86864111210403,-36.90187125624009,100 174.86867862835297,-36.901899612883255,100 174.86870289756848,-36.90192071858722,100 174.86871713197243,-36.901936377743496,100 174.86872631425086,-36.90194805141982,100 174.8687327792507,-36.90195898009194,100 174.8687392449027,-36.90197246580659,100 174.86875211852114,-36.90198961913022,100 174.8687923759189,-36.90201831476775,100 174.86880610176817,-36.902029227435946,100 174.8688230381663,-36.902041230661155,100 174.868838574296,-36.902050671823694,100 174.86885091526796,-36.902060849165736,100 174.8688688206966,-36.90208124467683,100 174.86887482630183,-36.90208963214405,100 174.86883843235665,-36.9021356273008,100 174.8687653841097,-36.902165367572415,100 174.8687246184277,-36.902185263032045,100 174.86867943368964,-36.90222018004997,100 174.86865324159385,-36.90224332259693,100 174.86862296774018,-36.90226573078369,100 174.86860851736688,-36.902279315733246,100 174.8685786640704,-36.90229807775047,100 174.86854919221798,-36.90230915088283,100 174.8685387610528,-36.902312119003,100 174.86852423096218,-36.90231438458072,100 174.86850335849547,-36.90231995143287,100 174.86847435327502,-36.9023310154032,100 174.86842586792724,-36.90235315121407,100 174.86840139127747,-36.90236164365725,100 174.8683787160991,-36.902370880190716,100 174.86835699963933,-36.90238302733296,100 174.86833705638267,-36.90239678428185,100 174.86833603491945,-36.90239737539393,100 174.86829429595477,-36.90242352858072,100 174.8682689143045,-36.90243821740672,100 174.86830087767757,-36.90247565018043,100 174.86817101000008,-36.90252116899996,100 174.86815347143437,-36.90252732107846,100 174.86814642974952,-36.90252053300075,100 174.8681264302308,-36.90253221595437,100 174.8680976679048,-36.90254463971516,100 174.8680422171141,-36.9025629930142,100 174.86802024794,-36.90256956758531,100 174.8680201111365,-36.90256961840837,100 174.86795993674193,-36.902588439839164,100 174.86793847272335,-36.90259644676467,100 174.8679169761227,-36.902605833222886,100 174.86789214996537,-36.902618985575096,100 174.8676685380001,-36.90269742199995,100 174.86764330900007,-36.902706271999925,100 174.86748016751937,-36.902763500798926,100 174.86745022693444,-36.902756730149434,100 174.86741665053694,-36.90275017276596,100 174.8674002723849,-36.90275121532618,100 174.8673857051447,-36.90275016628375,100 174.86736136640187,-36.902745771933915,100 174.8673337424453,-36.90273750036214,100 174.8672777791972,-36.90271748573297,100 174.86726719218007,-36.902712729150196,100 174.8672273940374,-36.90269724998757,100 174.86721079667257,-36.90269270596216,100 174.86714414886993,-36.90267138918216,100 174.86709006627265,-36.902658310323226,100 174.86704549936601,-36.902655164958624,100 174.86703775913753,-36.90265531457246,100 174.86699113812426,-36.90265036097515,100 174.86696278683846,-36.90265037219106,100 174.86690585815867,-36.902656221605234,100 174.86690158509197,-36.90265611030891,100 174.86688357335132,-36.90265620504601,100 174.86682910051587,-36.9026645981127,100 174.8667810973915,-36.90266998360225,100 174.86676586207383,-36.902673019865695,100 174.8667312489663,-36.902676142567856,100 174.8667114082598,-36.90267956937388,100 174.86669431787234,-36.90268113588346,100 174.86666059706891,-36.90268274203542,100 174.86664072562814,-36.902682466677234,100 174.866611134326,-36.90268073340815,100 174.86659127471154,-36.90268154214756,100 174.86657739891555,-36.90268049656018,100 174.86651640768312,-36.902679262140936,100 174.86649470963408,-36.90268306060198,100 174.86645625459138,-36.90268603359151,100 174.86644204617167,-36.90268934660628,100 174.86643471853586,-36.90269007826118,100 174.86641594702547,-36.90269597857209,100 174.86641274182168,-36.902698930298804,100 174.86638807220655,-36.90271439529473,100 174.8663743289278,-36.902724731313015,100 174.86636307560434,-36.90273638559572,100 174.8663512910298,-36.902752031172426,100 174.86634813950613,-36.90277049923369,100 174.86633689288985,-36.902803619321226,100 174.86632728429825,-36.90283017637154,100 174.86631587633826,-36.90284635591942,100 174.86628973798727,-36.9028753358808,100 174.866283789761,-36.90288302840217,100 174.86627737258098,-36.90289257059654,100 174.866262209887,-36.902905408445626,100 174.86624068192873,-36.902932914395656,100 174.8662264507406,-36.90294759523071,100 174.86622049469565,-36.90295565831566,100 174.86618286921927,-36.9029927359695,100 174.86615210781994,-36.90301696375715,100 174.86606382587667,-36.903071365747046,100 174.86601834357597,-36.903106255798306,100 174.8660008790092,-36.90311835914797,100 174.8659783814328,-36.903137442097375,100 174.8659664374232,-36.90314590299043,100 174.86595263546096,-36.903151439435526,100 174.86590066196104,-36.903178279855055,100 174.86588086881235,-36.90318675318669,100 174.86584313414755,-36.90320111279669,100 174.8657805708726,-36.903230181751674,100 174.86577229008952,-36.90323532679648,100 174.86576493753833,-36.903239000720966,100 174.86574609520986,-36.90325259934027,100 174.86573001899083,-36.90326618244601,100 174.86567257359127,-36.90330364789494,100 174.8656624430528,-36.90331136642372,100 174.86562564177385,-36.90332829539751,100 174.86559991815255,-36.90334445999156,100 174.8655534378845,-36.90336470101474,100 174.86550284697913,-36.9033915492897,100 174.86549870355802,-36.903393030347814,100 174.8654853786151,-36.90340221230993,100 174.8654633012696,-36.903412521392156,100 174.86543797068452,-36.903421370047205,100 174.8654254230377,-36.90342988813766,100 174.8653989540498,-36.903447893180385,100 174.8653497383424,-36.90347830976283,100 174.865342968331,-36.903483739303425,100 174.86532760947497,-36.903493141567964,100 174.86530726899534,-36.90350112857478,100 174.86528746706963,-36.90352279822001,100 174.86526806121046,-36.90353727358916,100 174.86524371414984,-36.90355641879638,100 174.865224728144,-36.90356656662143,100 174.86521843096327,-36.90357090443767,100 174.8652053659754,-36.903584634870086,100 174.86520469691504,-36.903585571087255,100 174.8649637850001,-36.903705945999945,100 174.86484074200007,-36.90376742499996,100 174.8647154780001,-36.90382994799995,100 174.86457643000006,-36.903877457999954,100 174.86437596100006,-36.90393246299993,100 174.86404727500008,-36.90402264699997,100 174.86399738254156,-36.90402351015357,100 174.86395737811716,-36.903953128357045,100 174.8639351722517,-36.9039238548561,100 174.86391017783603,-36.903885972408,100 174.86389974417415,-36.90387275690243,100 174.86388975399586,-36.903857380273344,100 174.86387706387802,-36.90384381711412,100 174.8638479487463,-36.90378768442697,100 174.86382480885925,-36.90375839671859,100 174.86381935941347,-36.903750530759424,100 174.86381256423596,-36.90374339976601,100 174.86380442965077,-36.9037366178725,100 174.863786356919,-36.90372734384278,100 174.86374155341448,-36.903693460419795,100 174.86370982320406,-36.90365775306184,100 174.86368218856364,-36.90362846645193,100 174.8636529920371,-36.90360860514654,100 174.8636385425162,-36.90359906783812,100 174.86362862427916,-36.90359476371645,100 174.86360636821945,-36.90358099370068,100 174.86357228137138,-36.9035618526524,100 174.86352356830923,-36.903536243346075,100 174.86350514204375,-36.903534439580284,100 174.86349664276295,-36.903557230402285,100 174.86348996124607,-36.903578206280265,100 174.86348635940865,-36.903585066883075,100 174.86347734716858,-36.903597752001154,100 174.86347056178985,-36.903603893723194,100 174.8634208997546,-36.90366476502783,100 174.86340324220714,-36.90367998419971,100 174.8633978334009,-36.903686520732,100 174.86339150528528,-36.90369231367403,100 174.86336579274106,-36.90372888988903,100 174.86335772415404,-36.90374516638867,100 174.8633545969677,-36.90375493081572,100 174.86334604537078,-36.90377192874055,100 174.86333485471062,-36.903799426123875,100 174.8633344251279,-36.90380118425602,100 174.86318486206267,-36.90394339978779,100 174.86316813492044,-36.90395061304666,100 174.8631506246552,-36.90395717265933,100 174.86309629637634,-36.90398199378765,100 174.86306865999993,-36.903993884926685,100 174.86301407500304,-36.90400653767117,100 174.86300805807159,-36.90400846894874,100 174.86298905852937,-36.90401170888947,100 174.86295254165807,-36.90402186544583,100 174.86293830055038,-36.9040291119337,100 174.8629282820808,-36.90403850043002,100 174.86291299523182,-36.90406089473625,100 174.8629059251555,-36.90407577742071,100 174.8629038333292,-36.904085430056455,100 174.86290570958693,-36.904161887839805,100 174.8629045899068,-36.9041729799635,100 174.86289799937663,-36.90418898358274,100 174.86288684002423,-36.90420799357187,100 174.86286635538798,-36.90422677757719,100 174.86283478618165,-36.90424868005754,100 174.86282387489317,-36.904259569732254,100 174.86278450084006,-36.90428566498924,100 174.86277490711979,-36.90429281513419,100 174.86275815520682,-36.90431154959088,100 174.8627452570392,-36.90431730223129,100 174.8627383864618,-36.904322206830045,100 174.86272453561432,-36.90434532038003,100 174.86270171818953,-36.90436412922636,100 174.8626916393117,-36.904370574928016,100 174.86268618798707,-36.90437619815334,100 174.86267385467957,-36.90438561121526,100 174.8626655921797,-36.904390183419295,100 174.86265920620733,-36.90439507861088,100 174.86264168764254,-36.90440199520403,100 174.86263299089077,-36.90440841742261,100 174.86260876843446,-36.904419940355176,100 174.86259526226567,-36.90442626043373,100 174.86256937683578,-36.90443318114159,100 174.8625631125283,-36.90443722785125,100 174.86222505595964,-36.90454308318117,100 174.86218448238458,-36.90453303705488,100 174.8621159396044,-36.90453004043271,100 174.86210450200332,-36.904530966050515,100 174.86208317602853,-36.90452997185135,100 174.8620238827243,-36.904539871412275,100 174.86200058040444,-36.904546406293186,100 174.86199307685587,-36.90455025270439,100 174.86196146470448,-36.90456024644101,100 174.8619539181957,-36.90456444954604,100 174.8619207966542,-36.90457874371494,100 174.86191688875923,-36.9045806391712,100 174.861869715904,-36.90459512926715,100 174.8618492531297,-36.90460245242813,100 174.86182072553495,-36.90461657360595,100 174.8618178411631,-36.90461865220692,100 174.86179459056547,-36.90463613641715,100 174.86173265681327,-36.904670069556936,100 174.86172117080434,-36.90467759358553,100 174.86170787581528,-36.90468401841286,100 174.86162868302816,-36.90470877255535,100 174.8616029909705,-36.904724858286905,100 174.8615915153639,-36.9047294861874,100 174.86158368533523,-36.90473343142792,100 174.8615759405319,-36.904737327561996,100 174.8615704099636,-36.90474126470135,100 174.86151629818133,-36.90476838821011,100 174.8614983872619,-36.904781289265294,100 174.8614772985689,-36.90478983084803,100 174.86146905539078,-36.904794463957046,100 174.8614639836959,-36.90479876434364,100 174.86145204962796,-36.90480628004647,100 174.86144381502592,-36.90480803329042,100 174.86144288793062,-36.90481020198392,100 174.8614410696514,-36.904809458948264,100 174.86142959137834,-36.90481661058118,100 174.8614245539746,-36.90481765755181,100 174.8614025069545,-36.90483234854931,100 174.8613910501316,-36.90483770440579,100 174.86138280846612,-36.90483981377909,100 174.86136773612367,-36.90484187066863,100 174.86134997030913,-36.9048395451706,100 174.86133172688193,-36.90483941106202,100 174.86131483192767,-36.904841839912706,100 174.861313673892,-36.904842495296805,100 174.86130765147954,-36.90484614539928,100 174.8612447990512,-36.904862563743336,100 174.86123448031609,-36.90486653624451,100 174.8612259536451,-36.90486837156432,100 174.86119132605728,-36.90487034911146,100 174.86117421076742,-36.90486971509202,100 174.86114945005178,-36.9048669989424,100 174.86114178321242,-36.904866668421555,100 174.861090350967,-36.904851233411996,100 174.86106957808798,-36.904843119822445,100 174.86103482978353,-36.90483222921491,100 174.86102670984675,-36.90483047989226,100 174.86101769174942,-36.90482945758944,100 174.86099295382533,-36.904828879890836,100 174.8609873414473,-36.90482848111581,100 174.86096972574336,-36.90482720595463,100 174.8609113166737,-36.90483078544843,100 174.86086561964834,-36.90482740942157,100 174.86085508183754,-36.904823843045804,100 174.86084594139172,-36.904822080857436,100 174.8608321820439,-36.90481637113173,100 174.8608133699343,-36.90480594823004,100 174.86080098606922,-36.90480058739443,100 174.86076192814684,-36.90477722591212,100 174.8607559693467,-36.90477291540065,100 174.86075135789054,-36.904768581076226,100 174.86072565595228,-36.90475460672787,100 174.86071551253067,-36.90474703859269,100 174.86070268463186,-36.90474058508811,100 174.860683376545,-36.90472910186688,100 174.86066869514156,-36.90472119381721,100 174.86066136913888,-36.90471941580754,100 174.86064540420654,-36.90471914855495,100 174.8606307944401,-36.904721027753986,100 174.8606157899388,-36.904726940249475,100 174.86061448602084,-36.9047330950856,100 174.86061912488432,-36.90474105320884,100 174.8606218816778,-36.9047439321131,100 174.86064621361922,-36.90475649033523,100 174.86065315349015,-36.904765150593626,100 174.8606546067644,-36.904774200551145,100 174.86065014631467,-36.90478583170808,100 174.8606397748206,-36.90480075516622,100 174.86061170250585,-36.90482411380161,100 174.86060442970125,-36.90482886955214,100 174.8605640971655,-36.90485990573355,100 174.8605574799638,-36.9048678103507,100 174.8605536422806,-36.904872321205445,100 174.86054306195948,-36.90488072775084,100 174.86053705789706,-36.904887676372034,100 174.8605287890357,-36.904904885988714,100 174.8605214391863,-36.90491515723968,100 174.8605159009795,-36.90492137029264,100 174.8605030180144,-36.90494259277428,100 174.86049566926852,-36.904961273356676,100 174.8604942851759,-36.90496639202376,100 174.86047634742468,-36.905001532608644,100 174.8604680707841,-36.90501398695904,100 174.86045377557818,-36.90502826522645,100 174.8604496550305,-36.90503448491196,100 174.86044735437696,-36.90503961973848,100 174.8604137377626,-36.905078050583775,100 174.8603925285139,-36.905095638647694,100 174.86038102641248,-36.90511027154066,100 174.86037550812375,-36.905114671713235,100 174.8603711150996,-36.90511914619472,100 174.86036566448624,-36.90512346779296,100 174.86036175177574,-36.90512909565558,100 174.86035623192507,-36.90513860725853,100 174.86034701501015,-36.9051501488666,100 174.86033842340487,-36.90515920203927,100 174.86032843810654,-36.90516854293175,100 174.86032118636422,-36.90517726415973,100 174.8603139338484,-36.90518599982055,100 174.86030530747783,-36.90519505443672,100 174.8602927675761,-36.90520970357655,100 174.86028235353183,-36.905226253658505,100 174.86026883183354,-36.905242299902994,100 174.86025509517555,-36.90526197283412,100 174.8602439138393,-36.90527632127962,100 174.86022805097787,-36.905294079749176,100 174.8602174933643,-36.905305273704734,100 174.86019455828043,-36.9053119728333,100 174.86018151096633,-36.90531538859947,100 174.86013607375997,-36.90532822213812,100 174.86011231365546,-36.905334455569296,100 174.86006552750598,-36.90534401316552,100 174.86002644898687,-36.905353453640906,100 174.85998199332101,-36.9053687179419,100 174.8599650955442,-36.90537686103883,100 174.8599648592331,-36.905377066636056,100 174.85993872551535,-36.90540637143383,100 174.8599356528181,-36.90541045027238,100 174.85991342902844,-36.905441776793936,100 174.8599128229165,-36.905442375751306,100 174.85987674046152,-36.90546367394388,100 174.85987004519552,-36.90546735163625,100 174.85983693157684,-36.90549166512295,100 174.8598290829743,-36.90549813424663,100 174.85980023671002,-36.905523658976875,100 174.85979891940102,-36.90552482789101,100 174.85979394776643,-36.90552895629046,100 174.8597609780212,-36.90555286461174,100 174.85972675468528,-36.905576406786665,100 174.8597216405349,-36.90558039770953,100 174.85969269651957,-36.90560809343096,100 174.85968629215225,-36.90561487792782,100 174.85966793839708,-36.90563452304014,100 174.85964048411805,-36.905652620660845,100 174.85962102758137,-36.90566655421931,100 174.85961173026269,-36.90567317309876,100 174.8595911752984,-36.905704873619484,100 174.8595901595853,-36.9057076016059,100 174.85958242173342,-36.90574276622621,100 174.85958203542282,-36.9057457619656,100 174.85957421721326,-36.90578117660881,100 174.85957273204266,-36.90580446392926,100 174.859579451499,-36.90583978164583,100 174.85957946277034,-36.90584019968359,100 174.85957501862518,-36.90587118827539,100 174.85956994358335,-36.90587406364207,100 174.85954937916952,-36.90588665443777,100 174.85952710811114,-36.90590397956431,100 174.8595061274644,-36.90593525500112,100 174.85950275849603,-36.905941833331326,100 174.85948539529872,-36.9059745474238,100 174.85948203224137,-36.90598067590033,100 174.85946234663325,-36.90601254755935,100 174.8594619962814,-36.906013048772564,100 174.8594380928883,-36.906043026082926,100 174.85942744302636,-36.906053988872316,100 174.8593968781336,-36.906079884718885,100 174.85939347180155,-36.906083768673064,100 174.85937698611508,-36.90611569297221,100 174.85936320373602,-36.9061472297408,100 174.85933856974705,-36.906175733087785,100 174.85930020035096,-36.90619360132158,100 174.859296163153,-36.90619456855101,100 174.8592524482981,-36.90619941159944,100 174.85923459465263,-36.90620610130176,100 174.85921923278894,-36.90621025442657,100 174.85920562713636,-36.90621545984338,100 174.8591940915218,-36.906221745989164,100 174.8591580198355,-36.906237638560555,100 174.85915093896068,-36.90624180265493,100 174.85913212652284,-36.90625268859139,100 174.85909953427708,-36.90627908478622,100 174.85909486429233,-36.90628288215596,100 174.85905946363292,-36.906307048260665,100 174.85905388877867,-36.90631189901892,100 174.8590485441744,-36.906318930080275,100 174.85903118762442,-36.90634351316232,100 174.85902875883204,-36.906347720702904,100 174.8590096878489,-36.90638064983529,100 174.859004564127,-36.906390076761134,100 174.8589849063972,-36.90642301687626,100 174.85897544370138,-36.90644349885181,100 174.8589675642215,-36.90647917760115,100 174.85896466650112,-36.90650008860088,100 174.8589623615891,-36.906498625776194,100 174.85895978270912,-36.906531471620646,100 174.85896105727159,-36.90654227476641,100 174.8589518324318,-36.90657611874649,100 174.85894718403884,-36.90660915471402,100 174.85893652000962,-36.90662440404072,100 174.85886857221732,-36.90667444053622,100 174.8588674723349,-36.90667470907522,100 174.85883027911677,-36.906662898891604,100 174.8588085971803,-36.906647306434984,100 174.85877858675974,-36.90662220916908,100 174.85876135064512,-36.90659445856982,100 174.8587378067489,-36.90657521243124,100 174.8587147701025,-36.906560727253314,100 174.85869373194143,-36.906560145260194,100 174.85865147880784,-36.90657310957581,100 174.85864860989594,-36.906574444266994,100 174.85860965347672,-36.906593019993316,100 174.85860178018933,-36.90659792562693,100 174.85857186997717,-36.90662052569462,100 174.8585391037045,-36.90664559230507,100 174.85853786596883,-36.90664648054991,100 174.8585097421287,-36.90666541039881,100 174.85849517282304,-36.90667207383423,100 174.8584768953313,-36.90670038920863,100 174.85847446391986,-36.9067083760297,100 174.85847317611942,-36.906725809948405,100 174.85844499200005,-36.90674079999997,100 174.85846896077908,-36.90687980254658,100 174.8584518632362,-36.906910530664696,100 174.85844973833997,-36.906913804173556,100 174.8584302254405,-36.906944402096,100 174.85842108494614,-36.90697238971737,100 174.85841918470317,-36.90700282380527,100 174.85839900028165,-36.90703484280195,100 174.85839834631815,-36.9070355984295,100 174.8583722947763,-36.90706477541795,100 174.85837026919384,-36.90706663770113,100 174.85835419030633,-36.907078902131886,100 174.85833755036583,-36.90709024697582,100 174.85833727849982,-36.90709042157985,100 174.8583053550644,-36.907114016597745,100 174.85827247788768,-36.90713623578725,100 174.85823617740863,-36.907155214190766,100 174.85822824598765,-36.90715925363627,100 174.85820599954053,-36.90717105121737,100 174.8581919362293,-36.90717919208141,100 174.85818236441156,-36.90718524190391,100 174.85814859953243,-36.907209179351526,100 174.85814624596165,-36.9072110314399,100 174.85811522171716,-36.90723722888224,100 174.85810965163208,-36.90724228141892,100 174.85808030134854,-36.90726970370054,100 174.85807669551897,-36.90727318784705,100 174.85804808574684,-36.90730110958633,100 174.8580442002592,-36.907305187572696,100 174.85802035881738,-36.907332344293394,100 174.8580138447202,-36.90734021561221,100 174.85801054342014,-36.907344779285076,100 174.85800000961152,-36.90736077312513,100 174.85799550760964,-36.90736631819526,100 174.85798302944076,-36.907381369923186,100 174.8579738301255,-36.90739551319698,100 174.85797162620062,-36.90740168388698,100 174.85796167525862,-36.907405200594006,100 174.8579459436736,-36.907417537051195,100 174.85793402903212,-36.90743231587058,100 174.85791979343554,-36.90744626662705,100 174.85790946101756,-36.907456868294105,100 174.8578961555276,-36.90747136061456,100 174.85788351912814,-36.9074862760036,100 174.8578715480456,-36.90750155142781,100 174.8578712642434,-36.90750192811405,100 174.85785987170925,-36.90751745677208,100 174.85784900389226,-36.90753324040748,100 174.85784241962867,-36.90754303263423,100 174.85783113329617,-36.90755868310962,100 174.85782706414358,-36.907565398223326,100 174.85758706700005,-36.90783421699995,100 174.85749885470725,-36.907809387448935,100 174.85747921745204,-36.90779416116736,100 174.8574775004158,-36.907792642251174,100 174.8574494537185,-36.90776405736473,100 174.85743820337004,-36.90775004918197,100 174.8574128143611,-36.90771997789957,100 174.8574029243827,-36.90771217298018,100 174.85736885872086,-36.90768804280928,100 174.85735527422898,-36.9076752996258,100 174.85732856970643,-36.907645823941856,100 174.85731934738126,-36.9076351883319,100 174.85729330926182,-36.90760542190629,100 174.8572905551043,-36.907602651043334,100 174.85726171016702,-36.90757455989991,100 174.85725368912284,-36.90756490957376,100 174.85722874113398,-36.907534551942504,100 174.8572213748558,-36.907528019870064,100 174.85718983158782,-36.907501864584866,100 174.85717502530053,-36.9074841390391,100 174.85715273465252,-36.907452279692855,100 174.85713374117478,-36.90742730176803,100 174.85710833367935,-36.90739719915897,100 174.85709677931789,-36.90738601593781,100 174.85706803736056,-36.90735790691046,100 174.85706099933412,-36.9073500988282,100 174.8570391754815,-36.907318231258714,100 174.85703609172424,-36.90730959612188,100 174.857027285358,-36.90727380254039,100 174.85701675915078,-36.907255121344996,100 174.85699568249362,-36.90722273013151,100 174.85699315802077,-36.9072162845776,100 174.85697830700818,-36.90718198886436,100 174.85697635543502,-36.90717949837508,100 174.85694669255992,-36.9071518696994,100 174.8569457848555,-36.90715090956037,100 174.85691693986098,-36.90712284987484,100 174.85691282855336,-36.907119745099806,100 174.85687632979415,-36.90709833696418,100 174.8568573080439,-36.90709042600265,100 174.85681884883533,-36.90707199312471,100 174.85680844500027,-36.90706178244138,100 174.85678649039716,-36.90702955994159,100 174.8567819072322,-36.90702300956667,100 174.85675957542028,-36.90699152303107,100 174.85675117451692,-36.90698124497638,100 174.85672444282272,-36.90695201743647,100 174.8566989110733,-36.90692566528267,100 174.85669764292825,-36.90692543904622,100 174.85665421893592,-36.90693665706943,100 174.856650542921,-36.90693752572699,100 174.8566058704382,-36.906942152038305,100 174.8565789423059,-36.90693338668912,100 174.8565780170152,-36.90693239527573,100 174.85657667296258,-36.90689569904965,100 174.8565745513136,-36.90688489469532,100 174.85655843323846,-36.906851054972286,100 174.85655101503477,-36.90684390355683,100 174.85651692909425,-36.90681960399829,100 174.85650307995328,-36.906804727809494,100 174.85647908906506,-36.9067738728413,100 174.85646068228232,-36.9067527559162,100 174.85643485349738,-36.90672303288726,100 174.85642156042388,-36.90670757385313,100 174.85640634708247,-36.90668822857921,100 174.85639748809402,-36.90667696800433,100 174.85639200060257,-36.90666829741298,100 174.8563715870506,-36.906636111132386,100 174.85635667496527,-36.90661896037363,100 174.85632705408213,-36.906591610289446,100 174.8563127874457,-36.906578537842655,100 174.85627976893312,-36.90655404757344,100 174.85627385896674,-36.906550914103995,100 174.8562347704464,-36.906532894659215,100 174.85623071200862,-36.90653044069059,100 174.85620711421473,-36.90651515338251,100 174.85616786354208,-36.90645949986551,100 174.8561761418822,-36.90644027243915,100 174.85617904825483,-36.90643001501413,100 174.85618297809017,-36.90639395561142,100 174.85618307398886,-36.906381378838226,100 174.85617801521684,-36.90634542656575,100 174.85617577598077,-36.90633601929,100 174.85616302529928,-36.90630139320151,100 174.85614624689444,-36.90626937719993,100 174.85613083780592,-36.90623555607523,100 174.85612525626516,-36.90622402072917,100 174.85610677854947,-36.90619116690838,100 174.8561016187869,-36.90618374402103,100 174.8560781993291,-36.90615297287068,100 174.85606322135183,-36.90613267928276,100 174.85604508996047,-36.90609984978283,100 174.85604371272373,-36.90609553773873,100 174.8560369147709,-36.90605983255961,100 174.85603327280978,-36.90604515282295,100 174.85602330821547,-36.90600998294247,100 174.85601331984338,-36.90597651783658,100 174.85601122323592,-36.90596924356505,100 174.85599609101695,-36.90593540277067,100 174.85599557186757,-36.905934728580974,100 174.85596522747525,-36.90590811977775,100 174.85595802529264,-36.905901910435816,100 174.8559257689274,-36.90587685023114,100 174.85591199759293,-36.90586873989441,100 174.85587586469964,-36.905847387009246,100 174.85587213645553,-36.90584438436939,100 174.85584364274172,-36.90581647214267,100 174.85584226275844,-36.90581528863528,100 174.85581506253405,-36.905786656762025,100 174.8558100912,-36.905751339436705,100 174.85580264240983,-36.905737220310975,100 174.8557805821008,-36.90570551121273,100 174.85577621110158,-36.90569265542105,100 174.85576471756787,-36.90565783658555,100 174.85575233456177,-36.90564087516382,100 174.8557248008747,-36.90561200241671,100 174.85571295655814,-36.90559772573079,100 174.85568757833374,-36.90556799458457,100 174.8556789414119,-36.905557922032386,100 174.85565038207284,-36.905530165809004,100 174.85564862063183,-36.90552894139029,100 174.85561273776406,-36.905507243814014,100 174.85560642309508,-36.90550190117721,100 174.85557869244414,-36.905473418139756,100 174.85554921409292,-36.90544687140502,100 174.85552231129589,-36.90542221416046,100 174.85551898631553,-36.90542070681516,100 174.85551452994,-36.905416323894116,100 174.8555094242772,-36.90541094433729,100 174.85550585462713,-36.90540739841301,100 174.85542826265882,-36.905322565656625,100 174.85542225700274,-36.90531325235476,100 174.85530835091478,-36.905456739537364,100 174.85524688700002,-36.905397705999974,100 174.85463201400012,-36.90448445,100 174.8545216040001,-36.90404470499993,100 174.85425413200005,-36.90298120899997,100 174.85419443400008,-36.902847059999935,100 174.85372959000006,-36.90229263399994,100 174.85330178700008,-36.90202959799994,100 174.85273965900012,-36.90199421199997,100 174.8524434640001,-36.90208741399993,100 174.8524336370001,-36.90209054199993,100 174.85232143000007,-36.902092471999936,100 174.85209583300002,-36.902051293999925,100 174.8518154520001,-36.90205611599998,100 174.85167575900005,-36.90208100199993,100 174.8513619680001,-36.90192873499995,100 174.85127724500012,-36.90190761699995,100 174.85065972000007,-36.901896604999926,100 174.85046397100007,-36.90192254399995,100 174.8504545572567,-36.9019243042371,100 174.85045628529886,-36.90192229840656,100 174.85046633423804,-36.90191277076489,100 174.85023299988362,-36.901489000821435,100 174.8500389969486,-36.901268997856064,100 174.85000000737173,-36.9012239971708,100 174.84995799941996,-36.9011759970032,100 174.84980200095535,-36.90099899790948,100 174.8497040050377,-36.900886993061086,100 174.84960300071054,-36.900772994372616,100 174.84974399443348,-36.90069499538479,100 174.84988496765487,-36.90061755357065,100 174.84971165460215,-36.90042064240677,100 174.84993415459212,-36.900287379032406,100 174.84963800254917,-36.90007899620718,100 174.84954900456637,-36.90007499667262,100 174.84938399276786,-36.89992099584259,100 174.84927499628128,-36.89998199655068,100 174.84851800380193,-36.89908199942428,100 174.8482580027571,-36.89930399341196,100 174.84816399757415,-36.89923199717495,100 174.848564006063,-36.89885799523225,100 174.84889599659047,-36.89854800659096,100 174.84928000570213,-36.89833300191739,100 174.84964599392683,-36.89801200397805,100 174.85020700785248,-36.897485996214705,100 174.8503769980366,-36.89726000044301,100 174.8504049991185,-36.897230000730936,100 174.85079399305127,-36.896813992657236,100 174.85090800542406,-36.89669300037851,100 174.85104900730383,-36.89654300003165,100 174.85152399702142,-36.89596500426232,100 174.85167400240002,-36.895781999587186,100 174.85223299432522,-36.895007002753395,100 174.85223799371113,-36.89499999359609,100 174.85236499836634,-36.894795997912055,100 174.85237100723378,-36.89478599863003,100 174.85272299863024,-36.89421299423802,100 174.8527489938354,-36.89416300410949,100 174.85271300801375,-36.894156004176885,100 174.85292900094512,-36.8937609934339,100 174.85309099161802,-36.89344699325067,100 174.85290199514728,-36.89339799360463,100 174.852715003365,-36.89334900474875,100 174.85298999094547,-36.89322999362283,100 174.85322399223716,-36.89329099518826,100 174.85375299334993,-36.89205099803101,100 174.8538260057144,-36.89188000361547,100 174.85386800612216,-36.89188699317948,100 174.8543639958034,-36.8904770027267,100 174.85443200339333,-36.890251996551136,100 174.85448200592182,-36.89003500030124,100 174.85450000785755,-36.889956991554996,100 174.85458599405115,-36.88964600286082,100 174.85475999416172,-36.889014000597264,100 174.85516800689834,-36.88785000031327,100 174.85528399416705,-36.887518994565355,100 174.85550399986252,-36.887550993953525,100 174.85607499930498,-36.88763399629849,100 174.85603099988887,-36.88792600337611,100 174.85591599290535,-36.88869400359896,100 174.85641199896864,-36.88878399570845,100 174.85690700447768,-36.88887400227129,100 174.8569750008013,-36.88883900619729,100 174.85724099438917,-36.88887900642325,100 174.8572759920585,-36.888755992416286,100 174.85770800687777,-36.88875400596292,100 174.85790499138858,-36.88875299195585,100 174.85811499279282,-36.88875200114467,100 174.85828799576726,-36.8887520042678,100 174.85845499230814,-36.8887509960836,100 174.8586480027778,-36.888750001556225,100 174.85883400361354,-36.88839599573132,100 174.85889700755874,-36.88841799904574,100 174.85895900107113,-36.888440996077605,100 174.85877000706174,-36.88880199274331,100 174.85879199194304,-36.88881099818538,100 174.8589279926424,-36.88886799698258,100 174.85911999956426,-36.888948992997314,100 174.8591489965436,-36.88896100541358,100 174.85927100395475,-36.88905699425838,100 174.8593850051265,-36.88914700271129,100 174.85951800503761,-36.88925200013357,100 174.85965300342505,-36.88935799993502,100 174.85980000563913,-36.88947399842555,100 174.85996999622833,-36.889607998589845,100 174.86011899642912,-36.889725000106836,100 174.86025600298646,-36.88983299392847,100 174.86039899404128,-36.88994500390449,100 174.86041299578721,-36.889956005218835,100 174.86043599226934,-36.88997499741831,100 174.86057300595675,-36.890048997247256,100 174.8607479957703,-36.89014499737536,100 174.86083799803677,-36.89019400675399,100 174.86093799702465,-36.890228998866796,100 174.86096300765104,-36.89023799795573,100 174.86121699507717,-36.89032699486635,100 174.8611750065778,-36.890545003818985,100 174.86166999604646,-36.89062599440401,100 174.86209900780753,-36.89069599621915,100 174.8621520028455,-36.89042700040794,100 174.86222500626093,-36.8904260001656,100 174.8622489941158,-36.89042199266459,100 174.8624350088011,-36.89039199870501,100 174.8626450016343,-36.8903570055692,100 174.862847000787,-36.89032300269551,100 174.86304099819313,-36.89029099613015,100 174.86306500425377,-36.89028700260081,100 174.8632449944654,-36.89019999569704,100 174.8634539993814,-36.89008499697458,100 174.86364999281702,-36.88997600025275,100 174.86367699713418,-36.88996199721291,100 174.86370599447218,-36.889945001142735,100 174.8636209929978,-36.88946899193423,100 174.8637019933318,-36.88942399422254,100 174.86372599913196,-36.889411004438315,100 174.86374999757368,-36.88939900442002,100 174.86377500753665,-36.889387994405375,100 174.86379999989597,-36.88937699908291,100 174.86382500288946,-36.88936699504631,100 174.86385100825802,-36.889357005020415,100 174.86387799987577,-36.88934899594951,100 174.86390399678294,-36.88933999660147,100 174.86393099828237,-36.889332994144,100 174.8639580001491,-36.88932600699721,100 174.86398599517813,-36.88931999301385,100 174.86401299962648,-36.889315004052435,100 174.86401299708027,-36.88953400541587,100 174.86401299789466,-36.88974599260603,100 174.86401199981626,-36.88988599670114,100 174.86401199915835,-36.889913005824226,100 174.8643509942849,-36.88999999865304,100 174.86436400712395,-36.889967003305394,100 174.8643749953561,-36.88993399556772,100 174.86438600304248,-36.88990100374751,100 174.86439499421616,-36.889866994433305,100 174.8644039967331,-36.889834005240466,100 174.86441100068762,-36.889799998272466,100 174.86466300098894,-36.88985800166767,100 174.86465300398802,-36.88989899944114,100 174.8646409937568,-36.889941005852414,100 174.86462899272266,-36.88998200714046,100 174.8646150003638,-36.89002099728244,100 174.86459999909474,-36.890060997421195,100 174.86458400308732,-36.89010000729342,100 174.86456700355075,-36.89013900317183,100 174.86492400377267,-36.890207005617484,100 174.86501799940802,-36.89022499939663,100 174.86521899114442,-36.890262993544496,100 174.8654210033852,-36.890301000165756,100 174.8655729933098,-36.89032999195614,100 174.86566299581088,-36.89034799385384,100 174.86574100000203,-36.89036200559401,100 174.8658349960149,-36.89037999961631,100 174.86611099520985,-36.8904330000358,100 174.86615900288515,-36.890300001646416,100 174.8662569950478,-36.8900329958124,100 174.86665500317304,-36.89012699732967,100 174.86671200057137,-36.889969001621296,100 174.86671999623664,-36.889969993613896,100 174.8667289942914,-36.889970999597224,100 174.86673699722442,-36.889971000017105,100 174.86674500705172,-36.889969993548256,100 174.866752991639,-36.889967996919474,100 174.8667609999452,-36.88996499313758,100 174.86676800662966,-36.889962006898514,100 174.86677500300908,-36.889957998718586,100 174.86678099774477,-36.88995400718076,100 174.8667859970065,-36.88994899566466,100 174.86679100353427,-36.889942992576785,100 174.86679500806747,-36.88993699171567,100 174.86679700746893,-36.88993099442492,100 174.86694600005734,-36.89010900703823,100 174.86690200567023,-36.890243995875096,100 174.86683400215,-36.89041500490988,100 174.86674799667378,-36.89065200699091,100 174.86691499216448,-36.89068299831817,100 174.8676785417575,-36.89082088485499,100 174.86767016852565,-36.8908360370819,100 174.86766828452204,-36.890841196142325,100 174.86766663735648,-36.8908557973608,100 174.8676615808098,-36.890879270744556,100 174.86766009833028,-36.890939215915274,100 174.86766200783757,-36.890965263015325,100 174.86766215778454,-36.8909660600035,100 174.86764194800003,-36.89106779499998,100</coordinates></LinearRing></outerBoundaryIs>
    </Polygon>
  </Placemark>

  <Placemark>
    <name>Panmure</name>
    <Point>
      <altitudeMode>relativeToGround</altitudeMode>
      <coordinates>174.8595297545731,-36.897444347187744,100</coordinates>
    </Point>
  </Placemark>

</Document>
</kml>