<?xml version="1.0" encoding="utf-8"?>
<kml xmlns="http://www.opengis.net/kml/2.2">
<Document>
  <name>Papatoetoe (polygon: official_shp)</name>
  <open>1</open>

  <Placemark>
    <name>Papatoetoe (polygon: official_shp)</name>
    <Style>
      <LineStyle><color>ffff0000</color><width>2</width></LineStyle>
      <PolyStyle><color>66ff0000</color><fill>1</fill><outline>1</outline></PolyStyle>
    </Style>
    <Polygon>
      <tessellate>1</tessellate>
      <altitudeMode>relativeToGround</altitudeMode>
      <outerBoundaryIs><LinearRing><coordinates>174.84158564500012,-36.96556118999996,100 174.84158737100006,-36.96562514399994,100 174.84158745800005,-36.96562874699998,100 174.84158802500008,-36.96562918899996,100 174.84161265300008,-36.96564808999994,100 174.8416161440001,-36.96565073999995,100 174.8416728850001,-36.965672297999966,100 174.84170093800006,-36.96567186299995,100 174.84206344400002,-36.96557549299996,100 174.842202508,-36.96552719699997,100 174.8422586150001,-36.96548027799997,100 174.84233986700008,-36.965412152999924,100 174.8423936150001,-36.96532111499994,100 174.8426051340001,-36.96486681299996,100 174.842851708,-36.96463725099996,100 174.84296283000003,-36.96459028999994,100 174.84315928700005,-36.96458696899998,100 174.8432592040001,-36.96462849199996,100 174.84347155800003,-36.964715937999976,100 174.8435002440001,-36.964737929999956,100 174.8435880300001,-36.96487164699994,100 174.84367520500007,-36.96493778899998,100 174.8439020720001,-36.965024016999955,100 174.84409916300012,-36.96504312299993,100 174.84448652200012,-36.965036563999945,100 174.84460437600012,-36.96503446199995,100 174.84479586700002,-36.965143857999976,100 174.84494661400004,-36.96523054699997,100 174.8450140330001,-36.96527626699998,100 174.84517529800007,-36.96538432999995,100 174.8453204640001,-36.96556211999996,100 174.84533154100006,-36.96559889399998,100 174.8453820200001,-36.96576391799994,100 174.84549897300008,-36.965897088999945,100 174.845631184,-36.96596784599995,100 174.84561667800008,-36.965888771999964,100 174.84554315800005,-36.965490711999955,100 174.8455037540001,-36.96506328599996,100 174.84553062600003,-36.96501772199996,100 174.84561305800003,-36.96494876399997,100 174.8461666080001,-36.964690452999925,100 174.8462173434463,-36.96465646530989,100 174.84623734902002,-36.96464789343242,100 174.84625916693227,-36.96463489777529,100 174.8462954953537,-36.96461644967251,100 174.84633051998418,-36.96459261934101,100 174.84635730953298,-36.96457136056736,100 174.84637379396884,-36.96454063240697,100 174.84637409577329,-36.96453980264757,100 174.84649687500007,-36.964436962999976,100 174.84660617600002,-36.96432243999993,100 174.84684855700004,-36.96393523699993,100 174.8471506720001,-36.963682182999946,100 174.84728743300002,-36.96358876999994,100 174.84754161800004,-36.963471720999955,100 174.84759254900007,-36.96344839999994,100 174.84761996200007,-36.96342535499998,100 174.84765590610004,-36.96337951652785,100 174.84773998465943,-36.96337833882083,100 174.84782117640367,-36.963387879929044,100 174.84793817394848,-36.96339191442661,100 174.84801512740708,-36.96339887962148,100 174.848128220496,-36.96341414564769,100 174.84818950634877,-36.963436339971594,100 174.84826398367923,-36.963472494869485,100 174.84830940668644,-36.96352139700469,100 174.84835796958603,-36.96355378405955,100 174.84842127690266,-36.963573915214056,100 174.84846157975267,-36.96358846218688,100 174.84849341007458,-36.9635973789641,100 174.84850515698548,-36.96361226155303,100 174.8485072702084,-36.96363898695622,100 174.8484833360155,-36.96366996841775,100 174.84843021222534,-36.9637054152875,100 174.84840334120602,-36.96372484791856,100 174.84839129041123,-36.96376219238426,100 174.84837976516675,-36.96381797232347,100 174.84837507752403,-36.96389338103412,100 174.8483670941882,-36.96396000274497,100 174.84836299396915,-36.96401655395703,100 174.8483442498543,-36.9640793485899,100 174.8483264394814,-36.9641375608034,100 174.8483237840658,-36.964176199266575,100 174.84833211675914,-36.96418895655062,100 174.84835333705402,-36.9642009669552,100 174.8483885544185,-36.964194755580536,100 174.8484491801032,-36.96417136960413,100 174.84850795347896,-36.96414013042265,100 174.84853978821056,-36.964114759200015,100 174.84857606250097,-36.96408003435941,100 174.84860606962476,-36.964044534636166,100 174.84864430476102,-36.96399507965241,100 174.84866766845002,-36.96394659264551,100 174.8486732947324,-36.963899973609465,100 174.84868315357244,-36.9638407369077,100 174.84869252957816,-36.96377505158816,100 174.84871295149063,-36.9637161614158,100 174.84872738634184,-36.96367285903415,100 174.84878825862205,-36.963600946625995,100 174.8488058993946,-36.96357080130579,100 174.8488465629525,-36.963546253294524,100 174.84888896075,-36.963521242920635,100 174.84894524152566,-36.96350172342577,100 174.8489957613527,-36.96346855125642,100 174.84906134114738,-36.96344016931466,100 174.8491444550673,-36.9634212105607,100 174.84919664833595,-36.963406702856176,100 174.849241911489,-36.963380125394465,100 174.84929315425944,-36.96335525558893,100 174.8493908919182,-36.96333188221422,100 174.84941922840616,-36.96332786519508,100 174.84950757579222,-36.96332026236575,100 174.8495546828724,-36.96330314602579,100 174.84960785748027,-36.96330014258777,100 174.8496694519823,-36.963320271823655,100 174.84970941515806,-36.963320778437065,100 174.84978231762568,-36.96334840972381,100 174.84984308205674,-36.963351037406326,100 174.84992970220839,-36.963327295153405,100 174.84999705875626,-36.963311132107904,100 174.8500530339858,-36.963327500998105,100 174.85011729331472,-36.96337618816351,100 174.8501898413912,-36.963410005053,100 174.85027058028928,-36.96344601961983,100 174.85033519243,-36.9634735445453,100 174.85038272080337,-36.963500838221876,100 174.85043696626616,-36.9634997050759,100 174.85046750614288,-36.963534831912355,100 174.85051042486646,-36.96357933233846,100 174.8505281593089,-36.96359428181257,100 174.8505585405059,-36.9636052684168,100 174.850608536418,-36.96360244207146,100 174.8506605943053,-36.96359645238113,100 174.85067593152004,-36.96358443484523,100 174.85067843486416,-36.96355501287656,100 174.85066082434386,-36.96353177568448,100 174.8506331742502,-36.96349599455459,100 174.8506090116685,-36.96345543343969,100 174.8505727478999,-36.96340550521559,100 174.8505333198187,-36.96333941882514,100 174.85049300970172,-36.963240886132745,100 174.8504726198558,-36.96319711426508,100 174.85043236573804,-36.96311169844616,100 174.85036206924747,-36.96306500463459,100 174.85032137843908,-36.963056659108624,100 174.8502535417068,-36.96305028156624,100 174.85017937850273,-36.963046103565496,100 174.8501009381363,-36.96304303680981,100 174.85003919175182,-36.96304706997334,100 174.84994587418134,-36.96304541931639,100 174.84987099371568,-36.963032487891276,100 174.8498290191875,-36.96303310056526,100 174.8497047748103,-36.96303633280737,100 174.84956127024589,-36.963047839882584,100 174.84944331457416,-36.96305070076341,100 174.84931646137656,-36.96303849041598,100 174.84920563593562,-36.96300830403288,100 174.84914315075048,-36.962989784658994,100 174.84911631642328,-36.96300667696439,100 174.8490652126566,-36.96305687965923,100 174.8490102097727,-36.963119228834664,100 174.84895794795995,-36.96317078257156,100 174.84893531073882,-36.96319259014029,100 174.84886666787298,-36.96321701336528,100 174.84878144360502,-36.963226266057106,100 174.84865342817727,-36.963215886555574,100 174.84855903141286,-36.963210072207616,100 174.84847276165732,-36.963196297876394,100 174.84841383436216,-36.96316977309269,100 174.84837584029765,-36.96313731341662,100 174.84835034423133,-36.96312455660227,100 174.84827860867276,-36.96311212770634,100 174.8482089606341,-36.96309489288572,100 174.84815460748516,-36.96306796416389,100 174.84809960578107,-36.96302768167845,100 174.84805069939978,-36.96298241642389,100 174.84801597944514,-36.9629591919295,100 174.84798362999965,-36.96294635065256,100 174.84790499404147,-36.96293727730377,100 174.8478395216685,-36.9629261044146,100 174.84783010236765,-36.96290895025369,100 174.84783547911832,-36.96286137522604,100 174.8478364588984,-36.96281952801943,100 174.84783352375854,-36.962791175895894,100 174.84781440642945,-36.96277367787901,100 174.84779519339185,-36.96275761547302,100 174.8477973240001,-36.96270123599993,100 174.84776617900002,-36.96258907999992,100 174.8475024290001,-36.962210562999985,100 174.8475501700001,-36.961894332999975,100 174.84762895900008,-36.96169017099994,100 174.8478439820001,-36.96137097599995,100 174.84786051014513,-36.961279213193826,100 174.84787964257598,-36.9612639672933,100 174.84790199067115,-36.96125144258986,100 174.84794092476062,-36.96122958881464,100 174.84796431730197,-36.96121208969052,100 174.84798472870233,-36.961195695119685,100 174.84800845468732,-36.96117772661725,100 174.84803409484527,-36.961163394870375,100 174.84805287160387,-36.96115125742415,100 174.84807248846187,-36.96114009474003,100 174.84808521308872,-36.96112352239096,100 174.848106548692,-36.96109715755751,100 174.84833782729336,-36.960962878639336,100 174.84833972586776,-36.96096218142921,100 174.8483616917186,-36.96095155265595,100 174.848398222961,-36.960931087223635,100 174.84842396664803,-36.96092197241187,100 174.84844742153933,-36.96091137992296,100 174.8484739532771,-36.96088896470044,100 174.84848144347822,-36.960879495518014,100 174.84902977100012,-36.960561134999985,100 174.84919762000004,-36.96053572199998,100 174.84945143900006,-36.96057637399998,100 174.84947885300005,-36.960553417999954,100 174.84949543657743,-36.96052529314346,100 174.8495057439354,-36.96052601008356,100 174.8495414297964,-36.96051217224633,100 174.8495662328301,-36.96048851556468,100 174.8495760301259,-36.960469252270165,100 174.84956925800697,-36.96044754770275,100 174.84955096828048,-36.960427945103774,100 174.84951287913785,-36.96040163694027,100 174.8494609786477,-36.96038006790542,100 174.84929970300004,-36.960195935999934,100 174.84926983200012,-36.96012881599996,100 174.8492163313576,-36.959747019109585,100 174.84921641370795,-36.95974672003828,100 174.84923067571108,-36.95971706532567,100 174.84923397890415,-36.959709870021925,100 174.8492501735901,-36.9596242115563,100 174.84926731775724,-36.959559377514104,100 174.84944769700007,-36.95942640499993,100 174.84947456300006,-36.959380838999955,100 174.84947274500007,-36.95931328199998,100 174.849527662,-36.95926727999995,100 174.84974813100007,-36.95915084199993,100 174.84979220469359,-36.95909520506263,100 174.84983131443113,-36.95909660254431,100 174.8498612255351,-36.9590906546111,100 174.84989624024166,-36.95891469536916,100 174.84988317262042,-36.95878204205061,100 174.84988272499942,-36.95874836587475,100 174.84988825242115,-36.95870912017774,100 174.84990625726908,-36.95867774412562,100 174.85000040337434,-36.958521800950905,100 174.850057722538,-36.95844918977105,100 174.85016372897257,-36.95837736909935,100 174.85021027817922,-36.95834206541351,100 174.8502257900965,-36.95830871913188,100 174.85020906806156,-36.95825252481947,100 174.8502000644972,-36.958175694402975,100 174.85019015165952,-36.9581010629515,100 174.850186912436,-36.95805938241726,100 174.85015662740386,-36.95797662854199,100 174.85012699915222,-36.95789186619883,100 174.8500897308844,-36.95777431039016,100 174.8500859105482,-36.957689399076365,100 174.85004279108995,-36.957536618094295,100 174.85002989297973,-36.957493818397964,100 174.85010741500002,-36.95691385399992,100 174.85026884359996,-36.95681710687841,100 174.85029429415673,-36.95681846220876,100 174.85037137479188,-36.95684078694327,100 174.8505629766995,-36.956729892587184,100 174.85065210399154,-36.95663892744322,100 174.85073447671945,-36.95667615114912,100 174.85077085293383,-36.95669731659933,100 174.85076842852666,-36.95667840238299,100 174.85078048147545,-36.95664643128788,100 174.85083077896596,-36.95660122833543,100 174.85090504297148,-36.956564689195396,100 174.85096278381386,-36.95654104142256,100 174.85104944434246,-36.95653080134173,100 174.8511055473401,-36.95652101066592,100 174.85111451197392,-36.95650361964689,100 174.85111505552243,-36.95647986865113,100 174.85110816241928,-36.95645623001493,100 174.85110450555342,-36.956453397413185,100 174.85109215587627,-36.95644314010749,100 174.85106043760175,-36.95644481542987,100 174.85102341078212,-36.95643620565815,100 174.85099518130926,-36.95641888085654,100 174.85096431950475,-36.95638713634536,100 174.85094768961335,-36.956365554003874,100 174.85092714288425,-36.956353456012344,100 174.8509116538796,-36.95635000481768,100 174.85082006383115,-36.95636481923054,100 174.85074100983599,-36.95637096303541,100 174.8506743794684,-36.956375204204846,100 174.8505093518732,-36.956338206299954,100 174.85038441367828,-36.95629872295403,100 174.85031546609483,-36.95626995591384,100 174.85026559110378,-36.956238181294935,100 174.85019928461173,-36.95618971527013,100 174.85013338665408,-36.95613380876692,100 174.8500898235719,-36.95608704231508,100 174.85003334320217,-36.95603593000644,100 174.84998843859398,-36.95599981096469,100 174.84995086641348,-36.955938941905565,100 174.84990142417112,-36.95583057807181,100 174.84986877030823,-36.955717309909396,100 174.849872782578,-36.95561730380146,100 174.84988211878158,-36.955539229428894,100 174.84988318271778,-36.95550902679659,100 174.84988828181707,-36.955483556296954,100 174.84988948962484,-36.955472076130825,100 174.8501220300676,-36.95531370116292,100 174.85014316384348,-36.95532590575652,100 174.85033440247278,-36.955243019605525,100 174.85050263494884,-36.95519402622957,100 174.85066509640234,-36.95512710433212,100 174.8507372598253,-36.9550909730012,100 174.85083094856688,-36.955026471421476,100 174.85094324729275,-36.95498190698736,100 174.85104004482784,-36.9549742975538,100 174.8512135093029,-36.95491262207037,100 174.85137617783303,-36.954843171389086,100 174.85147016873887,-36.95482049477827,100 174.85164615342947,-36.954748926151936,100 174.85177982488221,-36.95471375008142,100 174.85196304371146,-36.954678621102595,100 174.85210669230267,-36.95468995115866,100 174.85230005349098,-36.95470229988718,100 174.85233647864536,-36.954704600419234,100 174.85256736442614,-36.95472480672829,100 174.85258161431275,-36.95472394260948,100 174.85265640436955,-36.9547195126542,100 174.85268135932304,-36.954717906413926,100 174.85272931097413,-36.954719715078326,100 174.85277022770407,-36.95472240324605,100 174.85287406704356,-36.95470773235349,100 174.85292556010867,-36.954691205130906,100 174.85298953832773,-36.95466216739346,100 174.8531155311783,-36.954563625348825,100 174.85324578269586,-36.95446259484769,100 174.85339356124382,-36.95434932196289,100 174.85346096135112,-36.95429231673199,100 174.8534988603575,-36.95428440179362,100 174.85352058656292,-36.95426636615754,100 174.85383352000008,-36.954170611999984,100 174.85385034000012,-36.95416539399998,100 174.85399003500004,-36.95414050399996,100 174.8543274100001,-36.95415632099998,100 174.8544408790001,-36.95419942499995,100 174.85444363122247,-36.95420258923462,100 174.85444409046997,-36.95420698187585,100 174.85446095256336,-36.9542437211684,100 174.85448086212435,-36.95429414442901,100 174.85449740773547,-36.9543222324028,100 174.85450983630145,-36.954344536039116,100 174.8545270770841,-36.954366927635355,100 174.85455033177806,-36.95438649067918,100 174.8545694097926,-36.95440322844231,100 174.85458407161198,-36.95441648039751,100 174.8545992529529,-36.954431102349375,100 174.85460174854964,-36.95443311049324,100 174.85469059621317,-36.954631412291924,100 174.85469518679793,-36.954658641928674,100 174.85469631308564,-36.95468007208984,100 174.8546965010007,-36.954716246246804,100 174.85469474496202,-36.95476126656428,100 174.8546891121965,-36.95479323507914,100 174.85468548260525,-36.95483481819958,100 174.85468308825207,-36.95487208994574,100 174.8546681048103,-36.954893410368356,100 174.85465868584868,-36.95490735579802,100 174.8546547146485,-36.954918651865896,100 174.85463639227268,-36.95493673013341,100 174.85460307798917,-36.95495568705835,100 174.85457426275778,-36.954975386675606,100 174.85454525419604,-36.954992348398974,100 174.8545227633517,-36.95500785090973,100 174.85449717966097,-36.955022848323715,100 174.85446884613745,-36.95503527667071,100 174.85443399599637,-36.955058286432106,100 174.85440824179727,-36.95507986881445,100 174.85437879767485,-36.955102537235305,100 174.85435544013583,-36.955123149304185,100 174.85432324705263,-36.95516403121873,100 174.85427790860734,-36.955229004280625,100 174.85424308308183,-36.95526715934621,100 174.85418870847943,-36.955306671587216,100 174.85412701761103,-36.95533842957223,100 174.85409814596917,-36.955357944285495,100 174.85406416438275,-36.95538496475834,100 174.8540474285135,-36.95541452257791,100 174.85403579435643,-36.95544656406347,100 174.8540417134546,-36.955465433540844,100 174.85404564776653,-36.955483873443434,100 174.85407645681033,-36.955475336277,100 174.85412278223998,-36.95547198358849,100 174.85417910449817,-36.955467856433884,100 174.8542392766742,-36.95545173567044,100 174.85430103933246,-36.95544664559603,100 174.85438019439604,-36.955443054891695,100 174.8544171948426,-36.95543770982903,100 174.85443991272047,-36.955423551260886,100 174.85445715133372,-36.95541671856941,100 174.854478188749,-36.95539472134743,100 174.85449609058432,-36.955371291339745,100 174.85451564277795,-36.95535390411931,100 174.85454208470375,-36.95533997577566,100 174.85454532508038,-36.95533846032291,100 174.85484501357834,-36.95532198313659,100 174.85485972750152,-36.95532760235975,100 174.85488486476743,-36.955342486017344,100 174.85490315846457,-36.9553557217383,100 174.85493522408314,-36.955365794050316,100 174.85495803153285,-36.95538412558442,100 174.8549737509975,-36.95539619735857,100 174.8549891591428,-36.955408259574234,100 174.8550080135995,-36.95541919356385,100 174.8550305794202,-36.955438211156675,100 174.85505142338394,-36.955455600832906,100 174.85507277008338,-36.95548338836096,100 174.85509642708763,-36.95550632043621,100 174.85512899299795,-36.955531870414084,100 174.8551420014907,-36.95554866687538,100 174.85516009046614,-36.95556457004926,100 174.85519611590186,-36.955585553947664,100 174.85522640089673,-36.955592404756665,100 174.85525775897642,-36.9555856703524,100 174.8552977081764,-36.95558063044421,100 174.85535111386397,-36.955560585080086,100 174.85537952619862,-36.95555820588302,100 174.85548163605583,-36.95558946744032,100 174.85548474328013,-36.95559181367381,100 174.8555500395041,-36.955613392683574,100 174.8556051982136,-36.955623330973694,100 174.8556580311583,-36.95563623577737,100 174.85570250843088,-36.95566723443351,100 174.85570341237965,-36.95569651943064,100 174.85568552932716,-36.95576726128007,100 174.8556873756836,-36.95582468599929,100 174.8556969190079,-36.95593451016603,100 174.85573397580043,-36.95602832675654,100 174.85579045009897,-36.95607908037891,100 174.85587132238874,-36.95611123241143,100 174.8559474330616,-36.956151628373924,100 174.85600310547864,-36.956215048924285,100 174.85602984690058,-36.956275080375605,100 174.8560410237251,-36.95629320867574,100 174.85603594833685,-36.956303982161046,100 174.85599701908623,-36.956332961587634,100 174.85583713824772,-36.956424486115665,100 174.855834054447,-36.95643596933988,100 174.8558450813697,-36.956444637972034,100 174.85589275734955,-36.95644064156351,100 174.8560522282553,-36.95640560532382,100 174.85609057500835,-36.956410458723006,100 174.85612238737752,-36.95642654374761,100 174.85615704838156,-36.95646179940573,100 174.85616910107507,-36.95651012705522,100 174.85617447529663,-36.95657980317935,100 174.85618886919409,-36.956657439306156,100 174.85620305691313,-36.95669956675285,100 174.8562375992595,-36.956740105057364,100 174.8562951852398,-36.95679224889775,100 174.85632985418246,-36.95682587839996,100 174.85634633095364,-36.956866898365256,100 174.8563384770763,-36.95690575078503,100 174.85633016975345,-36.956938602114334,100 174.8563091703088,-36.95697497056798,100 174.85628331792051,-36.95700967356048,100 174.85627501942383,-36.95704159458841,100 174.85625314814453,-36.95711070259259,100 174.85625154382888,-36.95712057997807,100 174.8562342991754,-36.95713947715684,100 174.85621954920003,-36.95714621981808,100 174.85617949928505,-36.95715792055127,100 174.8561283770454,-36.95716117059628,100 174.85607790426394,-36.95716281423175,100 174.8560242668147,-36.95717941060681,100 174.85598337668497,-36.95720494070338,100 174.85595019823012,-36.95723354358433,100 174.8559310503622,-36.95727962085542,100 174.8559363921842,-36.95733385702514,100 174.8559599564586,-36.957363667411926,100 174.85598662804466,-36.957395823109614,100 174.85601900860004,-36.95741304394416,100 174.85603660542097,-36.95740406839767,100 174.8560467250851,-36.95738072558985,100 174.8560400624141,-36.9573573928118,100 174.85602521764608,-36.957323685814394,100 174.8560109557048,-36.95729173358008,100 174.85601902182313,-36.957247875552646,100 174.85604173072664,-36.957217238937154,100 174.85608318317495,-36.95721209593616,100 174.8561558913402,-36.957228684373405,100 174.85632736560902,-36.957309948998564,100 174.85641210727402,-36.95733145686302,100 174.85644825529002,-36.957329781133346,100 174.85646652353685,-36.95732912589802,100 174.85648805168194,-36.95732290091291,100 174.85653173466991,-36.957329969067274,100 174.85659843274914,-36.957356061877434,100 174.8566212221214,-36.957381469597735,100 174.8566728405573,-36.95741682129973,100 174.8567184636058,-36.95745114371207,100 174.85676764238278,-36.95751431933384,100 174.85680563952218,-36.95755589762041,100 174.85685669271825,-36.9575914590741,100 174.85692499066724,-36.95765469157735,100 174.85698396667993,-36.95767597655797,100 174.8570608643936,-36.957692044628885,100 174.8570857025609,-36.957692484367286,100 174.85714290735854,-36.95770317585745,100 174.8571928836144,-36.9577308260266,100 174.85722977809743,-36.95775834555551,100 174.8572596255823,-36.95778436016814,100 174.85725496643647,-36.957820401019546,100 174.8572468107081,-36.957882225571446,100 174.85714471829712,-36.958206175238054,100 174.85717523864753,-36.95839122933231,100 174.85713541817074,-36.95869737892317,100 174.8571570661317,-36.95900606303699,100 174.85720433785767,-36.95908517742548,100 174.8572630022927,-36.95912581028326,100 174.85734693822263,-36.959122288768334,100 174.85739285498195,-36.95903500334315,100 174.85750321502573,-36.95900519415544,100 174.85772981113612,-36.959142560930026,100 174.85780235584892,-36.959218930716006,100 174.85804936632502,-36.959533982895586,100 174.85811263291788,-36.95954554522473,100 174.85860840674235,-36.95963592900358,100 174.85895812340883,-36.959699728924136,100 174.85917851309125,-36.95973950898352,100 174.85951218536297,-36.95857494431331,100 174.85952475920482,-36.95853086764983,100 174.8595969115902,-36.95854410344931,100 174.8595628473075,-36.958663646917586,100 174.86168836148894,-36.95905392177109,100 174.8616992317968,-36.959016038416785,100 174.86185123029722,-36.9584853714149,100 174.86195678867537,-36.95850499761093,100 174.86200631651974,-36.95851386842314,100 174.8621840042952,-36.95885100077886,100 174.862276005246,-36.95902500317515,100 174.8623640020667,-36.95919100513766,100 174.86241499297518,-36.95928600421223,100 174.86245200844527,-36.9593560001061,100 174.8625380015197,-36.959515005799396,100 174.8626180017496,-36.95966400260659,100 174.862698995659,-36.95981200583214,100 174.86273599371955,-36.95988200280007,100 174.86278999570493,-36.95995700201155,100 174.8628900078241,-36.96009999997193,100 174.862991006401,-36.96024299587816,100 174.86309100242357,-36.960385993005055,100 174.86309899697667,-36.960397005988575,100 174.86320900662926,-36.960524993958266,100 174.8633209995367,-36.96065599803581,100 174.8634800067654,-36.960842004916245,100 174.8634869954652,-36.96085100660316,100 174.86362100357186,-36.96096999993953,100 174.86386700785047,-36.96118199172255,100 174.86421600095056,-36.9614819960019,100 174.86455299782583,-36.96177200097607,100 174.86453299636227,-36.96179000256775,100 174.864707000958,-36.96191900368493,100 174.86487300631907,-36.962041995857966,100 174.86503800236827,-36.962165995996244,100 174.86520399230645,-36.96228900235175,100 174.86536899632313,-36.96241199601894,100 174.86553499691772,-36.96253599317279,100 174.8657820075789,-36.96271999357807,100 174.86576599422904,-36.96295599866266,100 174.86575100321454,-36.963176002846396,100 174.865727993133,-36.96350899843536,100 174.86572699690538,-36.96351700695551,100 174.86591500026563,-36.96364200244033,100 174.86618200302306,-36.96382099541159,100 174.86647099316144,-36.96401399456354,100 174.86671800325158,-36.96417900670614,100 174.86686099759197,-36.96430299867043,100 174.86684299248773,-36.964394001879164,100 174.86737699913743,-36.96391500583522,100 174.86745100208756,-36.96401999664088,100 174.86759600006408,-36.96412900698372,100 174.86796599786683,-36.96438099963862,100 174.867983000021,-36.964393001669244,100 174.8682429938736,-36.96457099698026,100 174.86840900211527,-36.964711002589155,100 174.86830700709137,-36.96487699426683,100 174.86839700019704,-36.964927998190795,100 174.8687110067324,-36.96511600575599,100 174.86891200016038,-36.965236001357454,100 174.8690660010216,-36.96532899503164,100 174.86921199641202,-36.96541700231351,100 174.8694159980501,-36.965541993417865,100 174.86959099263095,-36.96564800331114,100 174.86986000327406,-36.96581100287124,100 174.8698930063951,-36.9658370059312,100 174.87044400373313,-36.96625599259409,100 174.87062999626335,-36.966396997766815,100 174.8707719999604,-36.96650500393957,100 174.87083199808026,-36.966550996916595,100 174.87090299211698,-36.96660499236135,100 174.87103299771218,-36.96670499798675,100 174.87115700425932,-36.96679999659897,100 174.8712810031941,-36.96689600196388,100 174.8714199964576,-36.967001999795364,100 174.87155000340306,-36.967102004810194,100 174.87169399458924,-36.96721299519424,100 174.87181099843409,-36.967303003887565,100 174.87182400225134,-36.967312999885486,100 174.8719550072195,-36.967413993664515,100 174.87207799396435,-36.967508993839225,100 174.8722169995027,-36.96761599727324,100 174.87235099987387,-36.967718998344594,100 174.8724840054978,-36.96782099466448,100 174.87261999905533,-36.96792600454961,100 174.87275699679256,-36.968030998428624,100 174.8728950000901,-36.96813800332996,100 174.87294799738905,-36.96817900602994,100 174.87311800630965,-36.96830699743686,100 174.8733109968318,-36.968453002756405,100 174.87353500114259,-36.96862300058257,100 174.87390299139528,-36.96890099689302,100 174.8739380055659,-36.96892699587402,100 174.87397299388888,-36.96895400111777,100 174.87427899758464,-36.96918800655432,100 174.87452799531752,-36.96937799455633,100 174.8745999998535,-36.96943399969595,100 174.87472800680177,-36.969531992103775,100 174.87542700140864,-36.97006699995666,100 174.87547100322004,-36.970099005210415,100 174.87562800386323,-36.97021399329192,100 174.8757780015736,-36.97032400662518,100 174.87599100723003,-36.97048099716178,100 174.8762490046878,-36.97067200365829,100 174.87647999741688,-36.97084399610671,100 174.87664600812047,-36.9709670026276,100 174.8767819920093,-36.97106799776566,100 174.87691800209882,-36.9711699990934,100 174.8770540035498,-36.97127099362992,100 174.8773020065945,-36.97145500118958,100 174.87746600851366,-36.97157400041262,100 174.87755999745153,-36.9716430007563,100 174.87758399521098,-36.97166400206002,100 174.87775299797104,-36.971815002165144,100 174.87810099159987,-36.972125996393636,100 174.87819599813656,-36.972213996892506,100 174.87830200424744,-36.97231199634775,100 174.87834700582732,-36.97236300055154,100 174.87862400167202,-36.972669994582546,100 174.87879600417878,-36.972861998597814,100 174.87880300593085,-36.97287200498779,100 174.87888999118724,-36.97301399336737,100 174.87890799361296,-36.97304299740781,100 174.87897399532866,-36.973149992785764,100 174.87905699447236,-36.97328599543089,100 174.87926899951273,-36.97363000342345,100 174.8792859976053,-36.97365899265809,100 174.87937999852804,-36.97388499888327,100 174.8794620026659,-36.97408200601888,100 174.8795510080714,-36.97429600459987,100 174.87973499716747,-36.9747389965959,100 174.879779006882,-36.97485300406806,100 174.87981599387732,-36.97493899372222,100 174.879874000176,-36.975057992650754,100 174.87986900316778,-36.97523599427261,100 174.87988600120795,-36.97529499797783,100 174.87992600318282,-36.97543100497426,100 174.8799690021536,-36.9755780019388,100 174.88003099841356,-36.975792006081086,100 174.88006199319383,-36.9758969946596,100 174.88009900624442,-36.976005006428096,100 174.88017200577394,-36.97621700740854,100 174.88024500683318,-36.9764290074068,100 174.8803049964424,-36.97660400195799,100 174.8803520084398,-36.97673999594936,100 174.8803550037706,-36.97674900306449,100 174.8804050031275,-36.97689499571291,100 174.880455996021,-36.977039994670285,100 174.88051700310373,-36.97721799235705,100 174.88056799178457,-36.977365996291574,100 174.88072299750192,-36.977815004922114,100 174.88074899415346,-36.97789700522158,100 174.8807919987471,-36.978030001645976,100 174.88086100744826,-36.978244006757905,100 174.8810350020987,-36.97877999957605,100 174.88118499810156,-36.97924699858644,100 174.8812540038162,-36.97941799741519,100 174.88125799549508,-36.97942799366907,100 174.88134499950846,-36.97964499844609,100 174.8811729953418,-36.979689005895665,100 174.88097499723082,-36.97974000194521,100 174.880772007347,-36.979791997913146,100 174.88077999303653,-36.97981400484545,100 174.88066699439682,-36.9798519966775,100 174.88061899871147,-36.979869001554846,100 174.88046599648396,-36.979921999392445,100 174.88042300708085,-36.97993600642353,100 174.8804410069158,-36.9799769958441,100 174.88028400031502,-36.980030993359726,100 174.88026600052712,-36.97999000301273,100 174.88008300106168,-36.98005300156177,100 174.8799530067688,-36.98009799384809,100 174.87992299202253,-36.980107995247415,100 174.87996100623462,-36.980188995952716,100 174.8797400089244,-36.98026499882041,100 174.8795070046014,-36.98034500488001,100 174.87948300434658,-36.98035600060349,100 174.87941099303168,-36.98023499987099,100 174.87920000273618,-36.98030799332345,100 174.87876400715786,-36.980458001808294,100 174.87874600685464,-36.98042399639159,100 174.87870900039607,-36.98035400416681,100 174.87863499820983,-36.980214995627676,100 174.87859000598374,-36.98012999585982,100 174.87856800299144,-36.980090004172474,100 174.87850099787283,-36.979964006968096,100 174.87845600557708,-36.97987899182136,100 174.87843000233923,-36.979901002410756,100 174.8782300036716,-36.980081004068055,100 174.878211003408,-36.9800669937497,100 174.8778440051505,-36.97980399874982,100 174.87781699902322,-36.97982799443998,100 174.87766300498933,-36.97996599800903,100 174.87752400017533,-36.98009000483776,100 174.87750899357815,-36.98010400255818,100 174.8773120069874,-36.98021500204279,100 174.87711400281572,-36.980328001085645,100 174.87698599786464,-36.980236003555454,100 174.87696900870716,-36.98022400360031,100 174.87692299207416,-36.98026499293124,100 174.87675300798506,-36.98014300003753,100 174.87669899508572,-36.980191003552115,100 174.8765399936532,-36.98033400332611,100 174.87647900506292,-36.98038900486048,100 174.87648199943192,-36.980439007324414,100 174.8762119987075,-36.98024500294628,100 174.87630899345461,-36.980240993611616,100 174.8764930041062,-36.98007499563249,100 174.8762679978708,-36.97991299481892,100 174.87608899297163,-36.97978499481227,100 174.8760469948548,-36.97975499789965,100 174.8760620016622,-36.979741000357805,100 174.8761489942954,-36.97966400425346,100 174.876135997501,-36.97965500011239,100 174.87601599709458,-36.97956899666578,100 174.87588300616298,-36.97947299557933,100 174.87587900732385,-36.97947100559814,100 174.87575099633898,-36.97937800182025,100 174.87572499208477,-36.97935900217228,100 174.87561799900453,-36.97928299377205,100 174.87551800248318,-36.9792109982052,100 174.87555600178854,-36.97916599819146,100 174.87576299425407,-36.97891800005077,100 174.87530099331707,-36.97866999918891,100 174.87516600437172,-36.97850499286348,100 174.87509000808672,-36.9785970052277,100 174.87497800730847,-36.97873099261775,100 174.87455599904592,-36.97850400558169,100 174.87444800574758,-36.97863199314638,100 174.87443399709312,-36.97864899321546,100 174.87442899403518,-36.978647004623575,100 174.87428499717925,-36.97858099180488,100 174.87428000200475,-36.978577996316886,100 174.87422999181598,-36.978554999573255,100 174.87413699208528,-36.97851199657042,100 174.8741320066577,-36.978509993266364,100 174.8739879927144,-36.978443995671476,100 174.87398300764855,-36.978442006776284,100 174.87383900183812,-36.97837500210289,100 174.87383500271022,-36.97837299583203,100 174.87368700814054,-36.97830499220203,100 174.87358799164122,-36.97825899585423,100 174.8735259938797,-36.97823100280251,100 174.87322899496314,-36.97864600680799,100 174.87304800438855,-36.97887600206348,100 174.8731520068513,-36.9789240030904,100 174.87299399695448,-36.97914500369353,100 174.87288599698198,-36.97929600226486,100 174.8730340038414,-36.97939199240731,100 174.87314200029152,-36.97946100216513,100 174.87289600011167,-36.979571992825534,100 174.87262900435906,-36.979350996988245,100 174.87262099437262,-36.97926699492539,100 174.8723919985191,-36.97942199859324,100 174.87250399747586,-36.97944500412382,100 174.87264500765684,-36.97956199214336,100 174.87243400904222,-36.9797260062457,100 174.87228999888882,-36.97983799941815,100 174.8722770034992,-36.97983100655499,100 174.87222300710522,-36.97984500040645,100 174.8719580039549,-36.97991300071566,100 174.87190600411662,-36.97992599942966,100 174.8718979935177,-36.97992799600013,100 174.87174200497748,-36.979967994983056,100 174.87167300867196,-36.979985994439666,100 174.8716610019902,-36.97999899504056,100 174.8715889978558,-36.98008200033499,100 174.87156300748296,-36.980110994406914,100 174.87172899244027,-36.98020500097806,100 174.8720729985518,-36.9803990002338,100 174.87206399724357,-36.98040600210559,100 174.87193500303798,-36.98050500262887,100 174.87191200439707,-36.980522994142,100 174.87187400629054,-36.98050200254876,100 174.87141700216796,-36.98024600055258,100 174.8713870019615,-36.98028099565899,100 174.8712870009193,-36.98039499490668,100 174.87127699984467,-36.98040599357814,100 174.87117799200232,-36.9805190000534,100 174.8710699949784,-36.98064199680418,100 174.8710349977058,-36.98068099581894,100 174.87105699752104,-36.98069399560659,100 174.87129599380864,-36.980829000621796,100 174.87118599758062,-36.98095299159939,100 174.87106499198583,-36.98109100470505,100 174.87096199978217,-36.981032994914294,100 174.8708049917792,-36.98094400399118,100 174.87077899164117,-36.980928998705224,100 174.87064899630943,-36.98107700083723,100 174.8702309950985,-36.98084200017713,100 174.87013700670698,-36.98094999382048,100 174.86996000697135,-36.98115200703987,100 174.86989000247686,-36.98123099601731,100 174.8701029996018,-36.981359996628676,100 174.87021400423788,-36.98142700488119,100 174.87023200493783,-36.98143799842798,100 174.87011699129732,-36.981565993617046,100 174.87032100249334,-36.98168900108437,100 174.87051899642623,-36.98180899981367,100 174.87068100792607,-36.98190699563834,100 174.87049999194784,-36.982100003951636,100 174.87038299328756,-36.98202899579595,100 174.87021099492785,-36.982224000370294,100 174.87035099712276,-36.982308006304585,100 174.8701809973137,-36.98250399782103,100 174.8699280066517,-36.98236099387342,100 174.8696729939581,-36.98258000069148,100 174.86969000293666,-36.982648002591446,100 174.86958699471478,-36.98276499600017,100 174.86985799718502,-36.98292000084606,100 174.86980899463353,-36.98297499222499,100 174.87012199484926,-36.983150997772185,100 174.8701330070596,-36.98315700183017,100 174.87000199415104,-36.983305995419926,100 174.86994199948415,-36.98337499158569,100 174.8698309964011,-36.98350099720494,100 174.8698410054223,-36.983507003575674,100 174.87001499701447,-36.98360700709045,100 174.8702089961751,-36.98371600289117,100 174.86994300759469,-36.984006997965636,100 174.87001400310334,-36.984046994416346,100 174.87009099622784,-36.98405199302204,100 174.87045700341852,-36.98417499618921,100 174.87042100595468,-36.98424699969215,100 174.87061699655393,-36.984612996696406,100 174.87075099270996,-36.98456700145102,100 174.87080600038476,-36.98454800443685,100 174.8708479978478,-36.98453299710391,100 174.87099400025443,-36.98448299796409,100 174.87118300342127,-36.98441800512048,100 174.87118600534737,-36.98441699338506,100 174.87137200588043,-36.98435299666769,100 174.87139399561138,-36.98434499597653,100 174.87157899253253,-36.98428100034295,100 174.8715949945079,-36.98427499310827,100 174.87176799466846,-36.98421600659311,100 174.87178000114332,-36.98421200377599,100 174.87195699609657,-36.98415099723409,100 174.87196499816721,-36.98414799312405,100 174.87203899255687,-36.9841219920958,100 174.87213800451295,-36.984087999212505,100 174.87192899948266,-36.98366700382642,100 174.87216400194654,-36.98358600303621,100 174.87246900125206,-36.98420000442652,100 174.8725589984789,-36.98416799480676,100 174.87256899842603,-36.98416399563033,100 174.87268100256256,-36.98411699957489,100 174.8727419999107,-36.98409099229504,100 174.87303499484347,-36.98398999656827,100 174.87299399724347,-36.98391499206532,100 174.87335700732083,-36.983789999020075,100 174.8733759932774,-36.98378299356053,100 174.8734709987149,-36.98374999928258,100 174.87380899996722,-36.98363400268168,100 174.87397000530464,-36.983934998543155,100 174.8737209985389,-36.9840210018582,100 174.87381700669994,-36.98419899920201,100 174.87394600450804,-36.984439998132466,100 174.87406500622467,-36.984661995592425,100 174.87408618540232,-36.984701646894905,100 174.8741344164227,-36.98479193926358,100 174.8741510041135,-36.98482299155043,100 174.87416652409703,-36.98485146401976,100 174.87416885055828,-36.98485580043953,100 174.87389553332122,-36.98495024938939,100 174.873712315953,-36.9850134003377,100 174.8735260340343,-36.985077816156206,100 174.8733902494201,-36.985124699904524,100 174.87337475014218,-36.98512994955499,100 174.87335684985572,-36.985136250178634,100 174.87326420054154,-36.98516826712113,100 174.8731716001427,-36.98520026609502,100 174.8730789498505,-36.98523224956126,100 174.87298631674412,-36.98526424980954,100 174.8728937004258,-36.98529625062261,100 174.87275965021337,-36.985342283387524,100 174.8727679994906,-36.985359299973155,100 174.8728244006446,-36.98547519998241,100 174.8729407167061,-36.98571409996075,100 174.87294483368157,-36.98572250009773,100 174.87294773353102,-36.98572836602979,100 174.87305714983478,-36.98569410000379,100 174.87310894930698,-36.98567786640459,100 174.87319576657868,-36.985650683430045,100 174.8732179660702,-36.98564371559654,100 174.873227150202,-36.985640849570366,100 174.87322889981291,-36.985644434407405,100 174.87330199975597,-36.98561916685038,100 174.87330348375033,-36.98562199967929,100 174.87331885044938,-36.98561669985408,100 174.87344635060273,-36.98557281673706,100 174.87357380004389,-36.98552893338372,100 174.87410639807393,-36.98534557119353,100 174.87448127576326,-36.98608143283944,100 174.87425100252665,-36.98616100258617,100 174.87453099494078,-36.98668299158918,100 174.8746109943825,-36.98683199710361,100 174.8736469983562,-36.987164997017594,100 174.8737829962423,-36.98744400276863,100 174.8738349916811,-36.98755000689845,100 174.87481500512476,-36.9872120033736,100 174.8749719915292,-36.987506007409436,100 174.87398000260364,-36.98784799768454,100 174.87397000226144,-36.98785199698896,100 174.87429699499685,-36.98848899673832,100 174.8745510061606,-36.98898300267887,100 174.87401600255512,-36.98905599182967,100 174.8738860059173,-36.98907399964774,100 174.87396499774306,-36.9893370056497,100 174.8739479950597,-36.98933999610369,100 174.8739309938518,-36.989343000952886,100 174.8739140012607,-36.989346998006255,100 174.87389700189345,-36.989352001026525,100 174.87388099756686,-36.9893579932929,100 174.87386499475878,-36.98936400175675,100 174.87385000381585,-36.98937099830026,100 174.87383500613927,-36.98937900261317,100 174.8738200084595,-36.989387006924254,100 174.87380599682638,-36.9893949929597,100 174.87379299222326,-36.989405006362965,100 174.873780004088,-36.9894150041825,100 174.87376800241964,-36.98942500084546,100 174.8737569972896,-36.989436002055406,100 174.87374699545197,-36.98944700094232,100 174.87373700370432,-36.989459006432725,100 174.87372799917185,-36.989470995433344,100 174.87371900393774,-36.98948400456977,100 174.87371199813649,-36.989496996714536,100 174.87370499268667,-36.98951000327432,100 174.8736999960961,-36.98952300605583,100 174.87369500809734,-36.989537000142846,100 174.8736910065467,-36.98955099217402,100 174.87368799184264,-36.98956499836677,100 174.8736859984052,-36.989579001954134,100 174.87368500828677,-36.98959300412076,100 174.87368500574183,-36.98960700421408,100 174.87368499494315,-36.98962199587902,100 174.87368699901666,-36.98963599222997,100 174.87331300215922,-36.989628003958096,100 174.87331099172437,-36.989616997346864,100 174.8733079963162,-36.9896060071857,100 174.87330400467872,-36.98959599444904,100 174.87329900003326,-36.98958499274245,100 174.8732930021569,-36.98957499905735,100 174.87328599948597,-36.98956499239151,100 174.8732790061343,-36.98955600676273,100 174.87327000543868,-36.989546995136976,100 174.87326100512095,-36.98953799882681,100 174.8732519965238,-36.98952999318674,100 174.87324100824645,-36.989522997619154,100 174.8732300020229,-36.989516003235096,100 174.87321900548963,-36.98950999923716,100 174.87320700566153,-36.98950399755569,100 174.8731939935091,-36.98949900419528,100 174.87318100789315,-36.98949500095469,100 174.87316800657666,-36.9894909988618,100 174.87315500596284,-36.98948899496153,100 174.87314099232188,-36.98948600118764,100 174.87312699847595,-36.989485005304786,100 174.8731129952238,-36.98948500010891,100 174.87309899311683,-36.989484995794605,100 174.87308500107198,-36.98948599718226,100 174.87307199549804,-36.98948699741879,100 174.8730580052743,-36.9894899969797,100 174.8700849990826,-36.990105004941285,100 174.8699979912572,-36.990123006142916,100 174.86991099243883,-36.99014000037506,100 174.86982400758728,-36.990154997019026,100 174.8697370058516,-36.990169993865564,100 174.8696489911077,-36.99018400164728,100 174.86956100108614,-36.990197001309014,100 174.86947400546927,-36.99020899379822,100 174.8693880034687,-36.99021999264917,100 174.86930199290387,-36.99023000013097,100 174.8692160071199,-36.99023900129733,100 174.8691300033204,-36.99024800178404,100 174.8690439978023,-36.99025500493073,100 174.86895799189082,-36.99026199269911,100 174.86887100819087,-36.990268006164776,100 174.8687850005325,-36.99027299562919,100 174.86869799674687,-36.99027699575591,100 174.86861200459938,-36.99028000286807,100 174.86852499188964,-36.99028299624418,100 174.86845100220677,-36.990285005774936,100 174.8683799984197,-36.99028800115036,100 174.86830799297084,-36.99029299513762,100 174.86824599910605,-36.99029699594969,100 174.86818300359764,-36.990302996283724,100 174.86812099453968,-36.990308994574974,100 174.86805899546724,-36.990315998539835,100 174.86799700606917,-36.990323995564864,100 174.86793599516548,-36.99033299743941,100 174.86787399771762,-36.99034199858766,100 174.86781299565263,-36.99035200612322,100 174.86775199598088,-36.99036399557294,100 174.86769100464204,-36.99037499431946,100 174.86762999736942,-36.99038800681452,100 174.86756999411176,-36.990401000773545,100 174.8675099913871,-36.9904159929007,100 174.8674499981173,-36.99042999430807,100 174.86739099333747,-36.990446007178875,100 174.86733800068157,-36.99046100157123,100 174.86728499115662,-36.99047599620556,100 174.86740200289447,-36.99068999910115,100 174.8678900072086,-36.991588994214965,100 174.8678960060349,-36.99159900258304,100 174.86793599720772,-36.99167399577298,100 174.86793900150474,-36.99167499670671,100 174.86797700269375,-36.99168499343073,100 174.86801300331766,-36.991694003153455,100 174.8680310079937,-36.99169799734939,100 174.86805600700194,-36.991704006728575,100 174.86807500329593,-36.991704993857034,100 174.8680709956816,-36.99174000256911,100 174.868069006304,-36.99175100103638,100 174.86807000263454,-36.99177000210902,100 174.86807000432856,-36.99177200028845,100 174.86805300119212,-36.9917750043333,100 174.868037000438,-36.9917759925876,100 174.86799900744066,-36.991774003000074,100 174.8679499979357,-36.99176399570065,100 174.86792000056377,-36.991762006410504,100 174.86791000061598,-36.991757007419025,100 174.8678920018208,-36.99174999281961,100 174.86787799129633,-36.99175099388908,100 174.86786200781034,-36.99175199897282,100 174.86784999450467,-36.991749991572135,100 174.86783000515925,-36.99174299657807,100 174.8677759937415,-36.99172400074951,100 174.86769399543056,-36.99168699555106,100 174.86766100318945,-36.991665003670285,100 174.86764799895565,-36.991659002813954,100 174.86759300074206,-36.99163999178674,100 174.86753899426628,-36.99162500570282,100 174.86750599691337,-36.99161699769727,100 174.8674659944646,-36.99159500161666,100 174.8674470077823,-36.99157699388322,100 174.86743699990694,-36.99157300083879,100 174.86742799538064,-36.99156900642504,100 174.86742200104996,-36.99156299257181,100 174.86741700080623,-36.9915560013759,100 174.8674099951919,-36.991550996680886,100 174.86739299505018,-36.99154700100293,100 174.86738600311176,-36.99152900189126,100 174.86737700655354,-36.99152400058381,100 174.86736199291616,-36.99151600607022,100 174.86734499592006,-36.99150699273761,100 174.86732500335546,-36.991496002195944,100 174.86731299363638,-36.9914889933091,100 174.8672909932861,-36.9914780064149,100 174.86726799368932,-36.99147100190965,100 174.86724500628227,-36.99146899858272,100 174.86722499724533,-36.99146900427703,100 174.86719500239798,-36.99146899674485,100 174.867173001514,-36.9914669932035,100 174.86714799670435,-36.991464003119226,100 174.86713199270406,-36.991460996691494,100 174.86708000607638,-36.99145099441047,100 174.86704700031166,-36.991441994064374,100 174.8670249961056,-36.99143599413463,100 174.86700399522718,-36.99142999193495,100 174.8669800084437,-36.99142300470742,100 174.86695700774445,-36.991415999257285,100 174.8669379994861,-36.99141199184356,100 174.86690900861322,-36.99140300039881,100 174.86687300193913,-36.99139699540341,100 174.86685500701682,-36.99139399231855,100 174.86683499745857,-36.99139199974839,100 174.86681200377595,-36.991393001406834,100 174.86679500535763,-36.99139100382171,100 174.8667850008367,-36.99139100618057,100 174.86676499420292,-36.99139299374221,100 174.8667500072491,-36.99139500328291,100 174.86672599301772,-36.99139599213696,100 174.86670499230948,-36.99139900389316,100 174.8666789971094,-36.99140100182205,100 174.86661299626405,-36.99140600038359,100 174.86658400791134,-36.991408003913136,100 174.86656099434015,-36.99141600631902,100 174.86651199986213,-36.99142199555373,100 174.8664679949098,-36.991423004058994,100 174.8664459921123,-36.991427999994414,100 174.86641399478162,-36.991434004860835,100 174.8663700063148,-36.99143499864953,100 174.8663260009765,-36.99143599178597,100 174.86629900444728,-36.99144000538948,100 174.86628099760443,-36.99144299612379,100 174.8662630007338,-36.99144699256176,100 174.86624400778473,-36.99145000060149,100 174.86622499761208,-36.99145299358676,100 174.86620700798474,-36.99145599936144,100 174.86618799780894,-36.99145899234088,100 174.86617600509652,-36.99146099618139,100 174.86615799861747,-36.9914640022137,100 174.866139005263,-36.99146699401946,100 174.86612000230937,-36.991468995432214,100 174.86610099250066,-36.991472003714286,100 174.86608199752195,-36.991472998231,100 174.86606299456494,-36.991474999634704,100 174.86604399958475,-36.99147599414539,100 174.8660250049782,-36.99147700396943,100 174.86602400163088,-36.99147700532596,100 174.86600499667904,-36.99147699412394,100 174.86598599207935,-36.99147699733434,100 174.8659669954585,-36.99147599365164,100 174.86594799923424,-36.99147500618325,100 174.8659290015129,-36.99147400341308,100 174.86591000489318,-36.99147299972122,100 174.8658910082737,-36.991471996026306,100 174.86587099871306,-36.99147000329345,100 174.8658520010155,-36.991469001411836,100 174.86583299751788,-36.991469003679036,100 174.86581999833552,-36.9914689962598,100 174.86580099373654,-36.99146899944048,100 174.8657819987526,-36.99146999390926,100 174.86576300414228,-36.99147100369143,100 174.86574399230946,-36.991471998419016,100 174.86572500455682,-36.99147200132268,100 174.86570599272298,-36.9914729960442,100 174.86568700499186,-36.991472999842756,100 174.8656749937833,-36.99147300571662,100 174.86565599718736,-36.991472002884954,100 174.8656369925865,-36.99147200603937,100 174.86561699152045,-36.991471004572354,100 174.86559799490337,-36.991470000830404,100 174.86557899830865,-36.99146899798635,100 174.86555999208,-36.991467002947026,100 174.86554099548627,-36.991466000096885,100 174.86552199614277,-36.991462999079886,100 174.8655130040632,-36.99146199307162,100 174.86549399783758,-36.99145999802164,100 174.86547499849712,-36.99145699699704,100 174.86545700472956,-36.99145399368134,100 174.8654379969263,-36.99145000224274,100 174.86541899756807,-36.99144700030807,100 174.86541200369854,-36.99144500028025,100 174.86539399920264,-36.99144100568119,100 174.86537499937023,-36.99143600644114,100 174.86535699452602,-36.99143199742089,100 174.86533799632016,-36.99142899635633,100 174.86531899971524,-36.991427992569285,100 174.86531699192017,-36.99142799618902,100 174.8652990006799,-36.99142900544717,100 174.86528000727245,-36.99143199621516,100 174.86526100704233,-36.99143599565467,100 174.86524300212474,-36.99144099882961,100 174.86522500683458,-36.99144699419419,100 174.86521300610568,-36.99145000482827,100 174.86519500080723,-36.991454992679664,100 174.8651770058839,-36.99146100335358,100 174.86515899371386,-36.99146699807226,100 174.8651419948695,-36.991473998047034,100 174.86512500487953,-36.991482004644936,100 174.86510899410098,-36.99149099991081,100 174.8650940046594,-36.991499994444425,100 174.8650800036603,-36.99151099958868,100 174.86507299971444,-36.99151700514605,100 174.86505899835706,-36.99152799587251,100 174.8650480016047,-36.99154000202107,100 174.86503699648355,-36.991552999742545,100 174.86502800799207,-36.991566999572726,100 174.8650239999956,-36.9915750004128,100 174.8650180069015,-36.99158899462549,100 174.86501200583587,-36.991603996629145,100 174.86500799459748,-36.99161899530039,100 174.86500299687754,-36.99163399595565,100 174.865003001144,-36.99164700541559,100 174.86500400194268,-36.99166300058023,100 174.86500500483524,-36.99167199702988,100 174.8650079958623,-36.9916880050796,100 174.8650090046984,-36.9917029951557,100 174.8650090082782,-36.99170700593457,100 174.8650060014868,-36.991722002338996,100 174.86499899708028,-36.99173700659102,100 174.86499100674249,-36.9917449970112,100 174.86497499591553,-36.99175399316153,100 174.86496099964245,-36.99175999594028,100 174.86494200814587,-36.99176500105577,100 174.86493600391992,-36.99176699357836,100 174.86491799896777,-36.99177199940934,100 174.86490300457143,-36.99177499757334,100 174.86489299795616,-36.991782001192014,100 174.86487800041706,-36.99179200168956,100 174.86486299289655,-36.991800995577435,100 174.86484899982514,-36.99181099470699,100 174.8648360020647,-36.99182199757678,100 174.8648289997028,-36.99183000220355,100 174.86481900622442,-36.99184200698594,100 174.86481000043875,-36.991855991749375,100 174.86480099616904,-36.99186999271192,100 174.8647939989545,-36.99188400539672,100 174.86479400855717,-36.991884996688206,100 174.86478799744958,-36.9918989920738,100 174.86478299967007,-36.991913992720846,100 174.86477800301182,-36.99192899335003,100 174.86477399208687,-36.991944007330744,100 174.8647699987573,-36.99195900571251,100 174.8647679941415,-36.991963004785994,100 174.8647629974775,-36.9919780054146,100 174.86475800768315,-36.99199199917036,100 174.86475399637737,-36.99200699783402,100 174.8647489996861,-36.99202199756114,100 174.8647450036397,-36.99203499867894,100 174.86474099345267,-36.99204999732455,100 174.8647359956332,-36.99206499706881,100 174.86473099895707,-36.99207999769619,100 174.86472500467178,-36.99209399281414,100 174.86471800740233,-36.99210800459396,100 174.8647100048596,-36.99212000692376,100 174.86470000407985,-36.9921330032534,100 174.86468899881697,-36.99214600094536,100 174.86467699708803,-36.992157994010114,100 174.864663999267,-36.99216899776373,100 174.86465500428378,-36.99217500754379,100 174.8646410027255,-36.99218599732382,100 174.86462599657548,-36.99219500558187,100 174.86461100693973,-36.99220400005886,100 174.8645949948486,-36.992212996178814,100 174.8645789922478,-36.99222100070511,100 174.86456300649138,-36.992229004964614,100 174.86454700350973,-36.99223699417037,100 174.8645299964175,-36.99224500005228,100 174.8645140006995,-36.99225199859841,100 174.8644969935783,-36.99226000357482,100 174.86446999417538,-36.992271001973464,100 174.8642819951273,-36.992354999754525,100 174.86430399615998,-36.99239699230506,100 174.86431700757933,-36.99241999755474,100 174.86442099270275,-36.99261900383136,100 174.86416599789825,-36.992769003413194,100 174.86382999204704,-36.99285300191876,100 174.86369899662978,-36.99293799620024,100 174.86324999641732,-36.993226994431666,100 174.8632239960606,-36.9932429926619,100 174.86296499728945,-36.99337100469041,100 174.86295999625648,-36.99337299578604,100 174.8627009943623,-36.99344799576624,100 174.8621920062952,-36.99346900198319,100 174.86199099273352,-36.99361199386282,100 174.86192999740996,-36.99381400467558,100 174.86204499177387,-36.994280994852595,100 174.86205300342613,-36.99477199276382,100 174.86215200414267,-36.9950860008948,100 174.86219800008305,-36.99545399557176,100 174.86222700478777,-36.99568799755551,100 174.86221400359375,-36.99602800578836,100 174.8622120056701,-36.99608899731712,100 174.86220900820047,-36.99615599915146,100 174.86210300006144,-36.996340992109886,100 174.8620000040719,-36.99643499542419,100 174.86188399719623,-36.99647699976676,100 174.86148600384473,-36.99662100480676,100 174.8613950064939,-36.99703599797423,100 174.86126999585142,-36.99723799769279,100 174.86126000415103,-36.99725399766457,100 174.8608150023696,-36.99744999540649,100 174.86088499915203,-36.99762100215053,100 174.8606019915651,-36.997719998426305,100 174.86053899847767,-36.99753000734056,100 174.86029399745703,-36.99713600173349,100 174.86020300067995,-36.996679994812744,100 174.86016000499308,-36.9964630057586,100 174.86014299368574,-36.99637400205052,100 174.85982800320312,-36.99569200043549,100 174.8597580050204,-36.99556799458134,100 174.8594539934129,-36.9950300025594,100 174.85902100435152,-36.99439200274255,100 174.85853699807294,-36.993778001814185,100 174.858401004951,-36.99362100144629,100 174.85808499857123,-36.99325500690606,100 174.85795500179404,-36.993104004068115,100 174.85777900752382,-36.99286599739574,100 174.85752100517126,-36.992518005374606,100 174.85747999250754,-36.99245300117735,100 174.85721000451184,-36.992027006288545,100 174.8571359965079,-36.99190999167279,100 174.85684099842504,-36.99135899937935,100 174.85630699408205,-36.990559993286745,100 174.85603999175711,-36.990059994233505,100 174.85568500713603,-36.99018299860258,100 174.85559499527875,-36.990214994882095,100 174.8553379986514,-36.99030400609139,100 174.8554530054257,-36.990499996540926,100 174.85509200800692,-36.99064100496539,100 174.85517500267775,-36.99045200010862,100 174.85512999473332,-36.99037600560159,100 174.85492299484943,-36.99044800257629,100 174.8545759920042,-36.99056800100411,100 174.85426100849332,-36.9906769942105,100 174.85396700384726,-36.99077899723196,100 174.8546089940451,-36.99167600086725,100 174.85493699998017,-36.99218099275979,100 174.85510700029113,-36.992413996075705,100 174.85515800039545,-36.99248299642723,100 174.85535000704516,-36.9927460043256,100 174.85530999670283,-36.99288999264838,100 174.85530199809364,-36.99292099576871,100 174.85319300833754,-36.99390499485065,100 174.8530929989251,-36.9939289993458,100 174.85238599370925,-36.99410299983256,100 174.85207199800735,-36.99359599495722,100 174.85191199959482,-36.99333800629905,100 174.85186400210094,-36.99329000062642,100 174.85172500788846,-36.993148994289484,100 174.8516070072167,-36.99303000556044,100 174.8511370049152,-36.99220000492857,100 174.85075799663883,-36.99153199569984,100 174.85053899760905,-36.991608001013155,100 174.85020299991888,-36.991642000199754,100 174.85016599511903,-36.991654993646975,100 174.84999000425555,-36.99171599741806,100 174.8499569972926,-36.991727000566236,100 174.84982199887952,-36.991773996754446,100 174.84970599282016,-36.9918139918816,100 174.84965499776504,-36.99183199642565,100 174.8494879951999,-36.991889993182774,100 174.8494559914655,-36.991900995879455,100 174.84932099391065,-36.991948006812244,100 174.84920500415507,-36.99198800120032,100 174.84915300547556,-36.99200600584803,100 174.84909600476385,-36.99190000098253,100 174.84905000158858,-36.99181499207327,100 174.84899000330776,-36.99170299866224,100 174.8489289920861,-36.99158999981098,100 174.8489060045811,-36.99154899759254,100 174.8484680030958,-36.99170100017352,100 174.84855300698854,-36.99173099669652,100 174.84871499274877,-36.99210899429982,100 174.8484529981799,-36.992199997404626,100 174.8484390079011,-36.99220500671062,100 174.84828000748635,-36.992260001044556,100 174.84810800300747,-36.99232000259526,100 174.84797399856055,-36.99236600419713,100 174.84793999479945,-36.992378000237665,100 174.84771599868571,-36.992455000249876,100 174.84766599893334,-36.99244800493746,100 174.84772900848856,-36.99254899937143,100 174.84744900579454,-36.99264699727179,100 174.84740399198563,-36.99256400026968,100 174.84722600678356,-36.992625002186486,100 174.84702499762895,-36.99269499318529,100 174.8468529911419,-36.99275499386719,100 174.84667999787342,-36.9928149961388,100 174.8466749979157,-36.99281700185786,100 174.84659399492512,-36.99284499535711,100 174.8465229933201,-36.992868993577545,100 174.84644299508204,-36.99289700108347,100 174.84631499185983,-36.99294099215931,100 174.8461010035244,-36.993014998810395,100 174.8458129939156,-36.993115995344354,100 174.84622999514994,-36.994411003392,100 174.8462790073632,-36.99440099605665,100 174.84642099270062,-36.99484000143949,100 174.84424399504013,-36.99336999640072,100 174.84436000010342,-36.99312599866672,100 174.84465299247194,-36.99282699782923,100 174.84424799488073,-36.99287399341034,100 174.84383399800697,-36.99262800476976,100 174.84351400396548,-36.992438004095646,100 174.84331800183287,-36.99232199877409,100 174.84314800634368,-36.99221999759522,100 174.84292199133625,-36.99208700561034,100 174.84260500578654,-36.99189800391928,100 174.8424469942603,-36.991804004968294,100 174.84207300388206,-36.991581998341395,100 174.8418939998574,-36.991474992250794,100 174.84173100494309,-36.99137900295315,100 174.84156600845512,-36.99127999714194,100 174.84140100518908,-36.991181997066874,100 174.8412379935362,-36.99108600733203,100 174.84107599355585,-36.990988993100046,100 174.8409100050551,-36.99089099408789,100 174.84074500233135,-36.99079299306556,100 174.84071600100754,-36.990774998412206,100 174.84053600216384,-36.99064600004113,100 174.84032999706238,-36.99049900164828,100 174.84012399162796,-36.99035200288992,100 174.83975500297592,-36.990087004976175,100 174.83961100412063,-36.98998399797106,100 174.8394109921815,-36.989840999693264,100 174.83912499763343,-36.98963600362413,100 174.83891199320757,-36.98948399618935,100 174.83885599512357,-36.9895469915805,100 174.83881800015126,-36.98952399200279,100 174.83851099881227,-36.98933799967094,100 174.83816800338994,-36.989129994221734,100 174.8380480017443,-36.98895600269156,100 174.8381290064895,-36.98887000092924,100 174.83795399490486,-36.98873100317056,100 174.83733999390552,-36.98824300017408,100 174.8370280009797,-36.987995003023016,100 174.83673100361887,-36.98752700599227,100 174.83672900598688,-36.987529997732636,100 174.83672700874476,-36.9875330056906,100 174.8367249931423,-36.98753599770902,100 174.83672300426642,-36.987537998767664,100 174.83672100700224,-36.98754100582455,100 174.83671899254415,-36.98754399872648,100 174.83671600847316,-36.987546992214156,100 174.83671300680018,-36.98755000129653,100 174.8367090014517,-36.98755299616938,100 174.8367049976161,-36.987556007242375,100 174.83669900139867,-36.98755900498684,100 174.8366929975903,-36.98756299519722,100 174.8366860076896,-36.98756700157025,100 174.8366790005511,-36.98757099198597,100 174.83667100736346,-36.98757500036609,100 174.83666399949036,-36.98757900701598,100 174.83665599630825,-36.98758199255629,100 174.83664900640383,-36.98758599892723,100 174.83664200689608,-36.987588998676614,100 174.83663600258419,-36.987591005997075,100 174.8366299979036,-36.9875929980006,100 174.83662499799993,-36.98759500329564,100 174.83662000536242,-36.98759600260953,100 174.83661499473294,-36.987597001300344,100 174.8366109969019,-36.98759699196789,100 174.83660600463242,-36.98759800659786,100 174.83660200680134,-36.98759799726509,100 174.8365980006021,-36.98759899483152,100 174.83659300796393,-36.9875999941443,100 174.83658899253086,-36.98760000040584,100 174.83658799305093,-36.9875910036167,100 174.8365660009189,-36.98732200104078,100 174.83633999290103,-36.9873339996982,100 174.83633800044308,-36.9873130028289,100 174.83633500468287,-36.98729200706343,100 174.836330995758,-36.98727200400181,100 174.83632599194766,-36.987250996946294,100 174.83631900683505,-36.987230997575104,100 174.83631200379952,-36.98721100028336,100 174.83630399746562,-36.98719100409468,100 174.83629500431277,-36.9871709934315,100 174.83628600428375,-36.98715200496619,100 174.83627499506352,-36.987133004325855,100 174.83626300053936,-36.987114005410476,100 174.8362509972585,-36.98709599717551,100 174.83623700314888,-36.98707799270388,100 174.8362230017741,-36.9870609942115,100 174.83620799712696,-36.98704399772101,100 174.83619200493186,-36.987027002988725,100 174.8361760051032,-36.98701099891853,100 174.836158006053,-36.98699600460785,100 174.83614000776478,-36.986980994960184,100 174.83581199789526,-36.9867179974093,100 174.83407400319064,-36.98532999918843,100 174.83394500826986,-36.98501299691556,100 174.83352799166866,-36.98464599706454,100 174.83195400089846,-36.98325299430704,100 174.8318949930096,-36.983304996316264,100 174.83184200567916,-36.98335099543096,100 174.83138499426335,-36.98307100621682,100 174.830745995397,-36.982678996652716,100 174.83059000272615,-36.98218300412394,100 174.83016200656073,-36.98190099957172,100 174.82994499800424,-36.981759003897466,100 174.82973399236968,-36.98197099427879,100 174.8295849943457,-36.98182499215335,100 174.8298439944295,-36.981566004628036,100 174.83022199433478,-36.981188006567756,100 174.82977000357155,-36.98132899656392,100 174.82991099307276,-36.98118799640741,100 174.8296729991893,-36.98103500320559,100 174.8298149999941,-36.980892993416845,100 174.8298899951865,-36.98081800117683,100 174.82992000761902,-36.980788004947776,100 174.82994399170818,-36.980765002150754,100 174.83001199956092,-36.98069599867059,100 174.83007200624363,-36.98063600642479,100 174.83013400242538,-36.98057399606445,100 174.8302010051664,-36.98050699177758,100 174.83033800737388,-36.980493002308705,100 174.83040199360306,-36.980429007063044,100 174.8304789942549,-36.9803519988261,100 174.83062300754642,-36.98020899444106,100 174.83062900090385,-36.98020199970472,100 174.8307199950165,-36.980049998547436,100 174.83072699158498,-36.98004300365368,100 174.8308619924343,-36.97990800290302,100 174.83098999402287,-36.97977999605115,100 174.83095200556366,-36.97973399570947,100 174.83084300259048,-36.97966400630047,100 174.83076500123497,-36.97961399307482,100 174.8309399932849,-36.97943900667885,100 174.8311210022919,-36.97925800103172,100 174.83117899237848,-36.979179998573535,100 174.83138299292375,-36.97890899633275,100 174.83162300065337,-36.979063004243876,100 174.83167600839832,-36.979010005282454,100 174.83179399240873,-36.97889200268442,100 174.8318190053113,-36.97886800660784,100 174.8319079984617,-36.978778001031664,100 174.83193800048969,-36.97874899501019,100 174.8320209921852,-36.97866499192625,100 174.8320790069186,-36.97860699881116,100 174.83214300585794,-36.97854300244751,100 174.83226600622135,-36.97842099581022,100 174.83228300908524,-36.97840300529736,100 174.83232999533263,-36.97835599362874,100 174.8324050035702,-36.978280999626605,100 174.83251799622303,-36.97816800629677,100 174.8326320001308,-36.978054003994174,100 174.8326859928021,-36.97800100290109,100 174.83273299689318,-36.97795400612266,100 174.83274499172796,-36.9779409942447,100 174.8327949964592,-36.97789100379684,100 174.83293000707678,-36.97786600280498,100 174.83306499909577,-36.97773099882847,100 174.833141000875,-36.977780006732026,100 174.83326700640154,-36.97765399857895,100 174.83341700232882,-36.97750399526124,100 174.83343799706708,-36.97731499360068,100 174.83355300188444,-36.97720100471079,100 174.83356699472094,-36.97718699837578,100 174.8336549986994,-36.977099005917516,100 174.83369400324935,-36.97706100402572,100 174.83380399962374,-36.976951993643134,100 174.83404700243352,-36.976600998021596,100 174.83413299970354,-36.97651500740668,100 174.83424000170965,-36.97640799785934,100 174.834358005312,-36.976290998326014,100 174.83437400372955,-36.97627500684346,100 174.8344700055377,-36.97618000231,100 174.8345820065415,-36.97606900527685,100 174.83469999955642,-36.975950999702704,100 174.83479700400773,-36.975853994708714,100 174.83480700037933,-36.975844005895404,100 174.83491500481207,-36.975736995576135,100 174.83492599695774,-36.9757259981061,100 174.83503099976716,-36.97562199672018,100 174.83503699239094,-36.975615002677905,100 174.83515999191724,-36.97549399897888,100 174.8352000048819,-36.975453005759135,100 174.83526699148672,-36.97538700568508,100 174.83534300550642,-36.975311001956335,100 174.8353749946166,-36.97527999407358,100 174.8354579960346,-36.97519600380163,100 174.835493002418,-36.97516200281905,100 174.83550399439895,-36.975151005299,100 174.8356150046454,-36.975039993788506,100 174.83572700233805,-36.974928995745536,100 174.835804996774,-36.974851997586825,100 174.8362809960531,-36.97503599826658,100 174.83645400382247,-36.97490199856986,100 174.83625599417064,-36.974824998157814,100 174.83634700465956,-36.97467299341559,100 174.83640299576274,-36.974579999824115,100 174.8365009995189,-36.974417003350915,100 174.8368620048376,-36.9745569967764,100 174.83694300320641,-36.97442100432109,100 174.8369409958366,-36.97442100744833,100 174.83707499362467,-36.97419800432186,100 174.83752599493477,-36.974074005662985,100 174.83761800564307,-36.97363200627912,100 174.8374887941835,-36.97358228282247,100 174.8372431951932,-36.973990445645796,100 174.83709059782416,-36.973931302662656,100 174.8367852989498,-36.97381295461654,100 174.8365510046966,-36.973722232091205,100 174.83675110435178,-36.97339014386616,100 174.83656279904267,-36.97323642678059,100 174.8365002032031,-36.973185210849955,100 174.83640049579634,-36.973140031977756,100 174.836251099227,-36.9730722533022,100 174.83610170216255,-36.97300448976461,100 174.8359598004376,-36.97294005222668,100 174.83594179785348,-36.97295417313934,100 174.83570680176373,-36.973344775249885,100 174.83573299195703,-36.973405254202866,100 174.835427806087,-36.97328708742699,100 174.83531470670684,-36.973243266614496,100 174.8355731946537,-36.97281441414637,100 174.83544579849524,-36.972710283833685,100 174.83531830121544,-36.972606231554046,100 174.83530610018622,-36.97259634258113,100 174.83526499762823,-36.972562771316575,100 174.83537050482335,-36.972479961740994,100 174.83538710818533,-36.972466561072686,100 174.83550909495247,-36.97237026068521,100 174.83563120491567,-36.97227405110496,100 174.83575320791095,-36.9721777502199,100 174.8357927992065,-36.97214706178606,100 174.83587520230537,-36.972081805365235,100 174.83599729112785,-36.971985502004706,100 174.8360621077602,-36.97193439058205,100 174.83611929469117,-36.97188921606335,100 174.83624599613327,-36.97178939625784,100 174.8362806074,-36.97176212228944,100 174.8363208949993,-36.97173027643331,100 174.83648220815957,-36.971603182383085,100 174.8366041943963,-36.97150697373324,100 174.8367263015769,-36.97141076218731,100 174.836848304042,-36.97131455303973,100 174.8369704087662,-36.97121826467292,100 174.8370923937943,-36.971122056449936,100 174.8371802050758,-36.97105266310595,100 174.83721439529336,-36.97102584514481,100 174.83733650095712,-36.97092963390661,100 174.83749779313698,-36.97080255414681,100 174.83756359712663,-36.97075026303122,100 174.8379355050492,-36.970457303315406,100 174.8379524061809,-36.970444083355,100 174.83809569289318,-36.97033104743832,100 174.83820189469762,-36.97024724760325,100 174.8384873922369,-36.970022430984834,100 174.8385954045016,-36.96993711378348,100 174.83861269280442,-36.969923514587634,100 174.83872969200013,-36.96983127743943,100 174.83877900925899,-36.96979221283093,100 174.83886399668037,-36.96972542355484,100 174.8389981969515,-36.96961958736226,100 174.8391325001545,-36.96951374942566,100 174.83915880387534,-36.969492966659956,100 174.8392668018962,-36.96940781942787,100 174.83940110433267,-36.96930198030309,100 174.83947519992523,-36.969243382919004,100 174.8395354075413,-36.969196141918296,100 174.83966960597309,-36.9690903059094,100 174.83980390843718,-36.968984467237526,100 174.83984499406196,-36.96895215627575,100 174.83986870842625,-36.968947291108826,100 174.8400346950371,-36.968913359406514,100 174.8402005983452,-36.96887951979804,100 174.8402020947321,-36.9688791540978,100 174.84026690636114,-36.968865936405955,100 174.8402841978841,-36.96869655493795,100 174.8403018026332,-36.96852726234465,100 174.84031870447026,-36.968361481362585,100 174.84043679604792,-36.96833736255684,100 174.84079720468267,-36.96836112599544,100 174.84081550355063,-36.96818022170427,100 174.84041770665607,-36.9681539384022,100 174.84027340595424,-36.968183460446056,100 174.84029100402654,-36.96801263300132,100 174.84030500508925,-36.96787575358134,100 174.84031510593283,-36.96777711536133,100 174.8399605027584,-36.96775362365897,100 174.83979460062042,-36.96778736915413,100 174.83978230351653,-36.96778953094185,100 174.8397492044406,-36.96768585430093,100 174.8398871077086,-36.96757758475871,100 174.83989359574431,-36.96757236289929,100 174.84002890213418,-36.96746598024974,100 174.8400385937468,-36.967458241813084,100 174.8401301047998,-36.967386414902336,100 174.8402042024877,-36.96732800271362,100 174.8403755994163,-36.96719354470404,100 174.84038319117082,-36.96718751434802,100 174.8405261017821,-36.96707502307826,100 174.84053620238518,-36.96706701417359,100 174.84075500187507,-36.96689456189582,100 174.84073130389626,-36.966875221180416,100 174.84051200534216,-36.96669630138105,100 174.8409480055716,-36.966570299213814,100 174.8412582959104,-36.96663761431206,100 174.84127700544897,-36.96662999997387,100 174.84143100600895,-36.96639500330662,100 174.8412150019319,-36.96607099357546,100 174.84127700612427,-36.96602900196145,100 174.84129900653315,-36.96601499760155,100 174.84148300355713,-36.965890001990324,100 174.84146699464122,-36.96569100586511,100 174.84145499231002,-36.965685992362104,100 174.8414550081843,-36.96568399389348,100 174.84145900497342,-36.965668996145205,100 174.84146199762077,-36.965653999553716,100 174.8414640052582,-36.96563900562494,100 174.84146500293295,-36.96563099725777,100 174.8414640000484,-36.96561599234917,100 174.8414630066388,-36.96560399138695,100 174.84145999586713,-36.96558900500967,100 174.84145599292873,-36.965578992175686,100 174.84145100114986,-36.96556500003998,100 174.8414459955669,-36.965555003661606,100 174.84144000040655,-36.96554099734794,100 174.8414369945907,-36.96553400197989,100 174.84143199429084,-36.965519003202985,100 174.84143199634312,-36.965507992668236,100 174.84143899494015,-36.96549399658477,100 174.84144000663886,-36.965493003860836,100 174.84145299483498,-36.965482993321125,100 174.8414680009921,-36.9654779979543,100 174.84146999998606,-36.965477004334495,100 174.8414890054331,-36.96547599654332,100 174.84149300212155,-36.965476006644195,100 174.84151099932214,-36.96548000418885,100 174.84151699443814,-36.9654810017745,100 174.84153300326932,-36.96548899776632,100 174.84154900491373,-36.965498000639855,100 174.84156199492242,-36.965506992551134,100 174.84157599911578,-36.96551700614336,100 174.84159000294372,-36.96552700441715,100 174.8416009941415,-36.96553499262196,100 174.84160252141817,-36.965532576584295,100 174.84158564500012,-36.96556118999996,100</coordinates></LinearRing></outerBoundaryIs>
    </Polygon>
  </Placemark>

  <Placemark>
    <name>Papatoetoe</name>
    <Point>
      <altitudeMode>relativeToGround</altitudeMode>
      <coordinates>174.85539773714478,-36.97694534067686,100</coordinates>
    </Point>
  </Placemark>

</Document>
</kml>