<?xml version="1.0" encoding="utf-8"?>
<kml xmlns="http://www.opengis.net/kml/2.2">
<Document>
  <name>Point England (polygon: official_shp)</name>
  <open>1</open>

  <Placemark>
    <name>Point England (polygon: official_shp)</name>
    <Style>
      <LineStyle><color>ffff0000</color><width>2</width></LineStyle>
      <PolyStyle><color>66ff0000</color><fill>1</fill><outline>1</outline></PolyStyle>
    </Style>
    <Polygon>
      <tessellate>1</tessellate>
      <altitudeMode>relativeToGround</altitudeMode>
      <outerBoundaryIs><LinearRing><coordinates>174.8676785417575,-36.89082088485499,100 174.86691499216448,-36.89068299831817,100 174.86674799667378,-36.89065200699092,100 174.86683400215,-36.89041500490989,100 174.86690200567023,-36.890243995875096,100 174.86694600005734,-36.89010900703823,100 174.86679700746893,-36.88993099442494,100 174.86679500806747,-36.889936991715665,100 174.86679100353427,-36.8899429925768,100 174.8667859970065,-36.88994899566466,100 174.86678099774477,-36.88995400718077,100 174.86677500300905,-36.889957998718586,100 174.86676800662966,-36.88996200689852,100 174.8667609999452,-36.88996499313758,100 174.866752991639,-36.88996799691948,100 174.86674500705172,-36.889969993548256,100 174.86673699722442,-36.88997100001711,100 174.8667289942914,-36.889970999597224,100 174.86671999623664,-36.8899699936139,100 174.86671200057137,-36.8899690016213,100 174.86665500317304,-36.89012699732967,100 174.8662569950478,-36.890032995812405,100 174.86615900288515,-36.89030000164641,100 174.86611099520985,-36.8904330000358,100 174.8658349960149,-36.8903799996163,100 174.86574100000203,-36.890362005594014,100 174.86566299581088,-36.890347993853844,100 174.8655729933098,-36.890329991956165,100 174.8654210033852,-36.89030100016576,100 174.86521899114442,-36.89026299354451,100 174.86501799940802,-36.89022499939662,100 174.86492400377267,-36.89020700561749,100 174.86456700355075,-36.890139003171846,100 174.86458400308732,-36.89010000729343,100 174.86459999909474,-36.8900609974212,100 174.8646150003638,-36.89002099728244,100 174.86462899272266,-36.88998200714046,100 174.8646409937568,-36.88994100585242,100 174.86465300398802,-36.88989899944113,100 174.86466300098894,-36.88985800166767,100 174.86441100068762,-36.88979999827247,100 174.8644039967331,-36.88983400524047,100 174.86439499421616,-36.88986699443331,100 174.86438600304248,-36.88990100374751,100 174.8643749953561,-36.88993399556772,100 174.86436400712395,-36.889967003305394,100 174.8643509942849,-36.88999999865304,100 174.86401199915835,-36.889913005824226,100 174.86401199981626,-36.88988599670114,100 174.86401299789466,-36.889745992606024,100 174.86401299708027,-36.88953400541587,100 174.86401299962648,-36.88931500405243,100 174.86398599517813,-36.88931999301385,100 174.8639580001491,-36.889326006997216,100 174.86393099828237,-36.889332994144,100 174.86390399678294,-36.88933999660147,100 174.86387799987577,-36.88934899594952,100 174.86385100825802,-36.88935700502041,100 174.86382500288946,-36.88936699504631,100 174.86379999989597,-36.88937699908291,100 174.86377500753665,-36.88938799440537,100 174.86374999757368,-36.889399004420035,100 174.86372599913196,-36.88941100443832,100 174.8637019933318,-36.88942399422255,100 174.8636209929978,-36.88946899193423,100 174.86370599447218,-36.88994500114275,100 174.86367699713418,-36.88996199721291,100 174.86364999281702,-36.88997600025275,100 174.8634539993814,-36.89008499697459,100 174.8632449944654,-36.89019999569704,100 174.86306500425377,-36.89028700260082,100 174.86304099819313,-36.89029099613015,100 174.862847000787,-36.89032300269551,100 174.8626450016343,-36.8903570055692,100 174.8624350088011,-36.89039199870502,100 174.8622489941158,-36.890421992664585,100 174.86222500626093,-36.89042600016559,100 174.8621520028455,-36.89042700040794,100 174.8620990078075,-36.890695996219144,100 174.86166999604646,-36.890625994404004,100 174.8611750065778,-36.89054500381898,100 174.86121699507717,-36.89032699486635,100 174.86096300765104,-36.89023799795572,100 174.86093799702465,-36.8902289988668,100 174.86083799803677,-36.89019400675399,100 174.8607479957703,-36.89014499737535,100 174.86057300595675,-36.890048997247256,100 174.86043599226934,-36.88997499741831,100 174.86041299578721,-36.889956005218835,100 174.86039899404128,-36.889945003904494,100 174.86025600298646,-36.88983299392848,100 174.86011899642912,-36.889725000106836,100 174.8599699962283,-36.88960799858986,100 174.85980000563913,-36.88947399842555,100 174.85965300342505,-36.88935799993503,100 174.85951800503761,-36.88925200013357,100 174.8593850051265,-36.88914700271128,100 174.85927100395475,-36.88905699425838,100 174.8591489965436,-36.88896100541358,100 174.85911999956426,-36.888948992997314,100 174.8589279926424,-36.888867996982576,100 174.85879199194304,-36.88881099818537,100 174.85877000706174,-36.88880199274331,100 174.85895900107113,-36.8884409960776,100 174.85889700755874,-36.88841799904575,100 174.85883400361354,-36.888395995731315,100 174.8586480027778,-36.888750001556225,100 174.85845499230814,-36.88875099608361,100 174.85828799576726,-36.88875200426779,100 174.85811499279282,-36.88875200114466,100 174.85790499138858,-36.88875299195585,100 174.85770800687777,-36.88875400596292,100 174.8572759920585,-36.88875599241629,100 174.85724099438917,-36.888879006423245,100 174.8569750008013,-36.88883900619728,100 174.85690700447768,-36.8888740022713,100 174.85641199896864,-36.88878399570845,100 174.85591599290535,-36.88869400359897,100 174.85603099988887,-36.887926003376116,100 174.85607499930498,-36.88763399629849,100 174.85550399986252,-36.88755099395353,100 174.85528399416705,-36.88751899456536,100 174.85539300194085,-36.88723599692615,100 174.85567300591484,-36.88604999356455,100 174.85567600075336,-36.88603400591265,100 174.85571100826215,-36.885736005816256,100 174.85576500438432,-36.88457999266387,100 174.85573199543688,-36.88393899767986,100 174.8556179940843,-36.88315300036074,100 174.85544599388447,-36.88238000540522,100 174.85529000715383,-36.881890005794276,100 174.85513299649824,-36.8814029971899,100 174.85506300382858,-36.8811650066786,100 174.85513399108382,-36.88093099869077,100 174.85521599551836,-36.880837003919254,100 174.85522299632848,-36.88082799397941,100 174.8552290038879,-36.88081999191222,100 174.8552340083356,-36.8808099937464,100 174.85523800273174,-36.88080100461719,100 174.8552420038061,-36.88079099327787,100 174.85524499629992,-36.88078200537358,100 174.85524600741687,-36.88077199926632,100 174.8552470017102,-36.880761993421764,100 174.85524700264526,-36.88075099720844,100 174.8552459920169,-36.88074099383167,100 174.85524400612957,-36.88073199984974,100 174.85524100854772,-36.88072199956138,100 174.85523700798922,-36.880712002317466,100 174.85523299998937,-36.88070299574881,100 174.85522700393722,-36.880693993186696,100 174.85548300514517,-36.880635995608365,100 174.8554880051758,-36.88064199606862,100 174.85549400708408,-36.88064799440045,100 174.8554999995871,-36.88065300141834,100 174.85550700215762,-36.88065700029793,100 174.85551499834284,-36.88066000661857,100 174.8555229930146,-36.88066299673843,100 174.85553099736867,-36.880664996147324,100 174.8555399942153,-36.880666003014476,100 174.85570799846644,-36.880673003183794,100 174.85571999228878,-36.88067299699937,100 174.8557330063692,-36.88067300642295,100 174.85574499894688,-36.88067100201191,100 174.85575799456603,-36.880668997253714,100 174.85576999569938,-36.88066600214738,100 174.8557819953612,-36.88066299264157,100 174.85579300165833,-36.88065899277051,100 174.85580399854416,-36.88065400158501,100 174.85581500363605,-36.88064800528991,100 174.8558250053136,-36.88064199402359,100 174.85583400436224,-36.88063600022183,100 174.85584299474968,-36.88062899977165,100 174.85585100824588,-36.880620994278665,100 174.85585900416632,-36.88061300438227,100 174.85587500144698,-36.880594005055144,100 174.85589199936902,-36.88057300627149,100 174.85590800354746,-36.88055100180569,100 174.85592299655767,-36.88053000639778,100 174.8559370039879,-36.88050699839789,100 174.85595000027348,-36.88048500035757,100 174.85596300471386,-36.88046199540538,100 174.85597400421187,-36.88043899203082,100 174.85598399246126,-36.88041500127612,100 174.85599299414054,-36.880390996189895,100 174.85600199730683,-36.88036700640232,100 174.85600899520836,-36.88034300467874,100 174.85605400555673,-36.88017699796642,100 174.85608700843318,-36.88005900599089,100 174.85611300197172,-36.87996199556543,100 174.85619299770792,-36.87967200174063,100 174.8561429921941,-36.87966400501132,100 174.8561679947256,-36.879570001561056,100 174.85645099273611,-36.87959499621169,100 174.85655799555542,-36.87961199777177,100 174.85661500121205,-36.87962199493583,100 174.85670299164232,-36.879647999414075,100 174.85679100790838,-36.8796639959811,100 174.85682399475468,-36.87966700459776,100 174.85685699564942,-36.87972099568449,100 174.8568439972943,-36.879761005986474,100 174.85683600486595,-36.879784002999045,100 174.8567669988431,-36.879873995712806,100 174.85684200763313,-36.87988699582323,100 174.85687300640896,-36.87979299766172,100 174.85690499588708,-36.87969599159863,100 174.8569339970385,-36.879631995592206,100 174.85698699814913,-36.87957300535919,100 174.85704800654023,-36.87948700603514,100 174.85737900563242,-36.87959500129049,100 174.85749699734777,-36.879662997661164,100 174.85756399942295,-36.87970099283738,100 174.8576349950043,-36.87974099407636,100 174.85776400228335,-36.879814994724626,100 174.85779399259602,-36.87983199256497,100 174.8579169994459,-36.879901993047504,100 174.8580310075365,-36.87996700738986,100 174.85816999260035,-36.88004699858446,100 174.8584040001788,-36.880087004794156,100 174.85850600076242,-36.88010500579313,100 174.85863300410762,-36.880125997314735,100 174.85875599775397,-36.8801469955538,100 174.85885599360586,-36.88016499967509,100 174.8589889955109,-36.88018799344061,100 174.85912300085232,-36.88021100019542,100 174.85925700479677,-36.8802339923985,100 174.85939000729482,-36.88025700102471,100 174.85928700564995,-36.8806440044135,100 174.8595040044171,-36.88069799191867,100 174.8595559980266,-36.88050000644601,100 174.8596110007523,-36.88029499937514,100 174.8597869997918,-36.88032499307991,100 174.85999499548714,-36.88036100035794,100 174.86015899966543,-36.8803890009957,100 174.86032700562396,-36.8804180014042,100 174.8604939918828,-36.880447004022656,100 174.8606609962031,-36.880476006121604,100 174.86087300241252,-36.880512004017,100 174.86103299705488,-36.8805399959406,100 174.8612230085314,-36.88057299744359,100 174.8614410042429,-36.88061000640742,100 174.8616179995182,-36.8806410020699,100 174.86180699972402,-36.88067299817626,100 174.86198099660655,-36.88070299294244,100 174.86199999369697,-36.8807070008292,100 174.8621579926538,-36.88073400310429,100 174.86239100218936,-36.88077400262028,100 174.86257999604166,-36.88080700436852,100 174.86275299741538,-36.88083599239978,100 174.8627869992295,-36.880842001977825,100 174.86297200737118,-36.88087400293011,100 174.86315900372995,-36.880906000351075,100 174.8633210051733,-36.88093400095835,100 174.86352900504772,-36.880970001933235,100 174.86369199181746,-36.88099800099536,100 174.86389100237085,-36.88103200440807,100 174.86402400703625,-36.881054991546335,100 174.86412800411546,-36.88066799757929,100 174.8653480052619,-36.88087899229378,100 174.8653880002512,-36.88092799762688,100 174.86537500615677,-36.88123200088932,100 174.86547499596205,-36.88124899270779,100 174.8656820025592,-36.88134000170198,100 174.86618499592615,-36.87948199486589,100 174.86710000715277,-36.8795770071932,100 174.8673379993207,-36.87966800226812,100 174.8675980073584,-36.879766002873865,100 174.8676539975956,-36.8797869924366,100 174.8680250017971,-36.8797539978068,100 174.86812500095058,-36.87974500023331,100 174.86826299294205,-36.879598003352086,100 174.86844899812954,-36.87939900539122,100 174.8684959935175,-36.87934900337523,100 174.86861999894217,-36.87921600193612,100 174.86868599553478,-36.87922800513495,100 174.86924000193292,-36.879327993908745,100 174.8694999973878,-36.87896599254089,100 174.86956912216903,-36.8783014053285,100 174.86959038885698,-36.878310111854475,100 174.8696339600919,-36.87831855478873,100 174.86963838481924,-36.8783191899913,100 174.86968211634058,-36.87832716620232,100 174.86968637024515,-36.87832788160552,100 174.86972755680782,-36.87833441517087,100 174.869768658514,-36.87834418581768,100 174.8697980129291,-36.87835287587869,100 174.8698395697432,-36.87835066792601,100 174.86988117512578,-36.878337432372284,100 174.86988335436865,-36.87833685186826,100 174.86992777526845,-36.878332518544774,100 174.86993439029578,-36.87833173842951,100 174.86997750371577,-36.87832186809134,100 174.86998991775184,-36.87831753289827,100 174.87002871938896,-36.87829965272801,100 174.87002916155544,-36.87829938167943,100 174.87006215613857,-36.87827506730629,100 174.87006841104227,-36.878269228301775,100 174.87009413074907,-36.87824237673388,100 174.87012206390347,-36.87821427803384,100 174.87012616747108,-36.87821007184411,100 174.8701505228425,-36.87818390962369,100 174.8701786324478,-36.87815596316101,100 174.8701793915014,-36.87815525268429,100 174.8702075874421,-36.878127304855795,100 174.87021140486954,-36.878124017112235,100 174.87024516206705,-36.878100431573806,100 174.8702497750154,-36.878097146627944,100 174.8702801368292,-36.878070694236044,100 174.87028765223198,-36.878064833573596,100 174.87032332682523,-36.8780431358494,100 174.87032419619865,-36.87804267059829,100 174.87036249431097,-36.87802407268059,100 174.87037205051408,-36.878020143872526,100 174.87041273662473,-36.87800487930195,100 174.87041808203074,-36.87800379557303,100 174.8704627856153,-36.878002275146116,100 174.87046415158954,-36.87800229870587,100 174.8705089954397,-36.87799958359895,100 174.87055358539953,-36.87799961430618,100 174.87055491810162,-36.87799969967892,100 174.8705989829115,-36.87800593525343,100 174.87060233625726,-36.87800657376989,100 174.87064388087217,-36.878014865275766,100 174.87068491451666,-36.878029160432845,100 174.87070126926199,-36.87803514819154,100 174.87074377725204,-36.87804645835529,100 174.87076586471295,-36.87805288941761,100 174.8708062549302,-36.878068355571926,100 174.87082278426428,-36.87807570427037,100 174.8708609137397,-36.87809447872104,100 174.87089845951576,-36.87811406813669,100 174.87091317279317,-36.87812133906534,100 174.87095323693126,-36.87813750883139,100 174.870993030471,-36.878153899163514,100 174.87100396947667,-36.87815900595057,100 174.87103979654302,-36.87818025198562,100 174.87107386830274,-36.878203633856124,100 174.87110775736366,-36.87822734397262,100 174.8711183159246,-36.87823437656484,100 174.87115447126448,-36.878255555202415,100 174.8711910115235,-36.87827627710303,100 174.87120959930044,-36.87828691921674,100 174.87124541757586,-36.878308443836005,100 174.87128100154072,-36.87833025064453,100 174.87131651863072,-36.878352120686934,100 174.87134742645566,-36.87837098890132,100 174.87138294472663,-36.87839290577358,100 174.87141896527942,-36.87841425590068,100 174.8714409829966,-36.87842641856273,100 174.8714787450471,-36.878445662780614,100 174.87151754416251,-36.87846363510213,100 174.8715539307807,-36.878479295660384,100 174.8715932486396,-36.878496639672385,100 174.87163313074478,-36.87851310590375,100 174.87167370336275,-36.87852825972831,100 174.87171206376289,-36.87854084987047,100 174.87175486321038,-36.878551397059084,100 174.87179782667243,-36.87856163069057,100 174.87182724598725,-36.87857016329364,100 174.87186812064263,-36.8785849562682,100 174.87187515764842,-36.87858827132899,100 174.87191090785635,-36.87860984368381,100 174.8719162646626,-36.87861363768207,100 174.87194927021181,-36.87863790497205,100 174.8719623595355,-36.87864841007564,100 174.87199374459988,-36.87867408461924,100 174.87199762925775,-36.878677780132044,100 174.87202262980372,-36.878707655401776,100 174.8720301956108,-36.8787158554172,100 174.8720621038983,-36.87874103858648,100 174.87206725253682,-36.87874485298314,100 174.8720998108774,-36.87877106422536,100 174.87213326342805,-36.87879585079217,100 174.87217014662505,-36.87881520327334,100 174.8721786620876,-36.878818230026894,100 174.87222203997203,-36.878827140134284,100 174.87223390584708,-36.878829442595695,100 174.87227609363168,-36.878841672092776,100 174.87228868055072,-36.87884506190095,100 174.87233214444504,-36.87885400125727,100 174.87234571116167,-36.87885593439781,100 174.87239025709323,-36.878860068837945,100 174.87242491483102,-36.878860969225435,100 174.87246977814067,-36.87886087141662,100 174.8724910082042,-36.878859835565656,100 174.87253564179002,-36.87885634966483,100 174.87254847293653,-36.87885471701521,100 174.87259219315368,-36.87884681727755,100 174.87261498787086,-36.878842317283386,100 174.87265902985695,-36.878835465197504,100 174.87267337208323,-36.87883281455311,100 174.87271629909515,-36.87882243600978,100 174.87273624604174,-36.87881677761395,100 174.87277871727449,-36.87880487307834,100 174.8727896501785,-36.87880076464199,100 174.87282657790087,-36.87878068683007,100 174.87285702587883,-36.878759992802195,100 174.87289265810722,-36.87873804801761,100 174.87291900377653,-36.87872032181652,100 174.87295160530712,-36.87869556398716,100 174.87296965270025,-36.87868030483724,100 174.87299897168523,-36.87865303357432,100 174.87301124905414,-36.87864173117288,100 174.87304109310236,-36.87861661930941,100 174.87307376674562,-36.87859192340297,100 174.87307501494507,-36.878590799599436,100 174.87310027605167,-36.8785610595661,100 174.8731053061505,-36.87855404996593,100 174.87312699974873,-36.878522760914485,100 174.87314505817693,-36.87849257200902,100 174.8731613286246,-36.87847039072702,100 174.87319764158607,-36.87844931571434,100 174.8732006781244,-36.87844782301071,100 174.87322467463997,-36.878439801400766,100 174.87325180737494,-36.8784179734032,100 174.8732721480363,-36.87839867886669,100 174.87329656632642,-36.87838450174936,100 174.8733323060468,-36.87837100957326,100 174.87336804127509,-36.87835609426444,100 174.87340741290495,-36.8783433451714,100 174.87345061744594,-36.878333641589265,100 174.8734521937495,-36.878333135423645,100 174.8734870256826,-36.878316747137085,100 174.8735245908754,-36.87830110259328,100 174.873560334069,-36.87830506536333,100 174.87360450467477,-36.87831134411559,100 174.87361193740696,-36.87831266991594,100 174.87364363583455,-36.87831919672766,100 174.8736735061056,-36.87832391185718,100 174.87370383723317,-36.87833224303885,100 174.87373642656624,-36.87834423583294,100 174.87375863469802,-36.878363487587336,100 174.8737713192445,-36.87839038406832,100 174.87378674519167,-36.8784150966611,100 174.87380712690552,-36.87843324965496,100 174.8738329280461,-36.878446691563134,100 174.87385197519302,-36.87846596791993,100 174.8738737185567,-36.87848593993085,100 174.87388866819123,-36.87850773341889,100 174.87389638686574,-36.87851901343491,100 174.87390856278233,-36.87849755280291,100 174.87391622852195,-36.8784709987172,100 174.8739189315066,-36.878451360366164,100 174.87392756958118,-36.87841597688141,100 174.87393831846293,-36.878387726538676,100 174.87395458771564,-36.878354627415064,100 174.8739685781532,-36.87833318231971,100 174.87398847531057,-36.878310256007914,100 174.87401152501212,-36.878292787962856,100 174.87404095572728,-36.8782786010282,100 174.87408135472708,-36.87826295306833,100 174.87408573887757,-36.878261467926144,100 174.87412768597738,-36.87824875097529,100 174.87413912550144,-36.87824545463012,100 174.8741808690885,-36.87823226136605,100 174.87419659147074,-36.87822760494913,100 174.87423920252198,-36.87821639441538,100 174.87425477902886,-36.878212747072624,100 174.87425744085303,-36.87821212823027,100 174.87426195818745,-36.87821108893918,100 174.87426532497273,-36.87821030214419,100 174.87426908859524,-36.878208905200395,100 174.87429351687848,-36.878202765742486,100 174.8743022318588,-36.87820036862529,100 174.8743446916988,-36.87818871067828,100 174.8743448801104,-36.87818866173808,100 174.8743885910383,-36.87818045143546,100 174.87440038257557,-36.87817806255401,100 174.87444379154795,-36.87816892863024,100 174.87444423825684,-36.878168844068085,100 174.8744877239305,-36.87815995678263,100 174.87450058002693,-36.878157332072206,100 174.87454429243783,-36.878149183880666,100 174.87455162428552,-36.878148081240944,100 174.8745958771199,-36.87814202999918,100 174.8746393376657,-36.87813413541425,100 174.8746827920912,-36.87812732159913,100 174.8746947457279,-36.87812454256078,100 174.87473710932537,-36.87811253177237,100 174.87474482808386,-36.87811036756321,100 174.87478734359547,-36.87809883476613,100 174.87479661556952,-36.87809659737089,100 174.8748398732809,-36.87808697086274,100 174.8748497042351,-36.878084973407724,100 174.87489283433246,-36.87807508390471,100 174.87491499294507,-36.87806619594554,100 174.87495533930505,-36.878050517876936,100 174.87499697106446,-36.87804404817734,100 174.87499992818678,-36.87804348504664,100 174.87504223895243,-36.87803142811523,100 174.8750707897812,-36.87801733323079,100 174.87507155788668,-36.87801699482781,100 174.87511242816822,-36.878002143965745,100 174.87514821608795,-36.877986606281695,100 174.87514872779133,-36.87798638098561,100 174.87518718048278,-36.87796777728309,100 174.87522025833138,-36.877947858649655,100 174.87525424600028,-36.877929038782504,100 174.8752796344857,-36.87790982556649,100 174.87530501736316,-36.87789171385313,100 174.87531093968767,-36.87788766174717,100 174.875345346879,-36.87786452870001,100 174.87535843896666,-36.87785398743784,100 174.87539113019474,-36.87782936633753,100 174.87542557488413,-36.87781272221741,100 174.87542772779156,-36.87781180132703,100 174.87546768976378,-36.87779537114012,100 174.8755016474733,-36.877777991993966,100 174.87550744435214,-36.87777569223238,100 174.87555010084827,-36.8777642939409,100 174.87555331739418,-36.87776369605593,100 174.875597609616,-36.87775784571906,100 174.87560263160867,-36.87775693721413,100 174.87564605663016,-36.87774778727884,100 174.87565521990388,-36.87774597064965,100 174.8756990082844,-36.87773809934679,100 174.875736124016,-36.87773273000522,100 174.8757382760059,-36.87773241391298,100 174.8757827116157,-36.87772738144942,100 174.87582163175253,-36.87772674979872,100 174.8758304328294,-36.87772627103365,100 174.87587501262627,-36.877722133978885,100 174.87588171727367,-36.87772144495484,100 174.87592617004057,-36.87771642658803,100 174.87593370572134,-36.87771577040625,100 174.87597820345087,-36.87771112265603,100 174.87600943981795,-36.8777050033305,100 174.87604746313005,-36.87768908667425,100 174.87608189951433,-36.877672799421745,100 174.87608611328355,-36.87767072743039,100 174.87612402855905,-36.87765145141446,100 174.87616162845998,-36.87763263012839,100 174.87619290114122,-36.877610527883725,100 174.87622777897215,-36.87759206412822,100 174.87622938013305,-36.87759119970742,100 174.87626629610887,-36.87757070281052,100 174.87628438354585,-36.87756083155607,100 174.87632156649514,-36.87754065490288,100 174.8763221278847,-36.87754035130312,100 174.8763591858998,-36.87752002158358,100 174.8763630554253,-36.877518049658676,100 174.87639997056047,-36.87749756715533,100 174.8764239811415,-36.87747726412782,100 174.87645163553083,-36.87745878641053,100 174.87647701163007,-36.87743848974545,100 174.8765096284062,-36.87742909380116,100 174.87654947426782,-36.87741793062984,100 174.87658613163364,-36.877409656984824,100 174.8766146685745,-36.87739698694844,100 174.87664322433713,-36.87737669770663,100 174.87665955750714,-36.87735818426056,100 174.8766646156887,-36.87732983159175,100 174.87666288484752,-36.87730220267259,100 174.87666278217748,-36.87730029979439,100 174.87665890887132,-36.87726439089546,100 174.87664724135783,-36.87723163717495,100 174.87664430648633,-36.87722471899596,100 174.87662880663652,-36.87719087121283,100 174.87661758467644,-36.87716247737109,100 174.87660859723005,-36.8771381023921,100 174.87659418330944,-36.87711442602996,100 174.87657795954112,-36.877088953971764,100 174.87656267952605,-36.87705620142154,100 174.87655144317446,-36.877025979912254,100 174.87654293626645,-36.87700088438871,100 174.8765330622744,-36.876969942831025,100 174.87652680933866,-36.87693865925761,100 174.87652281367355,-36.8769135627786,100 174.87652514199755,-36.876887767028585,100 174.87653426365765,-36.876865230424684,100 174.87654969634616,-36.87684600384737,100 174.8765768779698,-36.87682861876547,100 174.8766144418292,-36.876819989193464,100 174.8766411781766,-36.87681168657425,100 174.87666291637115,-36.87680265080849,100 174.87669233818158,-36.876796532030184,100 174.8767208340087,-36.87679259736215,100 174.87673632632382,-36.87679671143789,100 174.87674076460397,-36.87682283744127,100 174.87674926390284,-36.87684509930456,100 174.8767510886714,-36.876867260203056,100 174.87675099248136,-36.87689761655218,100 174.8767522365651,-36.876928368140725,100 174.87675229143036,-36.87695086975837,100 174.87675314307012,-36.87697732191585,100 174.87676016151764,-36.87700811207527,100 174.8767658048924,-36.87704176042694,100 174.87677638296483,-36.877071898576155,100 174.87677736415307,-36.877074949384,100 174.87678860600613,-36.8771091961017,100 174.8768014238113,-36.8771397152779,100 174.87681610295357,-36.87716491967674,100 174.87682658792943,-36.87719931985507,100 174.8768273676162,-36.87720128865027,100 174.87684375696256,-36.87723416244269,100 174.8768473572702,-36.87724012281117,100 174.8768675280381,-36.87727159659001,100 174.87686832853925,-36.87727308645242,100 174.87688427269646,-36.877306105174476,100 174.87688505822848,-36.87730767098456,100 174.87690233943476,-36.877340264786866,100 174.8769029783375,-36.87734152375883,100 174.87692041280403,-36.87737405294541,100 174.87693944174828,-36.87740356544013,100 174.87696045599841,-36.87742274441975,100 174.87698043713277,-36.87744908001519,100 174.87700759081787,-36.877472254904376,100 174.87703090630868,-36.877485756118816,100 174.87705467677054,-36.87749818116853,100 174.87707824143973,-36.877523464162785,100 174.87708022215799,-36.87752641805576,100 174.87709537969943,-36.87755974571098,100 174.8770975589372,-36.87756494256898,100 174.87711158314042,-36.877598536894524,100 174.87712404662201,-36.877622960560366,100 174.87712796304777,-36.87763614905799,100 174.8771343215026,-36.877671317438946,100 174.87713569389115,-36.8776760484412,100 174.877146523364,-36.87771039627382,100 174.87714987561753,-36.87772446166077,100 174.8771567663746,-36.877759466601155,100 174.87715756425604,-36.87776662313307,100 174.8771653629343,-36.87780136405971,100 174.87718492506437,-36.87782625059792,100 174.877187067847,-36.8778307368845,100 174.8771953391095,-36.8778656704354,100 174.87720320277793,-36.87789898623831,100 174.8772065428267,-36.87791452277823,100 174.87720838921416,-36.87792142929868,100 174.87721368570098,-36.87793645271524,100 174.8772173152186,-36.877951210442596,100 174.8772244244461,-36.87796869557568,100 174.877228003996,-36.87798159556007,100 174.8772327825822,-36.87799727791575,100 174.8772386931574,-36.87801199599281,100 174.87724422540998,-36.878025513173476,100 174.87724505259095,-36.87802859615392,100 174.8772478531195,-36.87805041534052,100 174.8772537831603,-36.87806968570134,100 174.87726106285135,-36.87808712126917,100 174.8772683792759,-36.878110364393955,100 174.87727433039584,-36.87813109096147,100 174.87728077005326,-36.87815834441454,100 174.87728895652597,-36.87817542314788,100 174.87729717364243,-36.87819686921692,100 174.87731262546308,-36.87821865342636,100 174.8773226410952,-36.87823244856801,100 174.87734395845834,-36.87825386698249,100 174.87736075229054,-36.878263285432126,100 174.8773815848758,-36.8782737937517,100 174.87740288464974,-36.87828175475102,100 174.87741740141198,-36.87828752636336,100 174.8774314535228,-36.878293336863244,100 174.87744729561345,-36.87829948771565,100 174.8774631632657,-36.87830599508662,100 174.87748536171546,-36.87831395538852,100 174.87750713439013,-36.87832409190409,100 174.8775202937883,-36.878339721113555,100 174.87752712486767,-36.87835459407592,100 174.8775276381925,-36.87836914235999,100 174.87753039685572,-36.87838297105301,100 174.87753271013912,-36.878400787035346,100 174.87753184944617,-36.87841241781399,100 174.8775314442986,-36.878431334913905,100 174.87753242076315,-36.878450226573364,100 174.87753245101982,-36.87846222903831,100 174.877534758934,-36.878478588564256,100 174.8775397715402,-36.878489482974445,100 174.87755066161128,-36.87850109388534,100 174.87756381448,-36.878509444994144,100 174.8775764991863,-36.878511964718165,100 174.8775923370242,-36.878506485823095,100 174.87760455033762,-36.87850244684283,100 174.87763168623877,-36.878498025095844,100 174.87765435383366,-36.87850672244451,100 174.8776643422353,-36.878522700093306,100 174.87767164784395,-36.878542333554684,100 174.87767399620304,-36.87856849795083,100 174.87767540611588,-36.878582318213326,100 174.87767275332746,-36.878603783731045,100 174.8776741439161,-36.87861686070594,100 174.87767239814767,-36.87863541412857,100 174.87766928168128,-36.878657599922576,100 174.8776625708698,-36.87867980106498,100 174.87765947119996,-36.878701985691855,100 174.87765498268314,-36.87871945670902,100 174.87765592259206,-36.87872416389426,100 174.87764966733172,-36.87875365135606,100 174.87763934522832,-36.87878420176201,100 174.87763218681985,-36.87880713914856,100 174.87762093486222,-36.87883078207478,100 174.87761107193163,-36.87886171188936,100 174.8776057188119,-36.87888937162492,100 174.87759674495123,-36.87891738962745,100 174.87759091535028,-36.87893448074788,100 174.87758374742768,-36.878957030712066,100 174.87757612206207,-36.8789799601526,100 174.87756940163882,-36.87899925106354,100 174.87755727053,-36.879028733140174,100 174.87755098954932,-36.87904764305515,100 174.87754424668515,-36.87906803393551,100 174.87753933940044,-36.879089847839744,100 174.87752901371152,-36.87911897239654,100 174.8775218521112,-36.879143706166786,100 174.87751738445365,-36.8791677123545,100 174.87751247080072,-36.879187342448226,100 174.87751071302375,-36.879204811763614,100 174.87751257873154,-36.879223363087796,100 174.87751718497972,-36.87924735025334,100 174.87752493598956,-36.879266248411675,100 174.87753495439972,-36.879283310789354,100 174.87754770037225,-36.879307294595044,100 174.87755497490718,-36.87932327458136,100 174.87756232095404,-36.87935271201785,100 174.87756465062117,-36.8793756391501,100 174.87755474948665,-36.87939236738868,100 174.8775453062853,-36.879411302042634,100 174.8775381012022,-36.87942803003274,100 174.877532251109,-36.879441124999644,100 174.87751105348312,-36.87946190656159,100 174.87749569982645,-36.87947575741153,100 174.87747584455914,-36.879497613763625,100 174.87746051689408,-36.87951435925336,100 174.87744110213538,-36.879533312681765,100 174.877418528645,-36.87955371578279,100 174.87739955414582,-36.87956467020063,100 174.877383746489,-36.879577072571585,100 174.87734643682467,-36.879597050567156,100 174.87734623123947,-36.87959713132989,100 174.87732091670748,-36.8796062606952,100 174.87729831543396,-36.87961540486426,100 174.8772707246295,-36.87962344263208,100 174.87725262752122,-36.879627846755184,100 174.87722685167313,-36.87963591532052,100 174.87720739918635,-36.8796406842588,100 174.87717936214048,-36.87964690207161,100 174.87716081318757,-36.879650585951495,100 174.87713005204026,-36.87965900456809,100 174.87710606985473,-36.87966050655618,100 174.8770743849237,-36.87966093508968,100 174.8770293329086,-36.879657925351985,100 174.87702232429905,-36.87965885358966,100 174.8770019871279,-36.87966543281275,100 174.87698435984777,-36.87967638030049,100 174.87697264075933,-36.87968911279973,100 174.87695955059175,-36.8797055101149,100 174.87695326297606,-36.87971971158305,100 174.87694652254652,-36.87973571924927,100 174.87693705871416,-36.87975391058925,100 174.87692442507063,-36.87978849843489,100 174.87692269800783,-36.87979430411413,100 174.87691776839216,-36.8798114107266,100 174.87691468891433,-36.87983433860738,100 174.8769129147712,-36.87985252021921,100 174.87690932458233,-36.879867419055664,100 174.87689222207618,-36.87989073072412,100 174.87687597274146,-36.87990530859406,100 174.87685654880556,-36.87992206374265,100 174.87684162910992,-36.87993082598464,100 174.87682583109813,-36.87994358325222,100 174.87679736940643,-36.879960372112485,100 174.87678292466475,-36.87997203722149,100 174.87676213511227,-36.879985532205474,100 174.87674362069552,-36.880000118801306,100 174.8767196734951,-36.88001506341884,100 174.8767065843728,-36.88002380754156,100 174.8766907884597,-36.88003729393008,100 174.8766686474219,-36.88005516454766,100 174.87664922939646,-36.8800708352759,100 174.87663251398678,-36.88008030996428,100 174.8766212194272,-36.88008834342661,100 174.8766076694082,-36.88009599790702,100 174.87659366661038,-36.88010802735803,100 174.87658418489957,-36.88011531742979,100 174.8765665863596,-36.88013244208273,100 174.8765575420989,-36.880141194401716,100 174.87654358955234,-36.880158302919575,100 174.8765318479849,-36.88017470682707,100 174.87652509998034,-36.88018853067957,100 174.87651790126418,-36.88020163428197,100 174.87651024584065,-36.880215102022575,100 174.87650351998482,-36.88023038116351,100 174.87649720944793,-36.88024566816502,100 174.87648732112905,-36.8802660509861,100 174.8764769615988,-36.88028244657804,100 174.87646116003162,-36.88029955635149,100 174.87643860563747,-36.88031814640404,100 174.87642367415933,-36.880323269231226,100 174.8763983345477,-36.8803276749561,100 174.87637298241086,-36.88033028543447,100 174.8763503496788,-36.880329951591605,100 174.8763276982242,-36.88032380990323,100 174.87631137631402,-36.88031585482281,100 174.87629778061137,-36.88030968006249,100 174.8762841880704,-36.880301708910345,100 174.87626877537548,-36.880291569975114,100 174.87625335631054,-36.88028250010963,100 174.87623927745724,-36.880271253106564,100 174.8762170729034,-36.880258568832424,100 174.87620389278587,-36.88024732295353,100 174.87618304574684,-36.88023500209904,100 174.8761653648718,-36.880226668271916,100 174.8761413570812,-36.880220163102045,100 174.87612644062648,-36.880227825588,100 174.87611560591017,-36.88023622218537,100 174.8761007280548,-36.88025807091126,100 174.87609214914121,-36.88026681494522,100 174.87608088865687,-36.88027991236301,100 174.87606870497382,-36.88029595186195,100 174.87605923654442,-36.88030759327895,100 174.8760502323065,-36.88032362402723,100 174.87604168484162,-36.88034181524774,100 174.87603494347016,-36.88036036191059,100 174.87603187326087,-36.88038620180421,100 174.8760264893881,-36.88040511189494,100 174.87602199830133,-36.88042185462183,100 174.87601843855262,-36.88043786789062,100 174.87601757131367,-36.88045313831076,100 174.876012205074,-36.880474603378126,100 174.87601088464035,-36.88048840999276,100 174.8760068628761,-36.88050333274345,100 174.87600328585557,-36.88051680635112,100 174.8759997239239,-36.88053534426445,100 174.87599253672386,-36.880552087203476,100 174.87598711313092,-36.88056373504425,100 174.87598217822227,-36.88057682990598,100 174.8759722629363,-36.880591761898856,100 174.8759564763011,-36.880608159324105,100 174.87594247713386,-36.88062162895947,100 174.87593076059116,-36.88063512023323,100 174.87591541415458,-36.8806485994229,100 174.87590140017429,-36.88065444858626,100 174.8758765334001,-36.88066612493254,100 174.87586253880752,-36.8806752428903,100 174.87585169208216,-36.88068255626137,100 174.87583451860635,-36.88069239499695,100 174.8758186988111,-36.880701156904124,100 174.8758006153854,-36.88070737225608,100 174.87577843939692,-36.88071177025941,100 174.87574722975282,-36.880717656573005,100 174.8757259713563,-36.88072278096735,100 174.87570017808594,-36.88072827890303,100 174.87568796911717,-36.880728661849524,100 174.87566442532426,-36.88072979970416,100 174.87564812834535,-36.880729835285464,100 174.87561599783288,-36.88073426604315,100 174.87559702164475,-36.88073682706751,100 174.8755807243459,-36.88073941790053,100 174.8755356746663,-36.880740976382135,100 174.87552143797754,-36.88074244767712,100 174.8754804529588,-36.88075692915653,100 174.8754707912675,-36.880760722137936,100 174.87544818371347,-36.880768394195684,100 174.8754301052296,-36.88077862030924,100 174.8754170155481,-36.8807899213596,100 174.87540119150285,-36.880805575710035,100 174.87538721615658,-36.88081796061131,100 174.8753777497165,-36.88083290079263,100 174.8753619579912,-36.88085038161321,100 174.87535294437015,-36.88086094592278,100 174.87534030936712,-36.88087624978149,100 174.87532769640214,-36.880896261811976,100 174.87531734255225,-36.88091157292178,100 174.87530202894516,-36.88094103290616,100 174.8752948303262,-36.88095415175733,100 174.87528495067872,-36.88098325376078,100 174.8752795937229,-36.88100763083028,100 174.87527198262114,-36.88103237156449,100 174.8752647974143,-36.881054937889026,100 174.87526124688748,-36.881077115150845,100 174.8752567682121,-36.881092401112795,100 174.87525004600565,-36.88111678711317,100 174.8752478446103,-36.881136416664546,100 174.87524247530558,-36.8811596934094,100 174.8752357643232,-36.88117935538829,100 174.87523221457636,-36.88120408789255,100 174.8752309572289,-36.88123245170148,100 174.87523732825423,-36.88124953128603,100 174.87525414894688,-36.88127787381626,100 174.87526327085888,-36.88129310912851,100 174.87527598308137,-36.88130944326345,100 174.8752900531308,-36.881321061863204,100 174.8753105023958,-36.88134358042926,100 174.87532909656093,-36.881362089439804,100 174.8753445417923,-36.881379150155,100 174.8753591016536,-36.881400562920845,100 174.87537229204327,-36.881418004435005,100 174.87538815924506,-36.88143470155813,100 174.87540722632986,-36.881449562639226,100 174.87542401189165,-36.881464448017894,100 174.8754367290883,-36.88147969866355,100 174.87544673079935,-36.881491681611344,100 174.8754445182092,-36.88150768711469,100 174.8754341653418,-36.88152625109951,100 174.87541794101946,-36.88154627959114,100 174.87540167058245,-36.88155758939299,100 174.8753731900501,-36.88156855385578,100 174.87534153873017,-36.881579883829986,100 174.87531620396751,-36.88158574579313,100 174.87528861864368,-36.88159271495272,100 174.87525830832735,-36.881601853346254,100 174.8752379557652,-36.881609160786724,100 174.8752094699014,-36.881618670556655,100 174.8751827919805,-36.881625995812975,100 174.8751574621448,-36.88163586765866,100 174.87513167481467,-36.881643549290466,100 174.87509823793602,-36.881655963737025,100 174.87507244894329,-36.88166802762342,100 174.87504759609857,-36.88168153056531,100 174.87501597455469,-36.881693944277394,100 174.87498837468988,-36.88170490917018,100 174.87496486437342,-36.8817162367394,100 174.8749309482471,-36.88173011524424,100 174.87491422767087,-36.88173559420405,100 174.87488982352974,-36.881745838051835,100 174.874870838263,-36.881753865641244,100 174.8748409659364,-36.881756831955315,100 174.87481605793988,-36.88175032721048,100 174.87479789629595,-36.88174019000983,100 174.8747870159519,-36.881728933821,100 174.8747747391022,-36.88171076487679,100 174.8747642884368,-36.881696249023555,100 174.87475064806443,-36.88168137069988,100 174.87474247580258,-36.88167119842599,100 174.87472838816157,-36.88165450107388,100 174.8747184065611,-36.8816432451165,100 174.8747093218425,-36.881634529359275,100 174.87468663597772,-36.8816033617195,100 174.87468523894734,-36.88160220843789,100 174.87466981316564,-36.88159350982122,100 174.87465439683416,-36.88158262804458,100 174.87464167942343,-36.881569932572965,100 174.87462851304156,-36.88155722976354,100 174.87460945554596,-36.88154271000683,100 174.87458907495989,-36.88153295119253,100 174.87456685334712,-36.88152608944106,100 174.87454964349416,-36.8815217444183,100 174.87452747028044,-36.88151924791335,100 174.87450300083006,-36.88151745912376,100 174.87447265860774,-36.88151643898819,100 174.87444779177326,-36.8815172117135,100 174.87441654268764,-36.881516546573394,100 174.8743943888501,-36.88151984435557,100 174.87437763463714,-36.88152280006087,100 174.87435229771364,-36.88152793358253,100 174.87433011888774,-36.88152906225797,100 174.87430251908873,-36.881529109242344,100 174.87427808162616,-36.881534273623366,100 174.87425229457236,-36.881539398903065,100 174.8742215214828,-36.88154163658011,100 174.87417944957366,-36.881547897555826,100 174.87416179664706,-36.881550853889344,100 174.87414597929788,-36.881560327585056,100 174.87412472625783,-36.88156692437657,100 174.87409125861302,-36.88158079376496,100 174.8740582433281,-36.88158957704191,100 174.874030188104,-36.8815907307641,100 174.87401029363963,-36.88159768916677,100 174.8739849621773,-36.88160754636845,100 174.8739696071735,-36.88161303159534,100 174.8739388420666,-36.881623262924585,100 174.87391488223756,-36.88163204212205,100 174.87389996320888,-36.88163897700403,100 174.87388640733073,-36.88164517472998,100 174.87386289441523,-36.881655759432014,100 174.87384843773944,-36.88166380015092,100 174.87382313818128,-36.88167803995852,100 174.87380506020563,-36.8816915178009,100 174.87379288604816,-36.881700263399615,100 174.87376984589207,-36.88172068940446,100 174.87374860236991,-36.88173089218045,100 174.87371968787915,-36.88174950002099,100 174.87371800779508,-36.88175062884053,100 174.87369839804833,-36.88176373063848,100 174.87368753262695,-36.88177612397739,100 174.87366941115394,-36.8817918179423,100 174.87366760898954,-36.88180383579085,100 174.87364631424228,-36.88181915167198,100 174.87363862527383,-36.88182755521639,100 174.87362097372855,-36.88184723643468,100 174.87361280895033,-36.88185852901768,100 174.87359604137762,-36.88187384289109,100 174.87358201322598,-36.881886244640455,100 174.87357203494568,-36.88189499794725,100 174.8735521258134,-36.881911048170544,100 174.87353987958159,-36.881921621866205,100 174.87352901163882,-36.881935842216365,100 174.87351904353926,-36.881944966704125,100 174.87350909188646,-36.88195407560915,100 174.87349232335154,-36.88196356692407,100 174.87348327457386,-36.88197413164911,100 174.87345518661266,-36.88199966298859,100 174.87344795487908,-36.88201350962224,100 174.8734429605105,-36.88202956436961,100 174.8734316662131,-36.882048515278875,100 174.873421716596,-36.882063447605226,100 174.8734126641776,-36.88208350603825,100 174.87340406302076,-36.882095906006626,100 174.8733981870942,-36.88210683259525,100 174.8733864220936,-36.882124337086026,100 174.87337510187453,-36.882142917052896,100 174.87336517319616,-36.88216187526297,100 174.87335565004284,-36.882177914896374,100 174.8733461497705,-36.88219287077559,100 174.87333800585876,-36.88221071384078,100 174.8733316998006,-36.882232598307255,100 174.8733307921512,-36.88224316082619,100 174.87332765791257,-36.88226283840439,100 174.87331544021384,-36.882287255978696,100 174.87329915052206,-36.882313867594114,100 174.8732914756041,-36.88233501743232,100 174.87328605764304,-36.88235651384201,100 174.87328334593963,-36.88236744911461,100 174.8732824677558,-36.882376554627314,100 174.87328157449832,-36.88238127813583,100 174.87327751766531,-36.88240388244171,100 174.87327706634855,-36.88241663609573,100 174.87327710088616,-36.882427554201406,100 174.87327530392676,-36.88244359908152,100 174.87327349187152,-36.88245526105647,100 174.87327170929535,-36.88247056301794,100 174.87327036983118,-36.88248113234538,100 174.87326858115387,-36.88250261298534,100 174.87326951116174,-36.88252304036954,100 174.87326864161827,-36.88254269304996,100 174.8732672985738,-36.882555090320686,100 174.87326598678578,-36.882590439337505,100 174.87325968687742,-36.88261703132259,100 174.8732560859963,-36.88264181144629,100 174.87325564502854,-36.882663299676345,100 174.87325177482916,-36.8826992821072,100 174.87325118122934,-36.882707406996914,100 174.87325168806925,-36.882735816877485,100 174.87325171235648,-36.8827540295667,100 174.87324946489008,-36.88277262238459,100 174.87325268587492,-36.88279593573766,100 174.87325088530628,-36.88281633317147,100 174.8732454886773,-36.88283930110547,100 174.8732426577544,-36.88287534195719,100 174.87324144301792,-36.88288669977893,100 174.8732396464374,-36.88290018939561,100 174.87323602627566,-36.882921701617924,100 174.87323334211968,-36.8829413874176,100 174.87322610004978,-36.88295486195317,100 174.87322200882218,-36.88297238693114,100 174.87321341241957,-36.882988797706346,100 174.87320979512154,-36.88300592764106,100 174.87320437788838,-36.88302488500208,100 174.8731989434758,-36.88304130270026,100 174.8731926086749,-36.88305443845072,100 174.87318855708043,-36.8830734022183,100 174.87318494146555,-36.88309381565206,100 174.87317815404904,-36.88310877020164,100 174.87317453333495,-36.883121903714574,100 174.87318226597645,-36.88314012194325,100 174.87319180833464,-36.8831594382913,100 174.8731954856897,-36.88318494368103,100 174.87320094612028,-36.8832111915871,100 174.87320459520893,-36.88322796358432,100 174.8732100581044,-36.883252383564084,100 174.87321418961562,-36.883270990261764,100 174.8732178358344,-36.88328957306518,100 174.87323052446362,-36.88332432185377,100 174.87323922854387,-36.88335226357415,100 174.87324106828254,-36.88336795186598,100 174.87324472303274,-36.883383623254495,100 174.87324428775148,-36.883401487165465,100 174.8732402144678,-36.88341386980216,100 174.8732338817111,-36.883427732891256,100 174.87322481189918,-36.88344777626016,100 174.87322120709834,-36.883455086964794,100 174.87321123442445,-36.88346857931961,100 174.87320487501356,-36.88347951532451,100 174.87319672754197,-36.88349593344026,100 174.87319493751653,-36.88351671737355,100 174.8731995139909,-36.88354223742631,100 174.87320315613138,-36.883554270366346,100 174.87321222653952,-36.88356630063255,100 174.87322859998483,-36.88358961839911,100 174.87325313613505,-36.883611834016165,100 174.87326405276556,-36.883625674769156,100 174.8732799566831,-36.88364245000492,100 174.8732958418916,-36.88365919398708,100 174.8733081300673,-36.88367778111552,100 174.8733122329239,-36.88368763729778,100 174.87331678247912,-36.8837051206564,100 174.8733195217251,-36.88371569686834,100 174.87333985013115,-36.883747866352415,100 174.8733579413713,-36.88377076673694,100 174.8733705963995,-36.883783060431625,100 174.8733755823328,-36.883794295232086,100 174.87338326919624,-36.88380117730381,100 174.87340403082527,-36.8838109447284,100 174.87342300724643,-36.88382690716638,100 174.87343565169394,-36.88384138402913,100 174.87344695883425,-36.88385949358864,100 174.87345241394985,-36.883879779299654,100 174.8734538001501,-36.883902984576295,100 174.8734560798653,-36.88392473634599,100 174.87344798381966,-36.883941789100696,100 174.87344213993015,-36.883955179406634,100 174.87343448908612,-36.88397079924369,100 174.87342232281043,-36.883984933702486,100 174.87339976604144,-36.883992573033275,100 174.87337631377738,-36.883995846043675,100 174.87335283719077,-36.88398861990144,100 174.8733302729045,-36.88398828441657,100 174.87330545157974,-36.88398502997706,100 174.87328467724402,-36.8839767183757,100 174.8732679672764,-36.883966585997634,100 174.87325350867798,-36.8839579007947,100 174.87324042221957,-36.88394558414739,100 174.8732268520254,-36.883930736094634,100 174.87321737205238,-36.88391696191639,100 174.87321102125864,-36.88390065614638,100 174.8732033297367,-36.88388398665154,100 174.87319878812872,-36.88386549638378,100 174.87319649511338,-36.88384521758241,100 174.87319016058254,-36.88382562802845,100 174.87318427544017,-36.88380606203298,100 174.8731657250017,-36.883790494829995,100 174.87314680520024,-36.883789428553065,100 174.8731350715456,-36.8837984934203,100 174.8731269650531,-36.88380938125744,100 174.8731224605079,-36.88382243767021,100 174.87311750791483,-36.8838362140954,100 174.87311123124158,-36.883846359230134,100 174.8730981563818,-36.88385761292758,100 174.87308552919077,-36.883868131294584,100 174.87307291998783,-36.8838761256673,100 174.87305621394177,-36.88387832061572,100 174.87302778789828,-36.88387471104849,100 174.87299525998134,-36.88386059541055,100 174.8729713478612,-36.883851934840344,100 174.87294966708816,-36.88384651990734,100 174.8729271110275,-36.883840733003225,100 174.87290769108725,-36.88383458118711,100 174.87288692007598,-36.8838219016425,100 174.87286750829446,-36.8838153945691,100 174.87284086928273,-36.88379982865037,100 174.8728223291037,-36.8837846325769,100 174.87278847811666,-36.8837676120393,100 174.87276274158486,-36.883758581802496,100 174.8727406192926,-36.883747722578555,100 174.87271262569294,-36.88374086855886,100 174.87267877855928,-36.88373617534851,100 174.87266480891617,-36.88374561792153,100 174.87263502090292,-36.88374853459073,100 174.8726129099298,-36.88375798021057,100 174.87258811813226,-36.88375836470392,100 174.8725741049321,-36.88374567682247,100 174.87256777350552,-36.883732638013086,100 174.8725596336335,-36.883721768356466,100 174.87254021574856,-36.88372143990696,100 174.87250413454618,-36.88372363102956,100 174.8724847343773,-36.88372655427187,100 174.87247751637705,-36.88373707203771,100 174.8724811409661,-36.88375229506621,100 174.8724843308731,-36.883769336609156,100 174.8724834437866,-36.88378708505988,100 174.8724776054146,-36.883799421584825,100 174.8724573101976,-36.88380630943782,100 174.87243115148968,-36.88381178179117,100 174.87238737196427,-36.883806022855,100 174.87236524718296,-36.88379951609775,100 174.8723544201319,-36.883791542375185,100 174.8723426517404,-36.88377814940051,100 174.87232910142336,-36.88376148836458,100 174.87232005206405,-36.88374953431067,100 174.8723060459186,-36.883736490262436,100 174.87229564523045,-36.883726356549204,100 174.87227985101347,-36.883716224017554,100 174.872261333076,-36.883710799668755,100 174.87223562502257,-36.88370862885165,100 174.872209449932,-36.88371154615805,100 174.87218056475322,-36.883710128434146,100 174.87216027486045,-36.88371594808254,100 174.87213273358012,-36.88371562140257,100 174.8720889839158,-36.8837231654407,100 174.87207949289677,-36.88372436685615,100 174.87204385279875,-36.88372367025312,100 174.87201183471802,-36.883729135704286,100 174.8719906244411,-36.88373094541178,100 174.87196355095898,-36.88373387772254,100 174.87193693673223,-36.88373461887995,100 174.87191121955044,-36.88373464736928,100 174.8718751138178,-36.88373468632347,100 174.87184711787512,-36.88373287955532,100 174.87182139546798,-36.88373145336904,100 174.87179750190813,-36.88373691783254,100 174.87176907144604,-36.88374019956275,100 174.8717415568355,-36.883746020309545,100 174.87169828194976,-36.88375513584498,100 174.87168334802118,-36.88375767132115,100 174.87164637535713,-36.883762046619616,100 174.87162154424462,-36.88376932306144,100 174.87159537529698,-36.8837744240466,100 174.87157600163513,-36.883780227358,100 174.87156235260235,-36.88378686072974,100 174.87155376817918,-36.88379091223109,100 174.871520497748,-36.88380248573106,100 174.87149594029344,-36.88380837970964,100 174.8714742462623,-36.88381468824888,100 174.87144629063033,-36.8838240012994,100 174.87141547524695,-36.88382983341083,100 174.87139186823217,-36.88383766196141,100 174.87136055861652,-36.883845034998295,100 174.8713580160128,-36.88384622604383,100 174.87133321663333,-36.88385788416829,100 174.87131019518384,-36.88386625959609,100 174.8712908895941,-36.88387655399305,100 174.87125410717024,-36.883898286594885,100 174.87121701691603,-36.883912419555074,100 174.8712126231285,-36.883914214802296,100 174.87120862225038,-36.88391583441126,100 174.87118134691684,-36.88392796864749,100 174.8711580985385,-36.88394074698813,100 174.8711387553024,-36.883950282136674,100 174.87111678137174,-36.88396162892038,100 174.8710899955489,-36.883975891565996,100 174.87106799978898,-36.8839851034456,100 174.87104243394225,-36.88399400200789,100 174.87101241922673,-36.88400262362454,100 174.87097260561703,-36.88401767188489,100 174.87097101050915,-36.88401814857122,100 174.8709275275708,-36.8840246803021,100 174.87092323203086,-36.88402627209457,100 174.87090788773915,-36.8840353972152,100 174.87089344630235,-36.88404593220837,100 174.87087633152933,-36.88405542861323,100 174.87085127353507,-36.88406647240227,100 174.87083591255393,-36.88407629359952,100 174.87081088568036,-36.8840891188097,100 174.87079210982154,-36.88410434314434,100 174.87076277468734,-36.88412472259785,100 174.8707403797843,-36.88413643286704,100 174.8707161919731,-36.884147089775944,100 174.870692458746,-36.88415917893762,100 174.8706651832846,-36.88417131486152,100 174.87065165582496,-36.884181832729254,100 174.87063245092853,-36.88419777764463,100 174.87061670473727,-36.88420869007524,100 174.87060047592422,-36.88421959658359,100 174.87059086954014,-36.88422614365396,100 174.87056070068,-36.88424831810635,100 174.87054761928985,-36.88426060995689,100 174.87052122120045,-36.88427132055789,100 174.87049710535177,-36.88428589525119,100 174.87046870950587,-36.8843090918069,100 174.8704552245912,-36.8843224589727,100 174.87043340757057,-36.884340244931586,100 174.8704023832294,-36.88436529992932,100 174.8704010970513,-36.884366344085436,100 174.87037026714242,-36.884391551041524,100 174.8703652981442,-36.884395709575486,100 174.870334979746,-36.88442132578253,100 174.87031907400694,-36.88443591178346,100 174.87029236574702,-36.88446403541067,100 174.87028559498077,-36.88447059459611,100 174.8702547990139,-36.88449581631093,100 174.87024542216233,-36.88450253009059,100 174.870211069293,-36.884524669378926,100 174.87020775235146,-36.88452728226333,100 174.87018342494562,-36.88455328902688,100 174.8701831106706,-36.88455379060469,100 174.8701594714256,-36.88458546938435,100 174.87015003778095,-36.884598456372046,100 174.87012325006393,-36.88462935278751,100 174.87010954509475,-36.884642259196646,100 174.870074679491,-36.884667163671494,100 174.87004834155772,-36.884684625949824,100 174.8700170262695,-36.88471041369956,100 174.86999316385447,-36.88472738363028,100 174.86997719519826,-36.88473902775025,100 174.86994562478233,-36.88476433999263,100 174.86994020653427,-36.88476917256143,100 174.86991231881825,-36.88479711457664,100 174.8698866129385,-36.884826507625604,100 174.86987990478931,-36.88483411855045,100 174.86985495077528,-36.88486383865608,100 174.86983122386,-36.884894186593186,100 174.86983114090336,-36.884894281636754,100 174.86980897277343,-36.88492542343702,100 174.86978603287793,-36.884956114099616,100 174.86976830529062,-36.884977531004346,100 174.8697405584074,-36.88500554827731,100 174.8697151745392,-36.8850237679023,100 174.86968276738997,-36.88504822707231,100 174.86967145518094,-36.88506203675557,100 174.8696492910935,-36.88509330284585,100 174.86962859804288,-36.885115002549945,100 174.86960032575354,-36.88514278199816,100 174.8695938852491,-36.8851488095733,100 174.86956834917964,-36.88517808992054,100 174.86955860498566,-36.88520328569147,100 174.8695584076842,-36.88520366104387,100 174.86953515467926,-36.88523426465149,100 174.8695122904487,-36.88526328121205,100 174.86948817742407,-36.88529345038671,100 174.86947276028894,-36.88531400617517,100 174.86944973413355,-36.885344712552744,100 174.86942558593884,-36.88537482187964,100 174.86941319322725,-36.885388958598355,100 174.86938632593024,-36.88541758115865,100 174.86935826318413,-36.885445449188055,100 174.86933457918354,-36.885465839414195,100 174.8693040208802,-36.88549218560638,100 174.86927719642145,-36.885520497412536,100 174.86926837479666,-36.88553310155245,100 174.86924898843995,-36.88556546493772,100 174.86923135457567,-36.88559552219408,100 174.86921079300942,-36.88562727133525,100 174.86920689226102,-36.88563258834055,100 174.86918234115961,-36.88566251738441,100 174.86916111467085,-36.8856855900084,100 174.8691352634413,-36.88571475174173,100 174.86911593626908,-36.88574480678219,100 174.8690953271744,-36.885776727001996,100 174.86907791983083,-36.885795923309814,100 174.869051495739,-36.88582497055716,100 174.86903063564841,-36.88585653869164,100 174.86901333099854,-36.88588984181599,100 174.8690077670669,-36.88590209634331,100 174.86899394510394,-36.8859363595621,100 174.86897923258914,-36.8859703159188,100 174.86897905208667,-36.88597064413704,100 174.86895971861364,-36.88600306883519,100 174.86893932216236,-36.88603515603322,100 174.8689232865425,-36.88605976392516,100 174.86890618477895,-36.88609287816907,100 174.86890279251227,-36.88610492366838,100 174.86889531339096,-36.88614047242267,100 174.86888331766508,-36.88617131430957,100 174.8688675637762,-36.886205086040256,100 174.86885660768223,-36.886230845220425,100 174.8688423137705,-36.886264947298464,100 174.86882849059793,-36.886299166351925,100 174.86882343360185,-36.88631164363466,100 174.86880999363365,-36.886345979237596,100 174.86879771792155,-36.886380573229964,100 174.86879602037854,-36.88638619355854,100 174.8687862489342,-36.88642133311308,100 174.86877548517418,-36.88645622599184,100 174.8687703024987,-36.886468519576425,100 174.86875590421977,-36.88650257821945,100 174.86875284598838,-36.88651226419839,100 174.86874323076916,-36.886547415712705,100 174.86873870437358,-36.88656034882707,100 174.86872717635038,-36.88659509959751,100 174.86872507088682,-36.886605481732936,100 174.8687197743176,-36.88664122507748,100 174.86871613126453,-36.886661947966964,100 174.86870740023258,-36.88669719282643,100 174.8686968121847,-36.88672576464503,100 174.8686795760024,-36.886759035998445,100 174.86867795666984,-36.88676183575026,100 174.86865659558234,-36.88679339727946,100 174.86863273532322,-36.88682397962072,100 174.86861195177912,-36.88685198534311,100 174.86858714059798,-36.8868819030346,100 174.86858137243883,-36.886887856887185,100 174.86855340090946,-36.88691595583731,100 174.86853515796514,-36.886936884939026,100 174.86851322098113,-36.88696825540741,100 174.86850738558434,-36.8869794145647,100 174.86849190842074,-36.887013227860336,100 174.86849057427062,-36.88701566710054,100 174.8684720789893,-36.887048432756494,100 174.86846355113886,-36.88706684035497,100 174.86845275387677,-36.887101749053464,100 174.86845092148022,-36.88711458930871,100 174.86844886510806,-36.88715060074447,100 174.86844831452004,-36.88716101790566,100 174.86844320695803,-36.88719669607263,100 174.8684392672066,-36.88720700069771,100 174.86842187527648,-36.88724028978623,100 174.86841737130132,-36.88725023374186,100 174.86840271211642,-36.88728423425403,100 174.86831446952226,-36.887267969701846,100 174.86830374119248,-36.88731703441442,100 174.86830029296112,-36.8873436840438,100 174.86830057257174,-36.88735022957485,100 174.86828758951458,-36.88738808932348,100 174.868284420531,-36.887399449891255,100 174.86827612194674,-36.88745207898265,100 174.86827574839373,-36.887465202741424,100 174.8682735815851,-36.887479101902066,100 174.86826468154385,-36.887505537132114,100 174.86825845526482,-36.88751953709183,100 174.86824495911637,-36.88754537131537,100 174.86824088230097,-36.88755640726141,100 174.86823815326775,-36.88756740398394,100 174.86823737990326,-36.88759326524552,100 174.86823513629702,-36.887604980801434,100 174.86822075967527,-36.887630830672194,100 174.8682117473601,-36.88764345395753,100 174.86819481864478,-36.8876624713592,100 174.8681767575589,-36.88768695958302,100 174.8681602319999,-36.8877048863456,100 174.8681352643835,-36.887749580923234,100 174.86812816166838,-36.88776505210177,100 174.8681224677544,-36.887780869766566,100 174.86811473587488,-36.88779161257342,100 174.8681032944449,-36.887800654330434,100 174.86809460222378,-36.88781034506972,100 174.8680908713788,-36.887818819412296,100 174.8680993808324,-36.88787174569049,100 174.8681014772402,-36.88787898821707,100 174.8681010471971,-36.88794596162042,100 174.86809960564048,-36.88795983224683,100 174.86809360837398,-36.887973378835134,100 174.8680857871354,-36.88798588874089,100 174.8680734745387,-36.88801848590104,100 174.86806810214492,-36.888054586429575,100 174.86805943476256,-36.8880871199546,100 174.86805168099684,-36.888102168730676,100 174.86804158112224,-36.888132187551676,100 174.86803851226642,-36.8881536900485,100 174.86803477674934,-36.888166485414246,100 174.86803373240903,-36.88817777831316,100 174.86803581345438,-36.88818830370746,100 174.86804119743613,-36.88820276822752,100 174.86804202758637,-36.88821694022427,100 174.8680400787305,-36.88822933344376,100 174.86803912535697,-36.8882446349066,100 174.8680398550969,-36.88825445688565,100 174.8680553020448,-36.88832366375816,100 174.86805480397226,-36.88833858581371,100 174.86806609222222,-36.88848972992725,100 174.86806607703153,-36.8885071996447,100 174.8680673839512,-36.888521734587364,100 174.86806556287442,-36.88853886406213,100 174.86806100973666,-36.888555312737104,100 174.86805123639323,-36.88857948673882,100 174.86804003222048,-36.88860185895906,100 174.8680285162233,-36.8886293465938,100 174.86802289177263,-36.888640006680966,100 174.86801821082045,-36.88865171819812,100 174.8680125843271,-36.888661650046444,100 174.86799047591776,-36.88868348259092,100 174.8679702481299,-36.888707110741144,100 174.8679643499249,-36.88872431063689,100 174.86796250883623,-36.888740712154096,100 174.86796391338478,-36.88875888511208,100 174.86796804297208,-36.88877809500555,100 174.86796985773486,-36.88879482119558,100 174.86797770242475,-36.88883395954607,100 174.86797855216608,-36.888848843280506,100 174.86797775450995,-36.88886998197652,100 174.8679782034823,-36.88888669989981,100 174.86796995035522,-36.8889686934103,100 174.86795603777912,-36.88902533692353,100 174.86793898428192,-36.88906673524516,100 174.86793396247967,-36.889082464816596,100 174.8679248847504,-36.88911644599991,100 174.86791892877886,-36.889148220321914,100 174.86791391561948,-36.8891643048785,100 174.86790428414204,-36.88921175425074,100 174.867898376093,-36.88922859827406,100 174.86788523167954,-36.88927974694025,100 174.86787289351227,-36.88936218233128,100 174.86786633189618,-36.88942159538293,100 174.8678674286239,-36.889463050794,100 174.86786910856296,-36.88947539596162,100 174.86786961745565,-36.88949429685172,100 174.86787130442596,-36.889506285885396,100 174.86787061681346,-36.88956559755721,100 174.86787579179958,-36.88960698162818,100 174.86788463371076,-36.88966650037618,100 174.86788963624434,-36.889683496409006,100 174.8679089621661,-36.88972791804983,100 174.86792630853068,-36.889782921722485,100 174.86792847505063,-36.889795985704716,100 174.86793175683997,-36.8898512177507,100 174.86793048313177,-36.88987197726114,100 174.86792740273444,-36.88989241096107,100 174.86792644785905,-36.88990769802211,100 174.8679132760204,-36.889958507319214,100 174.86790890862432,-36.889981844594075,100 174.86791253453652,-36.890066573387166,100 174.86791799121303,-36.89011849942285,100 174.86792254715252,-36.89013623074567,100 174.8679326903018,-36.890158619683405,100 174.86793627456888,-36.890174926869655,100 174.8679396115885,-36.890197433649405,100 174.86794523185074,-36.89022135655858,100 174.86795380760879,-36.89027031775756,100 174.8679660821854,-36.89030575590146,100 174.8679713416556,-36.890316210580465,100 174.86797988568622,-36.89032989262691,100 174.86798518401287,-36.89034180323479,100 174.8679887144942,-36.89035484396281,100 174.8679926771719,-36.890384603775125,100 174.86798800814987,-36.890413428552286,100 174.86797825731404,-36.89045579993443,100 174.86796928657273,-36.89047704912462,100 174.8679197279455,-36.890558672756235,100 174.86790132431736,-36.89058262642997,100 174.86787309027682,-36.89061258698168,100 174.86785176250865,-36.89063005472946,100 174.86783672586608,-36.890644872801204,100 174.86782000492778,-36.89066332896301,100 174.86781158936216,-36.89067112525393,100 174.86779663204655,-36.89068956720091,100 174.86776443834108,-36.89072396411737,100 174.86775203152806,-36.890735082351206,100 174.8677159488152,-36.8907771818341,100 174.86770756151145,-36.89078604664441,100 174.86769968040423,-36.89079638977937,100 174.86768289709192,-36.89081376260946,100 174.8676785417575,-36.89082088485499,100</coordinates></LinearRing></outerBoundaryIs>
    </Polygon>
  </Placemark>

  <Placemark>
    <name>Point England</name>
    <Point>
      <altitudeMode>relativeToGround</altitudeMode>
      <coordinates>174.86470343050567,-36.883957180074134,100</coordinates>
    </Point>
  </Placemark>

</Document>
</kml>