<?xml version="1.0" encoding="utf-8"?>
<kml xmlns="http://www.opengis.net/kml/2.2">
<Document>
  <name>Randwick Park (polygon: official_shp)</name>
  <open>1</open>

  <Placemark>
    <name>Randwick Park (polygon: official_shp)</name>
    <Style>
      <LineStyle><color>ffff0000</color><width>2</width></LineStyle>
      <PolyStyle><color>66ff0000</color><fill>1</fill><outline>1</outline></PolyStyle>
    </Style>
    <Polygon>
      <tessellate>1</tessellate>
      <altitudeMode>relativeToGround</altitudeMode>
      <outerBoundaryIs><LinearRing><coordinates>174.90953400092891,-37.01929500692874,100 174.90954361964498,-37.01931173257178,100 174.9096754787127,-37.019530127782375,100 174.90980213423666,-37.01982954973916,100 174.91023343306853,-37.01978925481748,100 174.91036008304422,-37.01958156466812,100 174.9104944789782,-37.019492617718605,100 174.91079458161641,-37.01937862692129,100 174.91076107825333,-37.01944799709981,100 174.9108531800822,-37.01961514881514,100 174.9110857916035,-37.0195327507,100 174.91113120502897,-37.019615161409,100 174.91131057226843,-37.019551622277426,100 174.91148995717626,-37.019488082592765,100 174.91171762819195,-37.019407413135845,100 174.91189411347804,-37.019344900187996,100 174.911835068969,-37.01923775062924,100 174.91205306714016,-37.019160502736035,100 174.9121338566229,-37.019259927254765,100 174.91226212093991,-37.01921448109818,100 174.91234391556213,-37.01918549898043,100 174.9124263623384,-37.01915630440237,100 174.9124014676371,-37.01911110440766,100 174.9125245505876,-37.019067389975596,100 174.91259648497487,-37.0190418960514,100 174.91281233992868,-37.01896542940814,100 174.91271013832073,-37.01877996541622,100 174.91292806455755,-37.018702671128636,100 174.9130325441915,-37.018892228855734,100 174.913248397465,-37.01881572990868,100 174.91332033174132,-37.018790250873955,100 174.91344142761073,-37.01874734627191,100 174.91361329740337,-37.01868646088231,100 174.91363447425226,-37.01867896205819,100 174.91379842172842,-37.0186208963805,100 174.91382748683003,-37.018610578083106,100 174.9139834262744,-37.018555364169465,100 174.9140205844396,-37.01854219242531,100 174.91416846493752,-37.018489815800294,100 174.91421357947206,-37.0184738090129,100 174.91435346844256,-37.018424267712824,100 174.91440660783076,-37.018405423850666,100 174.91453848806526,-37.01835870285629,100 174.9145996526851,-37.01833703811137,100 174.9147235092972,-37.018293170135024,100 174.9147926466228,-37.01826865288298,100 174.91490856234643,-37.01822757442487,100 174.91498567350214,-37.01820025058871,100 174.91517799776875,-37.018132126111304,100 174.91523369850972,-37.01826858777425,100 174.91544836182715,-37.018211913754264,100 174.91566313006817,-37.018155268298834,100 174.915490517501,-37.01773445689511,100 174.9154829093957,-37.01771597599429,100 174.9155854363715,-37.017679158999464,100 174.9155952000405,-37.017696734431205,100 174.91567795808874,-37.017844935556646,100 174.91574408851002,-37.01796334225354,100 174.91581023674294,-37.018081778364156,100 174.91587685703306,-37.01820101076959,100 174.9159434266248,-37.018320274595865,100 174.9160100681048,-37.01843961743472,100 174.91612265942467,-37.01864118456296,100 174.91630722371508,-37.018574851899494,100 174.91639991900206,-37.01854189464872,100 174.91648157163706,-37.01851223061118,100 174.91663539618347,-37.01845698791301,100 174.91678922011508,-37.01840172970531,100 174.91694302737116,-37.01834648779308,100 174.91709686920427,-37.01829124422347,100 174.91715478831168,-37.01827119977975,100 174.9172506932158,-37.018236016066574,100 174.91741482287924,-37.01817712139892,100 174.91761990850895,-37.018103438414535,100 174.91782501130757,-37.018029783643364,100 174.9180208589124,-37.01795953094796,100 174.91803011445847,-37.01795611409481,100 174.91823523446126,-37.01788246014629,100 174.91844035403253,-37.01780880495246,100 174.91864550766175,-37.01773513443611,100 174.91885060841622,-37.01766147794339,100 174.91905570990806,-37.01758782198917,100 174.91926082745863,-37.017514150102166,100 174.91946594460026,-37.01744047787085,100 174.91967106176378,-37.017366822412924,100 174.9199019116764,-37.017283910215006,100 174.91992387276704,-37.01727599380384,100 174.92013464910977,-37.01720728423312,100 174.9204299959197,-37.01780000223676,100 174.92122799560013,-37.01754200381501,100 174.92289799220808,-37.01701200762076,100 174.92308699211665,-37.01706700395312,100 174.92337999653535,-37.01766499156352,100 174.92371099344754,-37.01834000288683,100 174.9239890085028,-37.01890399777717,100 174.9240530033807,-37.01903299930938,100 174.92438299467628,-37.019700004120914,100 174.92470799413005,-37.02037099960038,100 174.92503700011403,-37.02104200023765,100 174.92536500295756,-37.02171100530646,100 174.92570000433636,-37.02239300240164,100 174.92612599443552,-37.02225700075318,100 174.9275889920251,-37.02178899488535,100 174.92764299546806,-37.02177200396629,100 174.92881400031894,-37.02140199741825,100 174.9289949932233,-37.021344999131024,100 174.92955200354524,-37.02116799437534,100 174.93029399331493,-37.02093300259311,100 174.93032999738162,-37.02092199954246,100 174.93156126387325,-37.02053747779029,100 174.93204400874174,-37.02151800210331,100 174.9320770013392,-37.02158499988938,100 174.93259700211624,-37.022643995566625,100 174.9324320037831,-37.02288299913825,100 174.93267200187353,-37.02341500696313,100 174.93244300746386,-37.02349699537133,100 174.93198800197442,-37.023158993440724,100 174.93204300359,-37.022881006413975,100 174.93150100845475,-37.022601005409825,100 174.93009599249245,-37.023216998694394,100 174.92943500605776,-37.02355399943146,100 174.92863599855787,-37.02329899424792,100 174.92822299616756,-37.02316699838859,100 174.9280809932112,-37.02382900513461,100 174.9275409980957,-37.023594003026915,100 174.92695600794417,-37.02394199484504,100 174.9268810019067,-37.02398599782901,100 174.9269020086276,-37.02402799688163,100 174.9269339930787,-37.02409499807213,100 174.92693300341966,-37.02409800465444,100 174.92693299636474,-37.02410399840023,100 174.92693299243484,-37.02410700158875,100 174.92693199136858,-37.02411400561264,100 174.92693600892989,-37.024129002843075,100 174.92694199914433,-37.02414399597008,100 174.92694799416907,-37.02416100341941,100 174.9269549929047,-37.02417800718228,100 174.92696199238026,-37.02419499561057,100 174.92696299222823,-37.02419799781569,100 174.92696599563655,-37.02421200657158,100 174.9269700051724,-37.02422299315519,100 174.92697600018755,-37.024239999701614,100 174.9269770011604,-37.02424300188831,100 174.92698700255613,-37.02425899158308,100 174.92699100272574,-37.024264001811666,100 174.92700500052715,-37.02427800141368,100 174.92701499854775,-37.02428700610208,100 174.92703099414817,-37.024299994438074,100 174.92704800254097,-37.02431200373311,100 174.9270580002069,-37.02432099400272,100 174.92707500860863,-37.024333003293584,100 174.9270790051001,-37.02433599917803,100 174.92709800086428,-37.02434600594353,100 174.9271000019335,-37.024346992803615,100 174.9271160054908,-37.02435900489284,100 174.92713000330997,-37.02437300357778,100 174.92713199834824,-37.02437499728498,100 174.92714700749482,-37.0243880034327,100 174.92714800517376,-37.02438900659265,100 174.92716099888366,-37.02440299274459,100 174.92716999210447,-37.02441200112487,100 174.9271829966226,-37.02442699294706,100 174.92719099650532,-37.02443699356892,100 174.92720499439832,-37.02445099404588,100 174.92721499689364,-37.02446199772252,100 174.9272269965711,-37.02447699234492,100 174.92723399162935,-37.0244869966702,100 174.92724699656026,-37.02450200380023,100 174.92725100276766,-37.02450600627043,100 174.92726300245937,-37.02452100088869,100 174.92726600603424,-37.02452500522697,100 174.92727700085015,-37.024540001748804,100 174.92728299182113,-37.02454999444386,100 174.9272939974459,-37.024565996636724,100 174.92730399938492,-37.02458200341845,100 174.9273060052353,-37.02458500279523,100 174.92731500188702,-37.0246009952647,100 174.92732400007608,-37.02461700393179,100 174.9273320027004,-37.024634005780094,100 174.92733500529133,-37.02464299701314,100 174.92734000597906,-37.02466099670055,100 174.92734299426667,-37.02467200166496,100 174.92734600431527,-37.02469000575431,100 174.92734700431794,-37.02469799483381,100 174.92735199572073,-37.02471500414508,100 174.92735499440536,-37.02472699856509,100 174.92735599437177,-37.02474499385295,100 174.92735700671264,-37.024754004803505,100 174.9273610025519,-37.02477200729633,100 174.92736200681097,-37.02477700670172,100 174.92736399476547,-37.02479499855518,100 174.92736500173135,-37.024806999197594,100 174.92736499789456,-37.02482499457108,100 174.92736500597772,-37.024829006116086,100 174.92736399730083,-37.02484700519753,100 174.9273640005643,-37.024849002420346,100 174.92736300016313,-37.02486599461768,100 174.92736299298798,-37.02486700058255,100 174.92735699776333,-37.02488499596083,100 174.9273570086117,-37.02488600343546,100 174.92734799656225,-37.02490200638963,100 174.92734500115975,-37.02490699957661,100 174.9273330079203,-37.02492099690857,100 174.9273190060489,-37.02493499893371,100 174.92730299187252,-37.024946992211824,100 174.92729999248968,-37.02495000440988,100 174.9272849928501,-37.024963000570175,100 174.92727100896303,-37.02497700319888,100 174.9272629947137,-37.02498400670096,100 174.92724800554385,-37.024997995916685,100 174.92724100257274,-37.02500400507943,100 174.92722600295804,-37.025017003034606,100 174.92721399985504,-37.02502500688494,100 174.92719699875565,-37.025037002663375,100 174.92719399895535,-37.02503999864223,100 174.9271780019787,-37.02505200694641,100 174.9271620057336,-37.02506399991452,100 174.92716100086759,-37.02506400271997,100 174.9271479929818,-37.025076995347035,100 174.9271320064259,-37.025089994903375,100 174.92712800287813,-37.02509299366761,100 174.92711100163189,-37.02510000255581,100 174.92708899327667,-37.025104993660975,100 174.9270870014988,-37.025104998077666,100 174.92706600660446,-37.02511099388504,100 174.92705700605543,-37.02511299767388,100 174.9270359943019,-37.02511899374986,100 174.9270350073904,-37.02511899536128,100 174.92701400645456,-37.0251259980073,100 174.92701100336618,-37.02512699585785,100 174.92699100013562,-37.02513500256158,100 174.92698699330313,-37.025136003197325,100 174.92696500180568,-37.02514099490712,100 174.9269609938489,-37.02514199556026,100 174.92693899516723,-37.02514799323027,100 174.9269290005175,-37.0251510045852,100 174.92690800674336,-37.025157001247955,100 174.9269029950184,-37.02515800378332,100 174.9268820012401,-37.02516400044158,100 174.92687900569393,-37.025164006738756,100 174.92686100680092,-37.02517499840833,100 174.92685799765042,-37.02517700220186,100 174.92684499186527,-37.0251919938407,100 174.92684500268433,-37.02519300041458,100 174.9268369953831,-37.02520900143137,100 174.92682499484377,-37.02522400558123,100 174.92682200545318,-37.02522799280933,100 174.9268079941461,-37.02524100440231,100 174.9267930079703,-37.02525200300691,100 174.92677800820704,-37.025265000007565,100 174.92677400463594,-37.025267998760434,100 174.9267580082811,-37.02527999167676,100 174.926741997119,-37.02528899612799,100 174.9267219998534,-37.02529599594048,100 174.9267200016463,-37.02529699188306,100 174.9267009993171,-37.02530800072806,100 174.92669499640922,-37.025311995438884,100 174.92667899349482,-37.02531999209684,100 174.92666100461577,-37.02533200564566,100 174.92665600772008,-37.02533599843597,100 174.9266460059833,-37.025345004414135,100 174.92663800202146,-37.02535299733265,100 174.92662799965365,-37.025367006423664,100 174.92660900292225,-37.02537699219026,100 174.92660500688763,-37.02537899938753,100 174.9265900065955,-37.02538699417065,100 174.9265710042475,-37.02539800389677,100 174.9265630042145,-37.02540299362224,100 174.92654999869748,-37.0254179996458,100 174.92654500541997,-37.02542400497075,100 174.92653100331137,-37.025438006908516,100 174.92652299935057,-37.025446000720706,100 174.92650899723395,-37.02546000265606,100 174.92650499692922,-37.02546500042549,100 174.9264929962395,-37.025480002742306,100 174.9264919957555,-37.02548200364821,100 174.92648399765542,-37.02549899591989,100 174.92648199664092,-37.0255029959297,100 174.92647500381855,-37.02552000161768,100 174.9264739994108,-37.025525006612725,100 174.9264680039067,-37.02554300105073,100 174.92646599141642,-37.025550996699764,100 174.92645899215933,-37.02556899391885,100 174.92645800136395,-37.02557200141677,100 174.92645399800804,-37.02559000586251,100 174.92645299963854,-37.02559400400965,100 174.9264489926532,-37.025609995916184,100 174.92644300471116,-37.02562699970378,100 174.92643999749563,-37.025641006939445,100 174.9264379919887,-37.025658001031644,100 174.9264379924513,-37.025663003226846,100 174.92643899220096,-37.02568099762467,100 174.92643900301502,-37.02568200419868,100 174.92643900286993,-37.02569699458575,100 174.9264410079052,-37.025715002400574,100 174.9264439961884,-37.02573099426769,100 174.92644900315472,-37.025748001560665,100 174.92645099757613,-37.025754998392664,100 174.9264550015533,-37.02577199403357,100 174.92645499765294,-37.02577499902367,100 174.9264540067138,-37.02579299690828,100 174.92645400393704,-37.02579600188013,100 174.92645299501936,-37.02581400005665,100 174.92645300480996,-37.02581999442906,100 174.92645300181493,-37.025833002908286,100 174.92645299779633,-37.02585099918589,100 174.92645300432346,-37.025854995434166,100 174.9264549924677,-37.02587300171995,100 174.92645500654578,-37.02587600641804,100 174.92645900183433,-37.02589399272575,100 174.92646000281158,-37.025896994915975,100 174.92646400243484,-37.02591199335101,100 174.92646600746116,-37.02593000026354,100 174.92646599711176,-37.02593399588452,100 174.9264659930973,-37.025951992161765,100 174.92646400159143,-37.02596700407253,100 174.92646200689913,-37.02598500473829,100 174.92645899327167,-37.026000004406754,100 174.92645499593814,-37.026017002004295,100 174.92644800268076,-37.026033992375034,100 174.92644799661778,-37.02603499832177,100 174.92644299118294,-37.026050002396474,100 174.92643800043837,-37.02606300715402,100 174.92643199519844,-37.026079994997936,100 174.92643200488905,-37.02608100159013,100 174.92643099728588,-37.02608899533967,100 174.92642799770377,-37.02610699880447,100 174.92642699718778,-37.02610899880898,100 174.92642699699053,-37.02611900321695,100 174.92642799346237,-37.02613499858848,100 174.92642700253867,-37.026152997373075,100 174.92642600464774,-37.026161998615635,100 174.92642399912913,-37.026178992706676,100 174.92642299517436,-37.0261889998959,100 174.92642399549425,-37.02619700429926,100 174.92641999173983,-37.02621499432839,100 174.92641599545894,-37.02622700592826,100 174.92640899891268,-37.02624199817291,100 174.9264020060134,-37.026259003857,100 174.92640099794366,-37.02626199541143,100 174.92639400177842,-37.02627700297105,100 174.92638499982178,-37.02629399801806,100 174.92638000216454,-37.026302992110466,100 174.92637200547173,-37.02631999967308,100 174.92637199187902,-37.02632199807083,100 174.9263680048887,-37.026335000945664,100 174.92636400754327,-37.02635199944124,100 174.92636399392762,-37.02635399693805,100 174.92636399746794,-37.0263710025656,100 174.92636499459596,-37.0263819957243,100 174.92636800404006,-37.02639499764351,100 174.9263700010496,-37.026408993911936,100 174.92637199592153,-37.026420992038005,100 174.9263760031112,-37.026434998924366,100 174.9263819977299,-37.02644700329896,100 174.92639200576326,-37.02646200240271,100 174.92639699724134,-37.026469005542815,100 174.92640499300703,-37.02648199768717,100 174.92640600422044,-37.026495995542966,100 174.92641000384705,-37.026510993076855,100 174.92641299581265,-37.026528998381735,100 174.92641300660426,-37.02653000405469,100 174.9264120011349,-37.02653999594591,100 174.92640300670502,-37.02655599944429,100 174.92639499920202,-37.02657200133543,100 174.92638599507467,-37.026586998240525,100 174.92637799358317,-37.02660199238211,100 174.9263720022947,-37.026616998042165,100 174.92636800169868,-37.026631999314496,100 174.92636200602027,-37.026645006868414,100 174.92635499976134,-37.026658993419055,100 174.92634899801482,-37.026673006919054,100 174.92634299112984,-37.02668499258245,100 174.92633399666948,-37.02670099607612,100 174.9263269935449,-37.0267119920686,100 174.92631699531356,-37.026727998341855,100 174.92631700612677,-37.026729004915744,100 174.92630700635792,-37.026744994989784,100 174.92630500094253,-37.02674699779224,100 174.92629200344518,-37.02676099690821,100 174.92628799263542,-37.02676500341352,100 174.92627699662052,-37.02678000381469,100 174.92626899575754,-37.02678999573679,100 174.92625899638062,-37.026806002023854,100 174.9262580030178,-37.02680699516126,100 174.9262469998478,-37.02682300332667,100 174.9262460053837,-37.026823997383154,100 174.92623700436934,-37.026836004622204,100 174.9262279915046,-37.026851993084776,100 174.9262280023167,-37.026852999658686,100 174.92621999867853,-37.02686599745029,100 174.92620999925916,-37.02688200283267,100 174.92620600531234,-37.02689099413877,100 174.92620400014223,-37.02690800444277,100 174.92620000273564,-37.02692500293316,100 174.9261949946568,-37.02693799263941,100 174.9261950078306,-37.02695600395769,100 174.926195008281,-37.02696100615231,100 174.92619299514405,-37.02697899178942,100 174.9261920045496,-37.02699700588731,100 174.92619199699595,-37.02699799743737,100 174.92619400199817,-37.027016004352404,100 174.92619500282322,-37.02703399783038,100 174.92619300366863,-37.02705000038547,100 174.92619000400234,-37.02706800384418,100 174.9261889959149,-37.02707099539697,100 174.926185992989,-37.02708700073164,100 174.92618399776313,-37.0270999991977,100 174.92617999432343,-37.02711800543582,100 174.92618000470276,-37.02711899489208,100 174.92617699415683,-37.027131004897804,100 174.92617499249852,-37.0271449948955,100 174.92617500634373,-37.027158004000576,100 174.92617699363345,-37.02717099277793,100 174.9261810029448,-37.027186996910345,100 174.9261829984862,-37.02719399282568,100 174.92618999693372,-37.02720599532889,100 174.92619200194318,-37.02722400224323,100 174.9261930029298,-37.02722700443487,100 174.9261940037596,-37.02724499791217,100 174.92619499326233,-37.02725199574256,100 174.9261959945028,-37.02727000543645,100 174.9261960081637,-37.027272993917485,100 174.92619600450914,-37.027291006409406,100 174.92619600342735,-37.0272959924053,100 174.92619700466912,-37.02731400209903,100 174.92619699711568,-37.02731499364906,100 174.9261980076369,-37.027333993718095,100 174.92619800482996,-37.02733699778857,100 174.9262010067374,-37.027350991259766,100 174.92620300094256,-37.027367991599476,100 174.92620499946594,-37.02738200316617,100 174.92620799103986,-37.02739999315836,100 174.92621100050528,-37.02741299507906,100 174.92621200173056,-37.027431003871264,100 174.9262120082489,-37.02743500011888,100 174.92621399529332,-37.02745300732381,100 174.92621499952077,-37.027458006737916,100 174.926218995999,-37.02747599393111,100 174.92622099733478,-37.02748700142677,100 174.92622300195222,-37.027504992122644,100 174.92622299590977,-37.02750599897015,100 174.92622299185442,-37.027523995244515,100 174.92622299444423,-37.027530995580655,100 174.92622600437258,-37.02754899969457,100 174.9262269971431,-37.0275579956479,100 174.9262279951386,-37.02757400721657,100 174.9262279982511,-37.02759099662498,100 174.9262310038456,-37.02760700443486,100 174.92623300801492,-37.02761999293604,100 174.92623200773926,-37.027637000440365,100 174.92623099548138,-37.02765299958726,100 174.92623100571603,-37.02766399615243,100 174.92622999417216,-37.02767499488888,100 174.92622900310715,-37.02768800589019,100 174.92622699818847,-37.02769999776396,100 174.92621899763722,-37.02771000590088,100 174.92621200802785,-37.02771900439143,100 174.92619999963122,-37.02772499472966,100 174.9261860009188,-37.027731005668684,100 174.9261629971803,-37.027732002900365,100 174.92614199567353,-37.02772900100548,100 174.92612299635599,-37.02772199818314,100 174.92610799685377,-37.02771500161369,100 174.9260950020992,-37.02771100355436,100 174.9260839955366,-37.02770000257559,100 174.92606599677592,-37.02769099974176,100 174.92604499202844,-37.02768599970538,100 174.92602399332853,-37.02767999281766,100 174.92601200027622,-37.02767399563008,100 174.92599899476906,-37.027668992787824,100 174.92598399271975,-37.02765499586539,100 174.9259820080436,-37.027653993399625,100 174.92596099893473,-37.0276469952422,100 174.92595700670532,-37.027645998331984,100 174.92594099518863,-37.02764499738034,100 174.92592599502868,-37.027643002999696,100 174.92590399905237,-37.02764099421481,100 174.92589900512914,-37.02764199642052,100 174.9258769919933,-37.027645005432944,100 174.92587500086222,-37.02764499359622,100 174.92585399914785,-37.027651996957886,100 174.9258530050322,-37.02765300542625,100 174.92583400766014,-37.027662991985196,100 174.9258309984317,-37.0276649975573,100 174.92580999666203,-37.027671999109565,100 174.92579799539396,-37.02767199656386,100 174.92578100104961,-37.027683000607425,100 174.9257739941097,-37.02768699715242,100 174.92575499710526,-37.02769699901498,100 174.925751000928,-37.027699006186864,100 174.92573199308848,-37.02770800057096,100 174.92573099973012,-37.027708994605256,100 174.9257109945664,-37.027717001131265,100 174.92570699800007,-37.02771899298594,100 174.92569000250813,-37.02772999703531,100 174.92567499561366,-37.02773899856331,100 174.92565499155958,-37.027747005061975,100 174.9256529932749,-37.027748000988424,100 174.92563500396943,-37.02775499596799,100 174.925614004985,-37.02775899341575,100 174.92561200708622,-37.02776000465731,100 174.9255929967042,-37.02776199958333,100 174.92557299265772,-37.02777000696949,100 174.92557099437133,-37.0277710028946,100 174.92555300111994,-37.027781002852194,100 174.92555100281024,-37.02778199787606,100 174.92553199497095,-37.02779099403109,100 174.92551299579014,-37.0277989977139,100 174.9254930085574,-37.02780700391251,100 174.92548700215193,-37.02780900044378,100 174.925470007731,-37.0278200044447,100 174.92546699695342,-37.02782199380949,100 174.92544800745935,-37.027831004975546,100 174.92544399400208,-37.02783299619434,100 174.9254239991896,-37.02784199393191,100 174.92541899806955,-37.02784400298386,100 174.9254030005925,-37.027850994439575,100 174.92538400025884,-37.02785899812068,100 174.9253639961411,-37.02786700457189,100 174.9253550044876,-37.02786999861693,100 174.92538500186853,-37.02793900267272,100 174.9251740069881,-37.02799699267455,100 174.92506300570375,-37.02803200063479,100 174.9247700075432,-37.02811099332096,100 174.9244699997689,-37.02816700235525,100 174.92416499284548,-37.02819999326733,100 174.9238569934993,-37.028210005573385,100 174.92354899602813,-37.028195006934986,100 174.92324500368898,-37.02815699911839,100 174.92294600411464,-37.02809599678451,100 174.92265600573685,-37.02801099945009,100 174.92237799806946,-37.02790500241302,100 174.92211300539694,-37.02777800628191,100 174.92071100143843,-37.027029005942794,100 174.92050100761634,-37.02691499918043,100 174.9202959949375,-37.02679700156748,100 174.92009500060368,-37.0266740084438,100 174.91989899421577,-37.026545998728714,100 174.91970500593857,-37.02641199212613,100 174.91954699406924,-37.02633799464489,100 174.91937600789183,-37.02628699261149,100 174.9191960027237,-37.02626000173536,100 174.9190130031337,-37.02625999524156,100 174.91883199835013,-37.026284004652595,100 174.9187330036415,-37.026313001807395,100 174.91852800129166,-37.02639300454609,100 174.91851499635118,-37.02639800528072,100 174.91826800310716,-37.02654399931375,100 174.91805400634087,-37.02670099233593,100 174.9178610071793,-37.026875995943215,100 174.91769300012047,-37.02706500608309,100 174.9168389927464,-37.02811799779599,100 174.9158280063536,-37.029362999893245,100 174.91505300335365,-37.03031799991859,100 174.9147559980117,-37.03068299233396,100 174.91456599918453,-37.03089400682645,100 174.91434699784222,-37.03109199844669,100 174.91410400612853,-37.0312709925641,100 174.91384200015187,-37.03142800656324,100 174.9136650079331,-37.031513994314984,100 174.91355900041202,-37.031566000571786,100 174.9132610086525,-37.03167900026336,100 174.91295099442414,-37.03176800494268,100 174.91263099211437,-37.031832002899385,100 174.9109620087105,-37.03209499865191,100 174.91075400624436,-37.03211899281112,100 174.9105440068486,-37.03212700719008,100 174.9103679962227,-37.032125996181875,100 174.9097433601612,-37.0316252385613,100 174.9097449977941,-37.03157199587264,100 174.90974199599557,-37.03153899895935,100 174.90974600850708,-37.031518005284134,100 174.90974800207374,-37.03140900157949,100 174.90974500647224,-37.03129299488597,100 174.90973699502234,-37.03106999726996,100 174.90973000482228,-37.03085900023002,100 174.90972299500004,-37.03064600531733,100 174.9097150029875,-37.03041300293823,100 174.9097040087018,-37.03007700239749,100 174.90969899529367,-37.02991399564391,100 174.90969100295882,-37.029664003741836,100 174.90968500726999,-37.02949799523935,100 174.90967899920972,-37.02932399510652,100 174.90967799802937,-37.02826100741612,100 174.90969300888057,-37.02722299457711,100 174.90970000824444,-37.02665500337477,100 174.9097040021092,-37.02637799208643,100 174.9097069983202,-37.02616299368084,100 174.90971299115841,-37.025744997654854,100 174.9097059954574,-37.02547699238451,100 174.90970300670452,-37.024678993155916,100 174.90970100060605,-37.02422700527876,100 174.90969600051903,-37.02377000566786,100 174.90969400611098,-37.023599001584415,100 174.9096919959071,-37.02343499725064,100 174.90969000258167,-37.02327099264098,100 174.90968600691943,-37.02294199212351,100 174.90968499637233,-37.0227929927566,100 174.9096740018635,-37.02181000121445,100 174.90958899286412,-37.02116400042246,100 174.90958399863428,-37.02112399185364,100 174.90951500072623,-37.02059000645075,100 174.90927900521865,-37.019995005706775,100 174.9092590011409,-37.01992100456621,100 174.9091199965559,-37.019769005574254,100 174.9090939990569,-37.01971699435708,100 174.90897200270462,-37.019497000405416,100 174.90953400092891,-37.01929500692874,100</coordinates></LinearRing></outerBoundaryIs>
    </Polygon>
  </Placemark>

  <Placemark>
    <name>Randwick Park</name>
    <Point>
      <altitudeMode>relativeToGround</altitudeMode>
      <coordinates>174.91805661847883,-37.023823924519434,100</coordinates>
    </Point>
  </Placemark>

</Document>
</kml>