<?xml version="1.0" encoding="utf-8"?>
<kml xmlns="http://www.opengis.net/kml/2.2">
<Document>
  <name>Red Hill (polygon: official_shp)</name>
  <open>1</open>

  <Placemark>
    <name>Red Hill (polygon: official_shp)</name>
    <Style>
      <LineStyle><color>ffff0000</color><width>2</width></LineStyle>
      <PolyStyle><color>66ff0000</color><fill>1</fill><outline>1</outline></PolyStyle>
    </Style>
    <Polygon>
      <tessellate>1</tessellate>
      <altitudeMode>relativeToGround</altitudeMode>
      <outerBoundaryIs><LinearRing><coordinates>174.97234299324603,-37.063755995648755,100 174.97338799601678,-37.06547000308703,100 174.97342799278223,-37.065537002343156,100 174.9745800018785,-37.06742599888305,100 174.97493300001108,-37.06800600561983,100 174.97542699931904,-37.06881499672124,100 174.97547699529315,-37.068896000418334,100 174.9759020023613,-37.06873300102032,100 174.9764670082656,-37.06851699273826,100 174.9766260048022,-37.06845499634091,100 174.97698399739448,-37.06831799380664,100 174.97716600086355,-37.06824800444594,100 174.97718300130614,-37.06824199600623,100 174.9774609918284,-37.06813599904286,100 174.97761499562273,-37.06807700476159,100 174.9776499963569,-37.068063000868165,100 174.97766699599103,-37.06805700769513,100 174.97793800836297,-37.06795299527852,100 174.97830700669917,-37.067811993672805,100 174.9784149980929,-37.06777099679893,100 174.97857200322554,-37.06771100125685,100 174.97860599932292,-37.06769700032919,100 174.9789130075738,-37.06758000139778,100 174.9791649998139,-37.067482992975144,100 174.97890799373425,-37.06703299913303,100 174.9788650031523,-37.06695899471962,100 174.97963499949824,-37.06696599979537,100 174.980505004384,-37.0677919937728,100 174.9812446952528,-37.06737191721068,100 174.98097897685696,-37.066973071841765,100 174.98085993758227,-37.06678557005499,100 174.9807078153144,-37.06656487759277,100 174.98072931898844,-37.066556385195355,100 174.98129915886355,-37.06680710255558,100 174.9815817945188,-37.06676670941023,100 174.98180370197235,-37.066733664826955,100 174.98203140078488,-37.06672634841638,100 174.98225082043112,-37.066788580558665,100 174.98250691519905,-37.0662158700342,100 174.9842380455505,-37.06729730687481,100 174.98429534046141,-37.06729110169642,100 174.9844414843431,-37.06700558256444,100 174.9843739914237,-37.06673443882523,100 174.98411599935156,-37.06655400199635,100 174.98431999249328,-37.0663249925455,100 174.98459999948224,-37.06617900037137,100 174.98501199905246,-37.06574599503632,100 174.9848459914756,-37.065312996986755,100 174.9847359954826,-37.06430599959937,100 174.98489599896553,-37.064058992284764,100 174.98519399326096,-37.06377899581464,100 174.9855380046891,-37.064147005559654,100 174.98556499214462,-37.064175998599744,100 174.9872230013326,-37.065949005965756,100 174.9873149962052,-37.0659160066669,100 174.9874359957049,-37.06633099340553,100 174.98731899728045,-37.06655299457505,100 174.98734299795308,-37.06666799892997,100 174.98734400048875,-37.06667400540282,100 174.98733600073754,-37.066675995224195,100 174.98732699597255,-37.06667800279066,100 174.98731900784568,-37.06668099824814,100 174.98731000310312,-37.06668300671424,100 174.98730200332645,-37.0666849956325,100 174.9872929997071,-37.06668700407848,100 174.98728499359063,-37.06668999983521,100 174.98727600641,-37.06669199178131,100 174.98727300258992,-37.066692992077485,100 174.98726500321087,-37.06669499630839,100 174.98725599285027,-37.06669799627614,100 174.98724799236945,-37.06670000142566,100 174.98723899994778,-37.06670299928892,100 174.98723100059016,-37.06670500441848,100 174.98722200706646,-37.066708003200205,100 174.98721400618393,-37.06670999303237,100 174.98720499579588,-37.06671299209545,100 174.98719700808346,-37.06671600376096,100 174.98719100039207,-37.066718002547546,100 174.98718200686514,-37.06672100132632,100 174.98717400188815,-37.066723997957816,100 174.9871659957628,-37.06672699370674,100 174.98715800130702,-37.06673099689423,100 174.9871499952038,-37.066733993543,100 174.98714200746332,-37.06673700430403,100 174.98713399459473,-37.06674099157539,100 174.98712699430314,-37.06674400110888,100 174.98712400844266,-37.066745000199056,100 174.9871159959954,-37.06674900368525,100 174.98710899527913,-37.06675199700172,100 174.98710100079413,-37.06675599928462,100 174.98709299468587,-37.066758995929675,100 174.98708500019922,-37.06676299821153,100 174.98707699408956,-37.06676599485554,100 174.98706899960132,-37.06676999713637,100 174.98706099349027,-37.06677299377933,100 174.98706000084547,-37.06677400272701,100 174.9870510072829,-37.06677700059527,100 174.98704200212146,-37.06677899372641,100 174.98703299171797,-37.06678199277682,100 174.98702500399105,-37.06678500443112,100 174.98701699111106,-37.06678899169487,100 174.98701100672196,-37.066793004450034,100 174.9870099956893,-37.06679399838362,100 174.9870039977915,-37.0667999932867,100 174.98699999425915,-37.06680599893165,100 174.98699700509067,-37.066812991607755,100 174.98699399948174,-37.06682000078239,100 174.98699199926395,-37.066827006628344,100 174.98699200230257,-37.06683199337769,100 174.9869899957416,-37.066840006063295,100 174.9869889994146,-37.06684699418521,100 174.98698900253635,-37.06685500113333,100 174.9869899982815,-37.06686199823339,100 174.98699399266286,-37.06686900276586,100 174.9869970062986,-37.06687199860211,100 174.9870010010205,-37.066875999151556,100 174.98700700018506,-37.066880999883,100 174.98701299260836,-37.06688699213868,100 174.98701800324514,-37.066891995915746,100 174.98702300868808,-37.066898007414295,100 174.98702799682206,-37.066904002078296,100 174.98702899474833,-37.066905005607836,100 174.9870320027693,-37.0669089929488,100 174.98703800081432,-37.066913993697355,100 174.987044994155,-37.06691800077544,100 174.98705299700623,-37.06692099862284,100 174.98706200525098,-37.066923993140456,100 174.98706999164006,-37.06692700658438,100 174.98707899988614,-37.066930001100644,100 174.98708199175985,-37.0669309991544,100 174.98709000628324,-37.0669350044383,100 174.98709699920533,-37.066938995297164,100 174.9871040082902,-37.06694300210783,100 174.9871120002894,-37.06694799737666,100 174.9871189924893,-37.06695200356811,100 174.98712600232452,-37.06695599594432,100 174.98713200714332,-37.06696000606419,100 174.9871789920856,-37.06696899576791,100 174.98726799469233,-37.06697199702652,100 174.98729499496537,-37.06697099201593,100 174.98738899967148,-37.06696100117011,100 174.98742000486584,-37.066968006304805,100 174.987456007995,-37.06699900363596,100 174.98738799281543,-37.067042994256916,100 174.9873770061335,-37.06704900339607,100 174.98733099173404,-37.067085002179255,100 174.98731700009606,-37.06715699594861,100 174.98732400348067,-37.06717599478536,100 174.9873820025691,-37.067230997776086,100 174.98738799547309,-37.0672370062268,100 174.9874130002626,-37.06730700076693,100 174.98741299415036,-37.06733899822293,100 174.98739499513252,-37.067409006043725,100 174.9873880006013,-37.06742499307204,100 174.98735200594706,-37.06749399835213,100 174.98733099969988,-37.06751200656503,100 174.98724500152935,-37.067533003044815,100 174.98723499872372,-37.06753400707978,100 174.9871450032993,-37.06754000643382,100 174.98713700528546,-37.06753900665743,100 174.98705300514015,-37.06751399866571,100 174.98701399930414,-37.06749499624002,100 174.9869499917142,-37.067462003049364,100 174.98688400256393,-37.067430005598126,100 174.98679800432333,-37.06745100085387,100 174.98678599974613,-37.06745899539753,100 174.98676100697236,-37.06748000398552,100 174.98670900585492,-37.06753999405829,100 174.98670699959845,-37.067545002756866,100 174.98670499476873,-37.06754700565201,100 174.9866939986857,-37.067563004709505,100 174.98668300145047,-37.067579002884045,100 174.9866729927729,-37.06759499891486,100 174.9866659988001,-37.06760799633651,100 174.98665899255175,-37.06762599788775,100 174.98665400160337,-37.06764300129965,100 174.9866490050307,-37.06766099621704,100 174.98664799929955,-37.06766400442675,100 174.9866419972977,-37.067682001769015,100 174.98663800499918,-37.067699993378845,100 174.98663600596527,-37.067717995754975,100 174.98663599862644,-37.06773599179937,100 174.98663699590182,-37.06774300509922,100 174.98664199581845,-37.067761002870434,100 174.98664800791184,-37.06777800669162,100 174.9866479948187,-37.06778000505581,100 174.98665699239984,-37.06779599358098,100 174.9866580012472,-37.067800993220054,100 174.9866609925883,-37.0678189967038,100 174.98666500240589,-37.067829005865576,100 174.98667300623268,-37.06784600425362,100 174.98667600155864,-37.06785200438084,100 174.98668300110918,-37.06786900607549,100 174.98668500749503,-37.06787499393114,100 174.98668900312782,-37.0678929941061,100 174.98669300063617,-37.06790800559449,100 174.98669899436678,-37.067924994398275,100 174.9867049966952,-37.06793800208995,100 174.9867139936072,-37.067954006844346,100 174.98671800633812,-37.06795800619913,100 174.98673100204567,-37.0679720016855,100 174.9867369930892,-37.06798099885446,100 174.98674400316088,-37.06799900620055,100 174.9867460043342,-37.068006000875556,100 174.98675000635845,-37.06802299510877,100 174.986749994369,-37.06802499255308,100 174.98675400691343,-37.06804299334307,100 174.98675599507527,-37.06805500658029,100 174.9867590028924,-37.0680729935613,100 174.98675899657076,-37.06807400130176,100 174.98675999469685,-37.068091994918035,100 174.98676100353225,-37.0680969936548,100 174.98676699769436,-37.068113997768876,100 174.98677599721256,-37.06812699759613,100 174.98678399619976,-37.06814199791163,100 174.98677699242722,-37.06815100011536,100 174.9867689921833,-37.0681559947863,100 174.98676599991813,-37.06815800070856,100 174.98674699999071,-37.06816799704452,100 174.98673200792854,-37.06817999556963,100 174.9867180036835,-37.06819200638265,100 174.9867159932403,-37.068195001684785,100 174.98670399686026,-37.06820999634944,100 174.98669700763665,-37.068213996183474,100 174.98667500075229,-37.06822000514202,100 174.986673994919,-37.068219992252466,100 174.98665199440086,-37.06822499526813,100 174.98664400119088,-37.06822599262229,100 174.986622002521,-37.06822800604534,100 174.98661900387802,-37.06822800040687,100 174.98659600569695,-37.06822899319462,100 174.9865920042446,-37.06822900435693,100 174.9865690000925,-37.068228000897356,100 174.9865610020117,-37.06822700108412,100 174.98653899837853,-37.06822399623043,100 174.98653500215016,-37.06822300057002,100 174.9865130052904,-37.068219005087826,100 174.9865080032528,-37.068217997436456,100 174.98648599960038,-37.068214991671894,100 174.98648099908715,-37.068213999315645,100 174.98645900223232,-37.06821000382327,100 174.9864479942263,-37.06820800533473,100 174.98642500315617,-37.06820500258186,100 174.9864109987579,-37.06820299840868,100 174.98638899515987,-37.068199994427644,100 174.9863819950196,-37.06819999813663,100 174.98635999781098,-37.06819900660846,100 174.98634000210822,-37.06820200577587,100 174.98632299753515,-37.06820299814652,100 174.98629999302747,-37.068204998617325,100 174.9862990056049,-37.068205001639285,100 174.98627600109575,-37.06820700210546,100 174.9862630021104,-37.06820499459161,100 174.98624199834103,-37.068200005432004,100 174.98622600739654,-37.06819699803863,100 174.98622399767711,-37.06819700376419,100 174.98620300512437,-37.06819300491995,100 174.98618100639484,-37.06819199806213,100 174.9861600063761,-37.06819499960187,100 174.9861560083066,-37.06819699441708,100 174.98613999870332,-37.068210992736,100 174.98613300309512,-37.06821599937741,100 174.9861179989177,-37.06822999527258,100 174.98611399559238,-37.068232996006486,100 174.98609899706065,-37.06824600129448,100 174.9860829938141,-37.068258993667335,100 174.98608099572652,-37.068260005928984,100 174.9860689992323,-37.0682750014341,100 174.98605700381069,-37.06828999511749,100 174.98605600437952,-37.06829199558213,100 174.98604699341382,-37.068308995102285,100 174.9860419944048,-37.06831599438047,100 174.9860320027631,-37.06833200539479,100 174.98602499810843,-37.06834399622499,100 174.98601500606023,-37.06835999192289,100 174.98601199542674,-37.068365003012225,100 174.9860010043156,-37.068379995190185,100 174.9859990043239,-37.06838399613746,100 174.98598700254027,-37.0683999975551,100 174.98596999570714,-37.068410003646775,100 174.98596700301087,-37.068411994234566,100 174.98594900874687,-37.068422003342626,100 174.98594300091074,-37.068424002971234,100 174.98592299163903,-37.06843200441814,100 174.98592199855864,-37.068432998041985,100 174.98590100706502,-37.06843999478233,100 174.98588399684098,-37.06844499879686,100 174.9858659973072,-37.068452995415356,100 174.98584599362806,-37.06846000444294,100 174.98582799406307,-37.06846800015498,100 174.98582500811744,-37.068468999214645,100 174.98580399489126,-37.06847399905838,100 174.9857980050346,-37.0684759983786,100 174.98577799573314,-37.06848399980181,100 174.98576699221266,-37.068487004198346,100 174.9857460070472,-37.0684929940722,100 174.98573300502608,-37.06849699540678,100 174.98571199665625,-37.06850399329792,100 174.9856900079552,-37.068506996892424,100 174.98567900442762,-37.068510001280984,100 174.98565700375266,-37.06851500411613,100 174.98564299703293,-37.06851899342506,100 174.98562100680923,-37.06852500100936,100 174.9855990061022,-37.06853000293307,100 174.98558599730657,-37.06853499577668,100 174.98556500689935,-37.068541993341206,100 174.98555499754877,-37.0685440031778,100 174.98553299685486,-37.068549005990434,100 174.98551199366455,-37.068554996125044,100 174.9854930013517,-37.0685640007235,100 174.98549200716317,-37.06856499526366,100 174.9854709987272,-37.06857199221233,100 174.98544899801908,-37.06857699500974,100 174.98544700515242,-37.068577000440044,100 174.98542599184537,-37.06858199931739,100 174.98540399263106,-37.0685839972031,100 174.98538400012072,-37.06859199827935,100 174.98536500179677,-37.06859900481321,100 174.9853619922368,-37.0686009965696,100 174.98534399782199,-37.068611004688286,100 174.985339999685,-37.06861299857622,100 174.98532499528224,-37.0686269943767,100 174.98531400439668,-37.06864200181055,100 174.98530499625596,-37.06865299237317,100 174.98529799674048,-37.068666997443685,100 174.98528499649137,-37.06867900570052,100 174.98526799586523,-37.0686880048556,100 174.98525199952786,-37.0686970007126,100 174.98524800250814,-37.06869899457878,100 174.9852290026377,-37.068709005995515,100 174.98521699769609,-37.068717000389356,100 174.98520600495752,-37.068724000843886,100 174.985190002263,-37.06873400443378,100 174.98517600363476,-37.068744992918596,100 174.98516599233747,-37.068749992311936,100 174.98515800684362,-37.0687609945831,100 174.98514499161192,-37.06876699422014,100 174.9851270035187,-37.06877599636849,100 174.98511299597246,-37.06878000004992,100 174.98510399730836,-37.06878100241766,100 174.98508900149523,-37.06878799687656,100 174.98507500516607,-37.06879299177735,100 174.98505799480444,-37.06879799567698,100 174.98504200562184,-37.06880299689878,100 174.98502100384323,-37.068809002245665,100 174.98501600773696,-37.068809991676076,100 174.9849939972224,-37.068810998264105,100 174.98498999421324,-37.06881099407693,100 174.98496699626682,-37.068812003671226,100 174.98494499253633,-37.06880899942594,100 174.98493999568046,-37.068810003286224,100 174.98491799638364,-37.06881200108399,100 174.98491499879313,-37.06881199358248,100 174.98489299352096,-37.06881199333055,100 174.98487699574937,-37.06881299838384,100 174.98485999738378,-37.06881600390932,100 174.98484299379263,-37.06881699695423,100 174.98483099345455,-37.06881300326312,100 174.98482099390745,-37.06880499330756,100 174.98481099516053,-37.06879399378094,100 174.98479799577984,-37.06878899655708,100 174.9847850072186,-37.06878799544093,100 174.98476799241476,-37.06878799725103,100 174.98475600290115,-37.06878799966129,100 174.98473599492758,-37.06879299600967,100 174.98473299773684,-37.06879300381866,100 174.98471299832582,-37.06880199631016,100 174.98469499218263,-37.068810998695724,100 174.98469099511814,-37.068812991642815,100 174.98467300058508,-37.06882300056426,100 174.9846710020405,-37.068823996587014,100 174.98465200166027,-37.06883399259906,100 174.9846489977194,-37.068834992831896,100 174.9846299988804,-37.06884500503779,100 174.98462800033462,-37.068846001059846,100 174.98461200237801,-37.06885800263863,100 174.9845939962092,-37.06886700500952,100 174.98459100066543,-37.068877993122356,100 174.9845909952641,-37.068889997405584,100 174.9845889980408,-37.06890200438343,100 174.9845860066353,-37.06891500679511,100 174.98458500038484,-37.068917998773564,100 174.9845789978286,-37.06893599692594,100 174.98457799835032,-37.06893799737932,100 174.98457199813043,-37.068950001056756,100 174.9845669985353,-37.06896000516271,100 174.98455800706517,-37.06897099358825,100 174.984551002975,-37.06897999657012,100 174.98452099253927,-37.06888500338199,100 174.98440499210335,-37.06851799635497,100 174.9843539986659,-37.068129001413226,100 174.98440799146704,-37.067994000344214,100 174.98419700447974,-37.06796099768435,100 174.9829049979857,-37.06782700638289,100 174.9825140013212,-37.0680379943616,100 174.98223499239364,-37.06818899688337,100 174.98207100612223,-37.06849700124173,100 174.9818490052175,-37.068813994694175,100 174.98128600859624,-37.069377003583035,100 174.98148799452684,-37.06972599685895,100 174.9815570003952,-37.069844005965116,100 174.981622992527,-37.0699590037335,100 174.98109300678718,-37.0703779945974,100 174.9810869950975,-37.07041400488741,100 174.98103999508066,-37.070712996084744,100 174.98139900393633,-37.07136500002492,100 174.98162399664088,-37.07137599305646,100 174.98217199951665,-37.0711839941922,100 174.98224800386353,-37.071194004926056,100 174.9822460084111,-37.07120000478238,100 174.98223599719478,-37.07121599958866,100 174.98222299625908,-37.07123099708492,100 174.98221000463104,-37.07124700025644,100 174.98220999935162,-37.071248007078246,100 174.98219800160928,-37.07126300131981,100 174.98218900265366,-37.07127800220826,100 174.98217600057413,-37.071292999718594,100 174.98217199528548,-37.07129900433223,100 174.98216100776202,-37.07131599334624,100 174.98215799676223,-37.07132100434622,100 174.98214500105053,-37.07133499411196,100 174.98213199935165,-37.07135000693303,100 174.9821310050597,-37.071351000546024,100 174.9821169986038,-37.07136600041987,100 174.98211499357714,-37.071368004143565,100 174.982097002456,-37.071379994546874,100 174.982089005591,-37.0713870014168,100 174.9820780080002,-37.071403000081126,100 174.98206300813206,-37.071416003989604,100 174.98205900447877,-37.07141900459465,100 174.98204499209388,-37.07143200641403,100 174.98202599712005,-37.07144099518963,100 174.98200500556743,-37.071447992153644,100 174.98200199618165,-37.07144999824398,100 174.98198100347642,-37.07145699432177,100 174.98197300347013,-37.071458999113716,100 174.981953000303,-37.071463004410376,100 174.98193400734064,-37.07146900358078,100 174.9819110016953,-37.0714710032311,100 174.98190999734092,-37.07147100559874,100 174.9818870054414,-37.07146800289177,100 174.98188599998622,-37.07146800617889,100 174.9818840013586,-37.07146900305823,100 174.9818640003285,-37.07146699854649,100 174.98184100789686,-37.071466999817055,100 174.98183600041241,-37.07146699879539,100 174.98181300685624,-37.07146700007931,100 174.98178999166416,-37.07146500357506,100 174.981782003369,-37.07146499559256,100 174.98175800494406,-37.071468004119865,100 174.98174899905268,-37.071469995966865,100 174.98172499858575,-37.07147599407875,100 174.9817200015546,-37.07147699961106,100 174.9816980061239,-37.07148099400021,100 174.9816950020379,-37.071481994161964,100 174.98167300019355,-37.07148699538729,100 174.9816689917523,-37.071487997914026,100 174.98164799900346,-37.071494993934,100 174.98164199873938,-37.0714960018097,100 174.9816189978193,-37.07149999856862,100 174.98160599557448,-37.07150099458236,100 174.98158400057542,-37.07150500606765,100 174.98157799876327,-37.0715059977429,100 174.981556003339,-37.07150999300704,100 174.9815520005814,-37.071510004023075,100 174.98153099733977,-37.07151599256296,100 174.98152500714863,-37.07151799257751,100 174.98150300051734,-37.071520995706095,100 174.98148600670865,-37.071522994846966,100 174.98148399687392,-37.07152299959386,100 174.98146400172433,-37.07152299306178,100 174.98144399539845,-37.071521995301296,100 174.98143500842914,-37.07152099815242,100 174.98141499568987,-37.071521007227815,100 174.9814110037086,-37.071521994148995,100 174.9813909968543,-37.07152400126745,100 174.9813859997915,-37.071525005884986,100 174.98136700368215,-37.0715260028945,100 174.9813589920769,-37.071527001105444,100 174.98133900053742,-37.07152899173613,100 174.98133799620547,-37.07152899499983,100 174.98131799935024,-37.07153199154816,100 174.9813100050298,-37.07153300569008,100 174.98129000821908,-37.07153600403554,100 174.98127800500265,-37.07153800357236,100 174.98125799774107,-37.07153999535344,100 174.98125300711487,-37.07153999402547,100 174.98123300385978,-37.07154399830142,100 174.98122299361174,-37.071545993371906,100 174.98120400152433,-37.07154900375547,100 174.98118900174856,-37.07155099657325,100 174.98116900490402,-37.071553993997675,100 174.98115300536128,-37.07155499858504,100 174.98113299736525,-37.071557005679175,100 174.9811270023819,-37.07155700670702,100 174.98110700553286,-37.0715600041211,100 174.98109299211927,-37.07156199486655,100 174.98107299526734,-37.07156499227497,100 174.98105900707947,-37.071566007406176,100 174.9810389986554,-37.07156799826855,100 174.98102200479764,-37.07156999644267,100 174.98100200794025,-37.07157299383925,100 174.98099799948463,-37.07157399634366,100 174.98097800264853,-37.07157699463715,100 174.98096200782376,-37.071579996364264,100 174.9809460003366,-37.071588001325644,100 174.98092600821997,-37.07159299677586,100 174.98092099430494,-37.07159400255676,100 174.98090099743652,-37.071596999936574,100 174.98088800675313,-37.071599003313636,100 174.98086800513437,-37.07160000262169,100 174.98084799879138,-37.071599004760984,100 174.98082799774625,-37.07159700007465,100 174.98081800644093,-37.07159600613842,100 174.9807979997008,-37.07159499295406,100 174.9807880083726,-37.071593998114395,100 174.98076800203162,-37.0715930002401,100 174.98075700480135,-37.07159199155852,100 174.98073700532936,-37.07159000395489,100 174.98071799175747,-37.07158799627293,100 174.9807020007245,-37.07158500526735,100 174.9806839909307,-37.07158599921026,100 174.9806639957819,-37.071585993444586,100 174.98064499377668,-37.0715849922914,100 174.98062599329452,-37.07158400643154,100 174.98060600342282,-37.071582992932896,100 174.9806039936092,-37.071582998565795,100 174.98058399201213,-37.0715839987268,100 174.98056800359316,-37.071585993560156,100 174.98054500302544,-37.07159000723001,100 174.98052500614037,-37.0715930045468,100 174.98050100137687,-37.07159400036008,100 174.98048900457667,-37.07159499387765,100 174.98046500018665,-37.07159600409795,100 174.980443998963,-37.07159900465754,100 174.98042099796194,-37.071603002087556,100 174.98041399181437,-37.071603997861374,100 174.9803900038622,-37.071604991568854,100 174.9803720009305,-37.07160499574041,100 174.98034799558977,-37.071608996411946,100 174.98033300621077,-37.07161199568186,100 174.9803090065448,-37.071615003937524,100 174.980303993298,-37.07161599255686,100 174.98028000483728,-37.07161999383406,100 174.98027499731634,-37.07161999184585,100 174.9802509929371,-37.071621002924005,100 174.98024299816805,-37.07162200077856,100 174.98021899281403,-37.07162600142433,100 174.98020700110897,-37.07162900739469,100 174.98018499698972,-37.07163699703977,100 174.9801799942204,-37.07163899401529,100 174.9801560003916,-37.07164400028845,100 174.9801519919198,-37.07164500276469,100 174.98012900775123,-37.071648999857224,100 174.9801179930988,-37.071650997188215,100 174.98009399341007,-37.071654005400916,100 174.98007699379644,-37.07165699494811,100 174.98005300055925,-37.07165899721225,100 174.98005000324977,-37.07165900490616,100 174.98002599162416,-37.071660992150115,100 174.98001900382843,-37.07166200201475,100 174.9799959963496,-37.07166700620473,100 174.97998799586475,-37.07166899554964,100 174.979963996164,-37.071672003736346,100 174.97995899979603,-37.071672992960586,100 174.97993900528866,-37.07168399804463,100 174.979935000387,-37.07168699769855,100 174.97991400684717,-37.0716969992079,100 174.97989799919583,-37.07170500313066,100 174.97987899214175,-37.07171600523506,100 174.97987300658602,-37.07172000233395,100 174.9798560076058,-37.071734002821685,100 174.9798470057348,-37.07174099658226,100 174.97982200725843,-37.07175399772704,100 174.97981399973355,-37.07175999879151,100 174.97979700073347,-37.07177399927129,100 174.97979299696917,-37.0717769998028,100 174.9797749989367,-37.071789996707764,100 174.97977199950677,-37.071792993988055,100 174.97976599744987,-37.07179700577769,100 174.97975399787268,-37.07180399280411,100 174.97974400891013,-37.07181100484125,100 174.97972799268703,-37.07182300607766,100 174.9797199951303,-37.07182999657894,100 174.97970599383618,-37.07184400557678,100 174.97969299285955,-37.071855997021196,100 174.97967500806325,-37.07186699554434,100 174.97966500755706,-37.07187300193512,100 174.97964700476408,-37.07188400075457,100 174.9796400079864,-37.07188899171712,100 174.9796230042337,-37.071900995007134,100 174.9796119972133,-37.071909992434556,100 174.9795980070137,-37.07192499174542,100 174.9795909973531,-37.07193199638797,100 174.97957400511,-37.07194500531151,100 174.9795649916612,-37.071950993411775,100 174.97954700038517,-37.0719629987579,100 174.979542996601,-37.07196599928146,100 174.97952899522608,-37.071980007358874,100 174.9795240082335,-37.071984991799106,100 174.97951000687507,-37.07199900077533,100 174.9795029914632,-37.072006996019574,100 174.97949099458464,-37.07202200530089,100 174.97948999380958,-37.07202400573426,100 174.97947599199276,-37.07203799758981,100 174.97947100543806,-37.072042999144934,100 174.97945599927462,-37.072056994246374,100 174.97944800855328,-37.07206299500608,100 174.97943000568375,-37.072073993794476,100 174.9794199946832,-37.072078992704995,100 174.97940800409765,-37.07209000558115,100 174.9793829922696,-37.072107994561826,100 174.97937700703153,-37.07211200605136,100 174.97935999747259,-37.072125000813365,100 174.97935700485235,-37.07212700655762,100 174.97934300301569,-37.07214099929941,100 174.97933499365553,-37.07215000434133,100 174.97932099181068,-37.07216399708071,100 174.97930800114185,-37.07217699504555,100 174.97929499833467,-37.07219199225887,100 174.97928900563463,-37.07220000016052,100 174.97927600277302,-37.07221499557014,100 174.97926999210404,-37.07222300467208,100 174.97925799474817,-37.072237998616465,100 174.97924899573195,-37.0722499953106,100 174.9792349914801,-37.07226999693858,100 174.97923200355632,-37.072274000747285,100 174.97921800277106,-37.07228799255579,100 174.97921299819464,-37.07229299440112,100 174.97920100009077,-37.07230800367416,100 174.97919099669087,-37.07232000270926,100 174.9791780002567,-37.07233399216848,100 174.9791699976987,-37.07234200567388,100 174.9791539923972,-37.07235499716275,100 174.9791460063007,-37.07236299506996,100 174.97913299228392,-37.07237700104095,100 174.9791240000742,-37.072388006200114,100 174.97910899377982,-37.07240200126071,100 174.9791069986677,-37.072404996181106,100 174.97909399686046,-37.07241999155357,100 174.97909200216884,-37.072423002689796,100 174.97907999827947,-37.072439002558184,100 174.9790709992357,-37.072451000140845,100 174.97905699194416,-37.072465998773204,100 174.97904500883857,-37.07247600565597,100 174.9790310068816,-37.072489998363686,100 174.97902500790846,-37.072495992889195,100 174.9790110074666,-37.072510000891135,100 174.97900599129557,-37.072513995286265,100 174.97899300673618,-37.07252900658312,100 174.97897999226538,-37.07254299722341,100 174.97897699275146,-37.07254599358412,100 174.97896000675988,-37.072557997385786,100 174.9789430027508,-37.072570000584506,100 174.9789410040541,-37.07257099741603,100 174.97892900011036,-37.07258699727036,100 174.9789239954722,-37.0725919982035,100 174.9789090059892,-37.07260599386001,100 174.9789000043265,-37.07261300286843,100 174.9788859969954,-37.072628002382956,100 174.97888099877534,-37.072631995572024,100 174.97886899485653,-37.072647997222575,100 174.97885800210267,-37.07266300320168,100 174.97885400180297,-37.07266800088895,100 174.97884099882458,-37.07268299805639,100 174.978827996942,-37.07269799430284,100 174.97882700301034,-37.07269900410576,100 174.97881500434667,-37.07271399712678,100 174.97880899938684,-37.07272400335524,100 174.97880199614343,-37.07274099677217,100 174.978797995207,-37.07274899934803,100 174.97878799462782,-37.07276600132855,100 174.97878299576402,-37.07277299940415,100 174.9787729951785,-37.072790001383524,100 174.97876899599106,-37.072794999049414,100 174.9787579963506,-37.07281099654643,100 174.978753003227,-37.07281700401421,100 174.97874300262933,-37.072834005991304,100 174.9787409917284,-37.07283700026786,100 174.97872900459018,-37.072853000723185,100 174.97872700588323,-37.072853997551356,100 174.9787170052986,-37.07287100042736,100 174.978706995278,-37.07288400536556,100 174.97869200567536,-37.07289800009595,100 174.97868399791824,-37.072904000188245,100 174.97866799241692,-37.072916991616204,100 174.97866299461162,-37.072921001913755,100 174.97864799385283,-37.072934005412804,100 174.97864299560047,-37.072937998592586,100 174.97862899463397,-37.07295199213858,100 174.97861499291272,-37.072966000116075,100 174.97860999936992,-37.072971992263135,100 174.97859499326583,-37.07298600257869,100 174.97858800673214,-37.07299200004336,100 174.97857500362412,-37.0730069962831,100 174.9785689992485,-37.073013997610055,100 174.97855800068325,-37.07302999597225,100 174.97855100018057,-37.073040995792354,100 174.97853900295615,-37.07305600498513,100 174.97852999217244,-37.07306699418703,100 174.9785189936151,-37.073082993446825,100 174.9785140004085,-37.07308899910357,100 174.97849999824336,-37.07310299175336,100 174.97849499354382,-37.07310799266978,100 174.97848499285226,-37.073124994627136,100 174.97848000547475,-37.07313299923243,100 174.97846999324005,-37.07314899464727,100 174.97846700524272,-37.07315299843832,100 174.97845299772942,-37.0731679979058,100 174.9784450032332,-37.07318000661936,100 174.97844100345046,-37.0731990057264,100 174.9784409965765,-37.07319999635188,100 174.97843499226155,-37.073217994233396,100 174.97843299175076,-37.07322199506534,100 174.9784269989452,-37.073240998586975,100 174.97842400409144,-37.07324599390343,100 174.9784149920062,-37.073262993779345,100 174.97841200221058,-37.07327000157755,100 174.9784059978605,-37.07328799855688,100 174.97840100010083,-37.073303005405016,100 174.97839299233763,-37.07332000113904,100 174.97838799808727,-37.07332899726724,100 174.97837900170177,-37.07334599597718,100 174.9783730012983,-37.073357999352524,100 174.97836599145108,-37.073375999588094,100 174.97836399564025,-37.073381999387635,100 174.97835899677673,-37.07339999400775,100 174.97835700602323,-37.07340800628921,100 174.97835100165068,-37.07342600326606,100 174.97835000663645,-37.073430001739744,100 174.97834500664263,-37.07344799637809,100 174.9783429932712,-37.07345699954744,100 174.9783400035612,-37.07347500480563,100 174.97833899457106,-37.07348400563674,100 174.97833699195593,-37.07350199262202,100 174.97833699885976,-37.07351199675542,100 174.9783389941816,-37.073530994968046,100 174.97834000078547,-37.07353899869552,100 174.97834399483946,-37.073557000085714,100 174.9783519974709,-37.073573998156164,100 174.97836000764923,-37.07358700161097,100 174.9783630043686,-37.07358999794709,100 174.97836599996384,-37.07359299430192,100 174.97838100545397,-37.0736070004268,100 174.9783820033615,-37.07360800402885,100 174.97839999687594,-37.07361800636186,100 174.978410992167,-37.07362200304628,100 174.97843100661225,-37.073630001446794,100 174.9784329996171,-37.07362999613057,100 174.9784549998851,-37.07363100438245,100 174.978456004246,-37.07363100114236,100 174.9784789984624,-37.07363099958963,100 174.97848599799963,-37.07363099635149,100 174.978508004743,-37.07363099865294,100 174.9785089922392,-37.073630995693826,100 174.9785280051342,-37.0736330028341,100 174.97854099343857,-37.07363699418833,100 174.97856099103586,-37.07364499284778,100 174.97856599805664,-37.07364799979467,100 174.97858299611096,-37.07365899570257,100 174.97859799114798,-37.07366900568212,100 174.97861699551547,-37.07367799789811,100 174.97863699313112,-37.07368599654413,100 174.97865700229045,-37.07369500172784,100 174.97867000102713,-37.07369999962733,100 174.9786899933292,-37.07370900508668,100 174.97869900208966,-37.07371200022273,100 174.97872000520866,-37.073719995593244,100 174.97872699298077,-37.073722006004594,100 174.97874699706713,-37.073728997789964,100 174.97875600583205,-37.07373199292155,100 174.97877399537956,-37.073736993139,100 174.9787950041144,-37.073733001330936,100 174.97879800148377,-37.07373299276548,100 174.97881900211763,-37.07373600225905,100 174.97883700381422,-37.07373900321717,100 174.9788570014676,-37.07374700182486,100 174.97886099790074,-37.0737479977377,100 174.97888299136045,-37.07374999743509,100 174.97888799257788,-37.07375100631932,100 174.97889800858482,-37.073750993268796,100 174.97890999246155,-37.07375199826945,100 174.97893300297662,-37.073755002136664,100 174.97893400733895,-37.07375499889249,100 174.9789569951666,-37.0737560049881,100 174.9789639958149,-37.07375600080172,100 174.9789869954087,-37.07375499322771,100 174.97898999320023,-37.07375500087345,100 174.97901400574136,-37.07374999361508,100 174.97902200433003,-37.07375099392259,100 174.97904400463588,-37.07375200206387,100 174.97905500174264,-37.07375299467949,100 174.9790759983033,-37.07375100117048,100 174.9790949996938,-37.07375200167748,100 174.97911500365296,-37.07374799774344,100 174.9791369998676,-37.073744002910985,100 174.97914100274676,-37.07374399197306,100 174.97916300584635,-37.073739007411596,100 174.97918500165727,-37.073734997255194,100 174.97918699506243,-37.07373500724139,100 174.97920899557738,-37.073732995147545,100 174.9792309976369,-37.073730999246955,100 174.97925400874135,-37.073730997261464,100 174.97926399562917,-37.073729994155556,100 174.9792870003154,-37.073730999905735,100 174.97929599326454,-37.07373100660395,100 174.9793189986539,-37.073731996113054,100 174.97932000303916,-37.0737319937665,100 174.97934199645556,-37.073733991576724,100 174.97936399678144,-37.07373500055951,100 174.97936699417357,-37.07373499288056,100 174.97938999415035,-37.073734000543844,100 174.9793909996365,-37.07373399727704,100 174.9794139996125,-37.0737330049357,100 174.97941500399773,-37.07373300258832,100 174.9794380046755,-37.07373199400751,100 174.97945800685974,-37.07373099402324,100 174.9794810068333,-37.07373000166894,100 174.9794870019917,-37.07373000071933,100 174.97951000842588,-37.0737280024192,100 174.97951400012747,-37.07372699934223,100 174.97953700653636,-37.07372500013602,100 174.97954000390445,-37.07372499155182,100 174.97956299858475,-37.073725006904894,100 174.97956400294643,-37.07372500365539,100 174.9795870025176,-37.073723995965445,100 174.97959799530648,-37.07372300577913,100 174.9796200009193,-37.0737230069912,100 174.97962400379657,-37.073722996037,100 174.97964600469106,-37.07372099917767,100 174.97965200668287,-37.07372000669383,100 174.97967500153172,-37.07371700092032,100 174.9796900025063,-37.07371499294722,100 174.97971100648326,-37.073709003812695,100 174.9797130051985,-37.073708006967784,100 174.97973600116512,-37.07370500116384,100 174.97974399503568,-37.07370400335597,100 174.97976599763405,-37.07369900156706,100 174.97976800752767,-37.07369899684762,100 174.97978999325818,-37.07369399533595,100 174.9797940018654,-37.073692993769875,100 174.9798129932133,-37.07369300291768,100 174.97983400360746,-37.07368600692081,100 174.97984400262095,-37.073683005418374,100 174.97986599308848,-37.07368000286019,100 174.97987000167043,-37.073679000390705,100 174.97989200425232,-37.07367399857884,100 174.97989800626004,-37.073673006983654,100 174.9799170036601,-37.07367199485969,100 174.97993900282302,-37.073673002853944,100 174.97994799646568,-37.07367299326806,100 174.97997100113759,-37.07367399888572,100 174.97997699629042,-37.07367399791145,100 174.98000000093933,-37.073675002622565,100 174.98000199394406,-37.073674997279916,100 174.9800220076592,-37.07367500374164,100 174.98004499506902,-37.07367599431136,100 174.98004899721712,-37.07367599867682,100 174.98007100866607,-37.07367799785305,100 174.98007300056994,-37.07367799342888,100 174.98009399948117,-37.07368400580091,100 174.98009499813764,-37.073684994053885,100 174.98011600711203,-37.07369199856689,100 174.9801370056319,-37.07369799561591,100 174.98015900383132,-37.07370199314216,100 174.98016599276022,-37.073704003448825,100 174.98018700172247,-37.07371100704799,100 174.98018900476512,-37.07371199294622,100 174.9802100015998,-37.07372099488897,100 174.98022800010258,-37.07373299500257,100 174.9802289991598,-37.07373399856951,100 174.9802430065237,-37.07374399599236,100 174.98025900518044,-37.073756992072454,100 174.9802669920506,-37.073760005958356,100 174.9802830087038,-37.07377300173451,100 174.980284995283,-37.07377400322787,100 174.98029899621048,-37.07378500658354,100 174.98031400056195,-37.07379899715534,100 174.9803199998926,-37.07380399911753,100 174.9803349999138,-37.073816006935566,100 174.98034300641814,-37.073826995944316,100 174.98035599617572,-37.073838994074436,100 174.98036600657787,-37.07385100140872,100 174.9803759920989,-37.07386399786549,100 174.98038199387614,-37.073877005883084,100 174.98038700492185,-37.073893005584615,100 174.9803869979071,-37.07390799854946,100 174.9803889937306,-37.07392699581017,100 174.98039000229178,-37.07393199640831,100 174.98039399476502,-37.07394200516809,100 174.9804019937413,-37.07395400103156,100 174.98041000540744,-37.0739670034159,100 174.98042000727722,-37.0739830053751,100 174.9804210059419,-37.07398399362505,100 174.98043100310076,-37.073997998418164,100 174.9804380024398,-37.07401199470069,100 174.98044499481762,-37.07403000361214,100 174.98044999241847,-37.07403999467936,100 174.98045800129253,-37.074056001985106,100 174.98046400741836,-37.07407099184707,100 174.9804659926861,-37.07408599389335,100 174.9804660087928,-37.074102999036874,100 174.98046799880225,-37.0741199991488,100 174.9804669995399,-37.07413299612157,100 174.98046500158642,-37.07414500394396,100 174.9804649955485,-37.07415700733519,100 174.98046499492978,-37.07417099165645,100 174.9804609971573,-37.07418399725602,100 174.98045599611697,-37.07419700519305,100 174.9804499974696,-37.074213994538404,100 174.9804470052083,-37.07422699776244,100 174.98044200677157,-37.07424499155428,100 174.98044099597792,-37.07424600165214,100 174.9804370087545,-37.07426300156198,100 174.98043400225617,-37.07428099182361,100 174.9804339958306,-37.07428199866432,100 174.98043100087108,-37.07430099456522,100 174.98043099444547,-37.07430200140593,100 174.98043099898308,-37.07431800000888,100 174.98043200789016,-37.074333995354685,100 174.98043299350743,-37.074350997822826,100 174.98043600587746,-37.074367994377035,100 174.98043900180608,-37.07438500742884,100 174.98043300428975,-37.074401997655485,100 174.98043199309552,-37.07440299243815,100 174.98042899435274,-37.07441700070054,100 174.9804269937415,-37.074435003001064,100 174.98042400313204,-37.074445000417114,100 174.98041600144165,-37.074461005669164,100 174.98040999277342,-37.074477005570614,100 174.98040000517958,-37.0744919930963,100 174.9803989943822,-37.07449300319387,100 174.98039099967102,-37.07450499671607,100 174.9803780082454,-37.0745209996874,100 174.98037600309226,-37.074523003384456,100 174.98036200102777,-37.07453699624873,100 174.98036099667917,-37.07453700040622,100 174.98034600705512,-37.07455099444183,100 174.98034499623282,-37.0745520036381,100 174.98033400314344,-37.074566995334834,100 174.98032900262433,-37.0745769983794,100 174.98031599961155,-37.07459199480424,100 174.98030299701557,-37.07460700744384,100 174.98030300705489,-37.07460799868769,100 174.9802940043319,-37.07461799737549,100 174.98029100481665,-37.07462099467024,100 174.9802809931865,-37.074637005544005,100 174.980279999953,-37.07463799912414,100 174.98027399595594,-37.07465599618439,100 174.98027300201966,-37.0746570059993,100 174.9802689937316,-37.074669004133185,100 174.98026700480935,-37.074684992768965,100 174.98026500509818,-37.07470000459387,100 174.9802609998737,-37.07471700660064,100 174.98025299882505,-37.07473299560802,100 174.98024699752128,-37.07474499998979,100 174.98024300135492,-37.074754999775415,100 174.980233007289,-37.07477099503001,100 174.98023100212566,-37.07477299872483,100 174.98021599559098,-37.074786993928114,100 174.98021199851738,-37.074789002950965,100 174.98019700886442,-37.07480299877123,100 174.98019099977384,-37.07480800211233,100 174.9801770050458,-37.07481799944425,100 174.98015800368265,-37.07482799386796,100 174.98014299129028,-37.074839991916434,100 174.98013000718115,-37.07485199935048,100 174.98012100271004,-37.07486500293282,100 174.98010499231074,-37.07487599558896,100 174.9800929963224,-37.07488499696031,100 174.98007400178315,-37.07489400074658,100 174.98005400023868,-37.074902993407356,100 174.98005099747198,-37.0749040070261,100 174.98003100803385,-37.07491100043468,100 174.98001300572201,-37.074921999305175,100 174.9800120002204,-37.07492200257772,100 174.97999500873505,-37.07493199225199,100 174.97998599837865,-37.07494299777772,100 174.97996999952443,-37.07495499785777,100 174.97996799434932,-37.07495700154844,100 174.97995600474,-37.074964995165004,100 174.9799360046382,-37.074974001301314,100 174.97993499913588,-37.07497400457323,100 174.9799199969434,-37.07497900215685,100 174.97990000384738,-37.07498399655854,100 174.97988399142193,-37.07498699934334,100 174.97986299967314,-37.07499100638566,100 174.97984099156565,-37.074993993920216,100 174.9798370066112,-37.07499400458331,100 174.97981900242868,-37.074993991577436,100 174.97979699687176,-37.074994006629154,100 174.97977399539946,-37.074994999074434,100 174.97976999318158,-37.07499499470171,100 174.9797490011577,-37.07498800607291,100 174.9797310061331,-37.074980992633705,100 174.97970600135613,-37.07497000441021,100 174.97970300178034,-37.0749730007901,100 174.9796870076707,-37.074962002708354,100 174.9796730071947,-37.07494799439793,100 174.97965600867013,-37.07493699776078,100 174.97964400290434,-37.07493100640341,100 174.97963399661396,-37.07492400286647,100 174.97961399173553,-37.07491699592857,100 174.9795989987007,-37.07491499305155,100 174.9795760040828,-37.07491499393207,100 174.97957300664444,-37.07491500161766,100 174.97955100599913,-37.07491399358484,100 174.97954400637025,-37.074913997790226,100 174.9795219945951,-37.074911999427485,100 174.9795190035942,-37.07491100027081,100 174.97950299348577,-37.07490799320842,100 174.97948200560222,-37.07490600658476,100 174.9794619989946,-37.07490200362706,100 174.97944199710318,-37.07489999873229,100 174.97942300113587,-37.07489800678263,100 174.97940099690737,-37.074895000636566,100 174.97939999140587,-37.07489500390392,100 174.97937799933135,-37.074889999405535,100 174.9793750014955,-37.07488999177094,100 174.97935900397087,-37.07488500255684,100 174.97933699330835,-37.07488300323968,100 174.9793349998732,-37.074882993256914,100 174.97931400045047,-37.074880000062485,100 174.97929199510625,-37.07487699391467,100 174.97928499435574,-37.074876998123436,100 174.97926599736869,-37.07487799482102,100 174.9792499998531,-37.074873005591925,100 174.97923400069746,-37.07485999316371,100 174.97923200407672,-37.07485800040902,100 174.9792149970843,-37.07485100104037,100 174.97919299390733,-37.07484500618223,100 174.97917900056473,-37.07484100193788,100 174.97915999370457,-37.07483499941665,100 174.9791399957071,-37.0748269999699,100 174.97913199229748,-37.07482400160723,100 174.97911899691871,-37.07482100185126,100 174.97910700348396,-37.07481600164444,100 174.9790849992005,-37.07481000678444,100 174.97906599345583,-37.07480400332799,100 174.9790460019429,-37.07479499792461,100 174.97902599244534,-37.074785992817986,100 174.97902399941069,-37.074785998145074,100 174.97900600665972,-37.074775995900396,100 174.979003004547,-37.074774006405534,100 174.97898600871645,-37.07476799732755,100 174.9789679979853,-37.07475799537706,100 174.9789510049458,-37.07474599271277,100 174.9789479959925,-37.07474499474239,100 174.978931002959,-37.07473299207503,100 174.97892199327873,-37.07472200529409,100 174.97891199693512,-37.07470499638157,100 174.97890899544888,-37.07470000199489,100 174.97889799234548,-37.07468900522174,100 174.97888399206298,-37.07467499681177,100 174.97887899182834,-37.07467099925605,100 174.97886700829324,-37.074655993711794,100 174.97885100322324,-37.07464400428542,100 174.97884900622006,-37.07464199620858,100 174.978833007579,-37.07462899903748,100 174.9788280073735,-37.07462500238031,100 174.97881500144615,-37.07460999857225,100 174.97881200469095,-37.07460700315062,100 174.9788100076898,-37.074604995073045,100 174.97879799439647,-37.07459200258395,100 174.97879599629516,-37.07458999542576,100 174.97878699437499,-37.074571992913995,100 174.97878300649512,-37.07456700056574,100 174.97877100325533,-37.07455500021899,100 174.97875699300224,-37.074540000547735,100 174.97875499485656,-37.074537991586986,100 174.97873999712547,-37.07452299577587,100 174.9787259955247,-37.07451200666774,100 174.9787229977265,-37.0745119999171,100 174.97870700558286,-37.07449799588605,100 174.97870500788457,-37.07449600404134,100 174.97868399943377,-37.07448599439219,100 174.9786829950617,-37.07448599763453,100 174.97866299785883,-37.07447499411395,100 174.97865600574664,-37.07447100184994,100 174.9786339965287,-37.07446299442044,100 174.9786279965949,-37.07446099636052,100 174.9786110030652,-37.07445199943402,100 174.97859099940806,-37.07444200184105,100 174.9785840004545,-37.07443900109872,100 174.9785629982711,-37.07443100569165,100 174.97854899349667,-37.074425994828346,100 174.97852799664673,-37.07441699259229,100 174.97852400703079,-37.07441500514308,100 174.9785020025076,-37.074408994854515,100 174.9785010049622,-37.074408005668246,100 174.97848299616518,-37.07439499963134,100 174.97847699690266,-37.07438999757446,100 174.97845999292957,-37.07437700541019,100 174.9784589949871,-37.074376000908345,100 174.97844200783823,-37.07436300665807,100 174.97843899382113,-37.074359995291516,100 174.97842500517413,-37.074346991561754,100 174.9784130031732,-37.07433499205778,100 174.97839800090622,-37.07432899288955,100 174.9783760008343,-37.07432799994827,100 174.97835199516163,-37.074328995352005,100 174.9783300038138,-37.07433500342721,100 174.97832600514155,-37.07433699528916,100 174.9783040015846,-37.07434500080766,100 174.97830200170912,-37.07434599764849,100 174.97828099718768,-37.074355006746444,100 174.97827699855986,-37.0743570004086,100 174.97826000518637,-37.07436999474692,100 174.97825300846745,-37.07437500004928,100 174.97823499845398,-37.07438700641555,100 174.97822800133386,-37.07439199640132,100 174.97820999243672,-37.07440400274523,100 174.97820299418902,-37.074408992748374,100 174.9781850021487,-37.0744209988073,100 174.97817199801932,-37.07442800333941,100 174.9781720026996,-37.074430001406974,100 174.97816899157166,-37.074431992109034,100 174.97815500281268,-37.07444400167165,100 174.97813699922315,-37.074455001182386,100 174.97813599485124,-37.07445500442009,100 174.97811800809774,-37.0744660027458,100 174.97811699684814,-37.07446699660873,100 174.9781009931292,-37.074476999276385,100 174.97808500446902,-37.07449000566879,100 174.97808299883314,-37.07449199311276,100 174.97806999582502,-37.07450700642091,100 174.97806699620034,-37.074510002760974,100 174.97805200729402,-37.07452399740087,100 174.97803999889564,-37.074534996018535,100 174.97802899353104,-37.07455200027804,100 174.97802900393862,-37.07455300683815,100 174.97802099131928,-37.07456800538321,100 174.97801699668258,-37.07458599675341,100 174.97801599518084,-37.074591002066,100 174.97801099616802,-37.07460899667272,100 174.97800900782545,-37.074621995709464,100 174.9780079941462,-37.07463999503017,100 174.9780080056779,-37.0746410015715,100 174.9780020011614,-37.074658999433304,100 174.97799599661886,-37.07467699639393,100 174.97799499577218,-37.074678996816026,100 174.97799200704551,-37.07469700114611,100 174.9779909987422,-37.07471399544568,100 174.97798899750092,-37.07473199591956,100 174.97798800530074,-37.074740995565335,100 174.97798399422882,-37.07475900433274,100 174.97798200768435,-37.0747689993608,100 174.97797499875315,-37.07478699955696,100 174.977970001434,-37.07479899969663,100 174.97796500239878,-37.07481699430154,100 174.97796499594077,-37.074818001142994,100 174.9779579934362,-37.074834993595914,100 174.97795399700814,-37.07484499511497,100 174.97794600628347,-37.07486200675705,100 174.97794200407387,-37.074872997981466,100 174.97793799183773,-37.07489100586531,100 174.97793800297077,-37.07489199709147,100 174.97793099975104,-37.07490900577781,100 174.9779280059044,-37.07491400016363,100 174.9779209958476,-37.07493200127661,100 174.97791800773163,-37.0749360041547,100 174.97790900246764,-37.07494899226501,100 174.97790099373358,-37.07496600420449,100 174.97789700370384,-37.074974997078606,100 174.97788500605995,-37.07499000621327,100 174.97787899461414,-37.07499799903579,100 174.9778690068697,-37.075013002579645,100 174.9778560033126,-37.07502799965086,100 174.97785399119772,-37.0750309939328,100 174.97784499563153,-37.07504799258826,100 174.97784399477638,-37.0750499930092,100 174.9778350067498,-37.075062996148276,100 174.97782599431088,-37.075079995083776,100 174.9778250003359,-37.0750810048792,100 174.97781099766712,-37.07509499655672,100 174.97780899243,-37.075097000212594,100 174.97778900317826,-37.07510699812197,100 174.97778799762642,-37.07510699957394,100 174.97776500298127,-37.07510700190658,100 174.97776100761297,-37.07510600593991,100 174.97773999664892,-37.07510200592531,100 174.9777189974848,-37.075095992242694,100 174.97771799195652,-37.07509599459497,100 174.97771500099324,-37.075094996293195,100 174.9776919962986,-37.07509400556478,100 174.9776860064126,-37.07509300140578,100 174.97766799325422,-37.0750890072535,100 174.97764599902965,-37.07508699202629,100 174.97762399589385,-37.07508099687546,100 174.97762200285032,-37.07508100217921,100 174.97760200274246,-37.07507599206458,100 174.97758000427856,-37.075071994973214,100 174.9775700021195,-37.07506999331473,100 174.977547997172,-37.07506700215797,100 174.97754599260284,-37.07506600091892,100 174.97752300660574,-37.07506200586753,100 174.97752099629977,-37.07506199613567,100 174.97749799163932,-37.075061006270126,100 174.97749300075165,-37.07506100388972,100 174.97747200309948,-37.07506600202044,100 174.97746999279337,-37.07506599228771,100 174.97744699277058,-37.07506699957933,100 174.9774400031008,-37.07506799400511,100 174.9774180010154,-37.07507000580158,100 174.97740999544038,-37.075069996915886,100 174.97739300754893,-37.07507100306786,100 174.97737000644378,-37.0750749999203,100 174.9773639978451,-37.075076999133955,100 174.9773450018151,-37.07508600341312,100 174.97734399738772,-37.07508600484257,100 174.9773289978167,-37.07509600418055,100 174.9773119929908,-37.075108007164594,100 174.97730899982605,-37.07510999844691,100 174.97729299400916,-37.07512300411942,100 174.97729100522446,-37.07512499217049,100 174.97727500589167,-37.075136991899974,100 174.97727200665568,-37.07514000533823,100 174.9772579945809,-37.075150001718335,100 174.97724500023986,-37.07515799739927,100 174.9772339993634,-37.07516600399769,100 174.97722500432886,-37.07517999771927,100 174.9772079994677,-37.07519200068926,100 174.97720000822088,-37.07519800040837,100 174.97718299295482,-37.07520899681457,100 174.97717400266575,-37.07521399293903,100 174.9771559991249,-37.07522500672317,100 174.97714799634963,-37.075229999897296,100 174.9771299935511,-37.07524099924465,100 174.97711399485954,-37.07524999406256,100 174.97709600891628,-37.07526099312376,100 174.97708100280835,-37.075271999273724,100 174.97706399788024,-37.07528400132325,100 174.9770590063073,-37.07528700471701,100 174.9770420013723,-37.07529900676356,100 174.9770229926127,-37.07530999312688,100 174.97702099309242,-37.07531100526238,100 174.97700400576107,-37.075322992589484,100 174.97699500358294,-37.075330000563866,100 174.97697799867498,-37.07534200440351,100 174.97697300020275,-37.07534599841944,100 174.9769559952643,-37.0753580013552,100 174.97694499430483,-37.07536600702739,100 174.9769270071616,-37.07537700518211,100 174.97691999876736,-37.07538100476939,100 174.97690299341488,-37.075392992382774,100 174.97689600340502,-37.07539700698394,100 174.9768810037131,-37.07540700626826,100 174.97686699803285,-37.07541599666383,100 174.976777991412,-37.075434003009946,100 174.9765169946527,-37.075729007407475,100 174.97643899583093,-37.075806996087515,100 174.97631399546955,-37.075940992541256,100 174.97625599851966,-37.07589699603237,100 174.97620199927465,-37.07585100591615,100 174.97575700041907,-37.07616100395348,100 174.97569900503487,-37.07594899974943,100 174.97561699659522,-37.07562099844293,100 174.97551899799322,-37.075452002099226,100 174.97553599343823,-37.07540300002163,100 174.9746900052031,-37.07474199978762,100 174.9745619915776,-37.07470299267066,100 174.97428900867288,-37.07450299936169,100 174.97399999292222,-37.07424899699788,100 174.97370599350327,-37.0740410054015,100 174.9732320089043,-37.07396500221271,100 174.97239908279462,-37.07396268323209,100 174.9718188998121,-37.07377826705001,100 174.9707147500009,-37.07408010023693,100 174.970395590017,-37.073561772614035,100 174.97014596005442,-37.0731564013095,100 174.97090334663545,-37.07274733057014,100 174.97087288129987,-37.072697565113856,100 174.9692038923966,-37.073598692594814,100 174.96915733466253,-37.07362386903173,100 174.96801017894938,-37.07424269736923,100 174.96750359329596,-37.074515976335334,100 174.96674410974848,-37.07349872240721,100 174.96666605794266,-37.07339406287,100 174.96743070379515,-37.07239955387844,100 174.96621288786213,-37.07163021275655,100 174.96628006718896,-37.071555398773384,100 174.96652033204404,-37.07128805301646,100 174.96667558493692,-37.071117556731764,100 174.96709312267473,-37.07065888529331,100 174.96754804400058,-37.07015841594022,100 174.96753590043102,-37.070152379650786,100 174.9672754994668,-37.06994208354338,100 174.96693228356736,-37.070214899738794,100 174.96619059994907,-37.06961583442716,100 174.96594900631604,-37.069730993282796,100 174.96567200537845,-37.06965299999513,100 174.96527499843032,-37.06911799626434,100 174.96493700477316,-37.06927999988989,100 174.96447300678034,-37.069502006009614,100 174.9639350018812,-37.06975900375828,100 174.96390299341323,-37.06971699320819,100 174.9637409931947,-37.069502003050125,100 174.96360199879976,-37.06931699870994,100 174.9635670017785,-37.06927099979029,100 174.96318800864736,-37.06876100043967,100 174.9630149982953,-37.068529002161746,100 174.96284200590537,-37.0682970042138,100 174.9628069996053,-37.06824999756603,100 174.96256999498206,-37.06793399356308,100 174.9622620042512,-37.0675250000639,100 174.96333999511523,-37.067242006063594,100 174.9637259965213,-37.06714099426363,100 174.9638190013544,-37.06711699299111,100 174.96508999991482,-37.066786999252024,100 174.96538899439068,-37.066708992672446,100 174.96517900332262,-37.06618199837832,100 174.96538399430182,-37.066115994754924,100 174.96528400586445,-37.06587400360709,100 174.96532699191079,-37.065803996621625,100 174.96596515703192,-37.065619407151964,100 174.96615690934647,-37.06604578362698,100 174.96636975317915,-37.065984281612614,100 174.9661779650084,-37.065557906085864,100 174.9665950033771,-37.06543299825689,100 174.96659900341496,-37.06544399881254,100 174.96673900572392,-37.06578500201346,100 174.9669589917116,-37.065719992554556,100 174.9670430031964,-37.06569599736279,100 174.9671710068376,-37.06565799273562,100 174.96729999116198,-37.06562099285834,100 174.96738400829472,-37.06559600591838,100 174.96751700186636,-37.065558003751114,100 174.9675960047121,-37.065534005656666,100 174.9678090050503,-37.0654720027794,100 174.96778700845806,-37.06542499440784,100 174.96780700540927,-37.065418994363384,100 174.96767499975238,-37.06512999376958,100 174.96789200760978,-37.06506700403943,100 174.96810799355887,-37.065004001134604,100 174.9681279959362,-37.065045996246454,100 174.96839600162056,-37.06496800262364,100 174.96860171114713,-37.06494604094652,100 174.9686016738984,-37.06494594873245,100 174.96866213089802,-37.064841984772436,100 174.96883646079942,-37.06479110405377,100 174.96896340078513,-37.06507051573339,100 174.96898952609516,-37.06512807157256,100 174.96920200273053,-37.06506599920324,100 174.96940800598364,-37.065005993367905,100 174.96956100107568,-37.064960997121986,100 174.96962799907877,-37.06494200184297,100 174.96984099596128,-37.06487999540513,100 174.96986000630824,-37.06487399698674,100 174.97005300657003,-37.064818004974235,100 174.96990000505116,-37.064481005359816,100 174.97010600616008,-37.064420999269025,100 174.97012499838436,-37.06441500111049,100 174.97033599628168,-37.0643540058106,100 174.97054699924004,-37.06429200241662,100 174.97075700750722,-37.064230993077686,100 174.97088899843544,-37.064191997996474,100 174.97101900752952,-37.06424099221316,100 174.97124500487908,-37.0641749989085,100 174.97130500565947,-37.06407099525941,100 174.97129999964477,-37.06405999717148,100 174.97212899595453,-37.063817994328204,100 174.97234299324603,-37.063755995648755,100</coordinates></LinearRing></outerBoundaryIs>
    </Polygon>
  </Placemark>

  <Placemark>
    <name>Red Hill</name>
    <Point>
      <altitudeMode>relativeToGround</altitudeMode>
      <coordinates>174.97383877864473,-37.06957857418037,100</coordinates>
    </Point>
  </Placemark>

</Document>
</kml>