<?xml version="1.0" encoding="utf-8"?>
<kml xmlns="http://www.opengis.net/kml/2.2">
<Document>
  <name>Rosehill (polygon: official_shp)</name>
  <open>1</open>

  <Placemark>
    <name>Rosehill (polygon: official_shp)</name>
    <Style>
      <LineStyle><color>ffff0000</color><width>2</width></LineStyle>
      <PolyStyle><color>66ff0000</color><fill>1</fill><outline>1</outline></PolyStyle>
    </Style>
    <Polygon>
      <tessellate>1</tessellate>
      <altitudeMode>relativeToGround</altitudeMode>
      <outerBoundaryIs><LinearRing><coordinates>174.94201100306842,-37.07310699857346,100 174.9420109940478,-37.07328799920045,100 174.9426699945829,-37.073286999774474,100 174.94264000408936,-37.07346900173414,100 174.9426239978531,-37.073566007437854,100 174.94261800864652,-37.07364999213244,100 174.94201100506274,-37.07365100490111,100 174.9420120004561,-37.073832001680124,100 174.94201199149208,-37.07401300138525,100 174.94201199321205,-37.0741949923283,100 174.94257700012858,-37.07419400512693,100 174.942536995198,-37.07473799982529,100 174.94246499885165,-37.07473800408014,100 174.9419900054734,-37.07473900543295,100 174.9419869945746,-37.07478200476848,100 174.94198100461122,-37.07488900475029,100 174.94197199752622,-37.07503999558365,100 174.94197100004806,-37.07506200697407,100 174.94196900618343,-37.07509800375974,100 174.94196500270985,-37.07516999758834,100 174.94196399417413,-37.07519100241982,100 174.94195499324704,-37.07534100172739,100 174.94194899169364,-37.075441993898465,100 174.9419460029855,-37.07549199317562,100 174.94193758815226,-37.075643098671996,100 174.9419283321424,-37.075804486324785,100 174.94233443078798,-37.07581941926208,100 174.94234271074805,-37.07581933228878,100 174.94235091694347,-37.07581842635062,100 174.94235891000048,-37.07581674969661,100 174.94236662287057,-37.07581431964838,100 174.9423738985329,-37.07581115410028,100 174.94238063584234,-37.07580730067513,100 174.94238674909815,-37.07580283918911,100 174.94239215363,-37.07579780167325,100 174.94238478225566,-37.07599933070904,100 174.94238783053308,-37.07600550056361,100 174.94238993361674,-37.0760119220404,100 174.94239105194237,-37.07601849934972,100 174.94239116818022,-37.07602512642346,100 174.94238487467373,-37.0761348884147,100 174.94191025812978,-37.076117405161064,100 174.94190200106237,-37.07626799612658,100 174.94189299309204,-37.076419004065734,100 174.94188400265276,-37.076569994589626,100 174.94188299780058,-37.07659299661181,100 174.94187600017935,-37.07672099957246,100 174.94174799615936,-37.07671599834489,100 174.9417619984345,-37.07692100055902,100 174.94175700184408,-37.07710399440653,100 174.94160500830233,-37.07711799211759,100 174.9416469945468,-37.077395003271484,100 174.94155700012342,-37.07740400278944,100 174.94153499138108,-37.07765299897079,100 174.9417500008842,-37.07763000463007,100 174.94178300051527,-37.07782399558521,100 174.9415929988072,-37.07784400187779,100 174.94157700821205,-37.077846006832345,100 174.94160399646287,-37.07800900723229,100 174.9416020019211,-37.07804000185897,100 174.94159700728693,-37.0781150032576,100 174.9415859993697,-37.07827199329855,100 174.94157499874993,-37.078427991798556,100 174.94156400272487,-37.07859100674959,100 174.94214895073648,-37.07861661340838,100 174.94213754901375,-37.07878118255093,100 174.94220220604754,-37.07883906224326,100 174.94219473252704,-37.078946940895186,100 174.94154099907945,-37.078917997754395,100 174.94152999835615,-37.079073997140426,100 174.9415279931367,-37.07910400142059,100 174.94151999509143,-37.07923099954539,100 174.94151700759392,-37.07926800579619,100 174.94150899430852,-37.079386998924235,100 174.94150599784737,-37.079433002882105,100 174.94149788184538,-37.0795433399135,100 174.9409843983221,-37.07965964602623,100 174.94109564109993,-37.079974910641404,100 174.94113929807335,-37.07996519290184,100 174.94133747052786,-37.07992105127849,100 174.94147379857023,-37.07989068611498,100 174.94169699426521,-37.07984100038793,100 174.9416950033667,-37.07986900627636,100 174.94168900649333,-37.07994599158484,100 174.94167799750198,-37.08011100487744,100 174.94211249182334,-37.08013049431346,100 174.94210302501088,-37.080266286040455,100 174.94204342595518,-37.08030898293271,100 174.9420331074515,-37.08045711822453,100 174.94208637578754,-37.08050488638036,100 174.9420762755985,-37.08064967161212,100 174.94168099299353,-37.08063200402786,100 174.9416629979468,-37.08088699915318,100 174.94163477196076,-37.080894551845425,100 174.94153084464338,-37.08092048043629,100 174.94143839657684,-37.0809435702728,100 174.94117660937522,-37.08100890557959,100 174.94095414345531,-37.081064416961375,100 174.9407316438051,-37.08111994200031,100 174.94066050157906,-37.081137710062926,100 174.94050916182735,-37.08117546723681,100 174.940420636493,-37.08119757276627,100 174.94028667797008,-37.081230975866475,100 174.94006421217586,-37.08128650000937,100 174.93988731521003,-37.08133062941616,100 174.93978977290095,-37.08135497120214,100 174.939463463323,-37.08143638829998,100 174.9395277525352,-37.081601694591264,100 174.93955110715913,-37.08166181690976,100 174.93958892697805,-37.08175905015982,100 174.9396493544901,-37.08191449816599,100 174.93965627894517,-37.0819322619318,100 174.93971528906448,-37.08208408016489,100 174.93972355915318,-37.08210538199856,100 174.93978122436144,-37.08225367833049,100 174.93979085730732,-37.08227848730459,100 174.93984714158583,-37.082423261425255,100 174.93985817492333,-37.08245163731007,100 174.9399144234416,-37.08259636601126,100 174.93992542082592,-37.08262474157546,100 174.93999268511092,-37.082797848197465,100 174.94001661488736,-37.08285927597215,100 174.94033087623436,-37.0830652679376,100 174.94036978721326,-37.08305552719297,100 174.9405403715366,-37.08301299559329,100 174.94074983211382,-37.082960740574435,100 174.94076786820838,-37.08295623631098,100 174.94097653667265,-37.08290416420486,100 174.94118520522704,-37.08285210705461,100 174.9413938562462,-37.082800035406365,100 174.94152065795535,-37.082768399395036,100 174.9415212001166,-37.08276795609571,100 174.9416025069189,-37.08274796159673,100 174.94193028624395,-37.082742710278964,100 174.94191513610238,-37.08295989570225,100 174.94184593166753,-37.08303104486643,100 174.94186300843631,-37.08321700456419,100 174.9419239950972,-37.08325500164997,100 174.94191300071552,-37.08340999322483,100 174.94155399782343,-37.08349999293062,100 174.9415739982995,-37.08355100634329,100 174.94164900670285,-37.08374500314876,100 174.94151900890716,-37.08377700530104,100 174.9415059957622,-37.08396900162044,100 174.94149269776932,-37.08416134328519,100 174.94189522380407,-37.08406093119112,100 174.94188302866436,-37.08423623310281,100 174.94188928322217,-37.08428092555121,100 174.94192800124492,-37.084557996088165,100 174.94195199607017,-37.084730991847934,100 174.94197700718948,-37.08490999515538,100 174.94200599373553,-37.08511900298506,100 174.94203499939275,-37.08532500559374,100 174.94205299334004,-37.085454992832915,100 174.94208000111152,-37.08564899776073,100 174.942025607137,-37.08566284210378,100 174.941773354654,-37.08572576316196,100 174.94146475459084,-37.085802749039146,100 174.9415192897108,-37.08594301558343,100 174.9415320246462,-37.085975822085544,100 174.9416961367748,-37.0859346448465,100 174.9417216402318,-37.08611702985638,100 174.94174709324994,-37.08629941658168,100 174.942157340574,-37.0861970996891,100 174.94218500816393,-37.08639299817559,100 174.94248099276987,-37.08644199445009,100 174.94253599245178,-37.08640699757311,100 174.94270100389608,-37.08645699193638,100 174.94273999861682,-37.08668299510927,100 174.94271500415522,-37.086752996682584,100 174.94288700398235,-37.08680000024724,100 174.94280600620178,-37.086973995334176,100 174.9430170081207,-37.08703800132932,100 174.94319900618805,-37.0870930026163,100 174.94322899696442,-37.08710200518701,100 174.94321799908053,-37.08712399299821,100 174.94322799510041,-37.087139997337935,100 174.94330499548954,-37.08726599959834,100 174.94338100669387,-37.0873870023566,100 174.94363100184793,-37.08735600688481,100 174.94380600512616,-37.08779899521436,100 174.94383800652267,-37.08780799259854,100 174.94413499792367,-37.08789899784627,100 174.94402900374672,-37.088123001450015,100 174.94395199826374,-37.088286007307424,100 174.94390699183015,-37.08838099195625,100 174.9438999939775,-37.08839599956451,100 174.9447920030259,-37.08849800159141,100 174.94485257665593,-37.08837032212904,100 174.94506408140884,-37.08843481185253,100 174.94683989978626,-37.08897675986434,100 174.94642821747365,-37.08937823909853,100 174.94620119631514,-37.08948789086048,100 174.94623838481274,-37.08968110915529,100 174.94634032963674,-37.0901230512314,100 174.94640876622947,-37.09041975130466,100 174.946809072759,-37.090315211896495,100 174.94689668383725,-37.09046829499117,100 174.947795022914,-37.09013839010904,100 174.94845699187198,-37.09164099863095,100 174.94990500103597,-37.091230996316064,100 174.94995099799036,-37.091217996667936,100 174.9499590082287,-37.09121500332739,100 174.94996599545215,-37.0912119970714,100 174.9499740056661,-37.09120900282899,100 174.94998100293722,-37.09120700314274,100 174.94998900593754,-37.091205000432005,100 174.94999299902622,-37.09120400011608,100 174.9500009963307,-37.09120300423412,100 174.9500090032916,-37.091202999606814,100 174.9500170034329,-37.091204001827016,100 174.95002599815305,-37.09120399537112,100 174.95003399941922,-37.091204997571666,100 174.9500360029345,-37.091205998389256,100 174.95004400307639,-37.09120700060764,100 174.9500519971314,-37.0912089943396,100 174.95005999727377,-37.09120999655688,100 174.95006799172205,-37.09121200560315,100 174.95006778266026,-37.09122557609237,100 174.9500663745325,-37.091243984578064,100 174.9500659944037,-37.09124899386673,100 174.9500648644418,-37.09126741309843,100 174.95006440960356,-37.091285835645024,100 174.95006442105046,-37.091286238331335,100 174.9500652661934,-37.091304637690904,100 174.95006640676507,-37.09132306283437,100 174.95006645912937,-37.091324315661055,100 174.9500667843959,-37.091342755117346,100 174.9500665415037,-37.091361282331526,100 174.95006646058704,-37.091363963184236,100 174.9500656621694,-37.09138250043792,100 174.95006560772146,-37.0913935438829,100 174.95006728470312,-37.09141195930098,100 174.95007045091717,-37.09143031687377,100 174.950074187595,-37.091448632616064,100 174.95007537757462,-37.0914545885635,100 174.95007749071604,-37.091473121183824,100 174.95008034623146,-37.09149151541208,100 174.95008395024715,-37.091505094377325,100 174.95009147632794,-37.09152258259182,100 174.95009371595398,-37.09152827341875,100 174.95009717483828,-37.091546548665384,100 174.95009982317333,-37.091565023811555,100 174.95009789319252,-37.09157281742998,100 174.95010397439623,-37.09159068902463,100 174.9501112975374,-37.09160833559695,100 174.95011211450853,-37.09161027344051,100 174.95011849112515,-37.09162816991705,100 174.95012530185295,-37.091642372994556,100 174.95013433890094,-37.09165498833556,100 174.95013666921162,-37.09165776471526,100 174.95013849283228,-37.09165850621617,100 174.9501564885791,-37.09166922478539,100 174.95017041862576,-37.09168021843253,100 174.95018887941998,-37.09169082029076,100 174.95019882433857,-37.091698122034465,100 174.95021288396921,-37.09170877195747,100 174.95021755560188,-37.09171466611958,100 174.95022997438662,-37.09172551608103,100 174.9502374118458,-37.09174230995059,100 174.95023789320715,-37.09174524382704,100 174.95023904244002,-37.091763390327365,100 174.95023907066025,-37.091776121420274,100 174.95024028957306,-37.09179426497159,100 174.95024020870807,-37.09180067804603,100 174.95023782456943,-37.091818887181276,100 174.95023700687167,-37.09182249495953,100 174.95023177026965,-37.09184033733137,100 174.95022519366208,-37.09185800256365,100 174.95022448724583,-37.09185998259229,100 174.950218135555,-37.09187764412401,100 174.9502144159253,-37.09188962030865,100 174.9502107904802,-37.09190746501528,100 174.95020727227117,-37.09192479692881,100 174.95020232672178,-37.0919424948119,100 174.95019910403246,-37.091951210082,100 174.95019089216777,-37.09196802165813,100 174.95018596043406,-37.091976954313175,100 174.95017725878702,-37.09199361982595,100 174.95017369258895,-37.091999336762285,100 174.95016192276702,-37.09201472605583,100 174.9501537968171,-37.09202286404842,100 174.95013785714812,-37.092035432415386,100 174.95013068771482,-37.09204059394886,100 174.95011482092747,-37.092053284589944,100 174.95009909113926,-37.092065306925406,100 174.95008210315328,-37.092076964206115,100 174.9500641871655,-37.09208766336179,100 174.95006387962255,-37.09208782344192,100 174.95004483172644,-37.092097071218056,100 174.9500252994703,-37.09210576996435,100 174.9500147463112,-37.09211077625095,100 174.94999627453245,-37.09212081758782,100 174.94998579025605,-37.09212706290746,100 174.94996860632216,-37.09213853863186,100 174.94995504054214,-37.09214737716276,100 174.94993640805524,-37.092157206628,100 174.9499224658416,-37.09216439568592,100 174.94990433538527,-37.092174849590776,100 174.94989034051721,-37.092183232812864,100 174.94987229863224,-37.09219376276658,100 174.9498568946002,-37.09220317770145,100 174.9498399421935,-37.09221486500651,100 174.9498244052362,-37.09222572237761,100 174.94980702523972,-37.09223696877216,100 174.94979632155207,-37.09224343399263,100 174.94977819108226,-37.09225388878001,100 174.94976465856678,-37.092260822326345,100 174.94974497964955,-37.09226924494213,100 174.94973428535144,-37.09227414537121,100 174.94971665574946,-37.09228517954952,100 174.94970709001998,-37.09229078694936,100 174.9496870634146,-37.09229855012545,100 174.94967041933472,-37.092304534409486,100 174.9496512278894,-37.092313628561804,100 174.94963379654843,-37.09232304887031,100 174.94961553867532,-37.0923333191624,100 174.94960749462567,-37.09233820303236,100 174.9495903815121,-37.09234972440494,100 174.94957350034977,-37.09236147268952,100 174.94957188472674,-37.09236256998676,100 174.94955445062686,-37.09237377126909,100 174.94953888188638,-37.092382864409274,100 174.94952006782194,-37.092392461560706,100 174.94950098574944,-37.092401742259035,100 174.94948192676802,-37.092411221758674,100 174.94947416909037,-37.09241582241314,100 174.94945817509256,-37.09242829785005,100 174.94945017456646,-37.092435363906986,100 174.94943476727656,-37.09244838758819,100 174.9494226082602,-37.09245856386636,100 174.94940626320874,-37.09247090717263,100 174.94939369795364,-37.09248143171542,100 174.9493810262112,-37.09249618683909,100 174.94936948502243,-37.092511726415786,100 174.94936764600067,-37.09251416038499,100 174.9493548888303,-37.092528962876266,100 174.94934197457243,-37.0925437382069,100 174.9493366558071,-37.092549997670304,100 174.94932404567794,-37.09256513842629,100 174.949319381598,-37.0925712618448,100 174.94930889721866,-37.0925873869978,100 174.9492991852013,-37.09260388519967,100 174.9492991193702,-37.09260399443642,100 174.94928856604125,-37.09262015136512,100 174.94928370612712,-37.09262855555064,100 174.9492762847668,-37.09264575603978,100 174.94926979130622,-37.09266329637717,100 174.94926885145284,-37.09266565156833,100 174.94926134388317,-37.09268286879593,100 174.94926099604712,-37.09268343241113,100 174.94924942393712,-37.09269912840716,100 174.94924861223265,-37.09269985467086,100 174.94923119507982,-37.092710404899854,100 174.94922330893303,-37.09272711822249,100 174.9492144362037,-37.09274388021309,100 174.94920791206277,-37.0927553499932,100 174.94919835669393,-37.09277186003176,100 174.94919297899452,-37.09278100186729,100 174.9491838115512,-37.09279772273594,100 174.94917446316765,-37.092812958556834,100 174.94916236240698,-37.09282835409597,100 174.94915809742324,-37.09283385176309,100 174.94914780538969,-37.09285006567056,100 174.94913839072484,-37.09286666712454,100 174.949137400929,-37.09286843459647,100 174.94912749642629,-37.09288484401825,100 174.94912024893003,-37.09289776684243,100 174.94911193072258,-37.09290956263835,100 174.94910488948608,-37.09292548605445,100 174.94909728977316,-37.09294253444383,100 174.94908988322686,-37.09295965716727,100 174.9490887431983,-37.09296227972487,100 174.9490813895053,-37.09297940157875,100 174.94907568150845,-37.092992822734956,100 174.94906848379176,-37.09300997266723,100 174.94906481706278,-37.093018928640895,100 174.94905800487354,-37.09303619570993,100 174.94905181981065,-37.09305238264193,100 174.9490461653308,-37.0930671025703,100 174.94904080061434,-37.09308470094617,100 174.94904056099466,-37.093085448446296,100 174.94903400904948,-37.09310277342382,100 174.94902928439112,-37.09311413159125,100 174.9490221208076,-37.0931312971826,100 174.94902142056134,-37.09313290487193,100 174.9490140789527,-37.09314984085813,100 174.94901262135235,-37.09315350601572,100 174.94900623898624,-37.093170687603084,100 174.94900567085548,-37.09317266535104,100 174.94900244037692,-37.09319039357101,100 174.94900194711954,-37.093192571074574,100 174.9489968490339,-37.09320920339319,100 174.9489924187876,-37.0932267836992,100 174.9489913143443,-37.09323127854177,100 174.94898662354663,-37.09324883338888,100 174.94898526302816,-37.09325409222505,100 174.94898156545523,-37.09327181370327,100 174.94897969265156,-37.09327798044461,100 174.94897184005853,-37.09329464633201,100 174.94897083359507,-37.09329708102774,100 174.94896692595452,-37.093310423909756,100 174.94896171818723,-37.09332558623103,100 174.9489533824299,-37.093341749933295,100 174.94894592666554,-37.093358315561126,100 174.9489362296421,-37.09337413211531,100 174.94892966811864,-37.09339108501354,100 174.94892794352,-37.09339574687482,100 174.9489205963576,-37.093412511702226,100 174.94892051333912,-37.0934126527663,100 174.9489130435421,-37.093427485451066,100 174.94890544531,-37.09344459509108,100 174.94890037160428,-37.093455900408195,100 174.94889156762068,-37.09347262879824,100 174.94888590617757,-37.09348400506467,100 174.94887876282593,-37.093501216280174,100 174.94887719023507,-37.093505751264296,100 174.94887180782806,-37.09352336434364,100 174.9488711187358,-37.09352597858442,100 174.94886711239727,-37.09354381419047,100 174.94886600955834,-37.09354837209539,100 174.94886029643075,-37.09356594374438,100 174.94885865111894,-37.09357154884818,100 174.94885524468984,-37.09358732957488,100 174.94885415591642,-37.09360539210782,100 174.94885418031438,-37.09361183409424,100 174.94885433961971,-37.09362679191041,100 174.94885640264332,-37.093644781898334,100 174.94885682465124,-37.093646849719356,100 174.94886170198984,-37.093664417603875,100 174.94886428184998,-37.09367298156445,100 174.9488683141146,-37.09369072016526,100 174.94886995807482,-37.093699906076935,100 174.94887245247094,-37.093717825882536,100 174.9488728946107,-37.09372248006133,100 174.94887404116915,-37.09374053288351,100 174.94887403773188,-37.093744746448834,100 174.94887331501718,-37.09375975031013,100 174.9488673052631,-37.09377725022639,100 174.9488672398983,-37.093777421643914,100 174.94886521388952,-37.09379543919855,100 174.94886480849792,-37.093800124435205,100 174.94886175782304,-37.09381806600289,100 174.94886102526897,-37.09382284854918,100 174.94885940066814,-37.09383786994113,100 174.94885909260475,-37.09385100943632,100 174.94886200152536,-37.09386886023823,100 174.94886132962733,-37.093886945659484,100 174.94886131674505,-37.09388898998629,100 174.9488632755295,-37.09390695104328,100 174.9488633178648,-37.09390719820074,100 174.94886622838166,-37.09392511116481,100 174.94886760653878,-37.09392976257326,100 174.94887532412264,-37.0939466456523,100 174.9488772520039,-37.09394925922991,100 174.94889109668205,-37.09396336656243,100 174.9488944444003,-37.093965319588484,100 174.94891524974952,-37.09397115675175,100 174.9489191763233,-37.093972077301636,100 174.94893947762043,-37.09397909982603,100 174.94893986362524,-37.0939792791446,100 174.9489543400054,-37.093989936779266,100 174.94896875523474,-37.09399653873251,100 174.9489818581677,-37.09400830589449,100 174.94899676675777,-37.09401892577409,100 174.94901720125657,-37.09402574510826,100 174.94902106789667,-37.09402643410851,100 174.9490430107269,-37.09402888895061,100 174.94904437705617,-37.09402881871787,100 174.94906585780728,-37.09402469996823,100 174.94908722129244,-37.09402008833719,100 174.9490953891322,-37.09401778825317,100 174.9491157706882,-37.09401094856171,100 174.9491230437873,-37.09400762761056,100 174.94914083307503,-37.09399731822901,100 174.94914392923422,-37.093995249343,100 174.94915859151567,-37.09398532214606,100 174.9491774742682,-37.09397632507673,100 174.94918042168854,-37.09397512567186,100 174.94920013523682,-37.09396671789821,100 174.94921134808146,-37.093963558383386,100 174.9492340183343,-37.09396107570551,100 174.94923730729627,-37.09396095492933,100 174.94926020043968,-37.093960233297885,100 174.94927898480657,-37.093960701325145,100 174.94930185298807,-37.09396221077703,100 174.94932250302207,-37.093963698116035,100 174.94934513658933,-37.09396364768767,100 174.94936185210432,-37.09396390457266,100 174.94938392261787,-37.093965985922544,100 174.94938874927053,-37.09396690607605,100 174.9494095632821,-37.09397303592722,100 174.94941211892936,-37.09397393484214,100 174.94943237642485,-37.093981222078334,100 174.94945219053687,-37.09398938363881,100 174.94945259412142,-37.093989546443446,100 174.94947200675503,-37.09399824185471,100 174.9494836716361,-37.09400380923506,100 174.94950276860584,-37.09401300644049,100 174.9495147447155,-37.094019171659205,100 174.94953305625356,-37.094029374091456,100 174.94954001705872,-37.09403349205092,100 174.94955762228724,-37.094044450556645,100 174.94957487306823,-37.094055802441574,100 174.94957700997588,-37.09405722016947,100 174.94959414280513,-37.09406866682371,100 174.94960051109365,-37.09407262508255,100 174.94961939299716,-37.094082165590244,100 174.94963788597516,-37.09409207120284,100 174.9496388389733,-37.09409264316715,100 174.949654975214,-37.09410502100725,100 174.9496578145063,-37.09410741679278,100 174.94967293455343,-37.09412061979623,100 174.94968406821292,-37.0941301300029,100 174.94970052611941,-37.09414223937083,100 174.94970398056057,-37.09414488731173,100 174.94971926908997,-37.094157946937436,100 174.94973251822913,-37.09417119873004,100 174.94974535745328,-37.09418592816049,100 174.94975069152915,-37.09419255410076,100 174.94976284867025,-37.09420766787983,100 174.94976709289293,-37.094213167112784,100 174.94977875480387,-37.094228536888906,100 174.94978898363175,-37.09424286491605,100 174.94979951569243,-37.09425875168429,100 174.94980962065463,-37.09427483114121,100 174.94981092666276,-37.094276928581124,100 174.94982156337025,-37.09429281542854,100 174.94983146146197,-37.09430894425157,100 174.94983332766785,-37.09431244208679,100 174.9498409953199,-37.094329386306185,100 174.94984769961923,-37.094346627571596,100 174.94985481834462,-37.09436375206308,100 174.94985834303208,-37.094373880411155,100 174.94986192807227,-37.094391718260205,100 174.94986456746656,-37.09440303824814,100 174.94987182102875,-37.094420067688105,100 174.9498737913614,-37.094424818398636,100 174.94987913600892,-37.09444234610279,100 174.949881770148,-37.09445100287928,100 174.94988933835444,-37.09446810465296,100 174.9498919818138,-37.09447646655565,100 174.94989304125087,-37.094494490152115,100 174.9498931399279,-37.094496145090936,100 174.9498939010373,-37.09450231088061,100 174.94989539718907,-37.09451424001429,100 174.94989567065397,-37.0945159542667,100 174.9498991899786,-37.09453394911732,100 174.9499010289506,-37.09454388978473,100 174.94990389479793,-37.09456206843081,100 174.94990417577623,-37.09457333708236,100 174.94990060578752,-37.09459128901682,100 174.9498982784529,-37.09460100980414,100 174.94989653600456,-37.094619239015586,100 174.94989507448943,-37.094630168604844,100 174.9498899199286,-37.09464788523066,100 174.94988559372305,-37.09466047704335,100 174.94988106848388,-37.094678384303734,100 174.94987567096445,-37.094696059861,100 174.94987484661104,-37.09469818062497,100 174.94986635742606,-37.094715028282806,100 174.94985990737482,-37.09472671318606,100 174.94985205022772,-37.094743813621974,100 174.94984403361823,-37.09476083826848,100 174.949842358481,-37.09476413658526,100 174.94983324037133,-37.09478080982215,100 174.94982298503635,-37.09479705472641,100 174.94981677842878,-37.094805683872,100 174.9498044478165,-37.09482089759044,100 174.94979283104996,-37.09483433214631,100 174.9497806250535,-37.09484966728868,100 174.94976974517562,-37.094862221784545,100 174.9497555476491,-37.094876369340845,100 174.94974970457616,-37.09488122873742,100 174.94974339711072,-37.09488561628824,100 174.94973272028898,-37.094893056253596,100 174.9497318505292,-37.09489353742466,100 174.94971208076308,-37.09490182183521,100 174.94969792179575,-37.09490746602759,100 174.9496800145397,-37.09491848944855,100 174.94966617374536,-37.09492618784045,100 174.9496453760241,-37.09493365455685,100 174.94963874245025,-37.09493567888857,100 174.94961756099565,-37.09494244079741,100 174.94959614235407,-37.094948772184,100 174.94959414731437,-37.094949334950826,100 174.94957234533373,-37.094954976845635,100 174.94955098042703,-37.09496138575219,100 174.94955044796558,-37.09496155043138,100 174.94953881024432,-37.09496683859198,100 174.9495301910836,-37.09496975089199,100 174.94951788537838,-37.094973471886014,100 174.94949592418976,-37.094976545920225,100 174.94948316001367,-37.09497813840491,100 174.94946211602218,-37.09498297738714,100 174.9494432501701,-37.09498763724157,100 174.9494218322121,-37.09499153781989,100 174.9494086611187,-37.094994067114506,100 174.94938773279162,-37.094999336798345,100 174.9493807911401,-37.09500088669833,100 174.94935898925706,-37.09500341641526,100 174.9493419307712,-37.09500576628137,100 174.94932140901048,-37.09501197381465,100 174.9493151339023,-37.095013805667755,100 174.94931347465302,-37.09501456389471,100 174.94929326543013,-37.09502203529317,100 174.94928414902392,-37.095025126094946,100 174.94926374141886,-37.095032276287945,100 174.949256112011,-37.09503526332288,100 174.9492369755662,-37.09504451243143,100 174.949233090183,-37.09504625541434,100 174.94921248253615,-37.09505244901937,100 174.94919909718334,-37.095055399108965,100 174.94917757454698,-37.095059255399136,100 174.94916889114688,-37.09506049594427,100 174.94914705871392,-37.095063195566375,100 174.94912619293203,-37.09506577023487,100 174.94910457420949,-37.09506930182654,100 174.94908315733315,-37.095073202326255,100 174.9490616575103,-37.095077290751945,100 174.94904017168585,-37.09508122302126,100 174.94903213168428,-37.09508254490891,100 174.9490103588377,-37.0950855067015,100 174.94899612807615,-37.09508734225913,100 174.94897439803105,-37.0950906133835,100 174.94896590539807,-37.09509183455425,100 174.94894413612352,-37.09509493597518,100 174.94893388733448,-37.09509598773375,100 174.94891174936438,-37.095097082640756,100 174.94891020871842,-37.09509715663937,100 174.94888798077665,-37.09509746259408,100 174.9488766457436,-37.09509809958919,100 174.94885494898392,-37.09510130885711,100 174.94883717182722,-37.09510525222141,100 174.948816212947,-37.09511069355151,100 174.94879876581152,-37.095115265989314,100 174.9487774164418,-37.09511973854162,100 174.94875975308008,-37.09512276612052,100 174.9487379445604,-37.09512569780603,100 174.94871837565938,-37.09512817086895,100 174.94869670121653,-37.09513154918281,100 174.94868331414753,-37.095133818772425,100 174.948664668477,-37.095137019308744,100 174.94865465932006,-37.09513921263746,100 174.9486540390572,-37.09513933188915,100 174.94863183328854,-37.09513861537409,100 174.94862140725235,-37.09513705268727,100 174.94859919520104,-37.095134246189055,100 174.9485807482521,-37.0951315886972,100 174.9485585662906,-37.095128595130696,100 174.94854881672478,-37.095127701788144,100 174.94852633087433,-37.09512747114339,100 174.9485056002385,-37.09512807597599,100 174.94848302439692,-37.095128373152754,100 174.94846874145358,-37.095128304188094,100 174.94844628017051,-37.095127143899305,100 174.94842725639882,-37.095126169551115,100 174.9484046554089,-37.095126187727885,100 174.9483821030374,-37.095126083427736,100 174.94835957702264,-37.09512503143935,100 174.9483556167629,-37.09512473060832,100 174.9483332751134,-37.095122266875926,100 174.94832908953182,-37.09512195442549,100 174.9483071691023,-37.09512152787993,100 174.9482846579977,-37.09512039902297,100 174.9482743065584,-37.09511963992715,100 174.94825190813984,-37.09511759530869,100 174.94825051754842,-37.09511746584598,100 174.94822815177724,-37.09511599300259,100 174.94820578667878,-37.09511388744167,100 174.94820210225294,-37.09511354962597,100 174.94818567176674,-37.09511169171996,100 174.94817968056842,-37.09511068430536,100 174.94817097794714,-37.095109989132794,100 174.94814819349742,-37.09511149829752,100 174.94814267245562,-37.09511241821375,100 174.94812062093413,-37.09511719690766,100 174.94810276869953,-37.095122164354784,100 174.94808096534717,-37.09512775913255,100 174.94805910599516,-37.095133232251825,100 174.948037027067,-37.09513825923411,100 174.94802206566803,-37.09514122157168,100 174.94799961550007,-37.09514480087459,100 174.94798385311026,-37.0951470201917,100 174.94796133541337,-37.095150598794504,100 174.94794982572338,-37.095151797368004,100 174.9479270704025,-37.09515189640159,100 174.9479042391179,-37.09515047891466,100 174.94790288456696,-37.09515039482119,100 174.94788009527576,-37.0951492551367,100 174.94787164072065,-37.09514875685256,100 174.94784887485753,-37.095147213902564,100 174.94782617681446,-37.09514563919011,100 174.94782570819902,-37.09514561714774,100 174.94780295218212,-37.09514441471295,100 174.947786648504,-37.09514342260565,100 174.94776391552378,-37.09514180158844,100 174.9477449283716,-37.095139664772155,100 174.94773038519514,-37.09513712236104,100 174.94772272488672,-37.0951365326044,100 174.94771624047152,-37.0951358604367,100 174.94769416286678,-37.09513351391863,100 174.94767331722127,-37.09513120934377,100 174.94765119547404,-37.09512916006579,100 174.9476437079476,-37.09512855124207,100 174.94762146285763,-37.095127045657485,100 174.94760363633085,-37.09512546026323,100 174.9475818627133,-37.09512224259457,100 174.9475671342768,-37.09511989067434,100 174.94754535204436,-37.09511695163761,100 174.9475271214928,-37.095114614888594,100 174.94750532638366,-37.09511183197837,100 174.94749532511094,-37.09511055513146,100 174.94749328952636,-37.09511028213644,100 174.94747344795618,-37.09510672086198,100 174.94745746949616,-37.09510370899362,100 174.9474357488939,-37.095099265580195,100 174.947421403974,-37.09509638008932,100 174.9473994762689,-37.09509259260207,100 174.94737758103128,-37.095088710843676,100 174.94737669313642,-37.09508857221123,100 174.94735513315126,-37.095083678205505,100 174.9473346942213,-37.09507919659427,100 174.94731252643894,-37.09507609530764,100 174.947290684166,-37.09507226043112,100 174.94729000389327,-37.09507210126301,100 174.94726871056554,-37.09506619612528,100 174.94725844431485,-37.0950616879965,100 174.94724328195014,-37.095051877816985,100 174.94723329645214,-37.09504436018873,100 174.94722694058692,-37.09503961117128,100 174.94721793026966,-37.0950316422021,100 174.9472041526559,-37.0950174695819,100 174.9472012443837,-37.09501448723235,100 174.9471887546755,-37.09500232224824,100 174.9471751295296,-37.094988039867054,100 174.9471678923412,-37.09498085923433,100 174.94715249988627,-37.0949678172076,100 174.94715127047417,-37.09496659993682,100 174.94713969394635,-37.094951165405966,100 174.9471335608469,-37.09494320685203,100 174.94711884774895,-37.09492967237543,100 174.94711181703804,-37.09492431615439,100 174.94709506866175,-37.09491236621721,100 174.94709063077042,-37.09490984431007,100 174.94708311883795,-37.09490647881936,100 174.94707109470923,-37.09490107302587,100 174.9470663196341,-37.09489953184688,100 174.9470446970665,-37.09489487134314,100 174.94703797702437,-37.09489378391038,100 174.9470150628721,-37.09489501558845,100 174.94697812648099,-37.09490548321236,100 174.94693001526383,-37.094911813597186,100 174.94690977676083,-37.09491014874194,100 174.9469029725776,-37.09490731238709,100 174.94689309795248,-37.09490377298491,100 174.94688622257007,-37.09490149569412,100 174.9468780233491,-37.09489774040594,100 174.94687067884323,-37.094894805670194,100 174.94685992247736,-37.0948907084301,100 174.94683685686792,-37.09488158228488,100 174.94681940728404,-37.09487489561432,100 174.94680538165883,-37.09486918468194,100 174.946788118751,-37.09486113129604,100 174.9467780918204,-37.09485832262402,100 174.94676053555412,-37.09485094010169,100 174.94673660523588,-37.094841876806626,100 174.94671977155275,-37.094834899706875,100 174.9466958093704,-37.09482529435285,100 174.94667322090828,-37.094815818752295,100 174.9466673294331,-37.09481343065616,100 174.94666005976117,-37.09481064969932,100 174.9466356084948,-37.09480030970518,100 174.94661681053748,-37.09479500969263,100 174.94660514347146,-37.09478996931732,100 174.94658885578423,-37.094783926878655,100 174.94657819031005,-37.094779379279814,100 174.94656257065918,-37.09477306179105,100 174.94654957954046,-37.094767765556185,100 174.946531624547,-37.094760979888655,100 174.94651694112036,-37.09475532658977,100 174.94650465301933,-37.094750374813835,100 174.9464866485822,-37.094743063600504,100 174.9464679660472,-37.09473444674057,100 174.94645326976706,-37.09472705957134,100 174.94644994143317,-37.09472581907469,100 174.946434203842,-37.094717134025565,100 174.9464187205672,-37.09470581214348,100 174.94640365719133,-37.09469397143462,100 174.94640276563783,-37.09469307397243,100 174.94638842917564,-37.094679345750826,100 174.94638215127674,-37.09467425472066,100 174.946365334879,-37.09466232201771,100 174.94635349223768,-37.09465472755271,100 174.94633692232148,-37.09464292959658,100 174.94632593451496,-37.094629344668775,100 174.94631403428042,-37.094614705796026,100 174.94631186879894,-37.09461291714829,100 174.94629587100042,-37.094601140436474,100 174.94628254578618,-37.09458946855506,100 174.94626939815714,-37.094575502688485,100 174.9462591581508,-37.09456132955503,100 174.946248298586,-37.094546115693554,100 174.94624797683088,-37.09454576496835,100 174.946235051747,-37.09453170171025,100 174.94623158033087,-37.09452781467806,100 174.9462187426064,-37.094513735563226,100 174.94621093859845,-37.09450616310368,100 174.94619711275308,-37.094492688748595,100 174.9461947805829,-37.09448988167867,100 174.94618258970468,-37.09447540258462,100 174.9461805448339,-37.09447353444367,100 174.94616532512674,-37.0944610770864,100 174.9461594107989,-37.09445537531233,100 174.9461463854101,-37.09444139210255,100 174.94614292064344,-37.094437148950604,100 174.94613006647322,-37.09442308541744,100 174.94612909187836,-37.094422328114355,100 174.94611191256988,-37.094411686565,100 174.94609730110278,-37.09440237731799,100 174.94609209245527,-37.09439897124659,100 174.94607472984606,-37.09438859677756,100 174.94607118038354,-37.09438684796988,100 174.94605165769838,-37.094379161442006,100 174.9460473849742,-37.094377595751226,100 174.94602679258975,-37.0943719871187,100 174.94601426341114,-37.09437080211557,100 174.94599208113786,-37.09437090668911,100 174.945985195216,-37.09437072140189,100 174.9459612724002,-37.09437553221462,100 174.94580985258773,-37.09419989758103,100 174.94580160290192,-37.094203005433975,100 174.94579940610691,-37.09420381840097,100 174.94579118886432,-37.09420683108568,100 174.94578297049642,-37.09420984378828,100 174.94577475322941,-37.09421285557097,100 174.94576658930814,-37.094215929567476,100 174.94575846069228,-37.094219064271364,100 174.94575040571615,-37.09422230682155,100 174.94574245694818,-37.09422565488092,100 174.94573458226225,-37.094229172066804,100 174.9457290944359,-37.09423187316685,100 174.94572152541394,-37.09423577198639,100 174.9457140461683,-37.09423979370933,100 174.94570663941457,-37.094243922396245,100 174.94569926791553,-37.09424806582591,100 174.94569186231234,-37.09425223955732,100 174.94568445518743,-37.0942563538284,100 174.94567697672122,-37.094260406179956,100 174.9456747548437,-37.09426151427679,100 174.94566706122123,-37.09426529256313,100 174.94565933072946,-37.09426899304226,100 174.94565156456667,-37.094272662561366,100 174.9456437624333,-37.09427628940863,100 174.94563592416802,-37.09427986727771,100 174.94562806712435,-37.094283414810775,100 174.94562021083587,-37.09428694791035,100 174.94561235491537,-37.094290495423934,100 174.94560448102288,-37.09429404413327,100 174.9455843875264,-37.094301296693764,100 174.9455639735578,-37.09430886455282,100 174.94554376099964,-37.094316785110706,100 174.945538297383,-37.094319113573704,100 174.94553670436568,-37.09431982289295,100 174.94551698174345,-37.09432855557548,100 174.94549741444362,-37.09433601489279,100 174.9454868937102,-37.09433910141227,100 174.94546692093834,-37.094344476396174,100 174.94544641778486,-37.094350713598566,100 174.94544188378836,-37.094352173283326,100 174.94542103356486,-37.09435900561808,100 174.94540072850953,-37.09436674200495,100 174.94538473279388,-37.09437488084393,100 174.94536581945712,-37.09438468356607,100 174.94535972422702,-37.09438734775023,100 174.94533934982152,-37.09439510058665,100 174.94533000919333,-37.094398226309934,100 174.94530901870772,-37.09440503028323,100 174.94528806618806,-37.094411911140405,100 174.94527328778764,-37.094417100809764,100 174.9452526264786,-37.09442450233161,100 174.94525013890015,-37.09442538405149,100 174.94522951284193,-37.094432800312745,100 174.94520877785692,-37.09444004891614,100 174.94520467211842,-37.094441360963934,100 174.9451835369428,-37.0944479194359,100 174.9451626377222,-37.09445486158526,100 174.94516138595048,-37.094455364313326,100 174.94514151897354,-37.094463866771086,100 174.94512154272815,-37.09447223222049,100 174.94510648764214,-37.0944774264093,100 174.94508520667995,-37.09448374030373,100 174.94506943982063,-37.0944876311909,100 174.94504747375558,-37.09449240881221,100 174.94502564125736,-37.09449756998824,100 174.945015152193,-37.09450057663348,100 174.94499398094462,-37.094507089698254,100 174.94498633049676,-37.09450930260047,100 174.94496499616884,-37.09451555425909,100 174.94494413062444,-37.09452249491647,100 174.94492561140999,-37.0945302460854,100 174.94490581655919,-37.094538887020015,100 174.94490086571886,-37.09454094206295,100 174.9448805860852,-37.09454897266505,100 174.94485964874156,-37.09455579010825,100 174.9448491161646,-37.09455850363365,100 174.94482706180375,-37.09456317360747,100 174.94480620716394,-37.09456737325179,100 174.94478389918208,-37.094571056865426,100 174.94476632147422,-37.09457343171572,100 174.94474394835393,-37.094576636005165,100 174.94473010239003,-37.09457917675337,100 174.94470817779083,-37.094584169940596,100 174.94470016135259,-37.09458632663987,100 174.94467884859162,-37.094592763558516,100 174.9446576287311,-37.094599401738655,100 174.94463618464383,-37.094605455053724,100 174.94461800487807,-37.09460923404773,100 174.94459584818986,-37.0946133793065,100 174.94458046443407,-37.09461672217188,100 174.94455872242372,-37.09462203679936,100 174.9445404633673,-37.09462733574884,100 174.94451926223837,-37.094634003339586,100 174.9445089009281,-37.094637255698395,100 174.94448762375546,-37.09464367757858,100 174.94447000324178,-37.09464825222477,100 174.94444817033667,-37.09465344484695,100 174.94443880721505,-37.09465578134321,100 174.94441700916943,-37.09466097338788,100 174.944409127009,-37.094662353660595,100 174.94438719365775,-37.0946670062464,100 174.9443763368829,-37.09467173942157,100 174.94435690055002,-37.09468142528424,100 174.94434509574094,-37.09468507533894,100 174.94432341642994,-37.09469077554683,100 174.94430787150398,-37.094695825352126,100 174.94428714657354,-37.09470342963882,100 174.94428397411377,-37.09470463261407,100 174.94426375747253,-37.09471306315071,100 174.9442617036935,-37.09471401434443,100 174.94424244793586,-37.09472332679843,100 174.94423216740563,-37.0947275836434,100 174.9442127434094,-37.0947358605706,100 174.9442030014329,-37.09474137939335,100 174.94418547930573,-37.09475196215811,100 174.94418401122417,-37.094752762242784,100 174.94416534285395,-37.09476203440714,100 174.94414615430898,-37.09477063192497,100 174.944137694891,-37.094774299196395,100 174.94411819840403,-37.094782470044166,100 174.94410393009287,-37.09478851824066,100 174.94409877359797,-37.0947907163225,100 174.9440964956186,-37.09479165586843,100 174.94407716136575,-37.09480005567937,100 174.94405865005612,-37.094809354993814,100 174.94404342895274,-37.09481915283593,100 174.9440267065576,-37.094830432675614,100 174.94401580599435,-37.09483666807856,100 174.94399769208266,-37.09484654940625,100 174.94398549938754,-37.09485369015773,100 174.9439678678454,-37.094864088118925,100 174.94396109372016,-37.09486792692517,100 174.9439431219898,-37.09487791316607,100 174.94392527645937,-37.09488808299968,100 174.94391995939148,-37.09489130666649,100 174.94390275573548,-37.09490211489683,100 174.94388540868127,-37.09491277135631,100 174.94388535775323,-37.09491280373644,100 174.94386706662726,-37.09492253202803,100 174.94383311827846,-37.09494507107222,100 174.94379183280967,-37.09497548417932,100 174.94377355949558,-37.09498648297773,100 174.94375526852372,-37.0949974514192,100 174.94373951885103,-37.09500818621437,100 174.94372228163834,-37.09502028110416,100 174.94371792769684,-37.095023286180485,100 174.9437005658612,-37.095035259634415,100 174.94368288149164,-37.09504685172262,100 174.94367509494663,-37.09505166788369,100 174.94365667813156,-37.09506246803051,100 174.9436380826166,-37.09507309986021,100 174.94362949907628,-37.09507790024482,100 174.94361086790678,-37.09508850201115,100 174.94359280770965,-37.09509969737338,100 174.9435923496804,-37.095100045569176,100 174.94357541534242,-37.09511241487072,100 174.9435588885634,-37.095125147015,100 174.94355668041342,-37.09512675055481,100 174.94353965594686,-37.0951390275953,100 174.94352266824632,-37.09515133467434,100 174.94351517760447,-37.09515681202397,100 174.9434983667095,-37.09516930186573,100 174.9434818402472,-37.095182003350544,100 174.94347810768403,-37.095184889175236,100 174.9434618481222,-37.095197864778875,100 174.9434459964613,-37.09521117257648,100 174.94343419236455,-37.09522106483614,100 174.94341931370843,-37.09523506869425,100 174.94341511548944,-37.09523989811322,100 174.94340562393705,-37.09525566399184,100 174.94339511487584,-37.09527220723618,100 174.94339105031173,-37.095277467981695,100 174.9432320032322,-37.09546599526725,100 174.94322800471042,-37.09547300522188,100 174.94321900485855,-37.095488994655994,100 174.94321500633444,-37.09549600461023,100 174.9432040029077,-37.09551099221085,100 174.9431950034378,-37.09552699695876,100 174.94318600396423,-37.095543001706055,100 174.94318400794623,-37.095545995149735,100 174.94317200023227,-37.09556100101264,100 174.94316099717926,-37.095576003925046,100 174.9431590000348,-37.09557899738676,100 174.9431500016725,-37.095595002113164,100 174.9431419995484,-37.0956119954423,100 174.94314100596847,-37.095613004946145,100 174.94313399276172,-37.09562999558367,100 174.94312599216954,-37.095647005109754,100 174.94312300522733,-37.09565300616342,100 174.94311599201322,-37.09566999679999,100 174.94310899608027,-37.09568700337602,100 174.94310799166166,-37.09569199313575,100 174.94310300733224,-37.09570899467756,100 174.94309800498317,-37.095725995613215,100 174.9430960058337,-37.0957319939939,100 174.94309100350475,-37.0957489958302,100 174.94308499538093,-37.09576600063355,100 174.9430840002594,-37.09576699393906,100 174.9430770054129,-37.09578399959405,100 174.94306999261488,-37.09580100734546,100 174.94306499340075,-37.09581500424243,100 174.9430589959375,-37.09583299938287,100 174.9430570040831,-37.09583800622883,100 174.9430500077088,-37.09585499658539,100 174.94304200709917,-37.09587200700733,100 174.943035997883,-37.09588399256501,100 174.94302900303907,-37.09590099911838,100 174.94302500096003,-37.09591099868977,100 174.9430189927871,-37.09592800258922,100 174.94301400046612,-37.095940992634695,100 174.94300700448787,-37.095957999205346,100 174.94300299307696,-37.09597199432919,100 174.94299200856167,-37.095991999058846,100 174.94298899427486,-37.09600199595756,100 174.9429829971949,-37.096020007310905,100 174.94297800173476,-37.09603600229337,100 174.94297299933925,-37.09605300322429,100 174.94296700186078,-37.09607099926147,100 174.94296399486967,-37.09608000462547,100 174.94295899246853,-37.096097005555855,100 174.9429540007812,-37.09611499862614,100 174.9429509975692,-37.0961260020786,100 174.9429469998588,-37.096143000961625,100 174.94294200816609,-37.09616099403145,100 174.9429359924165,-37.096174002650514,100 174.94292799131344,-37.09619099594834,100 174.94292300313418,-37.09620599939457,100 174.94291899965074,-37.096224006008775,100 174.94291600221644,-37.096234002629295,100 174.94291199831594,-37.09625199302692,100 174.94290800789375,-37.096268000374614,100 174.94290300549252,-37.09628500220375,100 174.94289600328315,-37.096303000284216,100 174.94288699746016,-37.09631999562605,100 174.94287999701493,-37.096330001975126,100 174.94286799868996,-37.096345999068255,100 174.94285700855914,-37.09635900359032,100 174.94283899393182,-37.096364994970514,100 174.94281999877575,-37.09636999658331,100 174.94281199502743,-37.09637199882932,100 174.94279099893353,-37.096377996706146,100 174.94277400360366,-37.09638200296281,100 174.94275199904996,-37.096386005690455,100 174.94262899997284,-37.09631500106222,100 174.94266800670732,-37.09621100235642,100 174.94262700354085,-37.09618700341542,100 174.94252299924162,-37.09597500386299,100 174.94235499258664,-37.09543100431169,100 174.94222000779783,-37.09572100475119,100 174.9420829977461,-37.095836004868936,100 174.94192900219878,-37.09583800404946,100 174.9417699916305,-37.09572799673576,100 174.9414730078859,-37.0951139956522,100 174.94094999146202,-37.09449100021587,100 174.94078500662275,-37.09432199918381,100 174.94031399879484,-37.093837006855765,100 174.94019299377842,-37.09354700568395,100 174.9402969981121,-37.09322799555385,100 174.9400940029005,-37.093028994392526,100 174.9398969997575,-37.09301000164107,100 174.93931400585697,-37.09329099360435,100 174.93881699237838,-37.09316399884364,100 174.93852399372264,-37.09311599402447,100 174.93806799951466,-37.09304099741965,100 174.93783999507062,-37.092931999924886,100 174.93751200173526,-37.09288199956528,100 174.93606799776134,-37.094034000550245,100 174.9359049970835,-37.09425100668472,100 174.93588399456982,-37.09447599368262,100 174.936002996707,-37.095804994289054,100 174.9359500021633,-37.09591800600233,100 174.93573000727355,-37.09610200471108,100 174.935477996137,-37.09615200598759,100 174.93539500374789,-37.096220996286064,100 174.93526200181827,-37.096516002134784,100 174.93509599334058,-37.09663200668658,100 174.93424300408486,-37.09682599978041,100 174.93354999560148,-37.096703997156816,100 174.93337699329243,-37.09657099763456,100 174.93330400108587,-37.096447998829554,100 174.93307100503847,-37.0956300011822,100 174.93307799438435,-37.09534700283924,100 174.93286800002002,-37.09434799795224,100 174.93275199964114,-37.094213996753545,100 174.93245399286062,-37.09411799290755,100 174.93232400353523,-37.094007006568965,100 174.9320909971826,-37.093683993903134,100 174.93202600722944,-37.09340900038273,100 174.9319320020716,-37.093010997826724,100 174.9319870007277,-37.09296499564901,100 174.93241099359375,-37.09300199383605,100 174.93251999848243,-37.0928880002542,100 174.9325450082994,-37.09275199469197,100 174.93262699354915,-37.09268299304654,100 174.9329379948637,-37.092745993110526,100 174.9335330077499,-37.09236300514876,100 174.93365600451912,-37.09221499936037,100 174.93370299494097,-37.09187599760157,100 174.9339520074077,-37.091679993666276,100 174.9340309932122,-37.09151000564032,100 174.93385899290644,-37.09069200514496,100 174.93314400888912,-37.091171002278685,100 174.93263800235601,-37.091511004100184,100 174.93209699934687,-37.091813002659826,100 174.93132299647218,-37.09179199872199,100 174.93056000292248,-37.09167000314205,100 174.93003900385781,-37.09166700234308,100 174.92944600763357,-37.09209500363269,100 174.92910800290895,-37.09212299791694,100 174.9287600022774,-37.092252997666876,100 174.9284769972103,-37.09218999889645,100 174.92832999499677,-37.09196699775509,100 174.9277650002248,-37.09186500116836,100 174.92744900157118,-37.0916219920811,100 174.9262680013117,-37.090615993403276,100 174.9256320080834,-37.08997299661234,100 174.9255609975994,-37.08992900536008,100 174.925403004647,-37.08983000069388,100 174.92514899105112,-37.08978899658749,100 174.92500499305663,-37.089678996406754,100 174.92470499883564,-37.08900800119306,100 174.92450100532972,-37.088728999296606,100 174.9241550042908,-37.08840799457236,100 174.92369799381706,-37.088123001308865,100 174.9232954416064,-37.08800097003134,100 174.92319500489356,-37.08799699157527,100 174.92314999684848,-37.0880020037342,100 174.92309842957602,-37.088013589933446,100 174.92296243276616,-37.08803728359403,100 174.9228098354052,-37.088077997721626,100 174.92266036254912,-37.08816276289841,100 174.92246799649018,-37.08845999955325,100 174.92230200821373,-37.08855300311356,100 174.92193900667672,-37.0885740023479,100 174.9217669977657,-37.088583992122814,100 174.92165399184825,-37.08854100640115,100 174.92136599280929,-37.08832099357947,100 174.92095400752433,-37.0875939935908,100 174.92040199880574,-37.08696100441961,100 174.92038099774507,-37.08670199559057,100 174.92047299705413,-37.08644199358352,100 174.92056999304387,-37.08636099516615,100 174.92106700730085,-37.08603799377618,100 174.92129900783695,-37.08577400370191,100 174.92145700107497,-37.08534299762401,100 174.92192199230203,-37.08480600099684,100 174.92222399857445,-37.08432199586393,100 174.92258046031444,-37.084249289563154,100 174.92276932051868,-37.08421076906912,100 174.92294761526443,-37.084174401582885,100 174.92297938411681,-37.08416705000898,100 174.9229796898431,-37.08416784088952,100 174.92302406658519,-37.08428261694503,100 174.92345706669212,-37.08540238305755,100 174.92496046643458,-37.085038066833135,100 174.92535006679984,-37.08603155015714,100 174.92563176670438,-37.086749883174676,100 174.9257482668295,-37.08704728387412,100 174.92650068313924,-37.08685948366734,100 174.92725353327313,-37.086671283212226,100 174.92676089939698,-37.08540228321186,100 174.926829866975,-37.08538546636372,100 174.92699363363948,-37.0853445827108,100 174.9271573668396,-37.08530371740312,100 174.9273211169799,-37.08526281734656,100 174.92748486734578,-37.085221933285055,100 174.9276251494817,-37.08518678333876,100 174.92764861683568,-37.08518106613778,100 174.92781236687708,-37.085140183435115,100 174.9279761167105,-37.08509929961003,100 174.92813988368312,-37.0850584333075,100 174.9283025834268,-37.08501789959027,100 174.92885626714937,-37.08487954855101,100 174.92892121682814,-37.08486336638135,100 174.9284539659622,-37.08365938310587,100 174.9283706162472,-37.08344639954885,100 174.92818416563773,-37.08296618756482,100 174.92818499325796,-37.082965996550534,100 174.92884743143026,-37.082811995225015,100 174.92895468488075,-37.08278706095409,100 174.92931199379422,-37.082703992880774,100 174.92975800342043,-37.08260100355573,100 174.9303579972067,-37.08246099872122,100 174.93102000234472,-37.082306999600995,100 174.93170999935813,-37.08214699870266,100 174.93253199545308,-37.08195600461549,100 174.9332100072734,-37.08179899702347,100 174.93377799604917,-37.08166699379284,100 174.9337019936891,-37.08157299509894,100 174.9335900068486,-37.08143500456836,100 174.93347800201747,-37.08129699799422,100 174.93336499314273,-37.08115899506136,100 174.93325300754213,-37.0810210041683,100 174.93314100509846,-37.080882998114205,100 174.93302799744623,-37.08074499391488,100 174.93291599509442,-37.08060700295265,100 174.93280399391372,-37.080468997436924,100 174.93269100435063,-37.08033099169618,100 174.93257900323877,-37.08019300037144,100 174.93249300156486,-37.08008700724323,100 174.93245600535974,-37.08003400336225,100 174.9323570082876,-37.079890003659855,100 174.93225700711469,-37.07974600581079,100 174.93215800100614,-37.07960099933328,100 174.932059005064,-37.079456998438836,100 174.93195900507237,-37.07931300119688,100 174.9318599919077,-37.07916900040125,100 174.9317599997554,-37.07902399610729,100 174.93171000754234,-37.07895099770274,100 174.93156599392987,-37.0787439924018,100 174.93150399437073,-37.07861799358909,100 174.9314850051828,-37.07858000172621,100 174.9313299926726,-37.07826699612431,100 174.9312699932554,-37.078145004170864,100 174.93109400046188,-37.07778899331893,100 174.93099799898818,-37.07759599901472,100 174.93085300646453,-37.077302994066116,100 174.9308119923111,-37.07722000243259,100 174.93073500465982,-37.077063992727886,100 174.9306810068519,-37.07692899261701,100 174.9305840066368,-37.076685001159305,100 174.9305120045115,-37.07650500698485,100 174.93031400477236,-37.07600699700136,100 174.93015500573145,-37.07560799930386,100 174.93006500510344,-37.075607991699215,100 174.92976800306343,-37.07485399164434,100 174.92931399841376,-37.07369999657602,100 174.92976599882235,-37.073659995200565,100 174.9304629981382,-37.073598994255306,100 174.9308970783973,-37.07364628373245,100 174.93089698531816,-37.07371596312694,100 174.93112174827294,-37.073737526131936,100 174.93131301590165,-37.0737559065703,100 174.93142413806677,-37.07376654781405,100 174.93151545960615,-37.07377800632324,100 174.93171794133252,-37.07380337318858,100 174.93185139378568,-37.07382010436153,100 174.9323353876559,-37.07383151417622,100 174.93252935299338,-37.0738527715628,100 174.93253003312685,-37.07412490059735,100 174.93263099706598,-37.074136000990016,100 174.93263099525697,-37.07429999530001,100 174.9326309965509,-37.07438799365912,100 174.9330030022384,-37.07438800141068,100 174.9331320051384,-37.074387991897744,100 174.93313299593166,-37.07458699954962,100 174.93313299773303,-37.07478599538024,100 174.9331329985693,-37.074806004909675,100 174.93317400305756,-37.07480999692832,100 174.93338500014914,-37.074832994070285,100 174.93340099663226,-37.07483500087108,100 174.93366800731923,-37.07486399790565,100 174.9336679967807,-37.074756996918005,100 174.93370899423562,-37.07475699254588,100 174.93387000278187,-37.074757000107766,100 174.9340719978169,-37.0747559963909,100 174.93407399197812,-37.07478100440296,100 174.93410999961412,-37.074780995663865,100 174.93430400629873,-37.07477999567925,100 174.93453699457308,-37.07478000240922,100 174.93453700595714,-37.07474800642957,100 174.9346580040933,-37.074747997869636,100 174.93474299573705,-37.07474799810975,100 174.9349479990966,-37.074747992010245,100 174.93499099591133,-37.07474699198819,100 174.9351539974057,-37.07474699231884,100 174.9352210034032,-37.0747470036592,100 174.9353600055369,-37.074746998849655,100 174.93541500357335,-37.07474699157856,100 174.93556499200358,-37.07474699285926,100 174.9357710071193,-37.074745991820485,100 174.93592399335677,-37.074745999582916,100 174.93593900221538,-37.0747430055872,100 174.9359460078518,-37.07476499713384,100 174.93598900756783,-37.07489799144897,100 174.93600700335764,-37.074893999614645,100 174.93631899476492,-37.07482200032175,100 174.9364820067385,-37.07478499980897,100 174.9365130009877,-37.074778003405235,100 174.93652565551614,-37.07477505139318,100 174.9366285346713,-37.07505477079093,100 174.93672179655718,-37.075308287156545,100 174.93682782615832,-37.075596514426216,100 174.93702038761938,-37.0755957985545,100 174.93718496906408,-37.07559522587681,100 174.93731682048406,-37.07559475875826,100 174.93734424887427,-37.07559468642255,100 174.93753315542904,-37.075594003300544,100 174.9377220619899,-37.07559332077847,100 174.93787974194873,-37.075592592243744,100 174.93804071971027,-37.075150309388846,100 174.93799973997636,-37.07507007497926,100 174.93752633728053,-37.0741437767517,100 174.93758900396116,-37.07412300362949,100 174.93764500789882,-37.07410499726143,100 174.93773600876028,-37.074074996876554,100 174.9379829914474,-37.07399399637556,100 174.93819300169386,-37.07392499205086,100 174.93841600037246,-37.07385199320435,100 174.93843699693312,-37.07384500382821,100 174.93864099787083,-37.07377799688095,100 174.9388639956346,-37.07370499631367,100 174.93908800469563,-37.07363100089292,100 174.93931499277357,-37.07355699958964,100 174.93912199476617,-37.07317999314016,100 174.93904800453248,-37.07315500540758,100 174.9393619978848,-37.07305200166385,100 174.93933099769575,-37.073111005106526,100 174.9395239961429,-37.07348799587956,100 174.93973299950972,-37.0734190071266,100 174.93994299955114,-37.073351008441996,100 174.9401009967823,-37.07329900557713,100 174.9401500024685,-37.07328299894646,100 174.9399390027127,-37.07286200716801,100 174.93996200834326,-37.07285499727256,100 174.94014799623665,-37.072793993959706,100 174.9403620090171,-37.073212994672915,100 174.94057199834248,-37.07314400274081,100 174.9407809924043,-37.073076003728936,100 174.94098999305007,-37.073006998405646,100 174.94119999803814,-37.072938004214386,100 174.94140900892094,-37.07287000383083,100 174.94161899589096,-37.072800994779044,100 174.94182799533422,-37.072732002433234,100 174.94201000592534,-37.072671995991676,100 174.94201099331718,-37.07274399372387,100 174.94201099528937,-37.0729260000193,100 174.94201100306842,-37.07310699857346,100</coordinates></LinearRing></outerBoundaryIs>
    </Polygon>
  </Placemark>

  <Placemark>
    <name>Rosehill</name>
    <Point>
      <altitudeMode>relativeToGround</altitudeMode>
      <coordinates>174.9360887797847,-37.08586558330944,100</coordinates>
    </Point>
  </Placemark>

</Document>
</kml>