<?xml version="1.0" encoding="utf-8"?>
<kml xmlns="http://www.opengis.net/kml/2.2">
<Document>
  <name>Saint Heliers (polygon: official_shp)</name>
  <open>1</open>

  <Placemark>
    <name>Saint Heliers (polygon: official_shp)</name>
    <Style>
      <LineStyle><color>ffff0000</color><width>2</width></LineStyle>
      <PolyStyle><color>66ff0000</color><fill>1</fill><outline>1</outline></PolyStyle>
    </Style>
    <Polygon>
      <tessellate>1</tessellate>
      <altitudeMode>relativeToGround</altitudeMode>
      <outerBoundaryIs><LinearRing><coordinates>174.85071190500003,-36.84979509999994,100 174.85098483900003,-36.84980910599995,100 174.85115580800004,-36.849833826999934,100 174.85140768500003,-36.849916619999924,100 174.8516952750001,-36.850067317999965,100 174.85206978300005,-36.85028968599994,100 174.85248981900008,-36.85051590599994,100 174.85252683400006,-36.850520592999935,100 174.8527644820001,-36.85055068099996,100 174.85341051800003,-36.850582723999935,100 174.85495416600008,-36.85048493299996,100 174.8558380400001,-36.850328986999955,100 174.85637208100002,-36.850199558999975,100 174.85741704700004,-36.84993315899992,100 174.85804720600004,-36.84971535399995,100 174.8587882600001,-36.84934313599995,100 174.85914080800012,-36.84915862199995,100 174.85936038900005,-36.84902883499996,100 174.8594212710001,-36.849020377999985,100 174.85948471300003,-36.84901938499996,100 174.85959685700004,-36.84913664499994,100 174.85966390500005,-36.84911884999997,100 174.8598647980001,-36.84902883899996,100 174.8600335220001,-36.848963021999964,100 174.86028902200007,-36.848890616999945,100 174.86052806600003,-36.848826295999956,100 174.86070256800008,-36.848753313999964,100 174.86071224900002,-36.84873685099995,100 174.86072766600012,-36.84830847499996,100 174.86075202900008,-36.84817283199992,100 174.8608819950001,-36.84787675199993,100 174.8611220780001,-36.84733185199996,100 174.86124993400006,-36.84717007599995,100 174.86155488800014,-36.84678357299998,100 174.86160725500008,-36.84664740099998,100 174.86165671100002,-36.846398719999975,100 174.86167353423434,-36.84620312272113,100 174.8616750120058,-36.846201266372006,100 174.86168094277585,-36.84619369962274,100 174.86168597537616,-36.84618424242991,100 174.86168965387026,-36.846175181403616,100 174.8616919176325,-36.84617261770557,100 174.86170924514153,-36.84614101867883,100 174.8617151514107,-36.84613517024961,100 174.86171743318792,-36.8461300663166,100 174.861724711916,-36.84612060187609,100 174.8617380252077,-36.84608362078728,100 174.86174394914067,-36.84607198102476,100 174.86176544840677,-36.84602262259552,100 174.8617704970863,-36.846006662040104,100 174.8617746067503,-36.84599757713105,100 174.86177786465615,-36.84598056213075,100 174.86178380568688,-36.84596824069172,100 174.86178745876694,-36.845959519862475,100 174.86179071119818,-36.84594033724515,100 174.86179254847096,-36.84593669682622,100 174.86179718745618,-36.845916421704494,100 174.86180269427328,-36.84589757241323,100 174.86180862475473,-36.845884862664306,100 174.8618145860843,-36.845870696781304,100 174.86182371222677,-36.84585218556989,100 174.86183282004512,-36.84583943866024,100 174.86184102013,-36.84582634904383,100 174.86186382420118,-36.845783814866444,100 174.86186749873175,-36.84577329734485,100 174.8618707006338,-36.845769649065076,100 174.861882084221,-36.84575219940234,100 174.86190215658627,-36.845714760880284,100 174.8619089689006,-36.84570530373611,100 174.8619194729449,-36.845688581704486,100 174.86192493312603,-36.84568348565532,100 174.86193956300488,-36.845662092274964,100 174.86194189046972,-36.845654850564614,100 174.86194962803958,-36.845645765592856,100 174.86196157164517,-36.84562149127906,100 174.86196795703557,-36.84561352891891,100 174.86198071807087,-36.84560043903805,100 174.86199716800837,-36.84557867372688,100 174.8620081078012,-36.84556595488445,100 174.86201725448626,-36.84555398069441,100 174.86202280841766,-36.84553624470052,100 174.8620241898367,-36.84553299899305,100 174.86202930558207,-36.84550986638162,100 174.8620385336465,-36.84548164441308,100 174.86204085087962,-36.84547657056357,100 174.86204314312806,-36.84546861735108,100 174.86205326121717,-36.845446527616176,100 174.86205830267372,-36.84543674578953,100 174.86206198925237,-36.845427327697685,100 174.8620718780332,-36.84539729050593,100 174.86211714436863,-36.84532645947228,100 174.8621201505786,-36.845324044940334,100 174.8621220080949,-36.845321147797726,100 174.86212379293124,-36.84532006256907,100 174.86213064229514,-36.84531134933173,100 174.86214202685107,-36.84530295981444,100 174.86215704291297,-36.84529346965086,100 174.86216388561533,-36.84528836544771,100 174.86217250887785,-36.84528398775829,100 174.86218477608696,-36.84527629465558,100 174.86218842358716,-36.84527446638419,100 174.86219980850277,-36.84526609217848,100 174.86220982062824,-36.84525808289031,100 174.86221940430485,-36.845248268638564,100 174.86226397466163,-36.845221230606306,100 174.86226668597834,-36.8452212151593,100 174.86227348452692,-36.8452190067189,100 174.86229623249093,-36.84520403966421,100 174.86230764714773,-36.845188432697626,100 174.86231994481253,-36.845179315,100 174.86233903944094,-36.84517051261034,100 174.8623431348715,-36.84516796436155,100 174.8623695248707,-36.84514646144769,100 174.8623736253486,-36.84514282701423,100 174.86238596791483,-36.84512830332075,100 174.862393694445,-36.84512140242005,100 174.86240644632227,-36.84511117706967,100 174.8624265267076,-36.84508758368935,100 174.86243655830924,-36.845074508593726,100 174.86244481713078,-36.84506038058323,100 174.86245396099403,-36.84504769435248,100 174.86246083682116,-36.8450360991247,100 174.86247738688496,-36.84499808657862,100 174.86248238684485,-36.844991913415015,100 174.86249017580562,-36.844979590020245,100 174.86249383152136,-36.84497486563254,100 174.86250985854662,-36.84494695889684,100 174.86251628761892,-36.84493354456975,100 174.86252042751838,-36.84492233742677,100 174.8625350747551,-36.844901671978306,100 174.86255611152916,-36.84486540889195,100 174.86256114657604,-36.8448592495965,100 174.86257121294665,-36.844840399113245,100 174.86258491849424,-36.844825156407154,100 174.86258536134844,-36.84482297905986,100 174.86259449810993,-36.84481388473621,100 174.86260860756005,-36.844801515451515,100 174.8626095253131,-36.844798989957695,100 174.8626236492107,-36.844785875944936,100 174.86262547855736,-36.8447851469386,100 174.86265105318722,-36.84475320400046,100 174.86266337532996,-36.84473470031846,100 174.86267803651248,-36.8447125789836,100 174.86268856282382,-36.8446941061502,100 174.8626977358902,-36.844676710887036,100 174.86270279088546,-36.844662962962275,100 174.8627060492904,-36.84465175610932,100 174.86270698307646,-36.8446459630364,100 174.86270610313048,-36.84464020199697,100 174.86270667679187,-36.844620352894204,100 174.86270629322098,-36.84460990616359,100 174.8626975863169,-36.8445550929523,100 174.86269648754475,-36.844512166229215,100 174.8626951971016,-36.844498823312655,100 174.86269567165573,-36.844495918994774,100 174.8626939457232,-36.844481128154676,100 174.8626940242171,-36.84447248495673,100 174.86269543916012,-36.84446271938441,100 174.8626986581399,-36.84445007282141,100 174.86269752309317,-36.84441868461247,100 174.86269742981037,-36.84441622512451,100 174.8627490890001,-36.84435095599997,100 174.86279817499073,-36.844309765636396,100 174.86281683763386,-36.84431674320161,100 174.86282455780764,-36.84431670240818,100 174.86285079236893,-36.84431903573854,100 174.8628544152248,-36.84432081586399,100 174.86286214125693,-36.84431967625303,100 174.86287980267682,-36.84431989694193,100 174.8628951774488,-36.844321226056955,100 174.86291057673643,-36.84432148580638,100 174.8629205606212,-36.844322117968474,100 174.8629676814358,-36.844319985852934,100 174.8629781234415,-36.844317730172826,100 174.8629940156188,-36.84431256067526,100 174.86302528173485,-36.84430799291222,100 174.86303983935775,-36.844303931335595,100 174.8630706528273,-36.84430118323449,100 174.86308608027366,-36.84429673486484,100 174.8631278550293,-36.84428272312181,100 174.86313056396622,-36.84428196409421,100 174.86315372863982,-36.84427096972466,100 174.863166893113,-36.84426583305325,100 174.86318960324104,-36.84425916768794,100 174.8632059695746,-36.8442510794275,100 174.8632268685756,-36.84424191962291,100 174.8632400263646,-36.844234613543165,100 174.86324822728494,-36.844230584904764,100 174.86326684163856,-36.84422321670663,100 174.8632963747359,-36.84421073441141,100 174.86333502713276,-36.84418590419622,100 174.86334322956478,-36.844179350897925,100 174.8633805228804,-36.844156697962525,100 174.8633837207083,-36.84415164002407,100 174.8633996568581,-36.8441403380247,100 174.86340376471625,-36.84413377771836,100 174.86341289699092,-36.84412325839811,100 174.8634188711433,-36.844110238728845,100 174.86342297118858,-36.84410659074667,100 174.86343847572,-36.84408697892346,100 174.86345714958966,-36.8440727785708,100 174.8634699417073,-36.844055723088196,100 174.86347313836293,-36.84405315824888,100 174.8634850013709,-36.844037558562505,100 174.86348636083156,-36.8440353983859,100 174.86349185710588,-36.84403101285078,100 174.86350504954194,-36.84401792956489,100 174.86351102529846,-36.84400562372051,100 174.8635128413876,-36.84400379528412,100 174.86352336393298,-36.84398711969263,100 174.863537480843,-36.8439743770315,100 174.8635497765619,-36.843964546286266,100 174.86356030463395,-36.84395003920868,100 174.86356439600303,-36.84394603443046,100 174.86357994022546,-36.8439221009832,100 174.86358862877256,-36.84391048988465,100 174.86360233705335,-36.843893434442855,100 174.8636073337324,-36.84388907296076,100 174.86361373127676,-36.84387963754749,100 174.86361735878333,-36.84387708217202,100 174.86362700133748,-36.843860422173684,100 174.86363335914325,-36.84385530926745,100 174.863657640552,-36.84381253166052,100 174.86365946678748,-36.84381107531275,100 174.86366633915657,-36.84379805596689,100 174.86367228017147,-36.84378898643972,100 174.8636804836505,-36.84377989224845,100 174.8637082693848,-36.84376020677297,100 174.86370871892836,-36.84375765977077,100 174.86371649157573,-36.84374860388003,100 174.86372379363286,-36.84373554624585,100 174.86374002228544,-36.84372488857341,100 174.86375543429048,-36.84371532981042,100 174.863770395945,-36.84370251078121,100 174.86377492553976,-36.84369812687339,100 174.86378083729045,-36.84369117863302,100 174.8637967077991,-36.84368198312147,100 174.86382434610255,-36.84366906893158,100 174.8638338685868,-36.84366534220397,100 174.86384410486744,-36.843659929606844,100 174.86384427525,-36.84365983409754,100 174.86385509272796,-36.84365544981703,100 174.86386455885463,-36.84364963288161,100 174.86387852460092,-36.84364415638262,100 174.86387953036757,-36.84364357629529,100 174.86396350300006,-36.84367551799994,100 174.86419249000005,-36.84385179599997,100 174.86443190772323,-36.84388861152766,100 174.86444057582037,-36.84389684879084,100 174.86445081302222,-36.84390754382166,100 174.86445616997406,-36.843911461691,100 174.86446197186007,-36.84391716893329,100 174.8644748969417,-36.84392891691074,100 174.8644820248379,-36.843936397899604,100 174.86448423587024,-36.843939611609876,100 174.86448631559193,-36.843941805270354,100 174.86449660400095,-36.843952484170984,100 174.8645012363448,-36.843955795093095,100 174.86451091968198,-36.843965802078735,100 174.86452062105354,-36.84397391958992,100 174.8645289597577,-36.843977599592726,100 174.86453679587336,-36.84398575087338,100 174.86454884407374,-36.843993115003876,100 174.86455484959674,-36.843998664017484,100 174.86457151965894,-36.84400899942786,100 174.86457569780706,-36.844010832078844,100 174.8645932817416,-36.844023009890584,100 174.86460257378545,-36.84402743295023,100 174.86461321287786,-36.844034449636624,100 174.86463083826678,-36.84404367042519,100 174.86466326207486,-36.84406359667772,100 174.86467809341423,-36.844071686863565,100 174.86469619721203,-36.84407941113629,100 174.86469849138132,-36.844081245402194,100 174.8647523758825,-36.844100739356804,100 174.8647787642667,-36.844114623113306,100 174.86479800962462,-36.844122389846945,100 174.86481089545927,-36.84412877908589,100 174.8648282147351,-36.844134952739836,100 174.86484660013545,-36.844141618914044,100 174.8648508983367,-36.84414405356329,100 174.86486601324063,-36.844149181105976,100 174.8648845383284,-36.84415781178721,100 174.86488943160757,-36.844159260053814,100 174.86489833286322,-36.844163937088254,100 174.8649005743567,-36.84416572620883,100 174.8649156891309,-36.84417472586658,100 174.8649241708227,-36.84417727332769,100 174.86494647216824,-36.844186287293915,100 174.864954043573,-36.84418843262263,100 174.86497545829076,-36.844195294597725,100 174.86499244478063,-36.84420000157561,100 174.8649986894671,-36.84420288337873,100 174.86502456316674,-36.8442104883704,100 174.8650499920589,-36.84421949469653,100 174.8650660869705,-36.844223830787264,100 174.86507099547404,-36.84422456675562,100 174.86512374329632,-36.84423580956413,100 174.86514298987095,-36.844239100210544,100 174.8651572862485,-36.84424270829857,100 174.86516890140848,-36.8442448919993,100 174.86517647631118,-36.84424778085708,100 174.86518405443496,-36.84425209466857,100 174.86519207104905,-36.84425534703996,100 174.86520009051256,-36.844260009048206,100 174.8652076670174,-36.84426360993054,100 174.86523083666864,-36.84427406496327,100 174.8652352750292,-36.84427659023562,100 174.86524596509517,-36.844281639359025,100 174.86527139291425,-36.84429064565388,100 174.86528749319163,-36.84429321682335,100 174.8653049615083,-36.844293982783746,100 174.86532156859897,-36.84429295058336,100 174.86537970876887,-36.84430171560501,100 174.86539581025886,-36.844304982568424,100 174.86543155176707,-36.84431333120765,100 174.86543332533145,-36.84431441561121,100 174.86547353680928,-36.84432455892787,100 174.8655208659412,-36.84433797139498,100 174.86554361407315,-36.844345568551915,100 174.8655503285375,-36.844346644795294,100 174.86558157372846,-36.84435677379622,100 174.86562883048367,-36.84437518974416,100 174.86567784959783,-36.844396811982364,100 174.86569922440114,-36.844407979209606,100 174.8657183779483,-36.84441556065742,100 174.8657548215819,-36.84442820113043,100 174.86582939159572,-36.844451843141535,100 174.86586556107588,-36.844467136896576,100 174.86589277649114,-36.844477706741216,100 174.8659307592989,-36.844485938017215,100 174.8659688496949,-36.844500717565154,100 174.86600695696433,-36.84451549863837,100 174.86603682428725,-36.84452383927946,100 174.86608837767994,-36.84453626402786,100 174.86613460908367,-36.84455313386467,100 174.86617812098905,-36.84456783542256,100 174.8662134770453,-36.84458047931098,100 174.86625907347437,-36.84459429274143,100 174.8662678469417,-36.84459809017617,100 174.86629132229456,-36.844609623597684,100 174.86630619622446,-36.84461608690591,100 174.86631792873953,-36.84462004968027,100 174.86633416871015,-36.84462398042388,100 174.8663405017586,-36.84462758724035,100 174.86636214523836,-36.844635868571004,100 174.86637478234633,-36.84463944488364,100 174.86640411335415,-36.844650953920485,100 174.86641673705464,-36.844652733184994,100 174.86642755745427,-36.84465234422556,100 174.8664352025981,-36.84465267572371,100 174.86644781995037,-36.844652302706045,100 174.86646402972744,-36.84465443755311,100 174.86647439119886,-36.844653669126096,100 174.8664901561313,-36.84465471223356,100 174.86651043400383,-36.84465719418877,100 174.8665279966169,-36.84465823699829,100 174.86655416821256,-36.8446647058031,100 174.86656903961963,-36.844667189741024,100 174.8665825683196,-36.84467113599466,100 174.86660513636588,-36.84467975878452,100 174.8666164005958,-36.84468300241144,100 174.86662993232682,-36.844685136035295,100 174.8666394008637,-36.84468910729764,100 174.86665159231686,-36.8446934026319,100 174.86667682851126,-36.84469912808242,100 174.8666881145947,-36.844701287057966,100 174.8667183025475,-36.84470482109902,100 174.86672551508715,-36.844707700225705,100 174.8667367859497,-36.84471057058585,100 174.86677020168366,-36.844724951905384,100 174.86678464306607,-36.84473396279936,100 174.8668027005618,-36.844741889371015,100 174.86681852344674,-36.844753431129,100 174.86683340600175,-36.84475955443288,100 174.86686274946572,-36.84477539856115,100 174.86688939752707,-36.844787991561,100 174.86691287164555,-36.844802050406166,100 174.86692461698377,-36.84481036544551,100 174.86693906253967,-36.84481756367805,100 174.86694766574905,-36.84482404159066,100 174.86696032493987,-36.84483161309337,100 174.86700140204485,-36.84485468900492,100 174.86701495133465,-36.84486261516248,100 174.8670311923727,-36.84486981401876,100 174.86704296868066,-36.84487990868809,100 174.86705694631837,-36.844886403107,100 174.86706551420244,-36.84488962956374,100 174.86709258296952,-36.844895355877604,100 174.8671047440055,-36.844898582663866,100 174.86712143900186,-36.84490143717102,100 174.86715660031285,-36.8449100269433,100 174.86717644263922,-36.844916868153604,100 174.86720668357745,-36.844929446092245,100 174.86721976284394,-36.84493340023488,100 174.86723510805712,-36.84493553503955,100 174.86725087114152,-36.84493838974928,100 174.8672647672153,-36.84493930910504,100 174.86752389900005,-36.84505325799995,100 174.86817131100008,-36.845269991999935,100 174.86917196000002,-36.84545187899994,100 174.8695796676726,-36.84558366901588,100 174.8695380070652,-36.84567699475004,100 174.87002300191708,-36.845762996043916,100 174.87009000699695,-36.84577499742731,100 174.87014000835717,-36.84617799936756,100 174.86997200178172,-36.84608399977376,100 174.86984499611285,-36.846058995217476,100 174.86968399354623,-36.84614000088197,100 174.8697060042896,-36.84638999909745,100 174.86936099250656,-36.846470002770026,100 174.8693770045078,-36.84651299582767,100 174.8699190058518,-36.846388002436036,100 174.8699230063404,-36.8463980001378,100 174.86997399574844,-36.84654100416135,100 174.8700280019905,-36.84669399158966,100 174.87003099840615,-36.84670199421909,100 174.87008299237004,-36.84684699414577,100 174.87013800091788,-36.846999996384234,100 174.87022700509064,-36.847247992866855,100 174.87024699814873,-36.84730600059244,100 174.87030200738917,-36.84745900272532,100 174.87035700002326,-36.847612004186495,100 174.87041199176772,-36.84776500562996,100 174.8704290050969,-36.847814996917016,100 174.8704659918774,-36.84791900059285,100 174.87029699713213,-36.84795800563555,100 174.87035100403298,-36.84811099375492,100 174.87041400741523,-36.84828499626278,100 174.87009299498123,-36.84834999671447,100 174.87014800096713,-36.84852599637525,100 174.87023500095538,-36.848508006687666,100 174.87057599494,-36.84886400086808,100 174.8705670055531,-36.84892799437948,100 174.87056900490904,-36.84893999295803,100 174.8706019988428,-36.84910299467041,100 174.87063500016734,-36.84926500478871,100 174.87065400610192,-36.84935499542089,100 174.8706730071724,-36.84944800557964,100 174.8706969934365,-36.84956899204762,100 174.8706580048064,-36.84965899878295,100 174.87065699693252,-36.849662005260676,100 174.87057600669903,-36.849844998144775,100 174.870560992797,-36.849879004598804,100 174.87113599323715,-36.85006399678005,100 174.87113500331512,-36.85006700297881,100 174.8711280036978,-36.85008999885338,100 174.87108000404442,-36.85024000490214,100 174.87105700103152,-36.850370000821094,100 174.87102599846685,-36.85055200141485,100 174.87099499577354,-36.850734001999356,100 174.8709679987378,-36.85088700322192,100 174.87094100115368,-36.85104900331889,100 174.87095199159094,-36.85107800541822,100 174.87095800445277,-36.85109600493998,100 174.87102999410132,-36.85128600381619,100 174.87109200662942,-36.85145000315373,100 174.87116999999716,-36.85165699569898,100 174.87108799238993,-36.85191200580486,100 174.87103199158793,-36.85208699194864,100 174.87081399524956,-36.852041995703615,100 174.87047300887562,-36.851972002408,100 174.87032999901018,-36.85194199477473,100 174.87028699689284,-36.85193300032077,100 174.87027899853575,-36.851959993936845,100 174.87019800184882,-36.852236002944494,100 174.870146998634,-36.852224994608044,100 174.8699479938123,-36.85218400444006,100 174.8698049936487,-36.85215500190874,100 174.8697500001936,-36.85214400030345,100 174.86958699769315,-36.852110001595776,100 174.8695509942509,-36.85210299325796,100 174.86936999628983,-36.85206599292012,100 174.86935200791766,-36.852061999988756,100 174.86915300237325,-36.85202099226402,100 174.86915200085377,-36.85202099359596,100 174.86895500001924,-36.85197999726755,100 174.8688610061968,-36.85196100002428,100 174.86875600590272,-36.851939994575794,100 174.86875300334896,-36.85194399592735,100 174.86862099997427,-36.85212099729966,100 174.86848900436337,-36.85229700604188,100 174.86815099771513,-36.852414999137665,100 174.86797600762083,-36.852609997347656,100 174.86785000419997,-36.852750003124534,100 174.868057001711,-36.852792005028064,100 174.8681599996054,-36.85281299929613,100 174.86812000409898,-36.852858002325846,100 174.86801900750464,-36.85297000742078,100 174.86800100733635,-36.85299000336244,100 174.86789899320414,-36.85310399285688,100 174.86777900297224,-36.853237002557066,100 174.8676590050346,-36.85337100282089,100 174.8675390067046,-36.85350500387338,100 174.86741899802385,-36.85363799728311,100 174.8672989988667,-36.853771998110915,100 174.86717899927334,-36.85390599792543,100 174.86705900768877,-36.85403900693393,100 174.86693900729017,-36.85417300742476,100 174.8668189965483,-36.85430600027263,100 174.86668700762792,-36.85445299945217,100 174.86656600439306,-36.85458700090581,100 174.86644499961915,-36.8547210022628,100 174.86632499710603,-36.85485500217878,100 174.86620399147614,-36.854989002407194,100 174.86608300338906,-36.85512300314061,100 174.86596299962937,-36.855257002717664,100 174.86584199274753,-36.85539100260424,100 174.86572100340857,-36.85552500299586,100 174.86558899353935,-36.8556720022096,100 174.86546400840163,-36.855810996252806,100 174.8653380033268,-36.85594999265794,100 174.86521299130078,-36.85608999364957,100 174.86508700249152,-36.856229003959626,100 174.86496199761837,-36.85636799779478,100 174.8648360075576,-36.85650699344222,100 174.8647109948501,-36.8566469939266,100 174.86458500425886,-36.856786004643965,100 174.86445999758928,-36.856924997989395,100 174.86432799974608,-36.85707199473924,100 174.86420699566878,-36.85720500238766,100 174.86408700224675,-36.85733899904318,100 174.86396699891048,-36.85747200427273,100 174.86384700578242,-36.85760600068594,100 174.86372599855434,-36.8577389925808,100 174.86360600384805,-36.857873004102686,100 174.86348599963256,-36.858005994448334,100 174.86336500100424,-36.85813999173169,100 174.86324499519154,-36.858272996284974,100 174.8631249995782,-36.8584069920221,100 174.86299200243033,-36.858552998002494,100 174.86287200484776,-36.858686994421234,100 174.86285100736285,-36.858709999258785,100 174.86275199732202,-36.85881999761172,100 174.8626319988903,-36.85895399290473,100 174.8626560051257,-36.85903999642179,100 174.86268000189094,-36.859125006815425,100 174.86269200522597,-36.859167992340815,100 174.8625869976427,-36.85919799603017,100 174.86247599706365,-36.85922999266479,100 174.86241800126447,-36.85924699402959,100 174.86235900272254,-36.859263997562664,100 174.8621999981554,-36.85931000396839,100 174.86218600575154,-36.85931399441869,100 174.86193200362123,-36.85938699504103,100 174.86188099753045,-36.85928699497028,100 174.86170200470517,-36.859345999226726,100 174.86166600782522,-36.8593580046904,100 174.8615239963731,-36.859405001312794,100 174.86132000860513,-36.859471994783334,100 174.86114199968807,-36.85953099721314,100 174.86113399492783,-36.859555992083685,100 174.86105699988576,-36.859541000232056,100 174.86087199589295,-36.8595039940056,100 174.8606020059285,-36.859451003722796,100 174.86067099649097,-36.85965100289889,100 174.86059299729808,-36.85990700498105,100 174.86084100143802,-36.86001899360946,100 174.86105200041698,-36.860115004777455,100 174.86124699327684,-36.86020300559725,100 174.86142500352727,-36.86028399209337,100 174.8615760066098,-36.86035200136903,100 174.86170599990982,-36.8604110045595,100 174.86166500061896,-36.860562000420714,100 174.8616559927871,-36.860595994589524,100 174.86163200086784,-36.86068400405269,100 174.8616250014179,-36.860710995869916,100 174.86159300183382,-36.8608310008949,100 174.8615560060496,-36.86096699715784,100 174.86154499199333,-36.8610079954337,100 174.86150600810006,-36.86115299375945,100 174.86145799825948,-36.86133000358201,100 174.86144700769714,-36.86136799824984,100 174.8614150062325,-36.8614860050037,100 174.86138400323526,-36.86159999961171,100 174.86137300695046,-36.86164099759156,100 174.8613309994114,-36.861796997077356,100 174.8613280013035,-36.86180699201601,100 174.86128399611124,-36.86197100134501,100 174.86126900268653,-36.86202599197448,100 174.86124700668574,-36.862106006841124,100 174.8612200027733,-36.86220800695967,100 174.86120000378418,-36.86227999574321,100 174.86116900190981,-36.86239600294027,100 174.86115799559687,-36.86243599517154,100 174.86111599460463,-36.86259100300841,100 174.86110999937787,-36.86261099195696,100 174.86107400404285,-36.862747002127804,100 174.86105900787675,-36.86279999542507,100 174.86103199540452,-36.862903002415216,100 174.86106399147425,-36.863038997682985,100 174.86108899951054,-36.86314499168434,100 174.86104399421507,-36.86331299864463,100 174.86142699874927,-36.863380001360646,100 174.86142000637028,-36.86340600158577,100 174.86138599507754,-36.86352899890586,100 174.8610030077645,-36.86346199579804,100 174.86096000703242,-36.8636210012976,100 174.86095699333424,-36.86363299381545,100 174.86091900615747,-36.86377399423764,100 174.86085800718558,-36.863850005969255,100 174.86080399129233,-36.863919005028364,100 174.86074699377184,-36.86406699367929,100 174.86071800355072,-36.86406199643571,100 174.86067500441624,-36.86422300005094,100 174.86066000770592,-36.86427599240013,100 174.86063100230965,-36.86438400493368,100 174.86057799380103,-36.8645810021011,100 174.86057399649638,-36.8645949938366,100 174.86052999511773,-36.864755998666695,100 174.86052599951898,-36.86477200394309,100 174.86047400746872,-36.86496500397182,100 174.86043800024225,-36.86510000733043,100 174.86041800120344,-36.86517399331526,100 174.86039600429697,-36.865253992699735,100 174.86033099628682,-36.865494003381166,100 174.86022999216428,-36.86539700370373,100 174.8600660047967,-36.86549299198747,100 174.8599379917671,-36.86556700223731,100 174.85992200718158,-36.86557599715205,100 174.85977499703364,-36.865661997546134,100 174.85962599884618,-36.865748000033854,100 174.8591100020368,-36.86567199801443,100 174.85899899173532,-36.865736994724045,100 174.85904800691276,-36.865791003405704,100 174.85915999683155,-36.865914993753236,100 174.85927200318662,-36.86603899905376,100 174.85918899721565,-36.86608700210345,100 174.85932909927044,-36.86624320033047,100 174.85946939621005,-36.86639894556826,100 174.85917867973777,-36.866568037076995,100 174.85917172423777,-36.86657157997775,100 174.85929203030173,-36.866706082034526,100 174.8592989404863,-36.86670150240602,100 174.85952050797806,-36.86657258618488,100 174.85966065382505,-36.86672844260218,100 174.85979920828785,-36.866647916869944,100 174.85990542009634,-36.86676579576825,100 174.85995948761368,-36.86682580442494,100 174.8600116329998,-36.86688370609479,100 174.8601197683909,-36.86700372056943,100 174.85992035170818,-36.86711964911834,100 174.86006159075808,-36.86727494441283,100 174.85990013393715,-36.86736882793137,100 174.8598931451319,-36.867372386718394,100 174.86000204476545,-36.867493177984734,100 174.86000837978378,-36.86748902643712,100 174.86012595290956,-36.86742064880264,100 174.86020798464298,-36.867506639280194,100 174.86038919412576,-36.8674199397095,100 174.86046586391896,-36.86750504773765,100 174.86062589877685,-36.86768270561399,100 174.86063381120792,-36.86770589277115,100 174.8606949380848,-36.86788556989802,100 174.86074767531446,-36.86804101456,100 174.86076507933024,-36.868092131249085,100 174.86077809674063,-36.86813037625918,100 174.86079463893796,-36.86817898271969,100 174.86112760535565,-36.86818718017814,100 174.86123836533534,-36.86831987831213,100 174.86118082350094,-36.86835088678396,100 174.86101139930273,-36.86844215387379,100 174.86085526093714,-36.868526238162026,100 174.86080032422723,-36.86855583833509,100 174.8607605316662,-36.86857724798389,100 174.8606105745467,-36.86874959329626,100 174.8606054473104,-36.868771720086976,100 174.86060298493044,-36.8687823555684,100 174.8605752512142,-36.868901140631124,100 174.86054220071037,-36.86904275216909,100 174.8605134147541,-36.869166123428464,100 174.8604920005478,-36.86925699991729,100 174.86037499146693,-36.86929300058192,100 174.86013934866838,-36.86923072633564,100 174.86009055440314,-36.86934942369781,100 174.8600887801095,-36.86935374270123,100 174.86007870490334,-36.86937825072939,100 174.86007418283089,-36.869389258246684,100 174.85984030364972,-36.86932273577699,100 174.85980730039546,-36.869402884779916,100 174.859697326958,-36.8693736572596,100 174.85951511676322,-36.869325232561074,100 174.85949898342952,-36.869364448599555,100 174.85943425139183,-36.869390639403186,100 174.8594089396838,-36.86938392134652,100 174.85939712499993,-36.8693807857507,100 174.8592825584226,-36.8693503759775,100 174.85919134999963,-36.869358687605384,100 174.85891988104837,-36.869649545214386,100 174.85892441498683,-36.869656885902955,100 174.85892812659293,-36.86966450264555,100 174.85893096358353,-36.869672367417714,100 174.85893290613808,-36.86968040301538,100 174.8589339190859,-36.869688546895865,100 174.8589340346054,-36.869696738166716,100 174.85893321601137,-36.869704898084926,100 174.85893147978268,-36.8697129660037,100 174.85887191551936,-36.86993133898284,100 174.8584545083186,-36.86985784434265,100 174.85835014418626,-36.869994521955675,100 174.85828449523163,-36.87008046294938,100 174.8581862444054,-36.87007938666192,100 174.8580734204168,-36.87007814432093,100 174.85786829252507,-36.870075923405984,100 174.85762985544466,-36.87007333332264,100 174.85739824953123,-36.870037961893104,100 174.85737120506104,-36.87003344179287,100 174.85715996558213,-36.86998354836472,100 174.857138573855,-36.869978465753015,100 174.85697921017422,-36.86994085742937,100 174.8568148022751,-36.869902017189546,100 174.85679586417226,-36.86989754332388,100 174.8568982608443,-36.86978476588629,100 174.8567558769349,-36.86960204379274,100 174.85690020675307,-36.869481294939916,100 174.85675262569472,-36.869323302699655,100 174.85684442120552,-36.8692735703998,100 174.8568516226378,-36.86927016259368,100 174.85685927452852,-36.86926747511973,100 174.85675677584538,-36.869134584250354,100 174.85675241603303,-36.86914021899248,100 174.85674724957462,-36.86914538773457,100 174.85674134187752,-36.86915001194006,100 174.8567347792758,-36.86915404339056,100 174.8565357407657,-36.869261890837016,100 174.85650549151433,-36.869277713136626,100 174.85647461537485,-36.86929275656095,100 174.85644318376785,-36.86930700557224,100 174.85641117570196,-36.86932042714889,100 174.85628279105075,-36.86916747744405,100 174.85615110507845,-36.86901057275704,100 174.85624407425618,-36.868960200666166,100 174.8561119435628,-36.86880279362241,100 174.85593376434892,-36.86889906740896,100 174.85583085830996,-36.8689546428163,100 174.85581880176758,-36.86893478016498,100 174.85574655189384,-36.86881572270912,100 174.85574094683298,-36.86881871523917,100 174.85572479386315,-36.868794277417365,100 174.85565384483303,-36.86868701330527,100 174.85562685189515,-36.868646206277475,100 174.85555386666383,-36.86853581834707,100 174.85552238966574,-36.868488227613774,100 174.85544901076727,-36.868377320285475,100 174.8554278863782,-36.86834533210437,100 174.855418953602,-36.86833179572951,100 174.8554093909747,-36.86831731017523,100 174.85535549571196,-36.8682358478018,100 174.8552779748529,-36.86811864705883,100 174.85526682735883,-36.86810175715669,100 174.85517808941583,-36.86796760533368,100 174.8551067128485,-36.86785980674029,100 174.85497875829623,-36.86782114281192,100 174.8549504149438,-36.86781260176552,100 174.85485080456507,-36.867782507573516,100 174.85492299519197,-36.867628268095594,100 174.85469901937202,-36.86756061001407,100 174.85477042968625,-36.86740819357455,100 174.85454718384267,-36.867338727449294,100 174.85459537911765,-36.867235868038385,100 174.85442265380843,-36.8671835855928,100 174.85430216188092,-36.86744061004164,100 174.85407783798783,-36.86737280117619,100 174.85385191398606,-36.867304540044046,100 174.8538158336169,-36.86738161958619,100 174.85360673568692,-36.86731838085204,100 174.8535374717421,-36.86729742659431,100 174.85340826408918,-36.86725836408272,100 174.85325059214156,-36.86721070056657,100 174.85323088974258,-36.867204736425286,100 174.85292657352937,-36.867112750110884,100 174.8529125396594,-36.86712624826312,100 174.85268156687997,-36.86734806563398,100 174.85259690487567,-36.86742940491278,100 174.85248779501666,-36.867534224595715,100 174.85231001378952,-36.867705071830315,100 174.85224880273944,-36.86776386173137,100 174.85213753711807,-36.86787077785009,100 174.85208857555688,-36.86791780364143,100 174.85204816066792,-36.86795813000086,100 174.85200780406598,-36.86799864201355,100 174.85188582829392,-36.86812067159925,100 174.85186649127505,-36.86814006856959,100 174.8517593784274,-36.86824725581058,100 174.85168247747458,-36.86832423273333,100 174.8514258021389,-36.86816163804794,100 174.8513957232808,-36.86814239376073,100 174.85121291141763,-36.86802678494664,100 174.85108356204887,-36.86794476111924,100 174.85099109763286,-36.867885798106784,100 174.85072307413594,-36.867716149076315,100 174.8506937641106,-36.86769723243135,100 174.85046150157967,-36.86754991864741,100 174.85041999595953,-36.86752399564979,100 174.850410997213,-36.86753000435721,100 174.85033500179782,-36.8675800021241,100 174.85018599793452,-36.86767799511451,100 174.85003299645695,-36.86777899931979,100 174.85001199439756,-36.867793004924664,100 174.8498640000532,-36.867890004756944,100 174.84985300558506,-36.86789699179305,100 174.84969399277998,-36.868002001835485,100 174.8495619911307,-36.86808900083051,100 174.84952299149023,-36.86811499209147,100 174.84938799282324,-36.86820300197288,100 174.8492960089167,-36.86817500256512,100 174.8491109986357,-36.868295992366846,100 174.84901599334458,-36.86835900022135,100 174.84892900194555,-36.86841600030935,100 174.84889300693683,-36.86838999643464,100 174.84885699403208,-36.86836399372839,100 174.84882000591273,-36.86833899855058,100 174.8487820074462,-36.86831499612429,100 174.84874399106118,-36.86829099396431,100 174.84870500060325,-36.868268000214094,100 174.848615004486,-36.86843999619696,100 174.84831699756475,-36.868784992884464,100 174.8481510059521,-36.86868699374938,100 174.84799299493991,-36.86861100331863,100 174.84786099939976,-36.86854700136168,100 174.8477569986048,-36.86854600043403,100 174.8476529966873,-36.86854499943267,100 174.8474729975521,-36.86856800626659,100 174.8472919939633,-36.86859099960328,100 174.84711199461057,-36.86861400679693,100 174.8469770042804,-36.86863100611852,100 174.84690899440818,-36.868639002668445,100 174.84684099531808,-36.86864800669963,100 174.84677399644377,-36.86865699334256,100 174.84670600485506,-36.868665005716466,100 174.84663900706826,-36.868673992266636,100 174.84657099750498,-36.868682004842896,100 174.84650400005305,-36.86869100663462,100 174.8463689926245,-36.8687080064349,100 174.84630099188507,-36.86871699395981,100 174.84633499276467,-36.86888699916443,100 174.84636199995137,-36.86902599459548,100 174.84637300088673,-36.86908100219986,100 174.84581599297965,-36.86915199832132,100 174.84578200530672,-36.86915600366488,100 174.84578999724403,-36.8691829996478,100 174.84585299805366,-36.8693480009415,100 174.84598500062097,-36.86982699295391,100 174.84601300423574,-36.86982799908599,100 174.8460399974459,-36.869829998854236,100 174.84606700857796,-36.86983199743656,100 174.84609400277105,-36.86983599542709,100 174.84612099841345,-36.869840006908895,100 174.84614799259,-36.86984400398601,100 174.84617400393333,-36.86985000015733,100 174.84619999733803,-36.86985599660165,100 174.8462260003942,-36.86986299967647,100 174.84625199591318,-36.869870994326256,100 174.84627700574433,-36.86987900518864,100 174.84630200049827,-36.86988899920715,100 174.84632599991636,-36.869898002802856,100 174.8463500014487,-36.869909004610534,100 174.84637400300952,-36.86992000731416,100 174.84671500077513,-36.87009099974421,100 174.84687400272557,-36.869892995418525,100 174.8481289921443,-36.87048700437297,100 174.84800199701488,-36.87069999465224,100 174.84789600023115,-36.870879992198574,100 174.84779899613804,-36.87104399269175,100 174.8477689929592,-36.871101005160256,100 174.8475859943277,-36.87138500387371,100 174.8491110043314,-36.87173600606761,100 174.85041300209295,-36.87240099711946,100 174.8510579993595,-36.87289699394982,100 174.84890300354343,-36.87252500176577,100 174.8486389946336,-36.872367003102774,100 174.84845600297243,-36.872302003561025,100 174.84828099810866,-36.87223900482058,100 174.8482360052019,-36.87222300581436,100 174.84801500344673,-36.87214399262469,100 174.8478399921325,-36.872082000109664,100 174.84776900046742,-36.872055993114586,100 174.84767799625916,-36.872000006306536,100 174.8475240003173,-36.87190500516528,100 174.847367992682,-36.87180900127233,100 174.8469769961857,-36.8715680003765,100 174.84684600540982,-36.87148799756109,100 174.8464840045495,-36.871265004410304,100 174.84610900477423,-36.87103399467399,100 174.84597399589543,-36.87095099328489,100 174.8456710033945,-36.87076399924151,100 174.84565799821902,-36.87077599157402,100 174.84558199220402,-36.87084599605204,100 174.84554600255268,-36.87089499530665,100 174.84544200532264,-36.871036006869694,100 174.84537199358954,-36.871130006166354,100 174.84507999845673,-36.8710050009614,100 174.845175002625,-36.870892996286635,100 174.84533400467464,-36.87065900204585,100 174.84555800445003,-36.870238002999145,100 174.84413900165075,-36.86970400286917,100 174.84359599787217,-36.86982500155239,100 174.8435090043633,-36.869845000826786,100 174.84369799625182,-36.86952599763158,100 174.84393499234514,-36.8691250049704,100 174.84093400571865,-36.86796400042772,100 174.84079799394476,-36.86815099427787,100 174.8401980037038,-36.86786899157159,100 174.83782799543079,-36.8667309981398,100 174.83837946805147,-36.8657454452549,100 174.83845191393854,-36.865707348074785,100 174.83848482458015,-36.86569013716078,100 174.83863318078158,-36.86561228735297,100 174.83868626725732,-36.86558440155643,100 174.8388535418069,-36.865496688371536,100 174.8390466346409,-36.86539541589527,100 174.8393895494954,-36.865215617115716,100 174.83942521057088,-36.865203097162514,100 174.83949369231354,-36.86517912961837,100 174.8397402700053,-36.865093109553946,100 174.83995924244314,-36.86501651266295,100 174.84008446382896,-36.8649727868244,100 174.84012586186822,-36.864958325579686,100 174.84015902695492,-36.864946794067514,100 174.84028275712032,-36.86490352826292,100 174.84044941118916,-36.86484535641785,100 174.84051983865672,-36.864990595857755,100 174.8405694994159,-36.86509292004526,100 174.84097116983918,-36.86495260968,100 174.84093225862702,-36.8648464624105,100 174.84085971917446,-36.86477736171187,100 174.84085103341695,-36.864769085951465,100 174.84080185769324,-36.86472222774499,100 174.84105954111143,-36.86463223560171,100 174.84101302865676,-36.86455023924851,100 174.84126293775938,-36.86446291970079,100 174.84125079393445,-36.86444156965639,100 174.8411610284471,-36.86428321938362,100 174.84114076231336,-36.8642474810359,100 174.84129886936196,-36.86418960990661,100 174.84128728461351,-36.864169118282256,100 174.84122691226074,-36.8640623158087,100 174.84114394487602,-36.8640833892886,100 174.840958815931,-36.86415115458978,100 174.84086497464358,-36.86404238641001,100 174.840857343777,-36.86403351835351,100 174.84084645169443,-36.864020897200454,100 174.84075792313624,-36.86391829375388,100 174.8409601950607,-36.863805648122025,100 174.84099191546406,-36.86378793039065,100 174.84122137780898,-36.86366010641951,100 174.84157776725806,-36.86375491688265,100 174.84161985555812,-36.86373135269105,100 174.84163399213054,-36.86372361557293,100 174.84169018180643,-36.86369229855856,100 174.84174638974457,-36.863660996557584,100 174.84180257971678,-36.8636296957102,100 174.8418588044034,-36.86359839429852,100 174.84191499536075,-36.8635670915808,100 174.84199921263348,-36.863520180439274,100 174.84206809769483,-36.86360004403362,100 174.84222270460845,-36.863513889880764,100 174.84237712355088,-36.86342781686013,100 174.84241601332695,-36.863406119070525,100 174.8425315417527,-36.86334172742923,100 174.84268706561,-36.863300562867366,100 174.84280274723503,-36.863269929780195,100 174.84288632772208,-36.863473776628034,100 174.84301277133545,-36.86340331240614,100 174.84313073442442,-36.863337562873966,100 174.8431817036452,-36.86361601204856,100 174.84324736223618,-36.86356713999753,100 174.84336480456216,-36.86347980961256,100 174.84343843326988,-36.863463679972874,100 174.84359356211098,-36.86342975444449,100 174.84368806394457,-36.86340905370935,100 174.8438625007821,-36.86337087679648,100 174.84414136955849,-36.86330984707324,100 174.84426060859414,-36.86328373522338,100 174.84437405189976,-36.86320855278426,100 174.8443927479526,-36.86319619825022,100 174.84439424382745,-36.86319524395474,100 174.84461990850625,-36.863045734124526,100 174.844629688777,-36.86303924773165,100 174.84475539707284,-36.8628995834368,100 174.84486395160653,-36.86277895197719,100 174.84497151599308,-36.86265942099803,100 174.84497636825265,-36.86265735641614,100 174.84499106026286,-36.8626510488044,100 174.84515388625724,-36.862581119728816,100 174.84533142220997,-36.86250489782336,100 174.8455089570647,-36.86242864502757,100 174.84551568777965,-36.862425771596165,100 174.84556042550247,-36.86226463788767,100 174.84557211030648,-36.86222252915037,100 174.84560691083138,-36.86209712262741,100 174.845642190527,-36.861970236775676,100 174.8456538352858,-36.86192791233196,100 174.8456928242683,-36.8617878292338,100 174.84571566911555,-36.861705356746924,100 174.84577178745255,-36.86150307884042,100 174.84582309321075,-36.86131804242979,100 174.84583594382147,-36.86127171715063,100 174.84585079493672,-36.861218094256294,100 174.84586433079306,-36.86116957440192,100 174.8459055465211,-36.861020996735334,100 174.84592936781434,-36.86093497581366,100 174.84594679874067,-36.86087245003278,100 174.84600172111527,-36.86067463775778,100 174.84604487924963,-36.860519166219596,100 174.84608801817598,-36.86036364899471,100 174.8461311752707,-36.86020814769431,100 174.8461443746827,-36.860160669563804,100 174.8461743493908,-36.860052661434814,100 174.84619052642856,-36.85999435259906,100 174.84621750724529,-36.85989720515478,100 174.8462471646964,-36.85979028443459,100 174.84626062944162,-36.85974171876631,100 174.84630378587238,-36.85958626337531,100 174.84579978325272,-36.859495859167836,100 174.8458293066052,-36.85938908032986,100 174.84591089205128,-36.859347429669135,100 174.84596295629927,-36.85915976390826,100 174.84591112337276,-36.85909418331953,100 174.84593970956715,-36.85899112258329,100 174.84644358416006,-36.85908137320234,100 174.84648372528505,-36.85893660842428,100 174.84652391823715,-36.85879185904992,100 174.84653505102727,-36.85875178858652,100 174.84656407668055,-36.85864712642089,100 174.8466042345499,-36.85850237575922,100 174.84660866482733,-36.85848637857091,100 174.84662585214937,-36.85842449280687,100 174.84683850436622,-36.85841529676443,100 174.84690251811827,-36.85818461898588,100 174.84691115355352,-36.858126642683494,100 174.84693230888703,-36.857984650605175,100 174.8467566689732,-36.85795302259078,100 174.84677526913265,-36.85788581501251,100 174.8468084768657,-36.85776624284463,100 174.84681980081254,-36.85772494537196,100 174.84686443624628,-36.85756405967916,100 174.8468817659897,-36.85750107023301,100 174.84690907073232,-36.85740318840398,100 174.84695440898233,-36.857239548996574,100 174.8469710271972,-36.85717967027686,100 174.84683598784747,-36.857046539587884,100 174.8468863143209,-36.85686515926309,100 174.8469051623409,-36.856859244705994,100 174.84692395766083,-36.856853330965066,100 174.84697059312637,-36.85668516291599,100 174.8471018998563,-36.856708492609876,100 174.84712724048057,-36.85661668378792,100 174.8471498069333,-36.856535578140004,100 174.8471819388757,-36.856419772122464,100 174.8471943902532,-36.85637477063579,100 174.84722553966412,-36.85626297728733,100 174.8472419534194,-36.856203194541614,100 174.84728955000284,-36.85603161700569,100 174.84732363021033,-36.85590921174906,100 174.84733564668477,-36.85586539324579,100 174.8473817278753,-36.85569918593107,100 174.84742486251722,-36.85554369888513,100 174.84746803063285,-36.85538821130155,100 174.84747238096944,-36.85537249473375,100 174.84763985452014,-36.85476872381075,100 174.84764055052665,-36.854766280292694,100 174.847683805291,-36.85461083814509,100 174.84772519772298,-36.85446069322615,100 174.84772595762564,-36.85445806213819,100 174.84777370581918,-36.85428643606398,100 174.8477744302463,-36.854283775783365,100 174.84787160664843,-36.85393355628487,100 174.84790899808573,-36.853798006597415,100 174.84781400298834,-36.85377499910165,100 174.8476999925044,-36.85374700539087,100 174.84761399209938,-36.85372700262446,100 174.8475349975548,-36.85370799410258,100 174.84747499384738,-36.853692995943824,100 174.84733299961633,-36.853660000099616,100 174.84725451385643,-36.85364059590668,100 174.84710967380082,-36.85360585308355,100 174.84710298481048,-36.853584936176894,100 174.8470511089625,-36.85364364142188,100 174.8470445040436,-36.85362267543453,100 174.84700054752426,-36.853484109975184,100 174.84688712354549,-36.853448299915186,100 174.84678200810507,-36.85341499611826,100 174.84678200052167,-36.85326399867046,100 174.84678199731113,-36.85324699327581,100 174.84678200538912,-36.85296399990522,100 174.8467810023304,-36.8524889995892,100 174.84679599863966,-36.85233700191005,100 174.84670599313606,-36.85224099541938,100 174.84666999408884,-36.85222299730793,100 174.84673100371572,-36.85202899811871,100 174.84674799529267,-36.85200200683547,100 174.8468810006025,-36.851777004094956,100 174.8469939952925,-36.851610994408084,100 174.8471169960766,-36.851448995045395,100 174.84724599637823,-36.85128199814455,100 174.84726299806167,-36.851271004389815,100 174.84770400401533,-36.851001992823335,100 174.8477097626228,-36.85072165724885,100 174.84772131850366,-36.85071898087905,100 174.84772532449605,-36.85071892760462,100 174.8477418083391,-36.85071512906329,100 174.8477489187347,-36.8507128850499,100 174.84776583381733,-36.85070906357596,100 174.84777384106715,-36.85070680381323,100 174.8478022707231,-36.85069742594045,100 174.8478133871061,-36.85069512864613,100 174.84782364170775,-36.85069355860672,100 174.8478503152373,-36.85068637934043,100 174.84788049274826,-36.850675205855254,100 174.8479160678398,-36.85066429544199,100 174.84792941035664,-36.850661247861595,100 174.84794007390698,-36.85065751816856,100 174.84796802197604,-36.85064565465857,100 174.84799071065268,-36.85064066537519,100 174.84801153536182,-36.85062924972791,100 174.84802930066562,-36.850623616835804,100 174.84804393857485,-36.85061730970727,100 174.8480572297103,-36.85061101090258,100 174.84808384960132,-36.850599882777715,100 174.8481051141424,-36.85058810334633,100 174.84811665589817,-36.8505836308016,100 174.84812725653254,-36.85057556575787,100 174.84813344917762,-36.85057261042156,100 174.8481432143398,-36.850568880261,100 174.84814896527058,-36.85056555954303,100 174.84815252026468,-36.850564103583665,100 174.84815653270388,-36.850562967693705,100 174.84816805580124,-36.85055776715726,100 174.84818133465933,-36.850550400450345,100 174.848194646193,-36.85054555516319,100 174.84820973401145,-36.85053925633988,100 174.8482336741537,-36.85052741544359,100 174.84824213093904,-36.850525148658015,100 174.84825142828026,-36.85052071461301,100 174.84826342962484,-36.85051660535403,100 174.84827538142716,-36.850509973132276,100 174.84828909677492,-36.85050149819584,100 174.84830238677122,-36.85049450175017,100 174.84833289607974,-36.850475037037604,100 174.84834570303425,-36.850465493722844,100 174.84835851219083,-36.850456693972134,100 174.84836693803044,-36.85045263040133,100 174.8483783963794,-36.85044241403307,100 174.84838324219226,-36.85043946521139,100 174.84839119656687,-36.850433242167895,100 174.84840404740254,-36.85042733774661,100 174.84841423759673,-36.85042072029309,100 174.84844300264672,-36.85040450675131,100 174.8484957196369,-36.85037755169691,100 174.84851119472168,-36.85036763697377,100 174.84852490749168,-36.85035775326735,100 174.84853638096143,-36.850350028834285,100 174.84857273306633,-36.85033264718858,100 174.84858292544052,-36.850326773286525,100 174.84859484771565,-36.85031905718901,100 174.84860769446956,-36.850311680932926,100 174.84861611354654,-36.85030798970038,100 174.84862007818685,-36.85030505637949,100 174.84862709355488,-36.850296681123574,100 174.8486350296296,-36.850289746295765,100 174.84864255564722,-36.85028497113062,100 174.84865275766126,-36.85028014982948,100 174.84866607883166,-36.85027566126811,100 174.84868117625004,-36.85026971826291,100 174.8487202050315,-36.850252275103266,100 174.8487379414809,-36.85024558979862,100 174.8487636692066,-36.85023337757955,100 174.8487742801148,-36.85022639572129,100 174.84878578340198,-36.850219771328035,100 174.8487995206064,-36.85021276696876,100 174.84881504666933,-36.850206089001134,100 174.8488301831885,-36.85020228242909,100 174.84884482605912,-36.850198142831495,100 174.8488554746933,-36.85019188955742,100 174.84888026781587,-36.85017896537982,100 174.84889268914338,-36.85017376431908,100 174.8489060289603,-36.85017000461927,100 174.84891400778673,-36.8501666618207,100 174.8489228942765,-36.850163659123375,100 174.84894461432665,-36.85015473689253,100 174.84894914356124,-36.85015289440243,100 174.84896269713562,-36.85014804526443,100 174.84899476649483,-36.8501398128574,100 174.84900108982356,-36.85013721056829,100 174.84901146284653,-36.85013422890028,100 174.84904125663115,-36.850121621665835,100 174.84906698189852,-36.85011196469873,100 174.8490886688598,-36.85010632561084,100 174.84910582409742,-36.85010112207342,100 174.849116222133,-36.850098480710926,100 174.84913068288873,-36.85009655938827,100 174.84914197068622,-36.85009356167203,100 174.84915188829552,-36.85008838962891,100 174.84921105723666,-36.850070847432875,100 174.84923589774047,-36.850065572957526,100 174.84924899685006,-36.850061832287935,100 174.84926798297235,-36.850059863962244,100 174.8492783746353,-36.85005761025796,100 174.84929102492694,-36.850053861245435,100 174.8493031976837,-36.85004905158356,100 174.8493135793005,-36.85004642758478,100 174.84932715667466,-36.85004377818858,100 174.84933573518998,-36.850041540076916,100 174.84934611933707,-36.85003962628618,100 174.84936059064566,-36.85003553706612,100 174.84937457454308,-36.8500332355619,100 174.84938725348348,-36.850033142800505,100 174.84939854532195,-36.85003161687362,100 174.84942790123327,-36.850022671262145,100 174.84944327494668,-36.85002000741652,100 174.84947625368548,-36.85001284232721,100 174.84948753963067,-36.85000911723165,100 174.84949838942146,-36.85000721240468,100 174.84951013680055,-36.850004577948795,100 174.84952097319845,-36.85000086074801,100 174.8495340673788,-36.84999821974992,100 174.84956482171089,-36.84999508756851,100 174.8495756684428,-36.849995010684985,100 174.84958470691305,-36.849993848798654,100 174.8496086416562,-36.8499856626172,100 174.84961224927537,-36.84998490342712,100 174.84961631762314,-36.84998525201457,100 174.84961903512436,-36.849984136230745,100 174.84963258413464,-36.84998040383935,100 174.8496524633952,-36.84997696409609,100 174.84967414943657,-36.84997389641881,100 174.84968771671672,-36.84997087578967,100 174.84971530364962,-36.84996815520603,100 174.84975141477068,-36.84995731341994,100 174.84977040833846,-36.84995500419467,100 174.84978486719777,-36.84995235454551,100 174.84979300057415,-36.84995156456112,100 174.84981424010678,-36.84994667680724,100 174.84984088815733,-36.849939203660476,100 174.8498630308408,-36.849935771912854,100 174.84990326825564,-36.849932570441005,100 174.84992270986518,-36.849930237992865,100 174.8499330947623,-36.84992835658743,100 174.84993808649088,-36.84992830141374,100 174.8499444224179,-36.849927526781556,100 174.8499647452041,-36.849924482076226,100 174.8499792089684,-36.84992073360257,100 174.8499950213409,-36.84991770502802,100 174.85000315775542,-36.84991508707924,100 174.8500198677519,-36.84991133067191,100 174.85004156085267,-36.84990790589023,100 174.85007230020156,-36.84990550389078,100 174.8500836180396,-36.84990687257499,100 174.8500971963911,-36.84990752285513,100 174.8501441705507,-36.849895889007804,100 174.850173548214,-36.84989166675949,100 174.85017989127118,-36.849889792377894,100 174.85021554817317,-36.84988007157082,100 174.8502309132473,-36.84987705173192,100 174.8502431410798,-36.84987694967904,100 174.85031548173205,-36.849871353623506,100 174.85033853240668,-36.84986827719635,100 174.85035480742368,-36.84986378481692,100 174.85035795876084,-36.84986340586067,100 174.85036835637356,-36.84986005234312,100 174.8503863959896,-36.849853717199196,100 174.85039859175492,-36.84985107567421,100 174.8504090097903,-36.84985173276552,100 174.85042800293843,-36.84984940811942,100 174.85045419337948,-36.84984486858875,100 174.8504989766266,-36.84984307701983,100 174.85052702162233,-36.8498407051419,100 174.85055142210877,-36.84983579417286,100 174.85057491260244,-36.84983235392332,100 174.8505939195257,-36.849831856938884,100 174.85059882034668,-36.84981290101819,100 174.85071190500003,-36.84979509999994,100</coordinates></LinearRing></outerBoundaryIs>
    </Polygon>
  </Placemark>

  <Placemark>
    <name>Saint Heliers</name>
    <Point>
      <altitudeMode>relativeToGround</altitudeMode>
      <coordinates>174.85558713829337,-36.857986671042944,100</coordinates>
    </Point>
  </Placemark>

</Document>
</kml>