<?xml version="1.0" encoding="utf-8"?>
<kml xmlns="http://www.opengis.net/kml/2.2">
<Document>
  <name>Shamrock Park (polygon: official_shp)</name>
  <open>1</open>

  <Placemark>
    <name>Shamrock Park (polygon: official_shp)</name>
    <Style>
      <LineStyle><color>ffff0000</color><width>2</width></LineStyle>
      <PolyStyle><color>66ff0000</color><fill>1</fill><outline>1</outline></PolyStyle>
    </Style>
    <Polygon>
      <tessellate>1</tessellate>
      <altitudeMode>relativeToGround</altitudeMode>
      <outerBoundaryIs><LinearRing><coordinates>174.92329700572174,-36.921948000992266,100 174.9235869912371,-36.921761002627974,100 174.92335199995827,-36.92162999795661,100 174.92346799492302,-36.92148899706396,100 174.92350399379268,-36.92144500764935,100 174.92353300483245,-36.92142599862314,100 174.92355899704367,-36.921452994602085,100 174.92363400489768,-36.92152599810041,100 174.92387499937544,-36.921385992129224,100 174.92375200268236,-36.92128599770087,100 174.92381000695556,-36.921247996034424,100 174.92395899331157,-36.92115200168451,100 174.92407199687125,-36.92126400556879,100 174.92429100048443,-36.92112299680712,100 174.92428800595465,-36.92112100566362,100 174.92451199266034,-36.92097699459784,100 174.92465499869746,-36.920857999282454,100 174.92486599409386,-36.92072199357124,100 174.92487599575648,-36.92073099959454,100 174.92508199621008,-36.92059700418191,100 174.92508500145814,-36.920600001897476,100 174.92529199706254,-36.92046699495673,100 174.92517200308916,-36.92034799240341,100 174.92525100188288,-36.92029699254862,100 174.92509699547327,-36.92017300638726,100 174.92530599482131,-36.92004999854957,100 174.92518400604584,-36.91993699412099,100 174.92522600813152,-36.91983999263004,100 174.92528499840083,-36.91970700480198,100 174.92552900214034,-36.91977499755638,100 174.9258989987387,-36.919880003045414,100 174.92595300081766,-36.91989499210989,100 174.92601399424018,-36.919911993950784,100 174.92616499945305,-36.92008999185365,100 174.92617100274768,-36.920096993210805,100 174.92686899776066,-36.919647992163746,100 174.9265729971508,-36.91951500132354,100 174.9265270009178,-36.91949500655768,100 174.92685299255987,-36.919284993365714,100 174.92686999736304,-36.91927400354446,100 174.927047994893,-36.91916000231253,100 174.92707599349075,-36.91914200211092,100 174.92721799201485,-36.91899500373204,100 174.9273229994573,-36.919071000706424,100 174.92756299742425,-36.91876800126487,100 174.92763599584194,-36.918808994123,100 174.92770700039452,-36.9188509990282,100 174.92777900737227,-36.91889300113603,100 174.92782499776243,-36.91895899306948,100 174.92798299980655,-36.91874300624319,100 174.92842199484457,-36.91875200704586,100 174.92835699887195,-36.918575992577274,100 174.92836399619722,-36.91857699837865,100 174.92855599736646,-36.91881599255976,100 174.92866600325698,-36.91895200573012,100 174.9287940081283,-36.91911100642628,100 174.92906499236696,-36.91888000675072,100 174.9289830055805,-36.91877799957268,100 174.92903499894675,-36.91877600310108,100 174.92921699442002,-36.919001996854185,100 174.92919300042013,-36.91903099880232,100 174.9293689933533,-36.919127006199524,100 174.92954499709026,-36.91922400369467,100 174.92972100128992,-36.919321001815405,100 174.92983699443275,-36.919383992336755,100 174.9299060040879,-36.919422003963525,100 174.92997799234263,-36.91946199238639,100 174.93008199235663,-36.919519001793155,100 174.9302580043041,-36.919615006625754,100 174.9304430032183,-36.91971700032107,100 174.93051099993156,-36.91975399244642,100 174.93061899168228,-36.91981399642807,100 174.93079600849052,-36.91990999942627,100 174.93096300595096,-36.92000199831539,100 174.93115199840517,-36.919762006262175,100 174.93130100153985,-36.919571003428516,100 174.93137900485735,-36.91947299883016,100 174.93160399225985,-36.919682004649985,100 174.93172599808813,-36.91979399622534,100 174.93162899476687,-36.91995699902546,100 174.9315269971411,-36.92012699874501,100 174.93146899722575,-36.92022300344209,100 174.93141299850393,-36.9202919939081,100 174.9316419929507,-36.92042400300605,100 174.93182399275383,-36.92052999642383,100 174.9318579971927,-36.920548995368,100 174.9319920032111,-36.920626002598844,100 174.932074003686,-36.92067400441365,100 174.93217599145655,-36.920759992983484,100 174.93228500194985,-36.920850998350375,100 174.9324100054961,-36.92091700056333,100 174.9325049955231,-36.92096699799788,100 174.93272399451132,-36.92108199313076,100 174.93258900795206,-36.92124900742172,100 174.93276499484105,-36.92138499638783,100 174.93277800364635,-36.92134900441005,100 174.93286400437606,-36.92137599318059,100 174.93595998904388,-36.9223572383763,100 174.93595699207702,-36.922362000188805,100 174.93594800872103,-36.922376006997965,100 174.9359399925794,-36.92238999623505,100 174.93593099124053,-36.92240400243481,100 174.93592299343422,-36.92241800669414,100 174.93592100845976,-36.92241999399752,100 174.93591300355956,-36.92243500513544,100 174.9359050053596,-36.92244899407771,100 174.93589700754413,-36.922462998335455,100 174.93588900146926,-36.922472991896434,100 174.93587799532824,-36.92248700373695,100 174.93586999711675,-36.92250099267708,100 174.9358700079796,-36.92250199926361,100 174.9358659969433,-36.92251700026744,100 174.935864003843,-36.92253300397895,100 174.93586399869542,-36.92254900232078,100 174.93586200067756,-36.92256299168384,100 174.93586099201474,-36.9225789928659,100 174.935860008784,-36.92259400219201,100 174.93585900012064,-36.92261000337401,100 174.93585799260194,-36.922626005438616,100 174.93585700106956,-36.922637002266505,100 174.93585500684324,-36.922653005996,100 174.9358530028528,-36.9226680022197,100 174.93585300360664,-36.9226730035782,100 174.93585099215974,-36.922688992266025,100 174.93585000144805,-36.92270499315511,100 174.9358490002607,-36.922720002773616,100 174.93584799159458,-36.92273600395531,100 174.93584400225043,-36.922748001438606,100 174.935834006368,-36.92277599505521,100 174.93583000833192,-36.92277899309659,100 174.935825004192,-36.92278499898856,100 174.93579399199163,-36.92285199511771,100 174.93578199563007,-36.92292500032961,100 174.93575500040373,-36.9229810052804,100 174.9357169951744,-36.9230589987096,100 174.9356940003371,-36.923160000341326,100 174.93568500262634,-36.92317100329763,100 174.9356699998905,-36.923217997020075,100 174.93566799659723,-36.923237994599184,100 174.935661001875,-36.9232570000835,100 174.9356540022161,-36.923264001998106,100 174.93565499902496,-36.923269992981844,100 174.93565500279206,-36.92327200644751,100 174.93563499652487,-36.923315000595174,100 174.93562100428477,-36.923327997542096,100 174.93547799954663,-36.92346899962843,100 174.93545999424737,-36.92350500481991,100 174.93545900646197,-36.92355100396566,100 174.93544599602663,-36.92359000211057,100 174.93540800214635,-36.92364600238576,100 174.93539000649656,-36.923677996578824,100 174.93536499803454,-36.92371900640856,100 174.93535900404302,-36.92375100056976,100 174.93531500071452,-36.92385899169669,100 174.93530399911725,-36.9238949953799,100 174.93530399388808,-36.923910994622574,100 174.9352920085213,-36.923961991409776,100 174.93529199282116,-36.923976999381765,100 174.93527300241874,-36.92405099640365,100 174.9352729979274,-36.92407199790555,100 174.93528000477633,-36.92407899594683,100 174.93528500493957,-36.92409400689308,100 174.9352859912653,-36.9241089967311,100 174.93529100187828,-36.924124998046565,100 174.93528900897377,-36.92415100538504,100 174.93527200246172,-36.92421799843765,100 174.9352720088056,-36.924240005624576,100 174.9352869999424,-36.92426299977859,100 174.935286993946,-36.92427399586025,100 174.93529899275237,-36.924305002758224,100 174.93540099759863,-36.92430599457784,100 174.93536499743323,-36.924412000377,100 174.93527799883455,-36.92454600464068,100 174.9352679969572,-36.92455699418862,100 174.9352259957827,-36.92462000521168,100 174.93521699554353,-36.92465400600329,100 174.935182000729,-36.92474699756881,100 174.9351299937229,-36.92482400313074,100 174.93512600639386,-36.92483799785929,100 174.935113007633,-36.924855003808304,100 174.93509500145265,-36.92489099273399,100 174.9350129955405,-36.92498499822099,100 174.93487900802128,-36.9250989981248,100 174.93480499189718,-36.925198000832175,100 174.93473499688517,-36.925254992806316,100 174.93471400493422,-36.92527999378211,100 174.93468700016834,-36.925355001868155,100 174.93462400665547,-36.92545800424559,100 174.93462200098807,-36.92546299683277,100 174.93455300501805,-36.925560995553994,100 174.9345209926299,-36.92560200665251,100 174.93451300023847,-36.925615003965966,100 174.9344509983087,-36.92567899221354,100 174.93426800169777,-36.92582800178139,100 174.93425200512104,-36.92586099794344,100 174.93424099996056,-36.925909994871596,100 174.93423099193964,-36.92596499901099,100 174.93422300727644,-36.92598199258834,100 174.9342090071088,-36.92602899863523,100 174.93410800225791,-36.92618499774827,100 174.9340719921384,-36.92628200374015,100 174.93407200546136,-36.926289994538195,100 174.93406699327755,-36.926310001439056,100 174.9340609975094,-36.92634199736327,100 174.93406000373807,-36.92636100235024,100 174.93405499307414,-36.92637800425801,100 174.93405299958528,-36.926484995191714,100 174.93404899599133,-36.92649400320063,100 174.93405599577991,-36.9265299938653,100 174.93407299129655,-36.92657099433523,100 174.93407400260864,-36.92658000538398,100 174.93413300448006,-36.92672999843673,100 174.9341159938075,-36.92687600562684,100 174.93410299082782,-36.92691099176871,100 174.93409500620731,-36.92691799611745,100 174.93408199314317,-36.92695200630257,100 174.93407000334804,-36.926968001560056,100 174.93401699436941,-36.927090000132175,100 174.9339349974627,-36.927166998826365,100 174.93387899973374,-36.927291000055924,100 174.9338799926944,-36.92729999608215,100 174.933876002536,-36.92730700566192,100 174.93387800773496,-36.92733500194088,100 174.93386099780184,-36.92738700335117,100 174.93386199252194,-36.92740100071767,100 174.93349789306643,-36.92739438205921,100 174.93248769517115,-36.927387715039785,100 174.932017901646,-36.927403114874224,100 174.93184909319206,-36.92740859511829,100 174.93097280830233,-36.92743712456424,100 174.93095049915993,-36.92743775594934,100 174.9306099983736,-36.92744891868324,100 174.93043790626487,-36.9274545016856,100 174.9303028930794,-36.92739456207631,100 174.93001880363732,-36.927431911153406,100 174.92808490719025,-36.92706534382909,100 174.92769939594413,-36.9269922615757,100 174.92768599211468,-36.92698974370187,100 174.9273934048503,-36.926934299287005,100 174.92738039941605,-36.92693177491161,100 174.92712049313855,-36.92688245281722,100 174.92699410594903,-36.926858517374306,100 174.9268472048075,-36.926830704661015,100 174.92666829497617,-36.926796694566896,100 174.9265088050729,-36.92676644214848,100 174.92646099638327,-36.92675735205978,100 174.92625319554378,-36.92671793982234,100 174.92607760815392,-36.926684644651964,100 174.9262067939128,-36.92651085109721,100 174.92628059234463,-36.92641167057837,100 174.92631550625552,-36.92636469566724,100 174.92644550324317,-36.92618963317087,100 174.92647320052782,-36.92615246529263,100 174.92651139116975,-36.92602079322357,100 174.92654199840953,-36.925913788687176,100 174.92656359828425,-36.925839993987175,100 174.92658910446866,-36.92575115340612,100 174.92658440841564,-36.92566449281198,100 174.92658340089469,-36.92564685517522,100 174.92657439862919,-36.925477646649526,100 174.92656820518658,-36.92536191241151,100 174.92656570348512,-36.92531394735801,100 174.92658979619327,-36.92526092258046,100 174.92664780597,-36.92513241155932,100 174.92667879607436,-36.92506427342464,100 174.92674070468465,-36.924927299776485,100 174.92676079498233,-36.92488212183003,100 174.92682019659208,-36.92475081480515,100 174.92682529686417,-36.924733253814146,100 174.92683570579433,-36.92469815999588,100 174.92688649788644,-36.92452257331489,100 174.92689399991733,-36.92449620358689,100 174.92693689561685,-36.924347071424165,100 174.9269526971402,-36.92429252270607,100 174.92698760087245,-36.924171486105685,100 174.92701429208557,-36.92407923275596,100 174.92703839193192,-36.92399588404906,100 174.92707509341696,-36.92386854421724,100 174.9270892045736,-36.923820389776154,100 174.92713599877436,-36.92365785305534,100 174.92713989237242,-36.92364480557213,100 174.9271903023796,-36.92346920962965,100 174.9271993074955,-36.92343843060584,100 174.92724109642015,-36.92329371558852,100 174.9272676995852,-36.923201465409015,100 174.927291800019,-36.9231181157358,100 174.92733610570977,-36.92296440440288,100 174.92733610335057,-36.922964310704764,100 174.92734220758828,-36.922943696876104,100 174.9273534055287,-36.92290589437992,100 174.92744660241408,-36.92277423138002,100 174.92719389359476,-36.922728870845575,100 174.92697290251996,-36.922689261884585,100 174.92672520589008,-36.92270069357483,100 174.92631549859942,-36.92262726540915,100 174.92623379915173,-36.922612584331716,100 174.92593900230662,-36.92255976228162,100 174.92562719104,-36.922503867033605,100 174.9254007951031,-36.92246318999326,100 174.9251965959431,-36.92242665470185,100 174.92499110694737,-36.9223897551056,100 174.9247336922452,-36.92234357418234,100 174.92413360830585,-36.9222361116305,100 174.9239276018368,-36.922199218562945,100 174.92383329723867,-36.92213631705288,100 174.92373789560648,-36.922072504886145,100 174.92329729815447,-36.921947934065294,100 174.92329700572174,-36.921948000992266,100</coordinates></LinearRing></outerBoundaryIs>
    </Polygon>
  </Placemark>

  <Placemark>
    <name>Shamrock Park</name>
    <Point>
      <altitudeMode>relativeToGround</altitudeMode>
      <coordinates>174.93007841875016,-36.923337043848186,100</coordinates>
    </Point>
  </Placemark>

</Document>
</kml>