<?xml version="1.0" encoding="utf-8"?>
<kml xmlns="http://www.opengis.net/kml/2.2">
<Document>
  <name>Shelly Park (polygon: official_shp)</name>
  <open>1</open>

  <Placemark>
    <name>Shelly Park (polygon: official_shp)</name>
    <Style>
      <LineStyle><color>ffff0000</color><width>2</width></LineStyle>
      <PolyStyle><color>66ff0000</color><fill>1</fill><outline>1</outline></PolyStyle>
    </Style>
    <Polygon>
      <tessellate>1</tessellate>
      <altitudeMode>relativeToGround</altitudeMode>
      <outerBoundaryIs><LinearRing><coordinates>174.9545375414224,-36.90587314593456,100 174.954529506769,-36.9059491945814,100 174.95452976801494,-36.905980103403344,100 174.95453174296014,-36.90599447112676,100 174.9545388325989,-36.906026571766674,100 174.95454224849306,-36.90603803158445,100 174.95454393396298,-36.90604576141883,100 174.9545460675797,-36.906052800685075,100 174.95454849388744,-36.90606717540068,100 174.9545495845701,-36.90608080057606,100 174.95455184963177,-36.90610363403296,100 174.95455599213912,-36.906166964883994,100 174.95455718050033,-36.90617544557835,100 174.95456296561053,-36.90624799232607,100 174.95456487490597,-36.90626493256518,100 174.9545650248862,-36.9063017278675,100 174.95456576014402,-36.90630947333938,100 174.9545690706592,-36.90632643468165,100 174.95457164964805,-36.90633456531373,100 174.95457688474195,-36.90634676761234,100 174.9545849227649,-36.90635718425305,100 174.9545893903772,-36.90636240141375,100 174.9545960587019,-36.90637205285122,100 174.95460054024997,-36.90637654062261,100 174.95460944533374,-36.906387684769356,100 174.95463144165166,-36.906410053781734,100 174.95463813794535,-36.90641825004255,100 174.95464933006835,-36.90643017403328,100 174.95465603218526,-36.90643798263402,100 174.95466137448656,-36.90644541343332,100 174.95468998635613,-36.90647927791402,100 174.95471247485298,-36.90649946935752,100 174.95475670196168,-36.90653096143717,100 174.95476389909842,-36.90653732068969,100 174.95478852783694,-36.90656414838496,100 174.95481466506376,-36.90658438159969,100 174.95483139517083,-36.90659526173405,100 174.95483775686952,-36.90659830619672,100 174.95485585308685,-36.90660923865009,100 174.95487970070516,-36.90662977722609,100 174.95488601542826,-36.90663427897562,100 174.95489183990864,-36.90664098798982,100 174.95490030693654,-36.90665251156481,100 174.9549051092028,-36.90666287959648,100 174.95490594902063,-36.90666693698802,100 174.95490532522683,-36.906674289323874,100 174.95489997167942,-36.90668928510652,100 174.95489985941362,-36.90669332932796,100 174.9548959519407,-36.90670504667842,100 174.954889203567,-36.906742478285345,100 174.95488862484788,-36.9067483427183,100 174.95488661704638,-36.906755688993414,100 174.95488546623073,-36.90676706173302,100 174.95487318725583,-36.90680516571921,100 174.95487088357353,-36.90682721542078,100 174.95487068098473,-36.90683603176041,100 174.9548721793414,-36.906851862934936,100 174.95487341000063,-36.90685812931214,100 174.95487539604997,-36.90687288440717,100 174.95488078484254,-36.90689981155856,100 174.95488066921757,-36.906904955432815,100 174.9548831243374,-36.90691544231623,100 174.9548917598174,-36.9069360708512,100 174.95489966635168,-36.90695170911629,100 174.95491076834787,-36.906975839195965,100 174.95492498701864,-36.90700198827965,100 174.9549340752732,-36.90701845702498,100 174.95494319945487,-36.90703492607944,100 174.95495232171385,-36.907051363618926,100 174.95496144627154,-36.90706784708655,100 174.95497062014502,-36.90708428377482,100 174.95497979555836,-36.907100736660496,100 174.9549890385825,-36.90711715598529,100 174.95499033193934,-36.907119502435016,100 174.95499998459508,-36.90713574466826,100 174.95500972554348,-36.90715201609173,100 174.95501944813213,-36.90716827159296,100 174.95502910160545,-36.90718454535593,100 174.95503860182737,-36.90720088292986,100 174.955047844509,-36.907217287834186,100 174.95505676275639,-36.90723382155791,100 174.95506298019993,-36.90724589770054,100 174.95507241913177,-36.90726251568631,100 174.95508151531126,-36.90727924837212,100 174.9550899075435,-36.907296147670884,100 174.95509719726118,-36.907313208427055,100 174.955103040736,-36.90733046333868,100 174.95510660629665,-36.90734540603599,100 174.95510963098388,-36.907363254445826,100 174.95511093319448,-36.907381335808836,100 174.95511052499475,-36.90739946335542,100 174.95510852366522,-36.90741752699769,100 174.95510657734053,-36.907428248568905,100 174.95510175817714,-36.9074457123603,100 174.9550954325319,-36.90746303330804,100 174.95508848037974,-36.9074802573133,100 174.95508182450408,-36.90749756837436,100 174.9550776681909,-36.90751026594414,100 174.95507526298934,-36.90752807305192,100 174.95507419303382,-36.90754604204582,100 174.95507400842138,-36.9075641352667,100 174.95507418805883,-36.90758225223443,100 174.95507429813966,-36.90760037034717,100 174.95507383483505,-36.90761840596542,100 174.95507242779368,-36.90763543683726,100 174.9550687921628,-36.907653143424625,100 174.95506425511644,-36.90767075579257,100 174.95505883167044,-36.9076882466545,100 174.95505271359798,-36.90770561014945,100 174.95504595370127,-36.907722892276134,100 174.95503865402068,-36.90774004538793,100 174.9550309367957,-36.90775706566983,100 174.95502287055822,-36.90777399976301,100 174.9550191402597,-36.90778157899189,100 174.95500999164884,-36.90779814514145,100 174.95500106860774,-36.90781475444518,100 174.95499344945293,-36.907831572118276,100 174.95499290289428,-36.907833068275956,100 174.95498771974934,-36.90785047676494,100 174.95498438076257,-36.9078682857222,100 174.95498250056002,-36.907886347367715,100 174.95498169637938,-36.90790452829938,100 174.95498160605817,-36.907918577594614,100 174.95498267061205,-36.90793680257291,100 174.95498470416837,-36.90795508730999,100 174.9549868920819,-36.90797330731569,100 174.95498852106786,-36.907991351753616,100 174.95498876160593,-36.908009172989885,100 174.95498689530453,-36.908026460181524,100 174.95498088068138,-36.9080432171909,100 174.95497262629976,-36.90805959736838,100 174.95496268684317,-36.90807569793725,100 174.95495161855445,-36.90809163322008,100 174.9549399420932,-36.9081074865795,100 174.95492828628625,-36.90812340178815,100 174.95491716913622,-36.90813944602926,100 174.95491655643806,-36.908140417811914,100 174.9549064665587,-36.908156738067824,100 174.95489667407892,-36.90817314536101,100 174.95488742259784,-36.908189729417984,100 174.95487907485563,-36.90820649868887,100 174.95487189116045,-36.90822349395453,100 174.95486625454402,-36.908240771100616,100 174.95486547444827,-36.90824375916361,100 174.95486209707673,-36.90826142904583,100 174.9548601441318,-36.908279368406816,100 174.9548589916187,-36.9082974469136,100 174.9548580467299,-36.908315568870826,100 174.95485779184773,-36.908320049869936,100 174.9548442324022,-36.90834273459396,100 174.95483174619724,-36.908362351619814,100 174.95479705864514,-36.90841091189468,100 174.95478029158033,-36.90842524740268,100 174.95475924315656,-36.90844105311134,100 174.9547368979909,-36.90845561201766,100 174.95471335810257,-36.908468875573675,100 174.95468745162972,-36.90848774366211,100 174.95464233018285,-36.90852433498651,100 174.9546005103209,-36.90856332982643,100 174.95456219335236,-36.90860456804431,100 174.95454746316548,-36.908615071879524,100 174.9545264398429,-36.90864470682569,100 174.95450651704667,-36.9086901984183,100 174.95450548733552,-36.908694181126016,100 174.95450355201115,-36.9086985212354,100 174.954481480527,-36.908785820269735,100 174.95448134400596,-36.908790190261676,100 174.95448252471655,-36.90879713795172,100 174.9544820653736,-36.90884370084363,100 174.9544971066397,-36.908918961395706,100 174.9545016291312,-36.90893472297202,100 174.95450238387915,-36.90893944873395,100 174.9545113314591,-36.90897493924989,100 174.95451447558005,-36.90899210431605,100 174.95451616824465,-36.90899575920873,100 174.9545173600942,-36.909001252001566,100 174.95454116326405,-36.9090868685982,100 174.9545437417961,-36.9090912831356,100 174.9545463033776,-36.909097540228146,100 174.9545548684848,-36.90911443671398,100 174.95455740510226,-36.90912103491202,100 174.95457146109183,-36.9091518798211,100 174.9545822324409,-36.90918701223739,100 174.95458541848103,-36.909201992738495,100 174.95458615231666,-36.90920783376338,100 174.95458737493735,-36.909212596889574,100 174.95460176555733,-36.909309675308464,100 174.9546136861861,-36.90935250040739,100 174.9546184456261,-36.90937552082783,100 174.95462058180362,-36.90939558486596,100 174.95461779776954,-36.90942828241773,100 174.95461533796788,-36.90943551264646,100 174.95461426278217,-36.9094409679412,100 174.95460828793645,-36.90948998573934,100 174.9546074894811,-36.90951762941704,100 174.95460643959964,-36.90952271295579,100 174.95460554258696,-36.90953761194013,100 174.95460399619557,-36.90954413042318,100 174.95460163867438,-36.90956302010716,100 174.9546014026655,-36.90957065988339,100 174.9545976746744,-36.90958880060233,100 174.95459734467687,-36.90960045365286,100 174.95459621945923,-36.90960843433796,100 174.95459602310288,-36.909614989186515,100 174.95459666551236,-36.909623712299954,100 174.95460192718713,-36.909660957028024,100 174.95460180087832,-36.90966568286854,100 174.9546029415731,-36.909673700167524,100 174.9546022526199,-36.90969661918191,100 174.9546004209241,-36.90971333166122,100 174.95460041750476,-36.90972863324414,100 174.9545998237196,-36.909733337035355,100 174.9545986560037,-36.90977373400575,100 174.95459645193938,-36.90978641114297,100 174.95459629411434,-36.9097918810822,100 174.95459521190836,-36.90979767718697,100 174.95459455867095,-36.90980458115108,100 174.95459295279966,-36.90981329890592,100 174.95456969760073,-36.909910778786966,100 174.95455160523073,-36.90995556968278,100 174.9545483582798,-36.90997298954696,100 174.9545413469328,-36.90999613068597,100 174.9545382380078,-36.91000919585609,100 174.95453765410474,-36.910014287047176,100 174.95453364210672,-36.91002657843439,100 174.9545205312386,-36.91008747935935,100 174.95451656691813,-36.91009904440737,100 174.954515941954,-36.910104505810835,100 174.95451381936394,-36.910115758438096,100 174.95451132473062,-36.91012298833628,100 174.95451026669897,-36.9101284127029,100 174.95450878050244,-36.91013276074252,100 174.9545084919729,-36.91014221301388,100 174.9545074802195,-36.91014619632676,100 174.9545061725807,-36.91016000337142,100 174.95450510760665,-36.910165815415176,100 174.95450362379438,-36.91018507737837,100 174.95450347624055,-36.91022111865396,100 174.95450426220467,-36.910225131866824,100 174.95450308063374,-36.91025021131285,100 174.95450443637674,-36.91026590693089,100 174.95450451694944,-36.910278651017684,100 174.95451481361474,-36.91031413284096,100 174.9545203963287,-36.91032516762288,100 174.95452343534623,-36.91032994411751,100 174.95452426756808,-36.91033251537551,100 174.95452861120847,-36.91033880262416,100 174.95454064186688,-36.910359679033846,100 174.95453707362736,-36.910360069441886,100 174.95452800869967,-36.910359876135004,100 174.9545113733017,-36.91035484931949,100 174.95450375613976,-36.910351440647965,100 174.9544895227831,-36.91034206423672,100 174.95448819154217,-36.910340214126684,100 174.95448511021795,-36.91033760597592,100 174.95448153028764,-36.91033573519001,100 174.95446528836203,-36.91031758333749,100 174.9544613634708,-36.91031204719591,100 174.95445431913927,-36.910305004028345,100 174.95444250374385,-36.91029058194689,100 174.9544239957774,-36.910256379913626,100 174.95441509670968,-36.91023436227186,100 174.95441041009803,-36.91022444297916,100 174.95440753950177,-36.91021456680629,100 174.95440455371897,-36.91020796157734,100 174.95440204898304,-36.910200634594894,100 174.95440168066716,-36.91019737341043,100 174.95440045141444,-36.91019296640935,100 174.95439790078964,-36.910187095796324,100 174.95439711334174,-36.910183068186136,100 174.9543954408001,-36.91017831156168,100 174.95439256699208,-36.9101676936637,100 174.95438710841177,-36.91015303356934,100 174.95438677049296,-36.91014902830446,100 174.9543834758345,-36.91013696081636,100 174.95437919360225,-36.9101285049027,100 174.95437794927196,-36.91012482640727,100 174.95437328474563,-36.91011383689533,100 174.9543721667154,-36.9101054316585,100 174.9543705334655,-36.91009957569108,100 174.9543697747415,-36.910094122638064,100 174.95436653618265,-36.91008095462888,100 174.95436576271908,-36.910076199431714,100 174.95436173708518,-36.91005901822665,100 174.95436098929707,-36.91005390568846,100 174.9543607185856,-36.9100473441058,100 174.95435954845604,-36.91004076758121,100 174.95435927925755,-36.9100342212959,100 174.954357832183,-36.91002145463057,100 174.95435679682163,-36.909979564395464,100 174.95435605566007,-36.90997409573097,100 174.95435686539375,-36.9099307934248,100 174.95435532656384,-36.909920940399296,100 174.9543555625968,-36.90991330062323,100 174.9543513898462,-36.90986990275258,100 174.95435265260124,-36.9098113221081,100 174.95435184212025,-36.90980766711706,100 174.95435195211053,-36.90978875493769,100 174.95435004043728,-36.90977669443201,100 174.9543516645448,-36.909751977239424,100 174.95435164382852,-36.90973704739252,100 174.95435382296577,-36.90972471136438,100 174.95435417175548,-36.90971308955084,100 174.95435356425497,-36.90970252268395,100 174.9543568642234,-36.909651246071604,100 174.95435794756787,-36.90964544994994,100 174.95435863374732,-36.90962180362492,100 174.95435585832968,-36.909607915056974,100 174.95435419605423,-36.90960351608216,100 174.954352200329,-36.9095940112698,100 174.95435008605006,-36.90958887705442,100 174.95434802387385,-36.90958191412634,100 174.95434670986987,-36.90958007905289,100 174.95434082125973,-36.90956431111156,100 174.95434156630125,-36.9095544944086,100 174.954343411385,-36.909553082338284,100 174.95434708344746,-36.909552055706214,100 174.95435157712203,-36.90955322916889,100 174.95435561430662,-36.90955476706205,100 174.95436047595103,-36.9095592323596,100 174.95436491711033,-36.90956221831763,100 174.95437030683416,-36.9095645063743,100 174.9543779899938,-36.90956535875799,100 174.9543811557067,-36.909565425634,100 174.9543834433216,-36.90956437761994,100 174.95438720641044,-36.90956045268063,100 174.95438861521902,-36.90955830601171,100 174.95438961411287,-36.90955505026772,100 174.95439041166338,-36.909543421068754,100 174.95438748534553,-36.90953461476383,100 174.95438715142322,-36.90953133769068,100 174.95438168115547,-36.90951630554566,100 174.95437959479378,-36.909509714355515,100 174.954374868947,-36.90950089440141,100 174.9543732111591,-36.909495395755606,100 174.95437151846608,-36.90949173996037,100 174.95435992854877,-36.90945329336263,100 174.95436006546703,-36.90944893868687,100 174.954362510921,-36.90944242073359,100 174.95436535004134,-36.909438838175454,100 174.95436902546226,-36.90943671189015,100 174.95437134049658,-36.90943603476453,100 174.95438040938697,-36.909435112198715,100 174.95438312103872,-36.909436254598546,100 174.95438530254302,-36.909438833396656,100 174.95438745649864,-36.909442883584845,100 174.95438864681168,-36.90944836018035,100 174.95438994437637,-36.90945021084619,100 174.95439241378764,-36.90945936536528,100 174.95439677377948,-36.90946563612769,100 174.95439852671214,-36.90946712238109,100 174.95440166409074,-36.909468630015134,100 174.95440528292534,-36.90946943211249,100 174.954410721874,-36.90946916324424,100 174.954414374859,-36.909468136924076,100 174.95442084392258,-36.909463900664306,100 174.9544232019761,-36.90946103895734,100 174.95442515527301,-36.90945669855367,100 174.95442884891176,-36.909438573726945,100 174.95443030604045,-36.909435681780856,100 174.95443092850448,-36.909429506581475,100 174.95442913029112,-36.90941344780387,100 174.95442037601572,-36.90938672023722,100 174.9544182605937,-36.909381585140366,100 174.9544174914964,-36.90937757255,100 174.9543971960712,-36.909341884819945,100 174.95439511258397,-36.90933602184047,100 174.95438989868975,-36.90932826445013,100 174.9543815621417,-36.90931830066792,100 174.95437715251452,-36.90931457061115,100 174.95437409630662,-36.90930977817072,100 174.9543662261098,-36.90929979229189,100 174.95435146366754,-36.9092776791517,100 174.95432868716196,-36.90925032157989,100 174.95432171015148,-36.909240722082146,100 174.95431775741108,-36.90923664290823,100 174.95431206948362,-36.909229265555645,100 174.9543054751324,-36.90922221407049,100 174.95429214181445,-36.90921286788551,100 174.95427447271865,-36.909196879193765,100 174.95426967134594,-36.90919024435002,100 174.9542534429762,-36.90917138020418,100 174.9542503129467,-36.909169500204264,100 174.95424540056237,-36.90916757562624,100 174.95424043983013,-36.90916639542381,100 174.9542255157315,-36.9091650393773,100 174.9542115739357,-36.9091611407949,100 174.954205734677,-36.90915882858175,100 174.9541861578117,-36.90914570859062,100 174.95417811623136,-36.90914193644145,100 174.95416868317187,-36.90913848281761,100 174.9541633360115,-36.909135838033585,100 174.95415889164937,-36.909132109441195,100 174.95413659239074,-36.90911931634748,100 174.95413122728223,-36.909116671857305,100 174.95411920139017,-36.90910951775513,100 174.95411610992736,-36.90910655374312,100 174.95411117957673,-36.90910462855373,100 174.95410006011275,-36.909097148583236,100 174.95409824446998,-36.90909711897166,100 174.95409600936406,-36.90909635358301,100 174.9540879762988,-36.90909471829202,100 174.95408606374977,-36.90909436580337,100 174.95404054355177,-36.909093887201955,100 174.95401877059246,-36.90908997504062,100 174.95400101521258,-36.90908942895902,100 174.95398960082127,-36.90909115259423,100 174.9539864141982,-36.90909220097127,100 174.95398230116083,-36.90909287973156,100 174.9539795476446,-36.90909396694923,100 174.95396901342312,-36.909097503055065,100 174.95396580660068,-36.909099651361366,100 174.9539520221818,-36.90910755100278,100 174.9539451354268,-36.90911041690861,100 174.95393409541919,-36.909116872562386,100 174.9539318144611,-36.90911756534233,100 174.9539014910983,-36.909133709169346,100 174.95389647525616,-36.90913547173302,100 174.9538873001557,-36.90913940097448,100 174.95387677364994,-36.90914258002677,100 174.95387126869446,-36.90914545203652,100 174.95386623531397,-36.90914723111105,100 174.95385522397527,-36.909152215348975,100 174.95384011906222,-36.90915679374588,100 174.95383372694002,-36.90915819499162,100 174.95376363779945,-36.909184861437204,100 174.953749415703,-36.90919131264111,100 174.95374439006656,-36.90919273556592,100 174.9537301671855,-36.909199156135934,100 174.95372603526587,-36.909201646829985,100 174.95369393770628,-36.90921556111064,100 174.95368572147194,-36.909217305110865,100 174.95366559201693,-36.90922330638992,100 174.953661635626,-36.90922590235137,100 174.95365690100164,-36.90922905370324,100 174.95365100909814,-36.90923228898692,100 174.95364509598963,-36.90923478103885,100 174.9536264255851,-36.90924843656451,100 174.95358588398787,-36.90928372186833,100 174.9535786174434,-36.90928727629189,100 174.95354680403193,-36.90930700831813,100 174.95353726939987,-36.909311672606364,100 174.95353228665743,-36.9093152615646,100 174.9535241075354,-36.909319561056876,100 174.95347593977897,-36.9093486184386,100 174.95346958848054,-36.90935148902917,100 174.95346004965648,-36.90935722143195,100 174.9534500175297,-36.90936513139998,100 174.95344136319264,-36.90937341798451,100 174.9534363457083,-36.90937700931287,100 174.95343224556163,-36.909380614394045,100 174.95338543853055,-36.9094107462513,100 174.9533777162516,-36.909414695721836,100 174.95335860611246,-36.9094287162588,100 174.95334352625852,-36.90944528159686,100 174.9533380730584,-36.909449964362985,100 174.9533335135483,-36.90945320565683,100 174.95332849932757,-36.90945754140865,100 174.9533230388696,-36.90946075155384,100 174.9532948505127,-36.909479071024556,100 174.9532589652903,-36.9094991250163,100 174.9532407836036,-36.90951170439275,100 174.953233973363,-36.909516736648726,100 174.95320489762008,-36.909531773703215,100 174.95317359151676,-36.909546804169295,100 174.95315360169482,-36.909557185232956,100 174.9531263640291,-36.90957115192788,100 174.95311681778912,-36.909577255765015,100 174.95310817056995,-36.90958335923716,100 174.95309136546024,-36.9095926604223,100 174.95308592131576,-36.90959519070114,100 174.95308091113955,-36.909598409653746,100 174.9530750265452,-36.9096012734496,100 174.9530682032072,-36.909605220735024,100 174.9530282547343,-36.90962527117829,100 174.95302144122138,-36.90962955989579,100 174.9530169022898,-36.90963171656398,100 174.95300190447009,-36.90964067616248,100 174.9529832356087,-36.90965506072282,100 174.95297732964858,-36.909659023561495,100 174.95292059106512,-36.909687646631305,100 174.95289878276395,-36.90969982682683,100 174.95286562595336,-36.909716671337634,100 174.95284563266733,-36.90973066125036,100 174.95283428838215,-36.909736767592335,100 174.95282837630594,-36.90973925868592,100 174.95281292459876,-36.9097474983677,100 174.95275341483082,-36.90978338911944,100 174.95272245939532,-36.90980601714923,100 174.9527161116157,-36.909809600578065,100 174.95270702144484,-36.90981532554432,100 174.9526493471797,-36.909845777306174,100 174.95264116451526,-36.90985117459181,100 174.95263526927545,-36.9098536663004,100 174.95261800174057,-36.909863720405724,100 174.95260981775544,-36.90987091492208,100 174.95259841311722,-36.90987918988354,100 174.95257752407974,-36.90989207955967,100 174.95256977734297,-36.909898198832565,100 174.95252112515632,-36.9099316162217,100 174.95251292035132,-36.909938082815735,100 174.95250520153397,-36.909942744208,100 174.95250107845905,-36.909947433909934,100 174.95248472293648,-36.90995857079696,100 174.95246199977606,-36.909970752434845,100 174.95244610450368,-36.90998043965469,100 174.9524406415549,-36.90998293866771,100 174.95243340381552,-36.9099868792105,100 174.9524093012769,-36.91000232101953,100 174.95238970349777,-36.91001994384251,100 174.9523815253334,-36.91002424234029,100 174.95236876265,-36.91003467841357,100 174.95235877000533,-36.910041503366685,100 174.95234101541942,-36.91005517338135,100 174.9523282786072,-36.910063410731134,100 174.95230830157746,-36.9100748757198,100 174.95229373462016,-36.910085685746225,100 174.95228557285873,-36.91008996774429,100 174.9522655676708,-36.91010107717151,100 174.9522601115301,-36.910105032580624,100 174.95220151477324,-36.91013836635877,100 174.95219471310045,-36.91014122986464,100 174.95218380061928,-36.91014732814605,100 174.9521769909833,-36.91015234501029,100 174.95216331597317,-36.910163494573716,100 174.95214197940953,-36.91017459702369,100 174.95213288993244,-36.91018035257986,100 174.9521011096222,-36.91019573215876,100 174.95209337565137,-36.91020112203191,100 174.9520692860173,-36.91021764783635,100 174.95205107446552,-36.91023166781732,100 174.95201836219238,-36.91024958816246,100 174.9520097722898,-36.910252794706366,100 174.95198886135137,-36.9102642605716,100 174.951963007105,-36.91027642057365,100 174.95194710603258,-36.910284652208226,100 174.9519393860232,-36.910289313583924,100 174.95190250632413,-36.91031771792708,100 174.95189931169952,-36.91032096557569,100 174.95188154656242,-36.910336076890275,100 174.95186056920807,-36.91035696070704,100 174.95185371400711,-36.910363450140444,100 174.95184730279666,-36.91037282728258,100 174.95183908335127,-36.910381850185416,100 174.95183408253072,-36.91038544027209,100 174.9518290442614,-36.91039011524943,100 174.95180984374653,-36.9104139099264,100 174.95179793266854,-36.91043125400061,100 174.95179332991657,-36.91043918906587,100 174.95179010880472,-36.91044641823119,100 174.95178364823954,-36.910458351393665,100 174.9517519767842,-36.910508528653324,100 174.95174738462808,-36.910516835783525,100 174.95174099061163,-36.910526227959714,100 174.9517368657581,-36.9105301903081,100 174.9517354846813,-36.910532724053745,100 174.95172357203361,-36.910550051922876,100 174.95171530352744,-36.9105641094374,100 174.95171342948242,-36.91056883605871,100 174.95170978718514,-36.910574601206584,100 174.9516751310459,-36.91065159458778,100 174.95167178678523,-36.91066861399529,100 174.95166993691052,-36.91067296797786,100 174.951666079158,-36.910697584850126,100 174.9516663448094,-36.9107157157335,100 174.95166767311753,-36.910719346911726,100 174.95167242257733,-36.91074077320338,100 174.95167417658354,-36.910744768725124,100 174.95167550219918,-36.910749483321524,100 174.9516767440772,-36.91075927997583,100 174.95167763835136,-36.91076217560777,100 174.9516780290519,-36.91076689204888,100 174.951683241818,-36.9107894094222,100 174.95168856946236,-36.91079815740443,100 174.9516907477855,-36.91080431270066,100 174.95169116025323,-36.91080794540993,100 174.95169377639104,-36.91081740672476,100 174.951695889836,-36.910832995291095,100 174.95169763623872,-36.910839158586725,100 174.9517019053708,-36.9108638455964,100 174.9517013537253,-36.9108725441872,100 174.95170041799136,-36.91087616930982,100 174.95169856110897,-36.91088086500421,100 174.9516953486544,-36.910885924572575,100 174.95169172170833,-36.91088916580095,100 174.95168716585783,-36.91089132359864,100 174.95167449009978,-36.91089557879245,100 174.95165952878807,-36.910899116248075,100 174.95165095730593,-36.91090049460842,100 174.95163558111756,-36.91089968825805,100 174.95161755146424,-36.91089738066701,100 174.95160493268614,-36.91089440280951,100 174.95156936380766,-36.91088256186938,100 174.951562625408,-36.91087963158377,100 174.9515549808392,-36.91087523263336,100 174.95153250032516,-36.91086457993915,100 174.95151675234533,-36.91085975443448,100 174.95151002019762,-36.910856452703555,100 174.95147805599638,-36.910844283009695,100 174.95144156296985,-36.9108346266686,100 174.95141677365865,-36.91083049140462,100 174.95138787296676,-36.910829571064916,100 174.9513652770435,-36.910830861685206,100 174.95134764001895,-36.910833302009294,100 174.95133992581458,-36.91083506734377,100 174.95130694069215,-36.91083956517118,100 174.9512698448982,-36.910842945308204,100 174.95126351614223,-36.91084292040595,100 174.95124906463016,-36.91084426465926,100 174.95123230866193,-36.910846704009806,100 174.9511957297026,-36.91084755016255,100 174.95117314178125,-36.91084668828758,100 174.95114738789113,-36.910847601727724,100 174.95111166274935,-36.91085244375311,100 174.95110307862237,-36.91085275332849,100 174.9510759390918,-36.91085730016435,100 174.9510583096035,-36.91085752580411,100 174.95105110603208,-36.91085713040349,100 174.95103121174216,-36.910857364405146,100 174.95102353610875,-36.91085804481004,100 174.95101449111536,-36.910857975288565,100 174.95097109394476,-36.91086170130631,100 174.95095661087097,-36.910863789623036,100 174.9509452910161,-36.9108676952893,100 174.9509344186085,-36.910870880668014,100 174.9509258267381,-36.91087154727642,100 174.9509072762448,-36.91087470015516,100 174.95089912687425,-36.910875729930716,100 174.95089191551537,-36.91087568976437,100 174.9508842410004,-36.91087637014191,100 174.95087426747125,-36.91087774263627,100 174.95085660939387,-36.91088125218675,100 174.95083082580274,-36.91088545041856,100 174.95080186221418,-36.910892151542456,100 174.95079144521296,-36.91089497341007,100 174.9507824007355,-36.91089673081711,100 174.9507710850615,-36.91089956744499,100 174.95075794465765,-36.91090201944291,100 174.95074529159027,-36.91090337825749,100 174.95073036219551,-36.91090618771534,100 174.950656176817,-36.91091694212103,100 174.9506457840479,-36.91091688209096,100 174.95062047928772,-36.910917803362246,100 174.95060963623143,-36.91091773540278,100 174.95060105492854,-36.910918773153774,100 174.95058843897056,-36.91091652159697,100 174.9505798544654,-36.91091681671988,100 174.95054005615458,-36.91092126670817,100 174.95051243337613,-36.91092834772389,100 174.95049202686582,-36.9109343836668,100 174.95047707049636,-36.910941158397264,100 174.95045935252796,-36.91095121959138,100 174.95045162783586,-36.910954425333586,100 174.95041350683078,-36.910973744578605,100 174.95036177561462,-36.91099663840169,100 174.95034455253546,-36.911003391756616,100 174.95033773671653,-36.91100698364807,100 174.9503132084862,-36.91102204626886,100 174.95030411271296,-36.911026329951895,100 174.95028411374696,-36.91103889456319,100 174.95025995756995,-36.91106050178206,100 174.95025356887274,-36.91106698256257,100 174.9502448782342,-36.91107708204863,100 174.95023661399193,-36.91109008576212,100 174.95022154370832,-36.91110702189446,100 174.95017731172567,-36.91114769970844,100 174.95016406163342,-36.911163564930774,100 174.95015584532732,-36.91117148807017,100 174.9501416962303,-36.91118735543451,100 174.95013987557792,-36.911188409219484,100 174.9501375624617,-36.91119348462331,100 174.95012839914676,-36.91120648867224,100 174.95012383972914,-36.9112122553132,100 174.95010784578145,-36.91122954909657,100 174.95010600035081,-36.911232803384884,100 174.9501019051946,-36.91123784856417,100 174.95009552311438,-36.91124397321036,100 174.9500785967633,-36.911263792448146,100 174.95007494662227,-36.91126740444716,100 174.95004790079307,-36.911307462916184,100 174.9500424075167,-36.91131322956611,100 174.95003281247492,-36.91132439932121,100 174.9500268782088,-36.911329818095574,100 174.9500241435454,-36.91133341415942,100 174.95001317498154,-36.911344948964114,100 174.95000583146043,-36.911356866787656,100 174.949999902069,-36.911363711352585,100 174.94998933821105,-36.91138104574689,100 174.94996697266873,-36.911404835319395,100 174.94995100877875,-36.911418860439596,100 174.94992642561022,-36.91143754805051,100 174.94991865951783,-36.91144547820256,100 174.94991046773052,-36.911453044004105,100 174.94987909668322,-36.91147386739851,100 174.94987001423323,-36.91147925042806,100 174.94985408992062,-36.91149037897761,100 174.94984950837033,-36.911494704777446,100 174.94984496505074,-36.911497931252875,100 174.94981911879339,-36.91150792211282,100 174.94981141466502,-36.91151004320093,100 174.94980281714552,-36.911513621052066,100 174.949785109349,-36.91152219481944,100 174.9497642552636,-36.91153076255623,100 174.94975424956743,-36.91153651855485,100 174.94974517793176,-36.9115404313613,100 174.9497183512537,-36.91155802822503,100 174.9497119623177,-36.91156269554579,100 174.94970103061547,-36.911572418985855,100 174.9496928499917,-36.91157852897423,100 174.9496795895436,-36.91159403829635,100 174.94966867181262,-36.91160303234457,100 174.94965679987615,-36.91161563557894,100 174.949651335722,-36.91161994701917,100 174.94962940514858,-36.91164447206768,100 174.94962345986715,-36.911649504341256,100 174.94961845121634,-36.91165526301596,100 174.94961109146183,-36.91166972097293,100 174.94960696884883,-36.91167439524668,100 174.94960238172507,-36.91168163326033,100 174.9495900280588,-36.911696786089934,100 174.9495877431145,-36.911698561325984,100 174.9495803995175,-36.91171048002641,100 174.94956034843472,-36.91172920943088,100 174.94955530043976,-36.9117360683467,100 174.94954890668348,-36.91174363344871,100 174.94954114546525,-36.911750479221,100 174.94953660733225,-36.91175514499132,100 174.94952151538186,-36.911773180990224,100 174.94951009792283,-36.91178472401978,100 174.9495018596865,-36.91179373084914,100 174.94949687320405,-36.911798421102894,100 174.94948543598568,-36.91181174544249,100 174.94947814528658,-36.911817498309944,100 174.9494726926778,-36.91182036835836,100 174.94946947201964,-36.91182268802129,100 174.9494204130436,-36.91177237105504,100 174.94941586484154,-36.91177792026966,100 174.94941219608393,-36.91178336041044,100 174.9494085059176,-36.911789899599086,100 174.94940394136913,-36.911796085406245,100 174.94939660869707,-36.91180406969931,100 174.9493938505578,-36.91180806811847,100 174.94938055440093,-36.91182292814976,100 174.9493599397106,-36.911846901579445,100 174.94935536629416,-36.91185088743331,100 174.94935216808545,-36.91185523557278,100 174.9493434244554,-36.91186903754315,100 174.94933837480102,-36.91187521508706,100 174.9493319541468,-36.91188428220115,100 174.94932640813315,-36.911895564798485,100 174.94931952013172,-36.911906467439266,100 174.94930714194822,-36.91191951428169,100 174.94930167892235,-36.91192387165442,100 174.9492948191958,-36.91193147593742,100 174.94928882885333,-36.91193985459589,100 174.9492714515161,-36.91195652203302,100 174.94926596914146,-36.91196267693332,100 174.94925355812222,-36.91198012270069,100 174.94924023198573,-36.91200192058961,100 174.9492379191768,-36.912007011293575,100 174.94923377530142,-36.912014644002134,100 174.94922549198867,-36.91202699721425,100 174.94922228650262,-36.91203352934319,100 174.9492158314312,-36.91204261233832,100 174.9491992703059,-36.91207242999668,100 174.9491932522825,-36.91208660092101,100 174.94918588917238,-36.91209969702833,100 174.94917847001918,-36.912120072131,100 174.94917384440916,-36.91213025443766,100 174.94916602647555,-36.91214188617008,100 174.94916145711795,-36.91214731134165,100 174.94915776452754,-36.91215313942906,100 174.94915136624684,-36.912159294935975,100 174.94914223847724,-36.91216616581579,100 174.94913083187902,-36.912173774414484,100 174.94911215833184,-36.9121824270258,100 174.94909758835402,-36.91218636062499,100 174.9490834876046,-36.91218848840836,100 174.94905078145507,-36.91219123069458,100 174.949033065297,-36.91219150342655,100 174.94902761582918,-36.91219075013827,100 174.94901492110262,-36.912188144593344,100 174.9490036134431,-36.91218261857213,100 174.94899729420138,-36.91217675380846,100 174.9489860100673,-36.912168315267664,100 174.94897696849068,-36.91216463759384,100 174.94897152134337,-36.912162784666975,100 174.94895611187494,-36.91216015066236,100 174.94895022160856,-36.91215976242452,100 174.94894204604856,-36.91215862304476,100 174.94892750968117,-36.91215818832452,100 174.94891798594102,-36.91215704312754,100 174.9489080235328,-36.91215445041484,100 174.94889263918105,-36.91214781958228,100 174.94888539532903,-36.91214412591896,100 174.94887543918412,-36.91214116176104,100 174.94886227390506,-36.9121396481973,100 174.94885499286127,-36.9121396090522,100 174.9488422747523,-36.9121417294394,100 174.94883453762895,-36.91214388074972,100 174.94881676200828,-36.91215253390194,100 174.94880349904528,-36.9121648678553,100 174.94879569510772,-36.91217577287867,100 174.94878005204453,-36.91220193412356,100 174.94877637648622,-36.91220591874149,100 174.9487718096687,-36.91220954844766,100 174.94876814426513,-36.91221388801476,100 174.94876494013673,-36.91221862289781,100 174.9487580032685,-36.91223462231413,100 174.94874879951263,-36.912249888308885,100 174.94874146289598,-36.91225895690272,100 174.9487318813153,-36.91226691857262,100 174.9487090654668,-36.9122795661006,100 174.94869177307484,-36.91228568583512,100 174.94866852607828,-36.91229466759288,100 174.94864895408716,-36.9123014953014,100 174.94856070405538,-36.9123225675582,100 174.94852661806482,-36.91232604798122,100 174.94851798216672,-36.912326359122474,100 174.94849434417387,-36.91232879834486,100 174.94848479838763,-36.91233058092926,100 174.9484334447635,-36.91233797962303,100 174.94840886461787,-36.912344416272994,100 174.9483952210218,-36.91234872034838,100 174.94836654630706,-36.912355864998844,100 174.94833245506138,-36.912362272005524,100 174.9483192483501,-36.91236548372767,100 174.94830651218925,-36.912367602551555,100 174.94827878917403,-36.91237293435576,100 174.94827149518994,-36.91237362274444,100 174.94826604354387,-36.91237468108973,100 174.94824831025858,-36.91237679716463,100 174.94821012646054,-36.91238460972125,100 174.9481878479428,-36.91238741143992,100 174.94815874576346,-36.91239165272361,100 174.94812145682033,-36.912400579913346,100 174.9481034785994,-36.91240564276134,100 174.94814075789677,-36.912579606820366,100 174.94814245604326,-36.91258652986434,100 174.94815323830647,-36.91259121374981,100 174.94815075886046,-36.91266648044401,100 174.94827741510193,-36.91278232098843,100 174.94827918305882,-36.91279176655207,100 174.94828187995398,-36.91280348890646,100 174.94828616699758,-36.91281519779151,100 174.9482902547538,-36.91282723531866,100 174.94829263594477,-36.91283572534748,100 174.94829303461836,-36.91284010097491,100 174.94831327173674,-36.91290718423136,100 174.94831592162836,-36.912912294446265,100 174.9483198247431,-36.91292325072571,100 174.9483224363829,-36.912929460264586,100 174.94832374036255,-36.91293346321933,100 174.94832726163276,-36.912940043595135,100 174.94832857492236,-36.91294370660331,100 174.9483303326275,-36.91294661693716,100 174.94833162796584,-36.912950280239805,100 174.94833428522253,-36.91295501809248,100 174.94833644377402,-36.91296049238521,100 174.94835537483954,-36.91299631440207,100 174.9483601904101,-36.913008369728644,100 174.94836281951945,-36.91301275112373,100 174.94837553352554,-36.913040151450566,100 174.9483884159151,-36.91305625920779,100 174.94839592448668,-36.91306942763114,100 174.94840610536352,-36.91308479286588,100 174.94841313433196,-36.91309869831631,100 174.94842257473528,-36.913131500718634,100 174.94842198132537,-36.913140601965544,100 174.9484195679708,-36.913150743440355,100 174.94841578771047,-36.91316089382217,100 174.94841227762075,-36.91318192669093,100 174.94841120600339,-36.91319429041291,100 174.94841268791612,-36.91321393177532,100 174.94841518028866,-36.91322886343962,100 174.94841711811213,-36.91324996825916,100 174.9484155505841,-36.91329286567345,100 174.94841299472364,-36.913310287561636,100 174.94840822378626,-36.913327689911064,100 174.9483993517997,-36.913344312314365,100 174.9483965584075,-36.913348296868236,100 174.9483919443101,-36.913353336082984,100 174.94839009096077,-36.91335694559109,100 174.94837296229127,-36.913380053183964,100 174.94836096767705,-36.913394470838,100 174.94835314849564,-36.91340240176086,100 174.94834574723527,-36.91341105318356,100 174.94832595980722,-36.913431218351406,100 174.94831722330596,-36.9134409471122,100 174.94830113713286,-36.91345495869933,100 174.9482855667849,-36.913466436352074,100 174.94827409471358,-36.913475408724835,100 174.9482585437469,-36.913485089745976,100 174.9482348250855,-36.91349575469508,100 174.94821521133258,-36.91350355733609,100 174.94820840563713,-36.91350566268223,100 174.94820248638845,-36.91350669805207,100 174.94818929433418,-36.91350983200872,100 174.9481842987602,-36.91351051062833,100 174.94817112465603,-36.91351364428849,100 174.9481611082411,-36.913517184912536,100 174.94815015696878,-36.91352253988594,100 174.94813231111098,-36.91353360960106,100 174.94812039689708,-36.91354223409638,100 174.94811400173054,-36.91354543139917,100 174.94808924081076,-36.913565205829315,100 174.94807822380346,-36.913575610110065,100 174.94807589356157,-36.91357887322171,100 174.94806898078926,-36.91358643233876,100 174.94806620491028,-36.91359040037417,100 174.9480615833903,-36.91359581103769,100 174.94805787928226,-36.91360123639507,100 174.94802653215507,-36.91363655468182,100 174.94802186079966,-36.91364450695332,100 174.94802045736265,-36.913648109976904,100 174.94801994639008,-36.91365211476585,100 174.94801808398577,-36.91365536930083,100 174.94801711992096,-36.913658638842946,100 174.9480096284259,-36.91367455538005,100 174.9480017118948,-36.913688280594435,100 174.94799847836452,-36.91369261395532,100 174.94798512522524,-36.91370666899751,100 174.94797410578505,-36.91371636127409,100 174.94796765655738,-36.9137232142667,100 174.9479607627683,-36.91372896143375,100 174.94791773075468,-36.91375761329565,100 174.94791451898948,-36.91376086112043,100 174.94789938199537,-36.91377234693755,100 174.94788514299057,-36.91378564317557,100 174.94788006492286,-36.91379141914067,100 174.9478768173393,-36.91379648008574,100 174.94786854890785,-36.91380440392521,100 174.9478492682807,-36.913819835135826,100 174.94781450857138,-36.9138412922189,100 174.94780858086767,-36.91384451158146,100 174.94779534985406,-36.91385057358796,100 174.94777120211654,-36.91386013056358,100 174.94776253259607,-36.913862965870614,100 174.94773752507405,-36.91386961128996,100 174.94771434324292,-36.91387411769604,100 174.94766339864165,-36.91388815291431,100 174.94765568991355,-36.91388953126174,100 174.9476147168867,-36.91390148222781,100 174.94760608447342,-36.91390321731711,100 174.94757607963115,-36.91390981306853,100 174.94755841343337,-36.91390999193109,100 174.94754348145247,-36.91390840264656,100 174.9475330723207,-36.91390903932974,100 174.94751943098427,-36.913912165258715,100 174.94749984121077,-36.91391778441785,100 174.947477172069,-36.913920824952314,100 174.9474671784581,-36.91392147013782,100 174.94745583362118,-36.91392388872599,100 174.947440822241,-36.91392809254695,100 174.9474266787612,-36.913933056358665,100 174.94741441025982,-36.9139358325875,100 174.9473858144471,-36.91394028079795,100 174.94737492878016,-36.91394054042245,100 174.94736408753275,-36.913939324774816,100 174.94734500845888,-36.91394278140377,100 174.94730373535552,-36.91394527523422,100 174.94729648467586,-36.913946304451116,100 174.9472933089966,-36.91394589685666,100 174.94728559854914,-36.91394654604878,100 174.94722067814982,-36.91395607836977,100 174.94720885255094,-36.91395923397711,100 174.94719750684183,-36.9139609567439,100 174.94718748715002,-36.913963754661296,100 174.9471315888691,-36.91397628367036,100 174.94711608892965,-36.91398158063806,100 174.9471070256754,-36.9139833236567,100 174.94707739470985,-36.913992839705614,100 174.94705416424955,-36.914002411240524,100 174.947026341685,-36.91401414008578,100 174.94701769872853,-36.914017315598464,100 174.94700173726457,-36.91402406221387,100 174.9469953357397,-36.9140276309011,100 174.94697524615825,-36.914037610593745,100 174.94696201221697,-36.91404294339677,100 174.94693919543906,-36.91405435040444,100 174.94691046951266,-36.91406714856562,100 174.94688852261768,-36.91408001224009,100 174.94688077321092,-36.91408358859771,100 174.94684195588357,-36.914102811778406,100 174.94680904382537,-36.914121772297506,100 174.94679759290167,-36.91412964458542,100 174.94679299307032,-36.91413397056941,100 174.9467777644204,-36.914152721404086,100 174.9467594009232,-36.91416816805045,100 174.94675298814482,-36.91417319342595,100 174.94671048368002,-36.91419785512342,100 174.9467008955978,-36.914202488202214,100 174.94669449792744,-36.91420497343592,100 174.94668490982033,-36.914209605612555,100 174.94667300897623,-36.9142174861653,100 174.94663053327798,-36.91424067642543,100 174.9466031453233,-36.91425312630712,100 174.9465653391322,-36.9142676676448,100 174.94656033570863,-36.91426870234281,100 174.94653162093863,-36.91428004641806,100 174.946519282506,-36.914286477611576,100 174.94648600996106,-36.914299962184984,100 174.94647872796025,-36.914301703900556,100 174.946470548165,-36.91430415884629,100 174.94644327731385,-36.91430898619754,100 174.94642917086114,-36.914314661319644,100 174.94642171852462,-36.91431716472649,100 174.94636063396538,-36.91431237859455,100 174.94631694923788,-36.914331285706474,100 174.94628040263567,-36.914341422339305,100 174.9462537950037,-36.91435145555915,100 174.94620598095023,-36.91436675115889,100 174.9462028503705,-36.91436860418274,100 174.94616537408297,-36.914377626675346,100 174.94615587215017,-36.91437915959555,100 174.94612746050817,-36.91438777214403,100 174.94611035200413,-36.91439554510304,100 174.9460972636812,-36.914399281007356,100 174.94608280084842,-36.91440087268603,100 174.94599385691788,-36.91442197156266,100 174.94598527999815,-36.91442567318521,100 174.94594110276634,-36.91444057740189,100 174.9459262524335,-36.914448696388355,100 174.94589336008428,-36.91446279376739,100 174.94586237358533,-36.91448196763208,100 174.94585019725113,-36.9144867863614,100 174.94582096256076,-36.914503031997235,100 174.94578272522497,-36.914522614869945,100 174.9457548517088,-36.91453995130471,100 174.9457233776744,-36.91455840576476,100 174.94571755262987,-36.91456279955174,100 174.94570235824557,-36.91457783268813,100 174.94565072068622,-36.91461353057284,100 174.94562686456163,-36.91462610262911,100 174.94554353581378,-36.91466133364809,100 174.94549932189662,-36.914673698412194,100 174.94544091245604,-36.91467984503808,100 174.94535691692175,-36.91469365279918,100 174.9452637530087,-36.914704188411235,100 174.94523253897611,-36.914700940348034,100 174.9451063166568,-36.91473513143454,100 174.94506605555964,-36.914752209138236,100 174.9450402716682,-36.914762027604986,100 174.9449610958789,-36.914799831938716,100 174.944934868312,-36.914811097942774,100 174.9449140615263,-36.9148158398081,100 174.9448823825263,-36.91481947626357,100 174.94486745804318,-36.91482313665191,100 174.94481271322937,-36.91483113733619,100 174.94479958650217,-36.91483478089284,100 174.94463307951855,-36.91486720127244,100 174.94462176568777,-36.91487009858134,100 174.94460368476322,-36.91487773492803,100 174.94456433920226,-36.914900992175326,100 174.94452091335285,-36.91492243338541,100 174.94440600486095,-36.914953709309955,100 174.94437704802846,-36.914957002726595,100 174.94436482494925,-36.914959545361405,100 174.944254866156,-36.91497052101021,100 174.944199209672,-36.91497997843546,100 174.9441888222952,-36.91498324719787,100 174.944158070794,-36.91500215269286,100 174.94413952464538,-36.915012335576456,100 174.9439630462471,-36.915042551426325,100 174.94395219319716,-36.915045826889816,100 174.943942242082,-36.915048020436934,100 174.94390425803965,-36.91505311631499,100 174.94387165785605,-36.915053501233466,100 174.943863520812,-36.91505313690471,100 174.9438259600926,-36.91505607259859,100 174.94373774142377,-36.915077188572184,100 174.94364815863997,-36.915109525585805,100 174.94363503344212,-36.91511570978303,100 174.94356221047144,-36.915142619634295,100 174.94346176761536,-36.915161910225244,100 174.94341108576614,-36.91516557787367,100 174.94339795956205,-36.915164868841245,100 174.94337488206384,-36.91516196933748,100 174.94330789946937,-36.91513913658867,100 174.9432789180685,-36.915126075867214,100 174.9432594442636,-36.915118465708126,100 174.94322141487123,-36.91509961970628,100 174.94320604009442,-36.91508837327545,100 174.94318474736264,-36.91507384196315,100 174.94313718047525,-36.91503540519089,100 174.9430276419891,-36.91498391202807,100 174.94299277760922,-36.91497194794544,100 174.94291403618834,-36.91495711631376,100 174.942818059822,-36.91493067020042,100 174.94281037660792,-36.91492921319693,100 174.94279860450408,-36.91492559865289,100 174.94271849194047,-36.9149118456576,100 174.94268997672643,-36.91491113502872,100 174.94264338578745,-36.914908983262116,100 174.9426279814466,-36.91490718477292,100 174.9426207540252,-36.914907190338155,100 174.94254425271578,-36.91489707442393,100 174.94243110448375,-36.91486989761571,100 174.94241254247538,-36.91486773794738,100 174.94240123753852,-36.91486846724868,100 174.94236187283772,-36.91486812057114,100 174.9423206861347,-36.91486378203404,100 174.94214103733628,-36.914860272228616,100 174.94211251663447,-36.91486244213841,100 174.94210074265035,-36.91486499161716,100 174.9420283689136,-36.914877009846,100 174.94194602087092,-36.91489411589813,100 174.94188584013014,-36.91489815544146,100 174.94187585997645,-36.91489743535399,100 174.9418546124557,-36.914898173962136,100 174.9417740519895,-36.914893131605545,100 174.9417577717035,-36.91489096156493,100 174.941748252032,-36.91489060617852,100 174.94171929549745,-36.914887718656864,100 174.94163920762506,-36.91488847562454,100 174.94159167886758,-36.91489360424153,100 174.94142425225442,-36.914898051282854,100 174.94138669386626,-36.91490170000447,100 174.94137630755543,-36.91490315596916,100 174.9413477906617,-36.9149104360639,100 174.94132291543835,-36.91492060931322,100 174.94125685961285,-36.91494098439354,100 174.9411921469975,-36.914946823677454,100 174.94115684691198,-36.914944669728214,100 174.94113558212422,-36.91494539226647,100 174.94112382215286,-36.91494468859,100 174.9410514131734,-36.914946160566835,100 174.9410410131531,-36.91494836030761,100 174.94103467812627,-36.91494872162865,100 174.94100573822982,-36.9149563645734,100 174.94098219591888,-36.91496908560223,100 174.9409686271013,-36.914981068579415,100 174.9409632203554,-36.91498869190589,100 174.94095191037405,-36.91501410894947,100 174.94096237853606,-36.91508017516656,100 174.94096468323804,-36.91511140305906,100 174.94096243032308,-36.915118660280434,100 174.94095655451764,-36.915128104709915,100 174.94095474227234,-36.915128834648215,100 174.94078673056526,-36.91500548992775,100 174.94077895417922,-36.91501372971297,100 174.94077519840144,-36.91501173700624,100 174.9407726458017,-36.91501071427511,100 174.94075489135813,-36.91500959297887,100 174.9407510569431,-36.915010343343326,100 174.94073948615687,-36.915011479717215,100 174.9406641739438,-36.91502542257005,100 174.94068188185798,-36.91507209417374,100 174.94068692645766,-36.915093670227975,100 174.9407160258917,-36.915171234654984,100 174.94071782912837,-36.91517267342076,100 174.94073501590734,-36.91520245756339,100 174.94073548810277,-36.91520390456178,100 174.94073954517722,-36.91520861700748,100 174.94069900543343,-36.91517600043353,100 174.93908999760382,-36.913976996282244,100 174.93881500134518,-36.91406700171628,100 174.93873999642562,-36.914091995608715,100 174.938699991903,-36.914062993761696,100 174.938547999713,-36.9139539936036,100 174.93833100123302,-36.913797994585536,100 174.9381099959009,-36.91363900059673,100 174.9378879951344,-36.91347900123888,100 174.93766699163615,-36.91332000636386,100 174.9375289915401,-36.91322099201244,100 174.9374159946142,-36.91314000591358,100 174.93722699718188,-36.913003992426965,100 174.9369550084433,-36.91280900388836,100 174.93676300131148,-36.91267099905602,100 174.93654599324768,-36.91251499680681,100 174.9367979977432,-36.91228899687625,100 174.93694100525505,-36.912161993285395,100 174.93713300743494,-36.91199000355403,100 174.93728299441838,-36.911855998791246,100 174.93744099172318,-36.911771996812035,100 174.93763400044355,-36.911667992917714,100 174.9376530016786,-36.91165800371138,100 174.9378490072099,-36.91155300059461,100 174.93808199275657,-36.91142800735927,100 174.93830600558988,-36.91130800557176,100 174.93851899683762,-36.9111939931295,100 174.93864800027058,-36.91112500639876,100 174.93875899470913,-36.91125899413152,100 174.9389019970804,-36.91143100195843,100 174.93904100543372,-36.91159800133207,100 174.93917699808256,-36.911760996577165,100 174.93931499376643,-36.91192700717999,100 174.9395029962633,-36.91215399211781,100 174.93962700040115,-36.91230299956841,100 174.93979799466499,-36.9125089953578,100 174.9400409955912,-36.912800999298746,100 174.94022599794408,-36.91270199810137,100 174.94044499444894,-36.912584993594756,100 174.94046199925995,-36.912576000063886,100 174.94067900622323,-36.912459000601544,100 174.94088500257206,-36.912348996412334,100 174.9411329970088,-36.91221599885974,100 174.94137099630237,-36.912087996119446,100 174.94139900443363,-36.912072997408266,100 174.94174400470752,-36.911966999621264,100 174.94193700601667,-36.911907004432685,100 174.94218200247022,-36.91183100396771,100 174.94242699101923,-36.91175599457322,100 174.94246700217985,-36.911742994881635,100 174.94263899310522,-36.91164199278507,100 174.94255499752322,-36.91143600308241,100 174.94248300733892,-36.91125999823597,100 174.94243300712253,-36.911136006137966,100 174.94241400267455,-36.91108999410442,100 174.94240800028555,-36.91107500343406,100 174.9423689993531,-36.91097900006789,100 174.9423429915686,-36.91091499342581,100 174.9423399958123,-36.910907999579074,100 174.94230599918566,-36.91082900680077,100 174.9422780062209,-36.91076200059938,100 174.94227299744392,-36.91075100180018,100 174.94223999574976,-36.910672995886564,100 174.9422359927551,-36.91066399236253,100 174.9422049983185,-36.910591000049756,100 174.94217300872538,-36.91051700371799,100 174.9421320016937,-36.910421006026645,100 174.94210700585484,-36.9103609927064,100 174.94206000140065,-36.910252002421736,100 174.94204000142597,-36.91020499983184,100 174.94198700038888,-36.91007999393409,100 174.94197399953205,-36.91004900493973,100 174.9419149975824,-36.909909005578456,100 174.94190799865336,-36.90989299466495,100 174.94184099507754,-36.90973700164277,100 174.94183400244364,-36.90971999827762,100 174.94177499403062,-36.9095810066049,100 174.94174799556444,-36.90951799302594,100 174.94170800746468,-36.90942499789299,100 174.94166599832133,-36.909324000597415,100 174.94164400274695,-36.90927299358192,100 174.94154699582865,-36.90917199318383,100 174.94145699554224,-36.90907800663115,100 174.94142200887123,-36.90904100020261,100 174.94131399266965,-36.90892900061009,100 174.94127599965458,-36.908888997747674,100 174.94113799547205,-36.908744996793864,100 174.94099200532224,-36.90859299275536,100 174.94139500769808,-36.90834399786502,100 174.94149899764335,-36.90845300417253,100 174.9416680041328,-36.90833200082732,100 174.9415519938269,-36.908211007252305,100 174.94184900293337,-36.908026994034955,100 174.9417849984821,-36.907959999640205,100 174.94195000356953,-36.90785799427419,100 174.94201999327942,-36.90781400687826,100 174.94211599986366,-36.90775499455075,100 174.94225500358922,-36.90766799718176,100 174.94221300649616,-36.90757299357384,100 174.94213900696712,-36.90740599197346,100 174.94203100152967,-36.90716400657903,100 174.9421100033497,-36.90714499402061,100 174.94223700478148,-36.90711500531262,100 174.94228599493675,-36.90705700690146,100 174.94230000237002,-36.90704100486943,100 174.94240599163876,-36.906913993652694,100 174.94244700567182,-36.90686699634486,100 174.94261900340516,-36.90666300317738,100 174.9427459932367,-36.906511003596954,100 174.9428479972531,-36.906505997410626,100 174.94288199461147,-36.906504997800994,100 174.94308600512352,-36.9064949967838,100 174.94333299286762,-36.90658600427214,100 174.94345200007172,-36.90651799708627,100 174.9435630038706,-36.90645499685261,100 174.94361600637023,-36.906425005386566,100 174.94385900213993,-36.90628600388107,100 174.94387599532786,-36.90627600330081,100 174.9441120071662,-36.90614200611036,100 174.9441339919188,-36.90612999497813,100 174.94437100143006,-36.90599399626205,100 174.94446199562884,-36.90594199521653,100 174.94483799395755,-36.905727993551935,100 174.94486100036156,-36.90570800427505,100 174.94498999515446,-36.90559400484878,100 174.94511799681462,-36.90548099767067,100 174.94535400246957,-36.90527199283783,100 174.9453649967522,-36.90526200558569,100 174.94569899831689,-36.90496700240471,100 174.94576699740387,-36.90490700301404,100 174.94579999276635,-36.9047970063051,100 174.94583000544597,-36.90469599855989,100 174.94586300066283,-36.90458600273598,100 174.9458870056376,-36.90450700338004,100 174.945957004619,-36.90443999857312,100 174.94600299232985,-36.904395992943236,100 174.94612600390573,-36.90427900155135,100 174.946254994127,-36.904156993606044,100 174.94645100406584,-36.90394300615295,100 174.94653500046473,-36.90385100087372,100 174.94662700195622,-36.90375099858773,100 174.94675700639564,-36.903608994119345,100 174.94678699723588,-36.90357599222891,100 174.94685199673967,-36.90355600463661,100 174.94723699453823,-36.90343900123997,100 174.94724200506604,-36.90334600292082,100 174.9471769993742,-36.903289002625364,100 174.94747800211164,-36.90316499422819,100 174.94783499203936,-36.90313099475294,100 174.94788799701408,-36.90289700131509,100 174.9479429919707,-36.90246499770293,100 174.94805700768956,-36.902412995827156,100 174.94830100125714,-36.902303006581405,100 174.94832099354983,-36.902294004404226,100 174.94854900698013,-36.9021900010253,100 174.9486600029529,-36.902348000434834,100 174.94871399105827,-36.902423999169365,100 174.94877100051556,-36.90250599970484,100 174.9488769956703,-36.9026569957404,100 174.94888199742456,-36.90266399887214,100 174.94898900036952,-36.90281700530993,100 174.9489929948016,-36.902821997918345,100 174.94901299569287,-36.90285100106392,100 174.94910299741971,-36.90297899199082,100 174.94912699325928,-36.903013003934774,100 174.9492139961192,-36.90313700611173,100 174.9493249960189,-36.90329500477723,100 174.9493789961403,-36.90337199532747,100 174.94949999353244,-36.90354500599282,100 174.94952400492386,-36.90356100579852,100 174.9496729957993,-36.90366299765266,100 174.94974999809915,-36.90373099298478,100 174.9496340040413,-36.903818001623776,100 174.94969299573876,-36.90386699287725,100 174.94939299722787,-36.90409000027699,100 174.94950400409653,-36.90418699430042,100 174.94958800350446,-36.904260995673496,100 174.94976899488162,-36.90442099859673,100 174.95006300380578,-36.904680004964334,100 174.9502720000054,-36.90452699889755,100 174.95048100528672,-36.904374999084524,100 174.95056500477543,-36.904559007401865,100 174.95057300095303,-36.90457600728454,100 174.95073799730082,-36.90467399263135,100 174.95075499486413,-36.90468400010013,100 174.95090700148165,-36.90477500340195,100 174.95093600395674,-36.90479199528597,100 174.95111699601787,-36.904900006690745,100 174.95117499800415,-36.90497100721169,100 174.95120899752007,-36.90501400626103,100 174.95142900326593,-36.90529099199104,100 174.9515099960504,-36.90539399234083,100 174.95165500129195,-36.90544599913444,100 174.9518569928245,-36.905566005020795,100 174.95190400146288,-36.905760002864675,100 174.95191500846232,-36.90580299832478,100 174.9521920065737,-36.905984992339306,100 174.95222700606305,-36.90598400422804,100 174.95239499772492,-36.905921995070386,100 174.95252199679913,-36.905789004565065,100 174.9528160059457,-36.90596900134262,100 174.95283299679562,-36.90598000005596,100 174.95296999285745,-36.905836002842626,100 174.95320100838495,-36.90597799967482,100 174.95328399604094,-36.90602799687305,100 174.95334300253765,-36.90606499857863,100 174.953417994082,-36.906111004602664,100 174.95352600458935,-36.90599700230871,100 174.95353499584763,-36.905989003102576,100 174.95376300455368,-36.90608099944296,100 174.953888005025,-36.90613099456113,100 174.9542170012628,-36.90591999634652,100 174.9545375414224,-36.90587314593456,100</coordinates></LinearRing></outerBoundaryIs>
    </Polygon>
  </Placemark>

  <Placemark>
    <name>Shelly Park</name>
    <Point>
      <altitudeMode>relativeToGround</altitudeMode>
      <coordinates>174.94660991981206,-36.9093993588683,100</coordinates>
    </Point>
  </Placemark>

</Document>
</kml>