<?xml version="1.0" encoding="utf-8"?>
<kml xmlns="http://www.opengis.net/kml/2.2">
<Document>
  <name>St Johns (polygon: official_shp)</name>
  <open>1</open>

  <Placemark>
    <name>St Johns (polygon: official_shp)</name>
    <Style>
      <LineStyle><color>ffff0000</color><width>2</width></LineStyle>
      <PolyStyle><color>66ff0000</color><fill>1</fill><outline>1</outline></PolyStyle>
    </Style>
    <Polygon>
      <tessellate>1</tessellate>
      <altitudeMode>relativeToGround</altitudeMode>
      <outerBoundaryIs><LinearRing><coordinates>174.8435090043633,-36.869845000826786,100 174.84359599787217,-36.86982500155239,100 174.84413900165075,-36.86970400286917,100 174.84555800445003,-36.870238002999145,100 174.84533400467464,-36.87065900204585,100 174.845175002625,-36.870892996286635,100 174.84507999845673,-36.8710050009614,100 174.84537199358954,-36.871130006166354,100 174.84544200532264,-36.871036006869694,100 174.84554600255268,-36.87089499530665,100 174.84558199220402,-36.87084599605204,100 174.84565799821902,-36.87077599157402,100 174.8456710033945,-36.87076399924151,100 174.84597399589543,-36.87095099328489,100 174.84610900477423,-36.87103399467399,100 174.8464840045495,-36.871265004410304,100 174.84684600540982,-36.87148799756109,100 174.8469769961857,-36.8715680003765,100 174.847367992682,-36.87180900127233,100 174.8475240003173,-36.87190500516528,100 174.84767799625916,-36.872000006306536,100 174.84776900046742,-36.872055993114586,100 174.8478399921325,-36.872082000109664,100 174.84801500344673,-36.87214399262469,100 174.8482360052019,-36.87222300581436,100 174.84828099810866,-36.87223900482058,100 174.84845600297243,-36.872302003561025,100 174.8486389946336,-36.872367003102774,100 174.84890300354343,-36.87252500176577,100 174.8490040018937,-36.872584998020834,100 174.84927599165582,-36.872748001092674,100 174.84936300432304,-36.87279999729924,100 174.84966799982155,-36.87298299903977,100 174.84993199612958,-36.87314099644503,100 174.85007400424493,-36.873225002763526,100 174.85017300682594,-36.87328399434688,100 174.85017900772894,-36.87328999298191,100 174.8504020067593,-36.87348400492889,100 174.85062600120398,-36.87367900501311,100 174.85090399174948,-36.873920993400226,100 174.8511419939756,-36.87419600606062,100 174.85212199761165,-36.87533100406386,100 174.85235199868512,-36.876128001058895,100 174.8525049951502,-36.87665799614235,100 174.85258199553502,-36.87692400695952,100 174.85265300198822,-36.877170003440646,100 174.85276999684828,-36.87757599405849,100 174.85278800654058,-36.877715995963754,100 174.85285000501304,-36.87818399837438,100 174.85285700211108,-36.87823899556693,100 174.8529350056914,-36.87883399509976,100 174.85292100301535,-36.879206992081876,100 174.85290699436942,-36.87958299416454,100 174.85289300248863,-36.87995899596436,100 174.85279200103236,-36.880302998421435,100 174.85275099672668,-36.88032400613095,100 174.85262199690362,-36.88039200142846,100 174.85223600666836,-36.88041100197982,100 174.85277699424043,-36.8805249979523,100 174.85427699842725,-36.880787998740594,100 174.8547300002368,-36.88086300298283,100 174.85488600260626,-36.880881997280184,100 174.85496100235244,-36.880893991927415,100 174.85501699280883,-36.88090600574601,100 174.85513399108382,-36.88093099869077,100 174.85506300382858,-36.88116500667859,100 174.85513299649824,-36.8814029971899,100 174.85529000715383,-36.88189000579428,100 174.85544599388447,-36.88238000540522,100 174.8556179940843,-36.88315300036074,100 174.85573199543688,-36.88393899767987,100 174.85576500438432,-36.88457999266387,100 174.85571100826215,-36.88573600581624,100 174.85567600075336,-36.88603400591265,100 174.85567300591484,-36.88604999356456,100 174.85539300194085,-36.88723599692615,100 174.85528399416705,-36.887518994565355,100 174.85516800689834,-36.88785000031327,100 174.85475999416172,-36.889014000597264,100 174.85458599405115,-36.88964600286082,100 174.85450000785755,-36.889956991554996,100 174.85448200592182,-36.89003500030124,100 174.85443200339333,-36.890251996551136,100 174.8543639958034,-36.8904770027267,100 174.85386800612216,-36.89188699317948,100 174.8538260057144,-36.89188000361547,100 174.85375299334993,-36.89205099803101,100 174.85322399223716,-36.89329099518826,100 174.85298999094547,-36.89322999362283,100 174.8523259991267,-36.89305399786326,100 174.8521070043052,-36.89309800121426,100 174.85204800081385,-36.89290200657889,100 174.85203800303,-36.892869995917984,100 174.85130900078457,-36.893028996395174,100 174.8511900010999,-36.8926320058244,100 174.8506730079004,-36.89273200518023,100 174.85040999914028,-36.892783004027606,100 174.85035600211,-36.892294001965205,100 174.85032300315928,-36.892209004408755,100 174.8501250056896,-36.89170200318804,100 174.85006399682433,-36.89154599811738,100 174.8497710047184,-36.891404992205295,100 174.84885699424427,-36.89096700618769,100 174.84665703245383,-36.88990910639412,100 174.84701932585304,-36.88978757287179,100 174.8481121426023,-36.88942100582746,100 174.8482143208109,-36.889195277552126,100 174.84840030657938,-36.889055087159015,100 174.84841973251932,-36.88901475061419,100 174.84847483426387,-36.88890037728571,100 174.84825106454835,-36.888589309305324,100 174.8481250468919,-36.88841417797877,100 174.84800016168901,-36.888514076267924,100 174.84730990833714,-36.887556273430704,100 174.84639870619054,-36.88759851815174,100 174.8459672124081,-36.88761851156938,100 174.84584424427928,-36.88747979896412,100 174.84564191338146,-36.88725163125374,100 174.84544476953846,-36.887029971304415,100 174.8456524184464,-36.886823669692824,100 174.84549898128836,-36.88672401143923,100 174.84535325613356,-36.886631002156676,100 174.8451986141762,-36.88655751967007,100 174.8453996455916,-36.886344828112705,100 174.84529840934155,-36.886279057084266,100 174.84527628237907,-36.886260046572126,100 174.84526142448692,-36.88623690141446,100 174.84525495631178,-36.88621138072493,100 174.84525742919726,-36.88618541289555,100 174.84526112270677,-36.88617481899295,100 174.84494228324218,-36.8859459377844,100 174.84489173186157,-36.88593631973982,100 174.84478233398227,-36.885906136878575,100 174.8446832347596,-36.88587065191304,100 174.84459649698346,-36.88582358843373,100 174.84300079198275,-36.884787584233806,100 174.8429913444642,-36.884781334072414,100 174.8429196657996,-36.88472330898621,100 174.84286174401794,-36.88465611213598,100 174.84281941416018,-36.884581818777434,100 174.8428091303913,-36.88456164432258,100 174.84277119244624,-36.88451344839678,100 174.84271942714759,-36.88447437928728,100 174.84265720377053,-36.88444694899571,100 174.8425883867097,-36.884432889408835,100 174.84257238725314,-36.884431102369035,100 174.8424755725757,-36.88441193109317,100 174.84238456887917,-36.884379170409495,100 174.8423023392977,-36.884333838847404,100 174.84219112118674,-36.88425770407722,100 174.84197099501853,-36.884092883439045,100 174.84176356119065,-36.88391783921337,100 174.84167019555716,-36.883831843322476,100 174.84153604626772,-36.88369917060397,100 174.8414090042489,-36.88356205576984,100 174.84126903161146,-36.883395520820734,100 174.84115810850744,-36.883249626585105,100 174.84105500472378,-36.883100115701744,100 174.84095978032093,-36.88294724774461,100 174.84087270067238,-36.882791281808856,100 174.84079385958555,-36.88263248145004,100 174.84072340494154,-36.882471166168145,100 174.8406614788114,-36.88230760057079,100 174.84060819654226,-36.88214210465936,100 174.84210399400013,-36.88050493066657,100 174.84164059245302,-36.88019039641269,100 174.8411509238262,-36.87985563413046,100 174.8410750433618,-36.87977838266985,100 174.84080391436936,-36.87979668270377,100 174.84064991250213,-36.8798489691821,100 174.84042988358405,-36.87992383456623,100 174.84032176401178,-36.87998382192884,100 174.83994632193054,-36.87989805131543,100 174.83956924893462,-36.88047716098456,100 174.8389800485449,-36.881382116827076,100 174.83848730020108,-36.88205509987245,100 174.83757817305138,-36.88295538687944,100 174.83748197888548,-36.882963380594745,100 174.83733997406878,-36.88310424387813,100 174.83691499915653,-36.88282699155122,100 174.83676100879183,-36.88296099829128,100 174.83668200074345,-36.88298300631172,100 174.83627099484912,-36.883099005950044,100 174.8362599947912,-36.88309999889462,100 174.8360299949865,-36.883130996615314,100 174.83579099914706,-36.883162999990056,100 174.83553699486694,-36.883197999163244,100 174.83526199132965,-36.88323499778298,100 174.83499600171194,-36.88327100658052,100 174.83476399579897,-36.88330200490549,100 174.8347170052137,-36.88330799441562,100 174.83452599239328,-36.88334800340035,100 174.83415499848869,-36.88342499832089,100 174.8340239949813,-36.88345199583907,100 174.83387600325705,-36.8834829995909,100 174.8338169929977,-36.883509002664056,100 174.8337640046659,-36.883532005962,100 174.83354700537234,-36.883625994102374,100 174.8332440045226,-36.8837579977032,100 174.8331260001907,-36.88387800383019,100 174.8329829978039,-36.88402199238957,100 174.83283800033362,-36.88416900217572,100 174.8326989960087,-36.8843099948846,100 174.83251199281477,-36.88450000042207,100 174.83236199928982,-36.88465099757904,100 174.83220499290962,-36.88480999656398,100 174.83217700620392,-36.88483799540051,100 174.8318280024482,-36.88498099994192,100 174.83160700181523,-36.884995000929706,100 174.83154699266495,-36.88490400034688,100 174.83140800074827,-36.88469399611783,100 174.83121300607263,-36.884399999219895,100 174.8311429924798,-36.88429400666825,100 174.83123199356666,-36.884125992220376,100 174.83135400241264,-36.88389500213718,100 174.83145499486028,-36.88370200254873,100 174.83155300029478,-36.88351699956604,100 174.83165300793982,-36.88332799887537,100 174.8317459956344,-36.88315200078112,100 174.83184300676322,-36.88297000440874,100 174.8318669987042,-36.882922995089785,100 174.83190900343382,-36.88279099732649,100 174.83196599710237,-36.88261200375624,100 174.83201499770513,-36.88245499970717,100 174.83206500000588,-36.88229799280728,100 174.8320729978314,-36.88227100259655,100 174.83211900545396,-36.882126995882025,100 174.83213100469638,-36.882064997555666,100 174.83216599592507,-36.88186900430353,100 174.83220199624705,-36.88167200220772,100 174.8322380069771,-36.8814760058222,100 174.83227600790332,-36.88127099335823,100 174.83231800824564,-36.881043997921516,100 174.83233900236067,-36.8809260017461,100 174.83234899328056,-36.88087500356523,100 174.83265099957472,-36.88051399935827,100 174.83331000554296,-36.88054199382085,100 174.83338999397995,-36.88054800161337,100 174.83341300622945,-36.88054900297565,100 174.83370399866396,-36.88056999782865,100 174.83397199613123,-36.88059000487151,100 174.83420700822057,-36.88060699728697,100 174.8345149996732,-36.88062900036787,100 174.8345990060793,-36.88063599174237,100 174.83473800646348,-36.88067500167107,100 174.83513100774354,-36.88078700313496,100 174.83504000343694,-36.88095200488713,100 174.83494499391173,-36.88112500374864,100 174.83485400677355,-36.88129000509423,100 174.8347630013105,-36.88145500665372,100 174.83472100842124,-36.88153100643469,100 174.83478000783305,-36.88163800433538,100 174.834894997074,-36.881849994192414,100 174.83492200233468,-36.8819000047203,100 174.83503300498487,-36.88210300303825,100 174.83511100002116,-36.8821120013101,100 174.83533299913208,-36.88213999218871,100 174.83556600053294,-36.882169003309734,100 174.83561099871912,-36.88214000264746,100 174.8359309914577,-36.881933999876416,100 174.83607299233014,-36.881841999428715,100 174.83624100430734,-36.88173299967165,100 174.83625800028122,-36.8817129942274,100 174.83639599429634,-36.881547994396826,100 174.83653299536013,-36.881384003025126,100 174.83668299350487,-36.88120499899682,100 174.83681599416153,-36.881046000331004,100 174.83694899541726,-36.88088700241106,100 174.83709000131594,-36.8807190069657,100 174.83723699889248,-36.88054299600098,100 174.8373689972463,-36.880385995154704,100 174.83742200288984,-36.88032199660128,100 174.83745799460155,-36.88024399311719,100 174.83753599338064,-36.880074999542934,100 174.83761599517877,-36.87990200637663,100 174.8377049978805,-36.87970999555782,100 174.83779899694275,-36.87950500032893,100 174.83788900028233,-36.879311007189294,100 174.83797499837272,-36.879124995035845,100 174.83806499128767,-36.878929994236195,100 174.83815300717885,-36.87873800105206,100 174.83824299194862,-36.8785440070292,100 174.83834999464295,-36.878311995572176,100 174.83847099534606,-36.87804999555124,100 174.83849999355175,-36.877986002997915,100 174.83845700773963,-36.8779760045638,100 174.83818299582813,-36.87791200480656,100 174.83792399591334,-36.87785099893425,100 174.8373049978451,-36.8777059934185,100 174.83721900780068,-36.87768599774803,100 174.83714799261605,-36.87772899429435,100 174.8369650002657,-36.87784099309547,100 174.83677299791904,-36.877957992698306,100 174.83658100455045,-36.878076000445894,100 174.8364019934826,-36.87818500211291,100 174.8362240006204,-36.8782940030994,100 174.8360450053706,-36.878403004893514,100 174.83598500065548,-36.878547996441355,100 174.8359110061484,-36.87872799281616,100 174.8358420083983,-36.87889500487248,100 174.83577100766786,-36.87906600017446,100 174.83570100847965,-36.87923699257633,100 174.83563000641357,-36.87940800403734,100 174.83556900667824,-36.87955400220997,100 174.83555300375764,-36.879571001599764,100 174.83534300037766,-36.8797820019417,100 174.83512599935602,-36.879798993111564,100 174.8348929968261,-36.87981800665396,100 174.83476999143144,-36.879826997194435,100 174.83462699864253,-36.87976699294426,100 174.83435800625378,-36.87965299930322,100 174.83429899963372,-36.87962800343188,100 174.8341009938127,-36.87951100141152,100 174.83383599772606,-36.879351993685844,100 174.83354700920972,-36.87918100740995,100 174.83342100756488,-36.87910599906868,100 174.83326299901162,-36.8790119923144,100 174.83308300165444,-36.87890400427765,100 174.83287100434322,-36.878777993610335,100 174.83295500607784,-36.87860100201143,100 174.83303400642004,-36.87843300078564,100 174.83312299570665,-36.878243999388815,100 174.8332700073167,-36.87833199833421,100 174.83337399699673,-36.87821500157071,100 174.83350499373995,-36.878069003998746,100 174.83363600679112,-36.87792300513196,100 174.833766991915,-36.87777599976744,100 174.83389599981476,-36.87763200187947,100 174.8339220038412,-36.87760300032662,100 174.834047007151,-36.877503006696884,100 174.8342140050821,-36.87736899910933,100 174.83436099776554,-36.87725100587549,100 174.83450800025037,-36.87713400377597,100 174.8346549916641,-36.87701599488173,100 174.83483300074982,-36.87687300227891,100 174.83487500608643,-36.87685899760813,100 174.83510799476468,-36.87678099409197,100 174.83538100274197,-36.876689004239104,100 174.83552299414433,-36.876464993867735,100 174.83569500361892,-36.876191997250814,100 174.8356619929262,-36.876187993438585,100 174.83524700091212,-36.87603100693725,100 174.83475999861702,-36.87584599462846,100 174.83451199228668,-36.87575199211606,100 174.83420299582588,-36.87563499494072,100 174.83370500729978,-36.87544599901398,100 174.83353300546833,-36.8755900022639,100 174.83333900532645,-36.87575299599051,100 174.8331799921775,-36.87588500708433,100 174.83315200726955,-36.87590899338903,100 174.8330499972881,-36.876022996743494,100 174.83291600760623,-36.876172003579825,100 174.83277299296591,-36.87633200603267,100 174.83262600375573,-36.87649599312273,100 174.83251199643095,-36.876622992615495,100 174.83248399222393,-36.87664299878322,100 174.83230800206448,-36.87676899642038,100 174.8321319948244,-36.876895007584544,100 174.83196099577552,-36.87701699974296,100 174.8316530027709,-36.87704999903374,100 174.8314859980314,-36.87706800629793,100 174.831379993599,-36.87698299179596,100 174.83115500077577,-36.87718999679313,100 174.83100900525125,-36.877325005015116,100 174.8309375522539,-36.877390960650445,100 174.8309370900966,-36.8773913868922,100 174.83086600584843,-36.877457003309594,100 174.83081924812413,-36.87750028566068,100 174.83078499621024,-36.8775319923596,100 174.83075378889882,-36.87754658181075,100 174.83069299750142,-36.87757500109049,100 174.83060316148828,-36.87761832614354,100 174.830495521369,-36.8776695966865,100 174.8304489802171,-36.877606775293245,100 174.83033940249808,-36.87745886320422,100 174.8302437958307,-36.877329810659184,100 174.8300563554831,-36.877420269736724,100 174.8300476945965,-36.87721571159149,100 174.83009040789605,-36.87706604725314,100 174.83005759306582,-36.877025550248625,100 174.82977183560038,-36.877066204174945,100 174.8297533242211,-36.87698225530391,100 174.82971302108314,-36.876799359431615,100 174.8295706685141,-36.87681962342884,100 174.82939153840653,-36.87684508101304,100 174.82928374136273,-36.876860418571944,100 174.82907019399192,-36.87689078337539,100 174.8288254301116,-36.8769255806754,100 174.82858068614993,-36.8769604231345,100 174.82855340799495,-36.87699361091172,100 174.8285395711088,-36.87693089287181,100 174.82833946232955,-36.87682135026,100 174.82819013746465,-36.876845276562676,100 174.82798202669602,-36.876878659941354,100 174.82794909417484,-36.87688414470954,100 174.82770197413927,-36.87692526724976,100 174.8274426541813,-36.87696842376721,100 174.82746808814653,-36.877028575928726,100 174.82751208330257,-36.877132689866905,100 174.82738077322333,-36.87722778124342,100 174.8273555235694,-36.877240894625494,100 174.82717286389845,-36.87732005497095,100 174.82715509278327,-36.87732774444601,100 174.82699221981736,-36.877398314257135,100 174.82697062127585,-36.877407679553905,100 174.82687505393716,-36.877449089889296,100 174.82682397753783,-36.87747121613592,100 174.8267721715412,-36.87749365913105,100 174.82673070052505,-36.87751161589715,100 174.82661383416303,-36.87756226318683,100 174.82654528895694,-36.87759197040631,100 174.82623519327507,-36.87762008116545,100 174.8262289478607,-36.877602764329644,100 174.82618533259915,-36.87756028167868,100 174.82617249094181,-36.87754775406261,100 174.82609651575413,-36.877473759771966,100 174.82609603673276,-36.87747376172686,100 174.82604000445065,-36.87741900174624,100 174.8259670017192,-36.87736899570946,100 174.82589200317332,-36.87731800089283,100 174.82586800676654,-36.87729400126605,100 174.82571399907872,-36.877143994210414,100 174.82562599922028,-36.87705800378382,100 174.82578600268192,-36.87696499799992,100 174.8257920065514,-36.87696199983651,100 174.82595900625768,-36.8768650015613,100 174.82580099780424,-36.8767119969673,100 174.82591599833086,-36.876643991551305,100 174.8259749977363,-36.87661900116876,100 174.82589899560838,-36.87643400083006,100 174.82587599691945,-36.87644199488721,100 174.8258520017348,-36.8764430063087,100 174.82582800290186,-36.876435995921724,100 174.82580999844345,-36.876422998692945,100 174.82579800637808,-36.87640599637843,100 174.82579499228183,-36.87638599255624,100 174.8258070015508,-36.87625199706592,100 174.82581200794408,-36.87621700430591,100 174.82587700719677,-36.87618099311023,100 174.8259619978659,-36.87613499341324,100 174.82604700639723,-36.8760889942831,100 174.82613199683811,-36.87604299356837,100 174.82621800698996,-36.875996992441884,100 174.82614600135298,-36.875864007104425,100 174.82637300687406,-36.87574099371326,100 174.826364007948,-36.87573199434144,100 174.82640999350295,-36.875707006414345,100 174.826509002089,-36.87565000458702,100 174.82654400731346,-36.875630005744945,100 174.82657684637442,-36.87566573623864,100 174.8266115766587,-36.87570352423045,100 174.8266694832741,-36.875765700153984,100 174.82667844997448,-36.875760299407894,100 174.82678638397726,-36.875695416772295,100 174.82684700017106,-36.87565898302461,100 174.8269624719751,-36.87578297301706,100 174.82696300336914,-36.87578300360273,100 174.8270001821106,-36.875761986948426,100 174.82714699279114,-36.87567899504865,100 174.82714687187757,-36.87567886441235,100 174.8271471331169,-36.87567871618149,100 174.82715251719952,-36.8756838493892,100 174.827158617034,-36.87568841636807,100 174.827165350627,-36.8756923661017,100 174.8271726169626,-36.875695649668955,100 174.82718031722473,-36.87569821631218,100 174.82718835004863,-36.87570004956364,100 174.82719658370826,-36.87570108294782,100 174.82720491651173,-36.87570133335143,100 174.82721323400105,-36.875700799830746,100 174.82722140002355,-36.87569946555179,100 174.82722931670259,-36.875697366270586,100 174.82723686696735,-36.875694532630355,100 174.82724395029047,-36.875690983302654,100 174.8273724332864,-36.87561798306167,100 174.82721055574856,-36.87544418840329,100 174.827194721037,-36.87542718764282,100 174.82717835206716,-36.87540961193461,100 174.827097732677,-36.87532306110234,100 174.82702273746753,-36.87524262669324,100 174.82718706115315,-36.875143953546356,100 174.82722800072477,-36.875119005957494,100 174.82742800148336,-36.8749990053505,100 174.82740200703685,-36.87497000641848,100 174.8271189947602,-36.87465400664397,100 174.82721999635353,-36.874593997386796,100 174.8272289264872,-36.874588481792095,100 174.82725400650364,-36.87457299243425,100 174.82726044797502,-36.87456906540485,100 174.82729538380016,-36.87454806603305,100 174.82750731734143,-36.87463066627672,100 174.82763820023942,-36.87444529937397,100 174.827764628118,-36.874266219159836,100 174.82776476194883,-36.874266138685044,100 174.82776499975998,-36.87426599622128,100 174.82780041465125,-36.87420485930305,100 174.82780672695947,-36.874193962424144,100 174.8278599956544,-36.87410200104755,100 174.82759200640118,-36.87400200632374,100 174.82761899842492,-36.87371200464723,100 174.82763100737066,-36.87358600018204,100 174.82764600823432,-36.87342200268073,100 174.82800299799837,-36.87355500390104,100 174.8280430015525,-36.87356999677166,100 174.8281149938817,-36.87344599233886,100 174.82818599298113,-36.87332499376803,100 174.82819099314852,-36.87331600354874,100 174.8282980037442,-36.87312999827864,100 174.828328007449,-36.87307900064244,100 174.82834299558476,-36.87309099566829,100 174.82848899354713,-36.873207993330816,100 174.82865899631113,-36.87334600184595,100 174.828875994414,-36.87352099754655,100 174.82903999348218,-36.87348300458277,100 174.8290469910027,-36.873480996847874,100 174.8290539974284,-36.873477998411076,100 174.82906100378906,-36.87347499727087,100 174.82906699897399,-36.87347099319165,100 174.82907199900595,-36.87346599944691,100 174.82907600571966,-36.87345999888321,100 174.82908000505725,-36.87345500612267,100 174.829082006697,-36.87344899406462,100 174.82908399964202,-36.87344200599727,100 174.82908499836688,-36.873435995859246,100 174.82908399384996,-36.8734300039429,100 174.82908299787312,-36.873423006008004,100 174.8290800050852,-36.87341700143745,100 174.82925799141404,-36.87337599870799,100 174.82919677646365,-36.873251937197146,100 174.82939656501577,-36.87320675440936,100 174.8293185504671,-36.872989499676514,100 174.82948601657824,-36.87295068929861,100 174.82950898126506,-36.87294537383867,100 174.82965400579127,-36.87291199321176,100 174.8296999938874,-36.87290100439095,100 174.82981099630337,-36.87287500215373,100 174.82988999618345,-36.87285699360682,100 174.8299149997361,-36.872850993200416,100 174.8299749931625,-36.872836994430635,100 174.83007999861505,-36.87281299784143,100 174.8301720023123,-36.872791995573905,100 174.8302710037217,-36.872768999847914,100 174.83044400254556,-36.87272899425772,100 174.83065199977102,-36.872679998264104,100 174.83075000817496,-36.87265799538778,100 174.83100700032855,-36.872598005563496,100 174.8310340072622,-36.872592001088506,100 174.83104299535927,-36.87252000384728,100 174.83107699809136,-36.87224800210587,100 174.83110799692918,-36.87200299738291,100 174.83112899342717,-36.87183600119482,100 174.83113600080276,-36.87178000517704,100 174.83113799650502,-36.871762006356725,100 174.83112999563127,-36.8716710022541,100 174.83111499337767,-36.8715169920518,100 174.83110000840622,-36.871362997800915,100 174.8310849967063,-36.87120999542153,100 174.83108400392322,-36.87119200119696,100 174.83107099684216,-36.87105600039752,100 174.83105599526692,-36.870902006384064,100 174.8310409922779,-36.870747997063525,100 174.83102499658565,-36.87057599260723,100 174.83109300192214,-36.870570994008645,100 174.8316420057564,-36.87053700141873,100 174.831711003906,-36.87053299214722,100 174.83168600704496,-36.870767007411295,100 174.8316679947772,-36.87093700330258,100 174.83163299478534,-36.87126799659299,100 174.83161100571365,-36.87146999609265,100 174.83159199587988,-36.87164999860651,100 174.83154799655773,-36.8720629940882,100 174.8315049963282,-36.872471992045966,100 174.83167000468438,-36.872419994854965,100 174.8318419936708,-36.87236600422067,100 174.83193099423778,-36.87233800479482,100 174.83195400010703,-36.872331000035295,100 174.83198799560498,-36.87231999785927,100 174.83204500572728,-36.8725189937036,100 174.8320599973439,-36.872573004703355,100 174.83207499595377,-36.87262599258065,100 174.83209046353645,-36.87267968527603,100 174.8321387619207,-36.87266455342083,100 174.8322107809937,-36.87264200011351,100 174.83237032365486,-36.872652645901574,100 174.8323701430201,-36.87265302093763,100 174.83262800435847,-36.87271100669789,100 174.8326614642743,-36.872385304371306,100 174.83300599218774,-36.87241399762645,100 174.83304200512006,-36.87213200286645,100 174.83304999743294,-36.872132996308494,100 174.8332460053172,-36.872148998274575,100 174.83325399877688,-36.87214999258646,100 174.83336699352162,-36.8721589991959,100 174.83345799941978,-36.8721670029448,100 174.8334700014909,-36.872168005685566,100 174.833581994138,-36.872176998711396,100 174.83366199977212,-36.87218399763319,100 174.8336940051163,-36.87218600667092,100 174.83386600132158,-36.8722009919514,100 174.83405000775392,-36.87221600429666,100 174.83406999274496,-36.87221699641165,100 174.83427399478788,-36.87223400444006,100 174.83445100156436,-36.872248995336896,100 174.83447799544027,-36.87225099771689,100 174.83458300831668,-36.87226000022202,100 174.83468199765616,-36.872268005940434,100 174.8347149971576,-36.872271005236435,100 174.83486500107077,-36.872283002763034,100 174.83488599848144,-36.87228499941237,100 174.83509000084877,-36.87230200693009,100 174.8352940018038,-36.87231899879518,100 174.83529999828963,-36.8723190044104,100 174.83551800727489,-36.87233699629874,100 174.83573499697124,-36.87235500443581,100 174.83574300617795,-36.87235599833608,100 174.83596999304845,-36.872374997166624,100 174.8360720070477,-36.8723829964431,100 174.83604200140869,-36.87261400094716,100 174.83581074614588,-36.872991617180425,100 174.83586700002516,-36.873094992349394,100 174.8362969909651,-36.873130998232895,100 174.83627199328728,-36.87306399473841,100 174.83657300160579,-36.8728670024282,100 174.8367190077643,-36.87287999587444,100 174.8368770070412,-36.87289300110984,100 174.83700599909773,-36.87290300074116,100 174.837033997703,-36.87268700719925,100 174.83706299422022,-36.872465001657176,100 174.8372730030725,-36.87248300314778,100 174.83739900332856,-36.87249299184174,100 174.8374600073826,-36.87247999398552,100 174.83753100625097,-36.87246400592805,100 174.83779300711694,-36.87240800434252,100 174.83786900625788,-36.872512992049394,100 174.83788400024483,-36.87253299229082,100 174.8380319943042,-36.87219100457561,100 174.8381349914072,-36.871950993648724,100 174.83824299553294,-36.87170100043146,100 174.8383170078461,-36.871529999374786,100 174.83842899647289,-36.87156299215326,100 174.83862199535776,-36.87161999912156,100 174.8388139916089,-36.87167700686845,100 174.83900700747657,-36.871733996715975,100 174.8393150052857,-36.871826003099855,100 174.8395669944767,-36.87190100158484,100 174.83940900624754,-36.87218900470698,100 174.83956099313625,-36.87223599402499,100 174.83980099315613,-36.87211999537092,100 174.8397719979524,-36.87200599694005,100 174.84003500784303,-36.8717150040919,100 174.84016599939028,-36.8715880003556,100 174.84027499668136,-36.87148399932195,100 174.84046799890274,-36.871311006046476,100 174.84071700773623,-36.87116799734056,100 174.84084499629552,-36.871093994401754,100 174.84104700631966,-36.87097799241127,100 174.84106900720352,-36.87078000309317,100 174.84109599618336,-36.87052899317897,100 174.84112399508507,-36.870463995151056,100 174.84149299495667,-36.87047799672082,100 174.8414960025269,-36.87045000703773,100 174.8415939993025,-36.870448004101966,100 174.84169500245923,-36.87044599594481,100 174.84167600807498,-36.87062499368682,100 174.84193099820905,-36.87066400640317,100 174.84203499196573,-36.87076100065931,100 174.8421020013895,-36.87082400040105,100 174.8421400040652,-36.870983003552524,100 174.84218599238426,-36.871174007203464,100 174.84223800597593,-36.87139600430542,100 174.8423579952194,-36.871901007134056,100 174.84239999375785,-36.87207900683989,100 174.84275099794982,-36.87189000092664,100 174.84293599742438,-36.871790006727814,100 174.84305900523816,-36.87187800274735,100 174.84322100854655,-36.87199300502708,100 174.84337099562066,-36.87210000492545,100 174.8435030080556,-36.87198100177356,100 174.84363300670984,-36.87186299324902,100 174.84387699331492,-36.87202300394018,100 174.84400900539825,-36.87187999600462,100 174.8440914688557,-36.87186303293507,100 174.84417909097274,-36.87162910255793,100 174.8440299951037,-36.871530993187335,100 174.84381800178318,-36.871391992935784,100 174.8437760006059,-36.87136500634022,100 174.84360600845105,-36.87125300671478,100 174.84339500047116,-36.87111400391344,100 174.8432730000396,-36.871033998213086,100 174.84325100406613,-36.87098199828266,100 174.84319300175974,-36.870845004422414,100 174.84313199649932,-36.870699000541066,100 174.84310000556977,-36.87062400314359,100 174.84306099637206,-36.8705300000824,100 174.84297900830367,-36.87033499897084,100 174.84291499262108,-36.87018300724281,100 174.8429440063858,-36.86978000475143,100 174.84295499763093,-36.86962900462523,100 174.8435090043633,-36.869845000826786,100</coordinates></LinearRing></outerBoundaryIs>
    </Polygon>
  </Placemark>

  <Placemark>
    <name>St Johns</name>
    <Point>
      <altitudeMode>relativeToGround</altitudeMode>
      <coordinates>174.8440781927647,-36.87980719344386,100</coordinates>
    </Point>
  </Placemark>

</Document>
</kml>