<?xml version="1.0" encoding="utf-8"?>
<kml xmlns="http://www.opengis.net/kml/2.2">
<Document>
  <name>Stonefields (polygon: official_shp)</name>
  <open>1</open>

  <Placemark>
    <name>Stonefields (polygon: official_shp)</name>
    <Style>
      <LineStyle><color>ffff0000</color><width>2</width></LineStyle>
      <PolyStyle><color>66ff0000</color><fill>1</fill><outline>1</outline></PolyStyle>
    </Style>
    <Polygon>
      <tessellate>1</tessellate>
      <altitudeMode>relativeToGround</altitudeMode>
      <outerBoundaryIs><LinearRing><coordinates>174.84841973251932,-36.88901475061419,100 174.84840030657938,-36.889055087159015,100 174.8482143208109,-36.889195277552126,100 174.8481121426023,-36.88942100582746,100 174.84701932585304,-36.88978757287179,100 174.84665703245383,-36.88990910639412,100 174.84598415830885,-36.89013455587848,100 174.84598366180626,-36.89013472042523,100 174.84531731656853,-36.890358814566454,100 174.84428967264625,-36.8907943324089,100 174.84383841621514,-36.891359367042185,100 174.84309221635687,-36.89110839956701,100 174.84269399961318,-36.89129176700802,100 174.84262821681108,-36.89132211667162,100 174.84253943323884,-36.89137196638252,100 174.8423077697038,-36.89112848478213,100 174.84234462116416,-36.890932361966605,100 174.84187443553753,-36.890887188924275,100 174.8418128315099,-36.89128878544134,100 174.8421211662639,-36.89160643367509,100 174.8420449101578,-36.8917522902058,100 174.84196947698527,-36.891896914429886,100 174.8417819932579,-36.89193642355679,100 174.8416080664328,-36.891874525586665,100 174.8414618190011,-36.89205062211176,100 174.8413331506702,-36.892170679885375,100 174.8411874702819,-36.892271081858524,100 174.8410223972361,-36.89236049328026,100 174.84094941303425,-36.89227363765821,100 174.84093797133056,-36.89226003457467,100 174.84076982071767,-36.892155834853874,100 174.84064250012622,-36.89222833855805,100 174.83921413855347,-36.89126268815489,100 174.83905040800894,-36.891291195819264,100 174.83847024494278,-36.89218185344708,100 174.83838927663874,-36.892121721595295,100 174.83819163571636,-36.892352137664695,100 174.83798142922285,-36.89255978469137,100 174.83754802061677,-36.89227619013802,100 174.837269063455,-36.89206907862531,100 174.83710661552266,-36.89196853857503,100 174.8369008154492,-36.891820313304706,100 174.83646449134423,-36.8915888619711,100 174.83616283459946,-36.891402934731474,100 174.83598119645575,-36.891296960881576,100 174.83578292802179,-36.89116669155274,100 174.83535306771003,-36.89092052378086,100 174.83527760365416,-36.89088863798872,100 174.83498224077033,-36.89075355174902,100 174.8346827828725,-36.89049953360239,100 174.8345744529229,-36.89039932314026,100 174.83453237251132,-36.89034215094205,100 174.8344669676879,-36.890208189639445,100 174.83420397647393,-36.8900394848268,100 174.83379920703612,-36.88968146900578,100 174.8338319994647,-36.88965932094458,100 174.83369678342237,-36.889280787598366,100 174.83371971855865,-36.88882680242743,100 174.83381157517746,-36.88818152311794,100 174.83386399001105,-36.8878136356706,100 174.83386950365693,-36.88777502591163,100 174.8336037073855,-36.88749850164237,100 174.83347755433698,-36.88736727910681,100 174.83336510759298,-36.88725034999882,100 174.83320470804725,-36.88708350334506,100 174.8331970832733,-36.88707556402127,100 174.83317684786928,-36.886828459384446,100 174.83414451658672,-36.88621681420876,100 174.8354019016962,-36.88473016287562,100 174.83570241625324,-36.88447278384512,100 174.8368758672841,-36.88365097605119,100 174.83734996875356,-36.88318147658973,100 174.83735022598714,-36.883181395096884,100 174.8373500088375,-36.88318099556088,100 174.83733997406878,-36.88310424387813,100 174.83748197888548,-36.882963380594745,100 174.83757817305138,-36.88295538687944,100 174.83848730020108,-36.88205509987245,100 174.8389800485449,-36.881382116827076,100 174.83956924893462,-36.88047716098456,100 174.83994632193054,-36.87989805131543,100 174.84032176401178,-36.87998382192884,100 174.84042988358405,-36.87992383456623,100 174.84064991250213,-36.8798489691821,100 174.84080391436936,-36.87979668270377,100 174.8410750433618,-36.87977838266985,100 174.8411509238262,-36.87985563413046,100 174.84164059245302,-36.88019039641269,100 174.84210399400013,-36.88050493066657,100 174.84060819654226,-36.88214210465936,100 174.8406614788114,-36.88230760057079,100 174.84072340494154,-36.882471166168145,100 174.84079385958555,-36.88263248145004,100 174.84087270067238,-36.882791281808856,100 174.84095978032093,-36.88294724774461,100 174.84105500472378,-36.883100115701744,100 174.84115810850744,-36.883249626585105,100 174.84126903161146,-36.883395520820734,100 174.8414090042489,-36.88356205576984,100 174.84153604626772,-36.88369917060397,100 174.84167019555716,-36.883831843322476,100 174.84176356119065,-36.88391783921337,100 174.84197099501853,-36.884092883439045,100 174.84219112118674,-36.88425770407722,100 174.8423023392977,-36.884333838847404,100 174.84238456887917,-36.884379170409495,100 174.8424755725757,-36.88441193109317,100 174.84257238725314,-36.884431102369035,100 174.8425883867097,-36.884432889408835,100 174.84265720377053,-36.88444694899571,100 174.84271942714759,-36.88447437928728,100 174.84277119244624,-36.88451344839678,100 174.8428091303913,-36.88456164432258,100 174.84281941416018,-36.884581818777434,100 174.84286174401794,-36.88465611213598,100 174.8429196657996,-36.88472330898621,100 174.8429913444642,-36.884781334072414,100 174.84300079198275,-36.884787584233806,100 174.84459649698346,-36.88582358843373,100 174.8446832347596,-36.88587065191304,100 174.84478233398227,-36.885906136878575,100 174.84489173186157,-36.88593631973982,100 174.84494228324218,-36.8859459377844,100 174.84526112270677,-36.88617481899295,100 174.84525742919726,-36.88618541289555,100 174.84525495631178,-36.88621138072493,100 174.84526142448692,-36.88623690141446,100 174.84527628237907,-36.886260046572126,100 174.84529840934155,-36.886279057084266,100 174.8453996455916,-36.886344828112705,100 174.8451986141762,-36.88655751967007,100 174.84535325613356,-36.886631002156676,100 174.84549898128836,-36.88672401143923,100 174.8456524184464,-36.886823669692824,100 174.84544476953846,-36.887029971304415,100 174.84564191338146,-36.88725163125374,100 174.84584424427928,-36.88747979896412,100 174.8459672124081,-36.88761851156938,100 174.84639870619054,-36.88759851815174,100 174.84730990833714,-36.887556273430704,100 174.84800016168901,-36.888514076267924,100 174.8481250468919,-36.88841417797877,100 174.84825106454835,-36.888589309305324,100 174.84847483426387,-36.88890037728571,100 174.84841973251932,-36.88901475061419,100</coordinates></LinearRing></outerBoundaryIs>
    </Polygon>
  </Placemark>

  <Placemark>
    <name>Stonefields</name>
    <Point>
      <altitudeMode>relativeToGround</altitudeMode>
      <coordinates>174.83999348616948,-36.887335453827916,100</coordinates>
    </Point>
  </Placemark>

</Document>
</kml>