<?xml version="1.0" encoding="utf-8"?>
<kml xmlns="http://www.opengis.net/kml/2.2">
<Document>
  <name>The Gardens (polygon: official_shp)</name>
  <open>1</open>

  <Placemark>
    <name>The Gardens (polygon: official_shp)</name>
    <Style>
      <LineStyle><color>ffff0000</color><width>2</width></LineStyle>
      <PolyStyle><color>66ff0000</color><fill>1</fill><outline>1</outline></PolyStyle>
    </Style>
    <Polygon>
      <tessellate>1</tessellate>
      <altitudeMode>relativeToGround</altitudeMode>
      <outerBoundaryIs><LinearRing><coordinates>174.91553664250668,-36.98947665642357,100 174.91655264575814,-36.99064764671273,100 174.9169196414625,-36.991062638576935,100 174.91712363149347,-36.991293637968276,100 174.91725062656818,-36.991692643831236,100 174.9174036356423,-36.99217263492417,100 174.9174026255588,-36.99236463162074,100 174.9173976259909,-36.992991640239126,100 174.91747463162827,-36.993175640837535,100 174.91798300988881,-36.99445675277198,100 174.91829800104028,-36.99468280559114,100 174.91695621625828,-36.99561100603629,100 174.91732517173654,-36.995954180064686,100 174.91681081196668,-36.99631016509163,100 174.91645295349005,-36.99702341969329,100 174.91707667084032,-36.99681030242375,100 174.91743555178982,-36.99745731202949,100 174.91781169621876,-36.99813565458237,100 174.91789536305996,-36.99828668913301,100 174.91840081520675,-36.9992077296611,100 174.91844281491177,-36.99928324402164,100 174.91875000367986,-36.99984199294362,100 174.9190893594215,-37.00046036911552,100 174.91940600841255,-37.001036000426446,100 174.9201647533209,-37.00071489384568,100 174.92122129890302,-37.00026699673417,100 174.92134904834433,-37.00049890976535,100 174.92205228925658,-37.00177628342536,100 174.92289846449953,-37.00127463556051,100 174.9230150815394,-37.00120553463682,100 174.92308328986667,-37.001106055697754,100 174.92318960687646,-37.000951167115126,100 174.92329348072843,-37.000799945779875,100 174.92330758554343,-37.000794181354834,100 174.92351301888615,-37.00071053713106,100 174.92369070215278,-37.000638165290916,100 174.9238714334292,-37.00056457658136,100 174.92405810312016,-37.00048857495918,100 174.9242556259219,-37.00040813658581,100 174.92440799453522,-37.000505845126604,100 174.92455775282602,-37.00060180401736,100 174.924573505017,-37.00061182155005,100 174.92459684321142,-37.00056999485033,100 174.9247935194101,-37.000217985561434,100 174.92540036820935,-37.000538180100854,100 174.92542164552435,-37.000619015941915,100 174.9255342844864,-37.00057017799309,100 174.9260859122399,-37.00080384875945,100 174.92611318436917,-37.00102870160164,100 174.92547798310818,-37.00120126257257,100 174.92561819935136,-37.00130761100392,100 174.92596263182764,-37.001265719893716,100 174.9259788742653,-37.00123151324521,100 174.92610230061658,-37.00121652377028,100 174.92616893019925,-37.00114397257245,100 174.92628490261544,-37.00112987362488,100 174.92637931836776,-37.00118568155921,100 174.92639655593035,-37.00127871610458,100 174.92632696814135,-37.001354448376816,100 174.92638041436825,-37.00139162638539,100 174.92631022475234,-37.00172145329802,100 174.92613972789678,-37.00170200140543,100 174.92599038966384,-37.0017158423733,100 174.92596755506514,-37.00171891242444,100 174.9258483465183,-37.001773722191885,100 174.9258382472578,-37.001779105547705,100 174.9256891985505,-37.00190602859097,100 174.9255757579389,-37.0020698893367,100 174.9254891298007,-37.00223928057558,100 174.9254438344466,-37.002407256546654,100 174.92543610161965,-37.00260079943763,100 174.9255327952128,-37.00274764842423,100 174.9256226028297,-37.002833923582436,100 174.92565865203338,-37.00286857668762,100 174.9259860925025,-37.0030068725855,100 174.92605963466207,-37.00294700591019,100 174.92607116270415,-37.002902537861004,100 174.9260466944393,-37.0028515717176,100 174.92613404341853,-37.002824586555874,100 174.92621015236105,-37.00286746157482,100 174.92638531056747,-37.00274001303253,100 174.9266579529105,-37.00295743055642,100 174.9266882511354,-37.00293189412221,100 174.92689445214626,-37.00246199442651,100 174.92695899287543,-37.002661001704695,100 174.92697699190745,-37.00271400420719,100 174.92724999382276,-37.00355200330094,100 174.92766799390057,-37.004831003718664,100 174.92736100312075,-37.00504900431321,100 174.92696300557952,-37.005333996832846,100 174.92629800242847,-37.005808999314176,100 174.92599499921192,-37.00602500471548,100 174.92563400205142,-37.00628300484866,100 174.92547400850387,-37.00639700397888,100 174.92574300774487,-37.00700100427063,100 174.9254530008628,-37.00707500660024,100 174.9250030082001,-37.00759200110744,100 174.92452700667897,-37.00813900732809,100 174.92494900861072,-37.00863399813434,100 174.92508099882744,-37.00878799333054,100 174.92596300315395,-37.00982099860267,100 174.926115000293,-37.00999899657789,100 174.92578300792812,-37.01011399928238,100 174.92492499974014,-37.01041299362641,100 174.92462199658084,-37.010519003683946,100 174.92399399604642,-37.009376995192326,100 174.92390299207852,-37.009212002559245,100 174.92336699683412,-37.008238001390666,100 174.9225040056454,-37.00852599365932,100 174.92213400270808,-37.00864999227877,100 174.9217290027027,-37.00878500360027,100 174.9217359944411,-37.008783005732035,100 174.92112700685522,-37.0089860025819,100 174.92026099708778,-37.00927499196551,100 174.91995000783496,-37.00937899501031,100 174.91978999983823,-37.00908700572602,100 174.91962300029815,-37.00923500658403,100 174.91961099418972,-37.009245999326374,100 174.9195350063361,-37.00931299759365,100 174.91933699997594,-37.0094880006657,100 174.91932000099376,-37.009494993059604,100 174.91880100587218,-37.00977499489869,100 174.9187576383162,-37.009694688231114,100 174.91865025576746,-37.00949719582533,100 174.91850362762617,-37.009227562366675,100 174.9183516985384,-37.009089014039326,100 174.91818224564474,-37.009201452073285,100 174.91805887157534,-37.009075669191134,100 174.91805602182848,-37.00907277701948,100 174.918043231849,-37.009059746376295,100 174.9179511744015,-37.008965931880425,100 174.91792292241914,-37.008937115222366,100 174.9179069015451,-37.0089481465573,100 174.91779772102194,-37.00902321426838,100 174.91767731590787,-37.00884622421801,100 174.91760745232375,-37.008743528010775,100 174.91752341705708,-37.008762967220775,100 174.91750104452592,-37.00874395893443,100 174.91741611710614,-37.00880831171734,100 174.91744974615634,-37.008836846918136,100 174.91738123826966,-37.00888452341855,100 174.9173483156085,-37.008907314909685,100 174.91722720836984,-37.00895671290083,100 174.91717923842825,-37.008976287404984,100 174.9170159995237,-37.00904289495085,100 174.9169752589122,-37.00906223269076,100 174.91683103830908,-37.009127930628644,100 174.91681642117493,-37.009134631819734,100 174.91673682042074,-37.00920571911583,100 174.91659902425363,-37.009328682625416,100 174.91659056105192,-37.00933631276183,100 174.91656817694476,-37.0093508031577,100 174.91646391044424,-37.00941826981853,100 174.9163821489413,-37.00947127562491,100 174.91628973874248,-37.009531129310375,100 174.91615030600812,-37.00958467616821,100 174.91613218179833,-37.00959167186083,100 174.91612061670978,-37.00958977122624,100 174.91610858894416,-37.00958806373092,100 174.91609173075204,-37.00958568256045,100 174.91607079072983,-37.0095822289647,100 174.91604721449318,-37.00957919288057,100 174.91603201372135,-37.0095760395585,100 174.91602313356606,-37.009575437591884,100 174.9160124063012,-37.00957696007885,100 174.91600170590516,-37.00958004498772,100 174.91598738031055,-37.00958225018462,100 174.9159742624716,-37.00958497665663,100 174.91596000735979,-37.00958851193432,100 174.91594569727286,-37.00959129010352,100 174.91593545433795,-37.00959339241082,100 174.91592545442072,-37.00959550521366,100 174.9159128326949,-37.00959860942442,100 174.91590162238856,-37.0096001856682,100 174.91591050777814,-37.00961666218261,100 174.91598120805816,-37.00974790271889,100 174.9159851806002,-37.00975509584527,100 174.91605441925603,-37.00988352714556,100 174.9158367510076,-37.01009929421646,100 174.91578733693186,-37.01014881469484,100 174.91569265028915,-37.010188327159064,100 174.91542553871716,-37.01029982711595,100 174.9155298417872,-37.010492003175855,100 174.91519003806252,-37.01061064375351,100 174.91521128455238,-37.010649759756745,100 174.91530256496955,-37.01081792916056,100 174.9153099506537,-37.01083152142771,100 174.9154041658326,-37.011005012417876,100 174.9151845054501,-37.011080668927754,100 174.9149649288674,-37.01115627861738,100 174.91486645220346,-37.011190204055225,100 174.91474535293554,-37.011231886992896,100 174.91452575819443,-37.01130747994751,100 174.9143836447319,-37.01104736463141,100 174.9143417487576,-37.01097063957834,100 174.9142424409732,-37.01078879640071,100 174.9140479210601,-37.0108557523027,100 174.91382078120637,-37.01093395597181,100 174.91359038511357,-37.01096995059785,100 174.9134225126395,-37.01099616856926,100 174.91355954468074,-37.01123910711345,100 174.91372499599456,-37.01154400220318,100 174.9136488764771,-37.01148882115345,100 174.91344114845552,-37.011560346015145,100 174.91336187917446,-37.01158764321508,100 174.91325986763232,-37.01162277620292,100 174.91307858574032,-37.011685220554554,100 174.91289730471013,-37.01174766642069,100 174.9129748681939,-37.01189061956152,100 174.9131211073614,-37.01214412839878,100 174.91290867825884,-37.01221790389684,100 174.91285729808462,-37.01223570923442,100 174.91238635772123,-37.01235458505228,100 174.91212825634713,-37.012443523393955,100 174.91164537503124,-37.0126098899611,100 174.91161234291772,-37.01262126756582,100 174.91125099140376,-37.01274577638565,100 174.9110735880362,-37.012414559441424,100 174.91094275754043,-37.012170269803036,100 174.91083851859045,-37.011975672217126,100 174.9108120014229,-37.01192613292564,100 174.9091961087826,-37.01248263292551,100 174.9096547535791,-37.01333891768422,100 174.9081273792048,-37.01386507925968,100 174.90726613476906,-37.01416175387408,100 174.907068199544,-37.01419307532721,100 174.9067327317046,-37.01424423008974,100 174.90670570177235,-37.01435461886838,100 174.90648360248292,-37.014431015171134,100 174.90660342408398,-37.014636042111114,100 174.90679024474363,-37.01493047291778,100 174.9068540675536,-37.015031004933164,100 174.90697776833855,-37.015225897052,100 174.90715443736798,-37.0155042444325,100 174.90723232252768,-37.01562696824585,100 174.90728726161439,-37.015713516714655,100 174.90734343076073,-37.015802011118886,100 174.90741447631493,-37.015913953429276,100 174.9074757142861,-37.016010472577605,100 174.9075754041381,-37.01616748799451,100 174.90769014239626,-37.01635988979771,100 174.9077725757227,-37.01649816144516,100 174.90785359283743,-37.016633993447435,100 174.9079386409723,-37.016776662728034,100 174.90804784473556,-37.01692000517375,100 174.90815887915235,-37.01706570020616,100 174.90834057116717,-37.01730406242229,100 174.90845967325177,-37.01746039342162,100 174.9086190015721,-37.01766800561302,100 174.90863899680124,-37.017710798579685,100 174.90872233247228,-37.01788055456554,100 174.9088038680834,-37.01804649990271,100 174.90890811140468,-37.01825881587281,100 174.90892227632204,-37.01828223088408,100 174.90953400092891,-37.01929500692874,100 174.90897200270462,-37.019497000405416,100 174.90889600175626,-37.019357998011905,100 174.90877100139448,-37.01913200082777,100 174.90867299989495,-37.01899699441439,100 174.9085190051505,-37.01878699734903,100 174.90824300780557,-37.01840899424777,100 174.90803800618383,-37.01812699810208,100 174.90800999423564,-37.018087999561715,100 174.90775700188183,-37.017672995434495,100 174.90720000244232,-37.01675399529536,100 174.90719199305408,-37.01674100380485,100 174.90696700365083,-37.016376998436776,100 174.9068900036307,-37.01640400343874,100 174.90680299190396,-37.01643400209908,100 174.90678200384696,-37.016395995345924,100 174.9065859975497,-37.01603000557204,100 174.9065080045164,-37.01588499657228,100 174.90643099897042,-37.01574000138895,100 174.90635299638927,-37.015594000994746,100 174.90614000127434,-37.015198002327764,100 174.90593600728513,-37.01481700680981,100 174.90579100084722,-37.0144770027384,100 174.90563000787225,-37.01418600308118,100 174.9054980038157,-37.01394699428301,100 174.90528200671378,-37.01355800103734,100 174.90510100034686,-37.013689005384144,100 174.90477099309217,-37.013929992076854,100 174.90472699626113,-37.0140069964101,100 174.90466399661196,-37.01385100364296,100 174.9046409925027,-37.013806991915736,100 174.90461599209237,-37.01376400636853,100 174.90458800523902,-37.0137220034095,100 174.90455699224384,-37.013682003948304,100 174.90454999369632,-37.01367300503031,100 174.90466399696405,-37.01366899910268,100 174.9048699916555,-37.01353499935487,100 174.90498400776107,-37.01321799757016,100 174.9049179941331,-37.01300700264953,100 174.90484299445606,-37.01276500564136,100 174.9047540016647,-37.012604996707886,100 174.9045970022499,-37.012323001162365,100 174.9045689974332,-37.01227399715146,100 174.90450400589378,-37.01214700138188,100 174.9044140050589,-37.01197099669732,100 174.90433600135037,-37.01181900115206,100 174.90426400547923,-37.01167899559116,100 174.90418899753524,-37.01153199734533,100 174.90414900749167,-37.011455002741606,100 174.90411499497756,-37.01138699371644,100 174.90403500702507,-37.01123199780738,100 174.90397999684325,-37.011122992863726,100 174.90392899363772,-37.011067998165906,100 174.9038090021534,-37.0109359927541,100 174.90368900361722,-37.01080499408182,100 174.90356899652443,-37.01067300488552,100 174.90344900629856,-37.01054099906594,100 174.90332899216443,-37.0104100002564,100 174.90322199944873,-37.010293005085515,100 174.90317799544923,-37.010258996373864,100 174.9030139986593,-37.01013400602208,100 174.90287800861586,-37.01002899699237,100 174.90274199348679,-37.00992499495855,100 174.9026059966802,-37.009820991567324,100 174.90244000851987,-37.00969399177315,100 174.9022109926614,-37.009546991986134,100 174.9020989954282,-37.00947600280968,100 174.90190500022544,-37.00935099788086,100 174.90175800864162,-37.00925700655751,100 174.90160999549474,-37.00916300167646,100 174.90146299415832,-37.00906800337577,100 174.90131600327405,-37.00897399615349,100 174.90116899627964,-37.00888000432345,100 174.90102700582307,-37.00878900627355,100 174.90102199602924,-37.00878500544093,100 174.90087400268737,-37.00869100019568,100 174.90072699637022,-37.008596991565724,100 174.9005800076899,-37.00850299958989,100 174.90043299203703,-37.00840800020028,100 174.9002860040549,-37.00831400693577,100 174.90013899919973,-37.008219998431265,100 174.89999100690088,-37.00812599203198,100 174.89984399195455,-37.00803100719933,100 174.8996970050316,-37.007936997842094,100 174.89955000087502,-37.00784300389489,100 174.8994030046301,-37.0077480037775,100 174.89925600081298,-37.00765399412647,100 174.89907299332418,-37.007538005434135,100 174.89884700491046,-37.00739300455519,100 174.8986970051264,-37.00729700428795,100 174.89835100375407,-37.00707500382136,100 174.89824400123467,-37.00700599856423,100 174.89822600446215,-37.00699299585919,100 174.8981949921875,-37.00696800222685,100 174.89813599578875,-37.006924993061546,100 174.89799218992573,-37.006817733731374,100 174.89854969690478,-37.00662760678685,100 174.89875670803113,-37.006559604782524,100 174.89875969787292,-37.00655560381402,100 174.89901969787567,-37.00646659927746,100 174.89906170163079,-37.00645159804162,100 174.8991127079344,-37.00645559459617,100 174.89913771401643,-37.0064545985767,100 174.89915270325986,-37.006452600205584,100 174.89916770294275,-37.006451608422445,100 174.89919270246548,-37.006446600790724,100 174.89919971149158,-37.00644460396987,100 174.89920570794834,-37.006443600370815,100 174.8992247109842,-37.006432595901025,100 174.89924070663326,-37.006425608912984,100 174.89926369795688,-37.00642060457064,100 174.89927171413856,-37.00642060333478,100 174.89928971000745,-37.00641460279532,100 174.8993057114571,-37.006418596296555,100 174.89931870262063,-37.0064245938148,100 174.89932470814475,-37.006429599060624,100 174.89933770834762,-37.00643460499727,100 174.89934471061576,-37.00644060014161,100 174.89934769792825,-37.006441601438176,100 174.89935071248925,-37.006443607252805,100 174.89935571159657,-37.00644660157458,100 174.89938070722215,-37.00645159754247,100 174.8993927078217,-37.0064536019083,100 174.8993967061524,-37.00645359287991,100 174.8994146993095,-37.006457597744216,100 174.89942769976403,-37.00645760142781,100 174.89943770867126,-37.006459594411325,100 174.89944369871887,-37.00645959765978,100 174.89948570332012,-37.0064635975587,100 174.89949869739183,-37.00646460899492,100 174.8995217013065,-37.00646259402741,100 174.89954970761102,-37.00646560125108,100 174.89956070064468,-37.00646559379623,100 174.8995667075431,-37.00646559676868,100 174.89958370107027,-37.00646659914327,100 174.89959270532745,-37.00646859377748,100 174.8996177074911,-37.0064706008654,100 174.89962870984823,-37.00647160001186,100 174.89964670690858,-37.006472600731044,100 174.8996627083647,-37.00647659328226,100 174.89966570359073,-37.00647660300934,100 174.89971869882066,-37.0064855994396,100 174.89973170291972,-37.00648760032173,100 174.89975270777376,-37.006491598372506,100 174.89976870171307,-37.00649659778651,100 174.89978370647643,-37.00649960222717,100 174.89980269772843,-37.00649959376631,100 174.89980670693578,-37.00650060843153,100 174.89981670826484,-37.006503605557114,100 174.89984670056677,-37.00650959937791,100 174.8998517064796,-37.0065116021348,100 174.89986070432468,-37.00651460270668,100 174.8998706963986,-37.00651659592292,100 174.89988270377884,-37.006517607794265,100 174.8999136982677,-37.00652860130825,100 174.8999347045411,-37.00653459659394,100 174.89994971298702,-37.0065395991459,100 174.89995470093038,-37.006541602186125,100 174.8999757107856,-37.00654259516863,100 174.8999906975911,-37.00654559987042,100 174.9000027082665,-37.006548594546054,100 174.90001469767898,-37.00654960669168,100 174.90002270729374,-37.00654559470624,100 174.90002670460728,-37.00654360370484,100 174.90004269859534,-37.006529600883844,100 174.90004870004162,-37.00652559311533,100 174.90005370218645,-37.006518597302616,100 174.9000697116116,-37.006502596940685,100 174.90010470350316,-37.00648059363376,100 174.9001247041001,-37.00646560640574,100 174.90013071050723,-37.00645859360545,100 174.9001506993451,-37.00644760294435,100 174.90015471056805,-37.00644359820233,100 174.9001737047941,-37.00643359957867,100 174.90020871208972,-37.006409599606044,100 174.90022769586827,-37.00639859528568,100 174.90023371066093,-37.00639760666332,100 174.90025069999953,-37.00638959506608,100 174.9002667120089,-37.00638259235659,100 174.90027671072977,-37.006376593567865,100 174.9002927033285,-37.00636759297437,100 174.9003007032167,-37.00636260501378,100 174.90031369803364,-37.00635159655593,100 174.90032569616113,-37.00633960090858,100 174.90032770854165,-37.006336606991646,100 174.9003397062608,-37.00632459512599,100 174.90035270786424,-37.006312596021935,100 174.90035670262276,-37.00630860776041,100 174.90037169808573,-37.00629860285096,100 174.90038870464176,-37.00629060718197,100 174.9003947085858,-37.00628859664635,100 174.90041170759733,-37.00628160695044,100 174.9004156969655,-37.00628060659671,100 174.9004266991896,-37.00627460614304,100 174.900461701086,-37.00626059443658,100 174.90049170126392,-37.00625359386625,100 174.90049969983187,-37.00625360815185,100 174.90050369927366,-37.006253599068444,100 174.9005306979805,-37.00625459606873,100 174.90053870547948,-37.006255600741945,100 174.90057069820332,-37.00625559570324,100 174.90065971069578,-37.006239596630984,100 174.90067570081212,-37.006235598264425,100 174.9006916946152,-37.00623359802802,100 174.9007037058051,-37.006231605708834,100 174.90072469888514,-37.00622759659019,100 174.90074070699154,-37.00622359882805,100 174.90076669448194,-37.006218603880846,100 174.900789699936,-37.00621160172795,100 174.90081469287063,-37.00620760061847,100 174.90083770073588,-37.006207598847034,100 174.9008437000771,-37.00620860773151,100 174.90086170459455,-37.00620860139062,100 174.90086970532258,-37.00621059758452,100 174.90088870583432,-37.0062115955589,100 174.90089770113278,-37.00621259880297,100 174.90091169865616,-37.00621360662625,100 174.90092669661087,-37.00621760156479,100 174.900931702553,-37.006219605176874,100 174.90093870871485,-37.00622259431428,100 174.9009497072329,-37.00622659834785,100 174.9009587050834,-37.00622959883631,100 174.90098469531836,-37.00623360241786,100 174.90099269350137,-37.00623360135421,100 174.90100569503355,-37.00623360484795,100 174.9010237033455,-37.00623059257235,100 174.90104670756295,-37.00622859443009,100 174.90105970649685,-37.006226598867016,100 174.90106770098055,-37.006224599666375,100 174.90107269503207,-37.00622359941635,100 174.90108670387698,-37.00622059533292,100 174.90109369485415,-37.00621859869006,100 174.90110269508784,-37.006216596891534,100 174.90112170474637,-37.006211601009646,100 174.9011397004313,-37.00620560109574,100 174.90114869698408,-37.006201602062845,100 174.90117970662587,-37.006191593715975,100 174.9011857008584,-37.006188608085175,100 174.90119969286386,-37.006185605159644,100 174.90121169724327,-37.00618460343156,100 174.90123269819037,-37.006179603564135,100 174.9012417048209,-37.00617659579728,100 174.9012627057636,-37.006171595924634,100 174.90130969793472,-37.00615859597495,100 174.9013437054241,-37.006145592281364,100 174.90136570349586,-37.00614159758911,100 174.9014477041463,-37.00612559673042,100 174.90148268942963,-37.00612360297995,100 174.90155270519958,-37.006122602546576,100 174.90160369343687,-37.006126600122585,100 174.90162670014757,-37.0061265982168,100 174.90164669261128,-37.00612460496672,100 174.90166869579494,-37.006124604716064,100 174.9016796992438,-37.00612560365496,100 174.9017037030802,-37.00612660602857,100 174.90171269799492,-37.00612759389476,100 174.90172570207523,-37.00612959455862,100 174.9017726922485,-37.006140600691275,100 174.90178668817302,-37.00614659535202,100 174.90180069457452,-37.00615359659975,100 174.90181369118474,-37.00615660503149,100 174.90183270178224,-37.006158594127314,100 174.90184469977117,-37.00615859919428,100 174.90185069876034,-37.00615959361246,100 174.90186268925115,-37.00616060555436,100 174.90187269817366,-37.00616259833179,100 174.90188669941537,-37.00616560417126,100 174.90191870308257,-37.006180605305275,100 174.90192569244874,-37.00618359555447,100 174.90194569266612,-37.006187594899835,100 174.90195468799456,-37.006188598964364,100 174.902002692831,-37.00618160502123,100 174.90201369259057,-37.006180606698486,100 174.90205668879554,-37.006176597928174,100 174.90207470115195,-37.006175598941766,100 174.90208669505827,-37.00617359143789,100 174.90215070027662,-37.00617059057477,100 174.90216970089568,-37.006164604137616,100 174.90218269311558,-37.006158598658175,100 174.9021886880233,-37.00615559674287,100 174.9021957007253,-37.006150595641024,100 174.90220870081612,-37.00614359859823,100 174.9022226980604,-37.00613760674458,100 174.90222968601037,-37.00613359657065,100 174.90223869036913,-37.00612860589627,100 174.90227669973598,-37.00611759184817,100 174.90227869029627,-37.00611760319622,100 174.90228268975056,-37.00611759495399,100 174.90230369474452,-37.00610960520774,100 174.9023156965076,-37.00610660612056,100 174.90232869880555,-37.00610159189807,100 174.9023426922494,-37.006098604137414,100 174.90237669954584,-37.006085601054195,100 174.90239970070283,-37.006074602278204,100 174.90241469354848,-37.00606959939262,100 174.90246769344688,-37.00605660270301,100 174.90248169286133,-37.006052592751686,100 174.90249968575847,-37.006044593585514,100 174.9025106933614,-37.00604260365685,100 174.90253869291092,-37.00604160038203,100 174.90254468289652,-37.00604160257385,100 174.90257469844332,-37.00603960256846,100 174.90258769696095,-37.006037593325736,100 174.90260568350016,-37.006030601903376,100 174.90261568606823,-37.0060285983384,100 174.90262068680818,-37.00602660558068,100 174.90262569650582,-37.00602560321209,100 174.90264368527264,-37.006020594616906,100 174.90266369190857,-37.00601660277788,100 174.9026746901396,-37.006013606227896,100 174.9026866840022,-37.00601159866447,100 174.9026976912129,-37.00600959340267,100 174.9027196816543,-37.0060066044379,100 174.90276368646403,-37.00599960313255,100 174.90278169463994,-37.00599659059346,100 174.90280568688235,-37.00599460510776,100 174.9028106965751,-37.005993602731486,100 174.90282568675767,-37.00599160478427,100 174.9028416819385,-37.005991602427606,100 174.90285768570536,-37.00599059227334,100 174.90286469608301,-37.00599059340636,100 174.9028716974546,-37.00598960234782,100 174.90292269575087,-37.005987604623314,100 174.90294869195975,-37.005983599593364,100 174.9029896821203,-37.005974593384934,100 174.9030316926086,-37.00595859831042,100 174.90304968544518,-37.00595059996389,100 174.9030626918019,-37.005942596873,100 174.90308268116456,-37.00593160481368,100 174.9031056833159,-37.00591560455119,100 174.90312869329827,-37.00590559692803,100 174.9031526929576,-37.00589760135946,100 174.90315768581087,-37.00589660014006,100 174.9032666798316,-37.00586559636957,100 174.90328569298023,-37.00586259737648,100 174.9033226899383,-37.00585759380822,100 174.9033406804858,-37.00585459769107,100 174.90334369327562,-37.005854591721565,100 174.90336668937297,-37.00584659778822,100 174.90337168219725,-37.00584559565904,100 174.90338067856152,-37.00584159556018,100 174.90343368185995,-37.00582559434194,100 174.90344569290227,-37.00582360174881,100 174.90345668321257,-37.00582159668818,100 174.90347968940202,-37.00581459400544,100 174.9035036784962,-37.00580559177962,100 174.90353468802527,-37.005795598145774,100 174.9035746796535,-37.00577860057374,100 174.90359768584077,-37.00577159876968,100 174.90360469091465,-37.005767603563186,100 174.903615678571,-37.005763600339975,100 174.9036486793252,-37.00574860043339,100 174.90365269296626,-37.005746593727004,100 174.90366269284615,-37.00574259282829,100 174.90368168008862,-37.005733601418875,100 174.9036836882073,-37.00573359623829,100 174.9036946852305,-37.0057305996139,100 174.90368068834547,-37.00570560210502,100 174.90330068805335,-37.005002596737526,100 174.9072726610036,-37.00364260108063,100 174.90722767007892,-37.00356060084175,100 174.90741266805995,-37.00349659611948,100 174.9076256700924,-37.00342359471649,100 174.90783866428274,-37.00335159981705,100 174.90768866236087,-37.00307259765242,100 174.90729767169222,-37.002339598056224,100 174.9072906751944,-37.002325613230695,100 174.90727166429238,-37.00228760169604,100 174.90724966820574,-37.00225060434017,100 174.90722467859578,-37.00221361273651,100 174.907197665341,-37.00217860858265,100 174.90716867256066,-37.00214461415479,100 174.9071376635675,-37.0021116002981,100 174.90710466766544,-37.00208060484198,100 174.90706866929133,-37.00205060580568,100 174.9070316702468,-37.00202260841343,100 174.90699267330186,-37.001995604810716,100 174.90695167776138,-37.001969612131525,100 174.90690967483195,-37.00194661173311,100 174.90686567289927,-37.00192460603785,100 174.906820680804,-37.00190560766589,100 174.90677367285255,-37.00188760426424,100 174.90672666914654,-37.00187161428827,100 174.90667767546066,-37.00185761029797,100 174.90662867933904,-37.00184661217479,100 174.90657867079656,-37.00183660641142,100 174.9065276794842,-37.001828600187935,100 174.9064766838586,-37.001823615182445,100 174.90642567252596,-37.001820610572025,100 174.90637467291913,-37.00181861521161,100 174.9063226815343,-37.00181960916522,100 174.90629766970994,-37.00182161443149,100 174.90545667960876,-37.000246610367206,100 174.9053606778898,-37.0000666076824,100 174.90531167953048,-36.99997461061304,100 174.90561368653948,-36.99943361714796,100 174.9057336919247,-36.99921861513743,100 174.9059556860093,-36.99882162201221,100 174.90602968653192,-36.99868962071648,100 174.90605168206167,-36.99864961720775,100 174.9061486783974,-36.99847561158516,100 174.90611700239214,-36.99844600154577,100 174.90623900746883,-36.998226999363,100 174.90636799747602,-36.997997001584054,100 174.9064890004525,-36.99777999901788,100 174.90652799415196,-36.9977109977351,100 174.90648568736273,-36.99759662867576,100 174.90635168683804,-36.99733561779753,100 174.90618468947147,-36.99701062324535,100 174.9060056888084,-36.9966606279639,100 174.90587969152037,-36.99641363119403,100 174.90574869179176,-36.99615962855515,100 174.90565270114527,-36.995971635696314,100 174.90511469541255,-36.99492163164177,100 174.90510369270748,-36.9948586376214,100 174.90506670864352,-36.99464463876471,100 174.90501970878856,-36.99436764442919,100 174.90498370018813,-36.99415763796887,100 174.90494770234085,-36.993948638975134,100 174.90491171256164,-36.99373864839621,100 174.90487770181718,-36.99353965079428,100 174.90484670721048,-36.99336164573017,100 174.9048097100772,-36.9931426437912,100 174.9047577061001,-36.992839641308905,100 174.9047147026196,-36.99258964790199,100 174.9043697116134,-36.99228765772845,100 174.90435371470733,-36.99227364498275,100 174.9041807083527,-36.992121652719135,100 174.90398370883557,-36.99194864817014,100 174.90374371547583,-36.991737651701115,100 174.90350071760616,-36.99152565469976,100 174.9032057304049,-36.99126566457405,100 174.90312172553334,-36.99119266673424,100 174.90312372520356,-36.99117466623068,100 174.90314772350465,-36.99091565613859,100 174.9031647195465,-36.990736666315314,100 174.9031827186572,-36.990531655919746,100 174.90318671690372,-36.99048867070554,100 174.90339831095346,-36.990473545548525,100 174.90462770710016,-36.990385662143574,100 174.9046367168805,-36.98991766863515,100 174.90461472497628,-36.98945966883413,100 174.9045027218672,-36.989079667839306,100 174.90607270414927,-36.98874766715868,100 174.90650570812483,-36.98875266629911,100 174.90740869832203,-36.990413662568415,100 174.90797868386733,-36.99145965468506,100 174.90867368421124,-36.99063265266548,100 174.908746692116,-36.99054565788322,100 174.90980567952215,-36.99055966116981,100 174.90981268101302,-36.99024665054853,100 174.91037767224364,-36.990253656267,100 174.9103796750761,-36.990157662088286,100 174.91039468034288,-36.98942965640674,100 174.91040769191056,-36.98880366812156,100 174.91228866302959,-36.988828656166135,100 174.9138556552478,-36.98930665758037,100 174.91378266280017,-36.98946065366207,100 174.913974663785,-36.98951866188645,100 174.9140476555065,-36.989364650381496,100 174.91553664250668,-36.98947665642357,100</coordinates></LinearRing></outerBoundaryIs>
    </Polygon>
  </Placemark>

  <Placemark>
    <name>The Gardens</name>
    <Point>
      <altitudeMode>relativeToGround</altitudeMode>
      <coordinates>174.91268033732885,-37.00227381601304,100</coordinates>
    </Point>
  </Placemark>

</Document>
</kml>