<?xml version="1.0" encoding="utf-8"?>
<kml xmlns="http://www.opengis.net/kml/2.2">
<Document>
  <name>Totara Heights (polygon: official_shp)</name>
  <open>1</open>

  <Placemark>
    <name>Totara Heights (polygon: official_shp)</name>
    <Style>
      <LineStyle><color>ffff0000</color><width>2</width></LineStyle>
      <PolyStyle><color>66ff0000</color><fill>1</fill><outline>1</outline></PolyStyle>
    </Style>
    <Polygon>
      <tessellate>1</tessellate>
      <altitudeMode>relativeToGround</altitudeMode>
      <outerBoundaryIs><LinearRing><coordinates>174.9061486783974,-36.99847561158516,100 174.90605168206167,-36.99864961720773,100 174.90602968653192,-36.99868962071648,100 174.9059556860093,-36.9988216220122,100 174.9057336919247,-36.99921861513742,100 174.90561368653948,-36.99943361714796,100 174.90531167953048,-36.99997461061304,100 174.9053606778898,-37.000066607682406,100 174.90545667960876,-37.000246610367206,100 174.90629766970994,-37.0018216144315,100 174.9063226815343,-37.00181960916521,100 174.90637467291913,-37.00181861521162,100 174.90642567252596,-37.00182061057201,100 174.9064766838586,-37.001823615182445,100 174.9065276794842,-37.00182860018792,100 174.90657867079656,-37.00183660641141,100 174.90662867933904,-37.00184661217479,100 174.90667767546066,-37.00185761029797,100 174.90672666914654,-37.00187161428828,100 174.90677367285255,-37.00188760426423,100 174.906820680804,-37.00190560766588,100 174.90686567289927,-37.001924606037846,100 174.90690967483195,-37.00194661173311,100 174.90695167776138,-37.001969612131525,100 174.90699267330186,-37.00199560481073,100 174.9070316702468,-37.00202260841343,100 174.90706866929133,-37.00205060580567,100 174.90710466766544,-37.00208060484198,100 174.9071376635675,-37.00211160029809,100 174.90716867256066,-37.00214461415479,100 174.907197665341,-37.00217860858266,100 174.90722467859578,-37.00221361273649,100 174.90724966820574,-37.00225060434017,100 174.90727166429238,-37.00228760169604,100 174.9072906751944,-37.002325613230695,100 174.90729767169222,-37.002339598056224,100 174.90768866236087,-37.00307259765241,100 174.90783866428274,-37.00335159981706,100 174.9076256700924,-37.00342359471649,100 174.90741266805995,-37.00349659611948,100 174.90722767007892,-37.003560600841745,100 174.9072726610036,-37.00364260108063,100 174.90330068805335,-37.005002596737526,100 174.90368068834547,-37.005705602105024,100 174.9036946852305,-37.0057305996139,100 174.9036836882073,-37.00573359623829,100 174.90368168008862,-37.00573360141887,100 174.90366269284615,-37.0057425928283,100 174.9036526929663,-37.005746593727,100 174.9036486793252,-37.00574860043339,100 174.903615678571,-37.005763600339975,100 174.90360469091465,-37.005767603563186,100 174.90359768584077,-37.00577159876967,100 174.9035746796535,-37.00577860057374,100 174.90353468802527,-37.005795598145774,100 174.9035036784962,-37.005805591779605,100 174.90347968940202,-37.005814594005436,100 174.90345668321257,-37.00582159668818,100 174.90344569290227,-37.00582360174881,100 174.90343368185995,-37.00582559434195,100 174.90338067856152,-37.00584159556018,100 174.90337168219725,-37.00584559565904,100 174.90336668937297,-37.00584659778822,100 174.90334369327562,-37.00585459172156,100 174.9033406804858,-37.00585459769107,100 174.9033226899383,-37.005857593808216,100 174.90328569298023,-37.005862597376485,100 174.9032666798316,-37.00586559636955,100 174.90315768581087,-37.00589660014006,100 174.9031526929576,-37.00589760135947,100 174.90312869329827,-37.005905596928024,100 174.9031056833159,-37.0059156045512,100 174.90308268116456,-37.00593160481369,100 174.9030626918019,-37.005942596873005,100 174.90304968544518,-37.00595059996389,100 174.9030316926086,-37.005958598310414,100 174.9029896821203,-37.00597459338493,100 174.90294869195975,-37.005983599593364,100 174.90292269575087,-37.00598760462331,100 174.90287169745463,-37.005989602347825,100 174.90286469608304,-37.00599059340636,100 174.90285768570536,-37.00599059227335,100 174.9028416819385,-37.00599160242761,100 174.90282568675767,-37.00599160478426,100 174.9028106965751,-37.00599360273149,100 174.90280568688235,-37.00599460510775,100 174.90278169463994,-37.00599659059347,100 174.90276368646403,-37.00599960313255,100 174.9027196816543,-37.006006604437886,100 174.9026976912129,-37.00600959340268,100 174.9026866840022,-37.006011598664465,100 174.9026746901396,-37.006013606227896,100 174.90266369190857,-37.00601660277788,100 174.90264368527264,-37.00602059461691,100 174.90262569650585,-37.0060256032121,100 174.90262068680818,-37.006026605580686,100 174.90261568606823,-37.00602859833839,100 174.90260568350016,-37.00603060190338,100 174.90258769696095,-37.006037593325736,100 174.90257469844332,-37.00603960256846,100 174.90254468289655,-37.00604160257385,100 174.90253869291092,-37.00604160038202,100 174.9025106933614,-37.00604260365686,100 174.90249968575847,-37.0060445935855,100 174.90248169286136,-37.00605259275168,100 174.90246769344688,-37.00605660270302,100 174.90241469354848,-37.00606959939261,100 174.90239970070283,-37.006074602278204,100 174.90237669954584,-37.0060856010542,100 174.9023426922494,-37.00609860413741,100 174.90232869880555,-37.00610159189808,100 174.9023156965076,-37.00610660612056,100 174.90230369474452,-37.00610960520773,100 174.90228268975056,-37.006117594954,100 174.90227869029627,-37.00611760319622,100 174.90227669973598,-37.00611759184816,100 174.90223869036913,-37.00612860589626,100 174.90222968601037,-37.00613359657065,100 174.9022226980604,-37.00613760674458,100 174.90220870081612,-37.00614359859823,100 174.9021957007253,-37.00615059564101,100 174.9021886880233,-37.006155596742865,100 174.90218269311558,-37.00615859865817,100 174.90216970089568,-37.006164604137616,100 174.90215070027662,-37.00617059057477,100 174.90208669505827,-37.00617359143789,100 174.90207470115195,-37.00617559894176,100 174.90205668879554,-37.006176597928174,100 174.90201369259057,-37.00618060669848,100 174.902002692831,-37.00618160502123,100 174.90195468799456,-37.00618859896436,100 174.90194569266612,-37.00618759489983,100 174.90192569244874,-37.00618359555447,100 174.90191870308257,-37.00618060530529,100 174.9018866994154,-37.00616560417126,100 174.90187269817366,-37.00616259833179,100 174.90186268925115,-37.00616060555436,100 174.90185069876034,-37.00615959361245,100 174.90184469977117,-37.00615859919427,100 174.90183270178224,-37.00615859412731,100 174.90181369118474,-37.00615660503149,100 174.90180069457452,-37.006153596599745,100 174.90178668817302,-37.00614659535203,100 174.9017726922485,-37.006140600691275,100 174.90172570207523,-37.006129594558615,100 174.90171269799492,-37.00612759389477,100 174.9017037030802,-37.00612660602857,100 174.9016796992438,-37.00612560365495,100 174.90166869579494,-37.006124604716064,100 174.90164669261128,-37.00612460496672,100 174.90162670014757,-37.006126598216795,100 174.90160369343687,-37.006126600122585,100 174.90155270519958,-37.006122602546576,100 174.90148268942963,-37.00612360297995,100 174.9014477041463,-37.00612559673042,100 174.90136570349586,-37.006141597589114,100 174.9013437054241,-37.00614559228136,100 174.90130969793472,-37.006158595974945,100 174.9012627057636,-37.006171595924634,100 174.9012417048209,-37.00617659579727,100 174.90123269819037,-37.006179603564135,100 174.90121169724327,-37.00618460343156,100 174.90119969286386,-37.00618560515964,100 174.9011857008584,-37.00618860808518,100 174.90117970662587,-37.00619159371597,100 174.90114869698408,-37.00620160206284,100 174.9011397004313,-37.00620560109574,100 174.90112170474637,-37.006211601009646,100 174.90110269508784,-37.006216596891534,100 174.90109369485415,-37.00621859869006,100 174.90108670387698,-37.00622059533292,100 174.90107269503207,-37.00622359941635,100 174.90106770098055,-37.00622459966637,100 174.90105970649685,-37.006226598867016,100 174.90104670756295,-37.00622859443009,100 174.9010237033455,-37.006230592572344,100 174.90100569503355,-37.00623360484795,100 174.90099269350137,-37.00623360135421,100 174.90098469531836,-37.006233602417865,100 174.9009587050834,-37.006229598836306,100 174.9009497072329,-37.00622659834786,100 174.90093870871488,-37.006222594314266,100 174.900931702553,-37.00621960517687,100 174.90092669661087,-37.0062176015648,100 174.90091169865616,-37.006213606626254,100 174.9008977011328,-37.00621259880296,100 174.90088870583432,-37.006211595558895,100 174.9008697053226,-37.00621059758452,100 174.90086170459455,-37.00620860139061,100 174.90084370007713,-37.006208607731516,100 174.90083770073588,-37.00620759884704,100 174.90081469287063,-37.00620760061847,100 174.900789699936,-37.006211601727955,100 174.90076669448194,-37.006218603880825,100 174.90074070699154,-37.00622359882805,100 174.90072469888514,-37.0062275965902,100 174.9007037058051,-37.00623160570883,100 174.9006916946152,-37.00623359802802,100 174.90067570081212,-37.006235598264425,100 174.90065971069578,-37.006239596630984,100 174.90057069820332,-37.00625559570323,100 174.90053870547948,-37.006255600741945,100 174.9005306979805,-37.006254596068715,100 174.90050369927366,-37.006253599068444,100 174.90049969983187,-37.00625360815185,100 174.90049170126392,-37.006253593866255,100 174.900461701086,-37.00626059443658,100 174.9004266991896,-37.00627460614303,100 174.9004156969655,-37.006280606596704,100 174.90041170759733,-37.00628160695044,100 174.9003947085858,-37.00628859664635,100 174.90038870464176,-37.00629060718196,100 174.90037169808573,-37.00629860285096,100 174.90035670262276,-37.006308607760396,100 174.90035270786424,-37.00631259602195,100 174.9003397062608,-37.00632459512599,100 174.90032770854165,-37.006336606991646,100 174.90032569616113,-37.00633960090858,100 174.90031369803364,-37.006351596555916,100 174.9003007032167,-37.00636260501378,100 174.9002927033285,-37.006367592974364,100 174.9002767107298,-37.00637659356787,100 174.9002667120089,-37.006382592356594,100 174.90025069999953,-37.00638959506608,100 174.90023371066093,-37.00639760666332,100 174.90022769586827,-37.00639859528567,100 174.90020871208972,-37.00640959960605,100 174.9001737047941,-37.00643359957867,100 174.90015471056807,-37.006443598202324,100 174.9001506993451,-37.00644760294435,100 174.90013071050723,-37.00645859360546,100 174.9001247041001,-37.00646560640574,100 174.90010470350316,-37.00648059363376,100 174.9000697116116,-37.00650259694068,100 174.90005370218645,-37.00651859730263,100 174.90004870004162,-37.00652559311533,100 174.90004269859534,-37.006529600883844,100 174.90002670460728,-37.00654360370485,100 174.90002270729374,-37.00654559470624,100 174.90001469767898,-37.006549606691685,100 174.9000027082665,-37.00654859454606,100 174.8999906975911,-37.00654559987042,100 174.8999757107856,-37.00654259516863,100 174.89995470093038,-37.00654160218612,100 174.89994971298702,-37.0065395991459,100 174.8999347045411,-37.00653459659392,100 174.89991369826774,-37.00652860130825,100 174.89988270377884,-37.006517607794265,100 174.8998706963986,-37.00651659592292,100 174.89986070432468,-37.00651460270667,100 174.8998517064796,-37.0065116021348,100 174.89984670056677,-37.00650959937791,100 174.89981670826484,-37.00650360555711,100 174.89980670693578,-37.00650060843153,100 174.89980269772843,-37.0064995937663,100 174.89978370647643,-37.00649960222717,100 174.89976870171307,-37.006496597786516,100 174.89975270777376,-37.0064915983725,100 174.89973170291972,-37.00648760032173,100 174.89971869882066,-37.006485599439586,100 174.89966570359073,-37.00647660300934,100 174.8996627083647,-37.00647659328226,100 174.89964670690858,-37.00647260073103,100 174.89962870984826,-37.00647160001186,100 174.8996177074911,-37.00647060086539,100 174.89959270532745,-37.00646859377747,100 174.89958370107027,-37.00646659914327,100 174.8995667075431,-37.006465596768685,100 174.89956070064468,-37.00646559379623,100 174.89954970761102,-37.00646560125109,100 174.8995217013065,-37.006462594027404,100 174.89949869739183,-37.00646460899492,100 174.89948570332012,-37.0064635975587,100 174.89944369871887,-37.00645959765977,100 174.89943770867126,-37.00645959441132,100 174.89942769976403,-37.00645760142781,100 174.8994146993095,-37.006457597744216,100 174.8993967061524,-37.0064535928799,100 174.8993927078217,-37.0064536019083,100 174.89938070722215,-37.006451597542465,100 174.89935571159657,-37.00644660157458,100 174.89935071248925,-37.006443607252805,100 174.89934769792825,-37.00644160143817,100 174.89934471061576,-37.00644060014161,100 174.89933770834762,-37.00643460499726,100 174.89932470814475,-37.006429599060624,100 174.89931870262063,-37.0064245938148,100 174.8993057114571,-37.00641859629655,100 174.89928971000745,-37.00641460279531,100 174.89927171413856,-37.006420603334774,100 174.89926369795688,-37.00642060457064,100 174.89924070663326,-37.006425608912984,100 174.8992247109842,-37.006432595901025,100 174.89920570794834,-37.00644360037083,100 174.89919971149158,-37.00644460396987,100 174.89919270246548,-37.00644660079073,100 174.89916770294275,-37.00645160842243,100 174.89915270325986,-37.00645260020558,100 174.89913771401643,-37.006454598576696,100 174.8991127079344,-37.00645559459617,100 174.89906170163079,-37.006451598041615,100 174.89901969787567,-37.006466599277466,100 174.89875969787292,-37.00655560381402,100 174.89875670803113,-37.006559604782524,100 174.8985496969048,-37.00662760678685,100 174.89799218992573,-37.00681773373138,100 174.89795500043704,-37.006789996135495,100 174.8975379949973,-37.00648000442005,100 174.89737899147661,-37.00636100542953,100 174.89733799246443,-37.00633099868072,100 174.89701799547638,-37.0060980069394,100 174.8965039941227,-37.00562600064954,100 174.89608400193276,-37.00513499631093,100 174.89603099621357,-37.005064003943055,100 174.89537000767837,-37.00417200587955,100 174.89525899536818,-37.00404900338234,100 174.89508700073492,-37.00385700556466,100 174.89485900764595,-37.0035799920649,100 174.8947280085612,-37.00342100724808,100 174.89460499151383,-37.003271003413836,100 174.8944809970609,-37.00311999477075,100 174.89435699438397,-37.00296999287807,100 174.89430900396184,-37.00291199935251,100 174.89424800754466,-37.002824002582464,100 174.89414499772928,-37.00267499472977,100 174.894041997594,-37.002526994284466,100 174.89393500141045,-37.00237399759634,100 174.8936789977071,-37.0020069980502,100 174.89372499703015,-37.00198999172918,100 174.89429200601555,-37.00179600371844,100 174.8941759989116,-37.001642004621594,100 174.8940769954984,-37.00151100118098,100 174.89400100154415,-37.00140999355701,100 174.8937009933223,-37.0007080049915,100 174.89399000206424,-37.00060100198315,100 174.89424399225135,-37.00050799399771,100 174.89420399327096,-37.000425003076806,100 174.8941409970808,-37.00024699855706,100 174.89413499443455,-37.000176003874024,100 174.89412508482522,-37.000065800756026,100 174.89407917529795,-36.99987705926662,100 174.89434817433138,-36.99983497232469,100 174.89442860423244,-36.999878412832494,100 174.89463399177185,-36.99971899575926,100 174.89487299811103,-36.999680996268864,100 174.89502499176834,-36.99962799664172,100 174.89503099575165,-36.99962600260335,100 174.89521500730797,-36.999562002883444,100 174.89532997878317,-36.99952123726343,100 174.89514192906893,-36.999175534646184,100 174.89520566264568,-36.99915321523461,100 174.89539769742538,-36.99921208921024,100 174.8955897305834,-36.999270931350836,100 174.8956625881568,-36.99940479382547,100 174.89581399711992,-36.999352005332774,100 174.89596300489288,-36.999300002199014,100 174.8960030074262,-36.9992859966432,100 174.89615099354543,-36.99923399608104,100 174.89619200094853,-36.99922000414727,100 174.8963400036293,-36.99916800218583,100 174.89638000604208,-36.99915399740744,100 174.89652799158696,-36.999101994586475,100 174.89670699123238,-36.99903899562011,100 174.89658999830664,-36.998748002592485,100 174.89673800093868,-36.998696001047044,100 174.89693399476934,-36.99895199961913,100 174.8970990041609,-36.99889399974402,100 174.89726399756782,-36.99883599989737,100 174.8974829966376,-36.99882300095352,100 174.8976880012151,-36.99881100685357,100 174.89775099675776,-36.99880799574265,100 174.89796300645898,-36.99873299963299,100 174.89815099224793,-36.99866700574385,100 174.8983399987209,-36.998600994329145,100 174.89819199768692,-36.9983289919987,100 174.89835100246165,-36.998273000833656,100 174.89849900391394,-36.99854500205426,100 174.8987540071299,-36.99835199731453,100 174.89891099568462,-36.99823299224771,100 174.8989080000983,-36.99822599828695,100 174.89881599631633,-36.99805799993481,100 174.89878699130406,-36.99800500224255,100 174.8990299953657,-36.997977996708336,100 174.8992629964919,-36.997952993957234,100 174.89951900709212,-36.99792499960909,100 174.8998060060862,-36.99789399843019,100 174.89984100198478,-36.99789000684355,100 174.89985200133302,-36.997888993418876,100 174.90014999350544,-36.99782699255471,100 174.90044699639333,-36.99776499417301,100 174.9006989976082,-36.99771199440001,100 174.900953994453,-36.99765900378744,100 174.90116599358697,-36.99753199686883,100 174.90123000428645,-36.997493996112205,100 174.90128000255538,-36.99749299310054,100 174.90152300597038,-36.99748699822871,100 174.901737998118,-36.99744099671535,100 174.9018169912616,-36.99735399400831,100 174.9019889971268,-36.99767799259978,100 174.90293799877503,-36.99755499814979,100 174.9043030030061,-36.99737699803533,100 174.9045960045387,-36.997511002602906,100 174.90486499856075,-36.99763299258661,100 174.90511799091522,-36.99774899282247,100 174.90535500556652,-36.99794199696198,100 174.9056040033951,-36.998144003270355,100 174.90581200521223,-36.99824400711322,100 174.90611700239214,-36.99844600154578,100 174.9061486783974,-36.99847561158516,100</coordinates></LinearRing></outerBoundaryIs>
    </Polygon>
  </Placemark>

  <Placemark>
    <name>Totara Heights</name>
    <Point>
      <altitudeMode>relativeToGround</altitudeMode>
      <coordinates>174.90053484285642,-37.001952741000004,100</coordinates>
    </Point>
  </Placemark>

</Document>
</kml>