<?xml version="1.0" encoding="utf-8"?>
<kml xmlns="http://www.opengis.net/kml/2.2">
<Document>
  <name>Totara Park (polygon: official_shp)</name>
  <open>1</open>

  <Placemark>
    <name>Totara Park (polygon: official_shp)</name>
    <Style>
      <LineStyle><color>ffff0000</color><width>2</width></LineStyle>
      <PolyStyle><color>66ff0000</color><fill>1</fill><outline>1</outline></PolyStyle>
    </Style>
    <Polygon>
      <tessellate>1</tessellate>
      <altitudeMode>relativeToGround</altitudeMode>
      <outerBoundaryIs><LinearRing><coordinates>174.93967040596365,-37.005791124337215,100 174.93897020441807,-37.005859252029325,100 174.93894430234724,-37.00585476054667,100 174.9384871019346,-37.00577474855437,100 174.93771459230175,-37.005639577053955,100 174.93766560436134,-37.005631023423604,100 174.9364530924921,-37.005181830916406,100 174.93635659552993,-37.00476530756772,100 174.93632529540025,-37.004628959714395,100 174.934838900387,-37.00568267406143,100 174.93428299544144,-37.006240147255355,100 174.93441300483192,-37.00674845412015,100 174.93434240041773,-37.00681928467857,100 174.9341890952085,-37.006711832699715,100 174.93416960694847,-37.0066995898937,100 174.9337355010445,-37.00642445557729,100 174.93355760512569,-37.006311682090654,100 174.9334932007823,-37.00627101681949,100 174.93338340054777,-37.00619594509169,100 174.9331444057716,-37.006310514407765,100 174.9326137072537,-37.00703880259719,100 174.9319523927288,-37.0079460837006,100 174.93176839972796,-37.00808217178866,100 174.93154919790211,-37.008243992579665,100 174.93123530412623,-37.00847600273423,100 174.93114099418978,-37.00854558143145,100 174.93076079703962,-37.008826473559225,100 174.930338507461,-37.0091385015502,100 174.93024059714352,-37.009030227017185,100 174.92986510773252,-37.00861443343019,100 174.9292654067102,-37.00883934492005,100 174.9289855974786,-37.00894410286934,100 174.92816920510103,-37.00925018416854,100 174.92786890062035,-37.00936269119461,100 174.92732820001922,-37.00956546544131,100 174.92694410595274,-37.0097088263031,100 174.92689730619435,-37.00972494454488,100 174.9261156978381,-37.00999853640613,100 174.926115000293,-37.00999899657789,100 174.92596300315395,-37.00982099860267,100 174.92508099882744,-37.00878799333054,100 174.92494900861072,-37.00863399813434,100 174.92452700667897,-37.00813900732809,100 174.9250030082001,-37.00759200110744,100 174.9254530008628,-37.00707500660024,100 174.92574300774487,-37.00700100427063,100 174.92547400850387,-37.00639700397888,100 174.92563400205142,-37.00628300484866,100 174.92599499921192,-37.00602500471548,100 174.92629800242847,-37.005808999314176,100 174.92696300557952,-37.005333996832846,100 174.92736100312075,-37.00504900431321,100 174.92766799390057,-37.004831003718664,100 174.92724999382276,-37.00355200330094,100 174.92697699190745,-37.00271400420719,100 174.92695899287543,-37.002661001704695,100 174.92689445214626,-37.00246199442651,100 174.9266882511354,-37.00293189412221,100 174.9266579529105,-37.00295743055642,100 174.92638531056747,-37.00274001303253,100 174.92621015236105,-37.00286746157482,100 174.92613404341853,-37.002824586555874,100 174.9260466944393,-37.0028515717176,100 174.92607116270415,-37.002902537861004,100 174.92605963466207,-37.00294700591019,100 174.9259860925025,-37.0030068725855,100 174.92565865203338,-37.00286857668762,100 174.9256226028297,-37.002833923582436,100 174.9255327952128,-37.00274764842423,100 174.92543610161965,-37.00260079943763,100 174.9254438344466,-37.002407256546654,100 174.9254891298007,-37.00223928057558,100 174.9255757579389,-37.0020698893367,100 174.9256891985505,-37.00190602859097,100 174.9258382472578,-37.001779105547705,100 174.9258483465183,-37.001773722191885,100 174.92596755506514,-37.00171891242444,100 174.92599038966384,-37.0017158423733,100 174.92613972789678,-37.00170200140543,100 174.92631022475234,-37.00172145329802,100 174.92638041436825,-37.00139162638539,100 174.92632696814135,-37.001354448376816,100 174.92639655593035,-37.00127871610458,100 174.92637931836776,-37.00118568155921,100 174.92628490261544,-37.00112987362488,100 174.92616893019925,-37.00114397257245,100 174.92610230061658,-37.00121652377028,100 174.9259788742653,-37.00123151324521,100 174.92596263182764,-37.001265719893716,100 174.92561819935136,-37.00130761100392,100 174.92547798310818,-37.00120126257257,100 174.92611318436917,-37.00102870160164,100 174.9260859122399,-37.00080384875945,100 174.9255342844864,-37.00057017799309,100 174.92542164552435,-37.000619015941915,100 174.92540036820935,-37.000538180100854,100 174.9247935194101,-37.000217985561434,100 174.92459684321142,-37.00056999485033,100 174.924573505017,-37.00061182155005,100 174.92455775282602,-37.00060180401736,100 174.92440799453522,-37.000505845126604,100 174.9242556259219,-37.00040813658581,100 174.92405810312016,-37.00048857495918,100 174.9238714334292,-37.00056457658136,100 174.92369070215278,-37.000638165290916,100 174.92351301888615,-37.00071053713106,100 174.92330758554343,-37.000794181354834,100 174.92329348072843,-37.000799945779875,100 174.92318960687646,-37.000951167115126,100 174.92308328986667,-37.001106055697754,100 174.9230150815394,-37.00120553463682,100 174.92289846449953,-37.00127463556051,100 174.92205228925658,-37.00177628342536,100 174.92134904834433,-37.00049890976535,100 174.92122129890302,-37.00026699673417,100 174.9201647533209,-37.00071489384568,100 174.91940600841255,-37.001036000426446,100 174.9190893594215,-37.00046036911552,100 174.91875000367986,-36.99984199294362,100 174.91844281491177,-36.99928324402164,100 174.91840081520675,-36.9992077296611,100 174.91789536305996,-36.99828668913301,100 174.91781169621876,-36.99813565458237,100 174.91743555178982,-36.99745731202949,100 174.91707667084032,-36.99681030242375,100 174.91645295349005,-36.99702341969329,100 174.91681081196668,-36.99631016509163,100 174.91732517173654,-36.995954180064686,100 174.91695621625828,-36.99561100603629,100 174.91829800104028,-36.99468280559114,100 174.91798300988881,-36.99445675277198,100 174.91747463162827,-36.993175640837535,100 174.9173976259909,-36.992991640239126,100 174.9174026255588,-36.99236463162074,100 174.9174036356423,-36.99217263492417,100 174.91725062656818,-36.991692643831236,100 174.91712363149347,-36.991293637968276,100 174.9169196414625,-36.991062638576935,100 174.91655264575814,-36.99064764671273,100 174.91553664250668,-36.98947665642357,100 174.91550500162396,-36.98944700141697,100 174.91562400017142,-36.989280001216386,100 174.9156989945955,-36.989136005045566,100 174.9157840062089,-36.98896799589365,100 174.9157843263804,-36.9889676806761,100 174.91591189440388,-36.98898183559873,100 174.91664020704138,-36.98906220682836,100 174.917597008754,-36.98916785394782,100 174.91842110371448,-36.98925876456354,100 174.91855680601506,-36.989183072042195,100 174.91869039323282,-36.98869923556776,100 174.91877529753543,-36.988391346415604,100 174.9193312076776,-36.986378848705,100 174.9194149995759,-36.98607852005779,100 174.9196000910414,-36.98624573297151,100 174.92682309531838,-36.98754902640005,100 174.92868900296133,-36.98788679978232,100 174.92969230075835,-36.98411588670098,100 174.92999829862774,-36.98380980422132,100 174.9300116074306,-36.98382852325028,100 174.93002570028378,-36.9838474142934,100 174.93003970828042,-36.983866414871116,100 174.93005410239155,-36.98388557861235,100 174.93006849222988,-36.983904572976236,100 174.93008220093924,-36.9839233774255,100 174.9300951952381,-36.98394200872511,100 174.93010700054913,-36.983960181670454,100 174.93011780741338,-36.98397792290592,100 174.93012679583262,-36.983995015936216,100 174.93013370040924,-36.984011850835934,100 174.93013760600692,-36.98402849206122,100 174.9301402064013,-36.984044877814675,100 174.9301412065851,-36.98406098225021,100 174.93014200490396,-36.98407665644226,100 174.93014270236904,-36.98409185188016,100 174.93014449459164,-36.984106532894536,100 174.9301481016128,-36.984120561591844,100 174.93015350769565,-36.984133893162756,100 174.93016210734905,-36.98414631565228,100 174.93017440050522,-36.9841583617102,100 174.93018909719777,-36.98417033442419,100 174.93020639700612,-36.98418195114333,100 174.93022510071287,-36.984193015960514,100 174.93024490784666,-36.98420328680536,100 174.93026470415143,-36.98421255106771,100 174.93028450490073,-36.98422074630926,100 174.93030250053135,-36.9842274873647,100 174.93031910496765,-36.98423270441081,100 174.9303330944711,-36.984236031596,100 174.93034460403754,-36.984237298181725,100 174.93035509148459,-36.98423666342,100 174.930364804759,-36.984234335985384,100 174.9303730936373,-36.984230549076656,100 174.93038060598627,-36.98422559859857,100 174.93038780223404,-36.984219832175036,100 174.93039399657795,-36.984213542168234,100 174.93039969837304,-36.98420696724979,100 174.93040510358895,-36.98420030432124,100 174.93041020784344,-36.98419400230271,100 174.93041409768824,-36.984187614586,100 174.93041629417223,-36.98418068298865,100 174.93041740189338,-36.98417321389938,100 174.93041739297513,-36.984165393440044,100 174.93041740834317,-36.984157200347575,100 174.93041769564888,-36.984148831584015,100 174.93041880622079,-36.984140186248176,100 174.93042169661183,-36.984131460586134,100 174.93042669791708,-36.98412273032918,100 174.93043389805052,-36.984114006665216,100 174.93044400059443,-36.98410445616051,100 174.93045550169958,-36.984093565199814,100 174.93046919587113,-36.984081875159575,100 174.93048400516764,-36.984069810061825,100 174.93049980785247,-36.984058020824506,100 174.93051670400752,-36.98404695556923,100 174.93053399793985,-36.98403713755287,100 174.93055199826617,-36.98402904214909,100 174.93056999364936,-36.984023284802504,100 174.93058799855913,-36.98402039344112,100 174.93060599561272,-36.984020302552615,100 174.9306246944659,-36.984022463415485,100 174.93064379761603,-36.984026706917895,100 174.93066360288051,-36.984032547820114,100 174.93068379653442,-36.98403993083845,100 174.9307046070547,-36.98404829434916,100 174.93072549345518,-36.98405757054263,100 174.93074680782166,-36.984067287717046,100 174.93076800672156,-36.984077192434505,100 174.93078960317737,-36.984087090679914,100 174.93081189721352,-36.98409716233869,100 174.93083499172494,-36.9841080555756,100 174.93085910887166,-36.98411958110714,100 174.93088360592031,-36.984131734969516,100 174.9309079996066,-36.98414451060481,100 174.93093219800747,-36.9841577382612,100 174.93095559547112,-36.98417141427402,100 174.93097820686125,-36.98418545998856,100 174.93099980720825,-36.984199864645035,100 174.93101959522988,-36.98421444119313,100 174.93103869809866,-36.98422991306456,100 174.9310567061107,-36.984246472594755,100 174.93107440881747,-36.98426384285471,100 174.93109129496443,-36.984281754562666,100 174.93110709611148,-36.98429985517135,100 174.93112190817305,-36.98431785019702,100 174.93113589086872,-36.9843353026131,100 174.9311485030074,-36.98435195894756,100 174.93115969895578,-36.984367525217536,100 174.9311694050662,-36.984381754763646,100 174.93117770244353,-36.98439452278801,100 174.93118450254332,-36.984406326448294,100 174.93119030854288,-36.984417204424176,100 174.93119460824752,-36.984427472395126,100 174.9311977996028,-36.98443709504373,100 174.93119999361753,-36.984446285974926,100 174.931201395031,-36.98445501121267,100 174.93120180773712,-36.98446364618631,100 174.9312014015543,-36.98447210881772,100 174.93120070189624,-36.98448056180412,100 174.931199292529,-36.984489028142484,100 174.93119640654797,-36.984497303098976,100 174.93119280183595,-36.98450523463832,100 174.93118849876916,-36.98451296213075,100 174.931183098633,-36.98452044609817,100 174.93117699695918,-36.98452755572409,100 174.93117079952572,-36.9845343884055,100 174.93116400225577,-36.984540781097785,100 174.93115679696902,-36.98454681089527,100 174.9311495960362,-36.98455239087146,100 174.93114199488832,-36.98455725000864,100 174.93113340161088,-36.98456130600602,100 174.9311239922556,-36.98456463441188,100 174.93111429608,-36.98456759434503,100 174.9311041945988,-36.98457029859371,100 174.93109379851828,-36.98457299321456,100 174.9310841027504,-36.9845759693621,100 174.9310744003027,-36.984579303434664,100 174.9310654055867,-36.98458325690193,100 174.93105709237392,-36.98458803658911,100 174.9310491992781,-36.98459361340148,100 174.93104050870105,-36.98459973135336,100 174.9310321925473,-36.98460630558026,100 174.93102430207998,-36.98461323069699,100 174.93101640527362,-36.98462052725307,100 174.93100960243063,-36.984627988972306,100 174.93100339191145,-36.98463554920931,100 174.93099880714715,-36.98464311183386,100 174.9309955040805,-36.984650666221086,100 174.93099370119984,-36.98465805559446,100 174.9309941010587,-36.9846656056095,100 174.93099590005824,-36.98467370428401,100 174.93099950704678,-36.98468208088358,100 174.93100419230223,-36.98469062380345,100 174.9310096014206,-36.984699090952034,100 174.93101569567705,-36.984707283771506,100 174.93102250402475,-36.98471501431966,100 174.93102940236716,-36.98472221614098,100 174.9310362074176,-36.98472861641926,100 174.93104269157604,-36.98473401155848,100 174.9310492025519,-36.98473851216873,100 174.9310555930042,-36.98474237842015,100 174.93106279778405,-36.9847457032569,100 174.93107000376057,-36.98474840887883,100 174.9310775947786,-36.98475065758344,100 174.93108520469727,-36.98475236519844,100 174.9310931002175,-36.98475372657178,100 174.9311013972599,-36.98475461633863,100 174.93110959572599,-36.98475507328112,100 174.93111790846345,-36.98475525076233,100 174.93112620524127,-36.984754885918505,100 174.93113520749756,-36.98475371825022,100 174.93114419493952,-36.98475200913945,100 174.93115320360434,-36.984749850833936,100 174.93116260077858,-36.98474732838835,100 174.93117190568552,-36.98474462267649,100 174.93118160728665,-36.98474183209504,100 174.93119099668382,-36.98473904659341,100 174.9312004083772,-36.98473643197572,100 174.93120969132264,-36.98473419078915,100 174.93127379189826,-36.98470529377428,100 174.93135079675687,-36.98464751357308,100 174.9314411997505,-36.98459477706745,100 174.93152000632088,-36.98458821279584,100 174.93159560783766,-36.98462519389669,100 174.93164709193854,-36.98472176596736,100 174.93163380024257,-36.984802227987565,100 174.9316648022596,-36.984878553091725,100 174.9316557944309,-36.984938758008624,100 174.93170149763301,-36.98501282218227,100 174.93177200170166,-36.98507753899806,100 174.93185090519208,-36.98509877269666,100 174.93194300254862,-36.98507592515949,100 174.93202759325052,-36.98502956400811,100 174.93210070022104,-36.98498718605125,100 174.93211039276383,-36.98498097329603,100 174.9322015074064,-36.98499509586102,100 174.93226669759102,-36.985029211353364,100 174.93227960324006,-36.98503587274626,100 174.9323200017261,-36.98507591415864,100 174.93233179249899,-36.985084825323845,100 174.93234700329367,-36.98510346443654,100 174.93238579976583,-36.98515998067947,100 174.9324416014857,-36.985202549042285,100 174.93249020413282,-36.98525258743515,100 174.93257089865338,-36.98525600878823,100 174.93264939777217,-36.985235851719075,100 174.93272500601842,-36.98520255112081,100 174.9328027061988,-36.98517608883377,100 174.93281240030078,-36.98517428967379,100 174.93288950035387,-36.985170418332736,100 174.9329671946442,-36.98519921487822,100 174.9330047051527,-36.98520938616473,100 174.9330850042426,-36.985189861946935,100 174.93310729580577,-36.985184275781855,100 174.93319150304166,-36.98519265163415,100 174.93326570504632,-36.985199766363806,100 174.93333980143828,-36.98517248456771,100 174.9334122001443,-36.98513459501854,100 174.9334387928207,-36.9851230775487,100 174.9335184067377,-36.98510130463803,100 174.9335334999128,-36.98509886675627,100 174.9336174036147,-36.98509383587545,100 174.93363860105583,-36.98508870276766,100 174.93365989831798,-36.98508347429418,100 174.93368079916794,-36.98507825317752,100 174.93370199894952,-36.98507321285449,100 174.93372320107767,-36.985068265323584,100 174.9337448065571,-36.98506349598327,100 174.93374590642912,-36.98506322840019,100 174.9337671926755,-36.98505818665666,100 174.933788399494,-36.985053424706,100 174.93380999243058,-36.98504882590441,100 174.93383160060824,-36.9850447847566,100 174.9338532063835,-36.985041270004494,100 174.93386360272902,-36.98503982975057,100 174.93388560639357,-36.98503694302534,100 174.93390759827102,-36.98503487757441,100 174.93392990626572,-36.98503362715277,100 174.9339517916107,-36.98503334440285,100 174.93395800795778,-36.985033434172855,100 174.93397990418612,-36.98503415799489,100 174.93400189971175,-36.98503596355982,100 174.93402380090458,-36.98503874676824,100 174.93404579478025,-36.98504235044967,100 174.93406739463143,-36.98504676541147,100 174.93407099767725,-36.9850474745996,100 174.93409259518114,-36.985051796760914,100 174.93411379858028,-36.9850568382714,100 174.93413470027605,-36.985062876127614,100 174.93415490666158,-36.985070072670176,100 174.9341570057484,-36.98507088658368,100 174.93417580622477,-36.9850797968795,100 174.93419410379676,-36.985089877147416,100 174.93421179922163,-36.98510075766873,100 174.93422900089604,-36.98511192744122,100 174.9342466998041,-36.98512290073451,100 174.9342650009729,-36.985133166600775,100 174.93426500293523,-36.98513324408077,100 174.93428520302933,-36.98514081203967,100 174.93430609259173,-36.985147655826985,100 174.93432659288638,-36.98515421213109,100 174.93434749695112,-36.98516096284052,100 174.93436729480436,-36.9851683516735,100 174.93438670301896,-36.98517672476715,100 174.93438819642873,-36.985177534128425,100 174.93440509644785,-36.98518841406602,100 174.934421299564,-36.98520038962753,100 174.93443679838413,-36.985213168911855,100 174.93445189417255,-36.98522640361227,100 174.93446700754689,-36.98523962270188,100 174.93448249658846,-36.98525268064168,100 174.93449039469854,-36.98525915212767,100 174.93450730527522,-36.98527040321451,100 174.93452500354695,-36.98528139269882,100 174.93454260594748,-36.98529201240684,100 174.9345602059795,-36.98530253841536,100 174.9345782039602,-36.98531307325596,100 174.934596200412,-36.98532359189524,100 174.93461029681345,-36.985331966822876,100 174.93462759481923,-36.985342854660416,100 174.93464520667348,-36.98535384643636,100 174.9346624921341,-36.98536490391795,100 174.93467940275914,-36.98537615497865,100 174.9346963035958,-36.98538768469877,100 174.9347132087739,-36.98539938559299,100 174.9347189996821,-36.985403524598176,100 174.93473479481273,-36.98541575642737,100 174.93475030388717,-36.985428271420425,100 174.93476619837932,-36.98544096579586,100 174.93478160263317,-36.98545346717146,100 174.93479779917993,-36.98546579970226,100 174.93480359790826,-36.98547020265714,100 174.93482019203836,-36.98548190860683,100 174.9348370925315,-36.98549342298959,100 174.9348540079124,-36.98550485961517,100 174.93486159234214,-36.98550998964468,100 174.93487850775315,-36.985521427167434,100 174.93489540243868,-36.985532755968094,100 174.93489789274253,-36.985534554020326,100 174.9348878007493,-36.98556623529411,100 174.93477049366166,-36.98593505619471,100 174.93513369313013,-36.98604180317002,100 174.93561579563877,-36.98618345307512,100 174.93595060871004,-36.98628192420159,100 174.93636460791774,-36.98640360237804,100 174.93745820512115,-36.986725072087914,100 174.93895039464445,-36.987163737582584,100 174.93869920051344,-36.987970494435494,100 174.93866890582407,-36.98806787832505,100 174.9385490044674,-36.9884518183869,100 174.9380656007869,-36.99000260638868,100 174.938036408473,-36.99009611543656,100 174.93776319835723,-36.990972629921195,100 174.937465096458,-36.99192896286619,100 174.93736639665312,-36.99222678501501,100 174.93712380526253,-36.99295820777902,100 174.93694160230564,-36.993506760044404,100 174.93688399506416,-36.99368090780736,100 174.93670940735376,-36.994207764571236,100 174.93639299333933,-36.995161324634225,100 174.9366910984171,-36.99524358641362,100 174.93724909733965,-36.99539774830036,100 174.9373409008984,-36.99542303700899,100 174.9379356040026,-36.995564969580904,100 174.93869880074794,-36.995795194759175,100 174.93891080785588,-36.995766570909815,100 174.93885940143443,-36.995842527937064,100 174.93852419221272,-36.99632970631005,100 174.9379384944532,-36.99660995188018,100 174.93889460449012,-36.9972282555869,100 174.93887050736694,-36.998010994637696,100 174.93919159849054,-36.99801746257926,100 174.9393993911022,-36.99813878287706,100 174.93939290540462,-36.99834596426452,100 174.93923630573897,-36.998533890418955,100 174.93869159647244,-36.998963182968204,100 174.938642597753,-36.99934083581985,100 174.93862999316443,-36.99950490162004,100 174.93873159980424,-36.99982493869737,100 174.9391870033677,-37.00059390219654,100 174.939291007497,-37.00108134468347,100 174.93905989783752,-37.00169703184192,100 174.93911750498157,-37.00206431794636,100 174.93926539270433,-37.003500267749274,100 174.93958549604008,-37.005213869742825,100 174.93967040596365,-37.005791124337215,100</coordinates></LinearRing></outerBoundaryIs>
    </Polygon>
  </Placemark>

  <Placemark>
    <name>Totara Park</name>
    <Point>
      <altitudeMode>relativeToGround</altitudeMode>
      <coordinates>174.92887821434417,-36.99598841842977,100</coordinates>
    </Point>
  </Placemark>

</Document>
</kml>