<?xml version="1.0" encoding="utf-8"?>
<kml xmlns="http://www.opengis.net/kml/2.2">
<Document>
  <name>Wai O Taiki Bay (polygon: official_shp)</name>
  <open>1</open>

  <Placemark>
    <name>Wai O Taiki Bay (polygon: official_shp)</name>
    <Style>
      <LineStyle><color>ffff0000</color><width>2</width></LineStyle>
      <PolyStyle><color>66ff0000</color><fill>1</fill><outline>1</outline></PolyStyle>
    </Style>
    <Polygon>
      <tessellate>1</tessellate>
      <altitudeMode>relativeToGround</altitudeMode>
      <outerBoundaryIs><LinearRing><coordinates>174.882030965,-36.87298269999996,100 174.88122342600002,-36.873199598999975,100 174.88097239500007,-36.873249981999955,100 174.8805238330001,-36.873257803999934,100 174.87967601900004,-36.874017095999925,100 174.87956569500014,-36.87408660699998,100 174.8794822870001,-36.874110634999965,100 174.87939813800006,-36.874112055999944,100 174.8791159320001,-36.87404938599997,100 174.87897584300003,-36.87405187199994,100 174.87867049300007,-36.87416979299996,100 174.878446165,-36.874173790999976,100 174.87827494900012,-36.87406493699995,100 174.87810674800005,-36.874067865999955,100 174.8780519070001,-36.87411387999999,100 174.8777049680001,-36.874728354999945,100 174.87708587200007,-36.87540042899997,100 174.8768603210001,-36.875645276999926,100 174.8764439910001,-36.875810273999946,100 174.87630785600004,-36.87592533799994,100 174.87628878100008,-36.875957764999946,100 174.87628534100008,-36.87606845699997,100 174.87632693800003,-36.87614746299993,100 174.87641595800005,-36.87621934699996,100 174.8764109120001,-36.876337328999966,100 174.87646611900004,-36.87648622399996,100 174.87644039100007,-36.876569480999926,100 174.87639530700005,-36.87667216199997,100 174.8763982690001,-36.876793203999966,100 174.87647601900005,-36.87689075799995,100 174.87643419800008,-36.876964708999935,100 174.87631292200012,-36.877033541999936,100 174.8761633480001,-36.87708051599998,100 174.8761256470001,-36.877160774999936,100 174.87613140400003,-36.87723397499997,100 174.8760817310001,-36.877311234999986,100 174.87596426400012,-36.87737363499996,100 174.87577169700012,-36.87744677899996,100 174.87554741000008,-36.877520423999954,100 174.8753702350001,-36.87757420599996,100 174.8751206170001,-36.87761434899995,100 174.87428277300012,-36.87778556399997,100 174.87386627900003,-36.87790754699994,100 174.8730617220001,-36.87819282999993,100 174.8729188110001,-36.87832194899995,100 174.87270572200012,-36.87851447299993,100 174.87250189100007,-36.87860589399997,100 174.87225164000006,-36.87856752399995,100 174.87201721700015,-36.87845837799994,100 174.871749345,-36.87841746299995,100 174.8718328320001,-36.878528986999974,100 174.87202210500004,-36.87865859099998,100 174.87218998099874,-36.878820555008645,100 174.8721786620876,-36.878818230026894,100 174.87217014662505,-36.87881520327334,100 174.87213326342805,-36.87879585079217,100 174.8720998108774,-36.87877106422537,100 174.87206725253682,-36.87874485298314,100 174.8720621038983,-36.87874103858648,100 174.8720301956108,-36.8787158554172,100 174.87202262980372,-36.878707655401776,100 174.87199762925775,-36.87867778013204,100 174.8719937445999,-36.87867408461924,100 174.8719623595355,-36.878648410075634,100 174.87194927021181,-36.87863790497204,100 174.8719162646626,-36.878613637682065,100 174.87191090785635,-36.87860984368381,100 174.87187515764842,-36.87858827132899,100 174.87186812064263,-36.8785849562682,100 174.87182724598725,-36.878570163293624,100 174.87179782667243,-36.87856163069057,100 174.87175486321038,-36.87855139705907,100 174.87171206376289,-36.87854084987047,100 174.87167370336277,-36.878528259728306,100 174.8716331307448,-36.87851310590375,100 174.8715932486396,-36.87849663967238,100 174.8715539307807,-36.878479295660384,100 174.87151754416251,-36.87846363510212,100 174.8714787450471,-36.87844566278062,100 174.8714409829966,-36.87842641856273,100 174.87141896527942,-36.87841425590069,100 174.87138294472663,-36.87839290577358,100 174.87134742645566,-36.87837098890132,100 174.87131651863072,-36.87835212068693,100 174.87128100154072,-36.87833025064453,100 174.87124541757586,-36.878308443836,100 174.87120959930044,-36.878286919216734,100 174.8711910115235,-36.87827627710302,100 174.87115447126448,-36.878255555202415,100 174.8711183159246,-36.87823437656483,100 174.87110775736366,-36.87822734397262,100 174.87107386830274,-36.878203633856124,100 174.87103979654302,-36.87818025198562,100 174.87100396947667,-36.87815900595057,100 174.870993030471,-36.878153899163514,100 174.87095323693126,-36.87813750883138,100 174.87091317279317,-36.87812133906532,100 174.87089845951576,-36.87811406813669,100 174.8708609137397,-36.878094478721046,100 174.87082278426428,-36.87807570427037,100 174.8708062549302,-36.87806835557192,100 174.87076586471295,-36.878052889417624,100 174.87074377725204,-36.87804645835528,100 174.87070126926199,-36.87803514819154,100 174.87068491451666,-36.878029160432845,100 174.87064388087217,-36.87801486527577,100 174.87060233625726,-36.87800657376989,100 174.8705989829115,-36.87800593525343,100 174.87055491810162,-36.87799969967892,100 174.87055358539953,-36.87799961430617,100 174.8705089954397,-36.877999583598935,100 174.87046415158954,-36.87800229870588,100 174.8704627856153,-36.87800227514611,100 174.87041808203074,-36.87800379557303,100 174.87041273662473,-36.87800487930195,100 174.87037205051408,-36.878020143872526,100 174.87036249431097,-36.878024072680596,100 174.87032419619865,-36.878042670598276,100 174.87032332682523,-36.878043135849396,100 174.87028765223198,-36.8780648335736,100 174.8702801368292,-36.878070694236044,100 174.8702497750154,-36.87809714662793,100 174.87024516206705,-36.878100431573806,100 174.87021140486954,-36.878124017112235,100 174.8702075874421,-36.878127304855795,100 174.8701793915014,-36.878155252684294,100 174.8701786324478,-36.878155963161014,100 174.8701505228425,-36.87818390962369,100 174.87012616747108,-36.87821007184411,100 174.87012206390347,-36.87821427803384,100 174.87009413074907,-36.878242376733866,100 174.87006841104227,-36.87826922830177,100 174.87006215613857,-36.87827506730627,100 174.87002916155544,-36.87829938167943,100 174.87002871938896,-36.87829965272801,100 174.86998991775184,-36.87831753289827,100 174.86997750371577,-36.87832186809134,100 174.86993439029578,-36.87833173842951,100 174.86992777526845,-36.87833251854477,100 174.86988335436865,-36.87833685186826,100 174.86988117512578,-36.87833743237228,100 174.8698395697432,-36.878350667926014,100 174.86979801292912,-36.8783528758787,100 174.869768658514,-36.87834418581768,100 174.86972755680782,-36.87833441517087,100 174.86968637024515,-36.87832788160552,100 174.86968211634058,-36.87832716620232,100 174.86963838481924,-36.87831918999128,100 174.8696339600919,-36.87831855478873,100 174.86959038885698,-36.878310111854475,100 174.86956912216903,-36.87830140532849,100 174.86957090582152,-36.878286119612056,100 174.869572705537,-36.878267581658434,100 174.86958173009813,-36.87823301258909,100 174.86958940518898,-36.878200293546335,100 174.86959844552618,-36.87816756834039,100 174.86959955568776,-36.878163864445995,100 174.86961248703838,-36.87812935016309,100 174.86961457615087,-36.87812539561639,100 174.8696341998404,-36.878092950911075,100 174.8696349523213,-36.87809137256422,100 174.86963650350447,-36.87808735077141,100 174.8696412834929,-36.878077433966986,100 174.86965101270854,-36.87806518505687,100 174.8696571883782,-36.87804358132526,100 174.86965938411245,-36.87803203683572,100 174.86965964073485,-36.87803128830174,100 174.8696543346586,-36.87800108815277,100 174.86964993207178,-36.87797232762355,100 174.86965050161044,-36.877944704733615,100 174.86963884151547,-36.87792175389877,100 174.8696221735356,-36.877906044711985,100 174.86964430807953,-36.87790976495637,100 174.86966648309044,-36.87791238404058,100 174.86967102933357,-36.87791308042271,100 174.86971486110153,-36.87792089821655,100 174.8697519463302,-36.87792465354146,100 174.86978854589972,-36.87793605163139,100 174.86980978315574,-36.877945578789394,100 174.86983598309382,-36.87795585615371,100 174.8698371032052,-36.87795637931969,100 174.86987661959944,-36.87797342605147,100 174.86991013447192,-36.87797100124737,100 174.86994906250465,-36.87796166819205,100 174.86995022459308,-36.87796119833628,100 174.86998717615205,-36.87794070281067,100 174.87002525730637,-36.877923006136854,100 174.8700322874869,-36.877920296953334,100 174.87007375451478,-36.877906413656255,100 174.87011227246782,-36.87789273540114,100 174.87011669217262,-36.87789127958891,100 174.87006493692311,-36.87781118134607,100 174.86995182273552,-36.87772186480806,100 174.86973943918804,-36.87755415659672,100 174.86968934532672,-36.87751460522656,100 174.86956070729667,-36.87733319264816,100 174.86955453182978,-36.87727128940514,100 174.86951440118696,-36.87686901278407,100 174.86946809727507,-36.87640489501941,100 174.8696095843478,-36.87633288693535,100 174.86988405193722,-36.87668088582772,100 174.8699418470048,-36.876651463602,100 174.87010358752232,-36.87656912962025,100 174.87015846337053,-36.87663870533747,100 174.8701767493541,-36.87666188170806,100 174.87021335761543,-36.87670829515895,100 174.87024996484433,-36.87675471041658,100 174.8702865735694,-36.876801139158395,100 174.87032316367043,-36.876847538437495,100 174.87035975528966,-36.876893952101746,100 174.87038863506524,-36.876879249268654,100 174.87061971279797,-36.87676165367331,100 174.87062445732354,-36.87675875331057,100 174.87062849177676,-36.87675521337074,100 174.87063170224778,-36.87675119337962,100 174.87063400235908,-36.876746785731214,100 174.87063529385833,-36.876742101934425,100 174.87063557975654,-36.87673731139121,100 174.8706348126417,-36.87673258610005,100 174.870633030248,-36.876728001178144,100 174.87063030670186,-36.87672374383543,100 174.87090152620138,-36.87658547194458,100 174.87071853852575,-36.87635344896808,100 174.87092073362794,-36.87625055575852,100 174.87112291100436,-36.876147648067565,100 174.871068051889,-36.87607808875794,100 174.87110615534326,-36.87605868698792,100 174.87120373967844,-36.876009012912576,100 174.8712268745829,-36.87599724404732,100 174.87137125771298,-36.87592374344798,100 174.8715214368532,-36.87584732210835,100 174.87167737724656,-36.87576793638938,100 174.87176427199378,-36.87572371293902,100 174.87183911320457,-36.87568561457051,100 174.87198351196332,-36.8756121129911,100 174.87212789284897,-36.87553862594148,100 174.87228088337287,-36.87546074607378,100 174.87230399999748,-36.87544897728974,100 174.87244322037964,-36.87536100666234,100 174.8725416753298,-36.87529877132373,100 174.87255304315073,-36.87529158884563,100 174.8725876432303,-36.87524480456094,100 174.87264175264752,-36.87517167975527,100 174.87265445817735,-36.87515450030587,100 174.87274180046074,-36.875036456805816,100 174.87275534073726,-36.87501817899104,100 174.87282914248027,-36.874918413246874,100 174.8728628921602,-36.87487279057842,100 174.87291650070574,-36.874800354948164,100 174.872960687881,-36.8747406115766,100 174.87300384142722,-36.87468227973713,100 174.87304814470164,-36.87462238037654,100 174.87305503132026,-36.87461307557446,100 174.8730858127402,-36.87457146998183,100 174.87314709105797,-36.874488648125244,100 174.87316076340554,-36.87447013564066,100 174.873221000141,-36.874364705082655,100 174.87324230622792,-36.87432742829738,100 174.87367651580473,-36.87440346082029,100 174.87371803406953,-36.874250500868435,100 174.873719309854,-36.87424394343031,100 174.8737195796942,-36.87423730992196,100 174.87371886644036,-36.874230709043474,100 174.87371717086447,-36.87422421829667,100 174.8737145135738,-36.874217946417,100 174.87371091323953,-36.87421196882122,100 174.8737064596245,-36.874206377831555,100 174.87370120695724,-36.874201280751755,100 174.87369522479102,-36.87419672335374,100 174.87368858639564,-36.874192765772015,100 174.87368141253802,-36.874189483615915,100 174.87367380863554,-36.87418692119044,100 174.87366584534072,-36.87418512334888,100 174.8737048127412,-36.87404012177601,100 174.87371296193993,-36.87404112622034,100 174.87372121107973,-36.87404135394754,100 174.873729439439,-36.87404077711776,100 174.87373752515387,-36.87403941297554,100 174.8737453123649,-36.874037264880364,100 174.87375275170743,-36.87403437867716,100 174.87375970641,-36.87403080429337,100 174.8737660561047,-36.87402657427255,100 174.873771733155,-36.874021767195586,100 174.8737766523542,-36.87401643127542,100 174.87378071394028,-36.87401066182343,100 174.8737839021937,-36.87400455012153,100 174.8737861491701,-36.87399816213695,100 174.87383123527977,-36.87383205320838,100 174.8733803758643,-36.873753042580184,100 174.87347849063917,-36.87358469602243,100 174.87337358277634,-36.873499034316914,100 174.87348331679047,-36.87341234855549,100 174.8734480487825,-36.873300263265676,100 174.8734752060424,-36.87326334934086,100 174.87351918297702,-36.87320354778898,100 174.87357109475587,-36.87313295299349,100 174.87366186562122,-36.87300955315748,100 174.87367321754135,-36.87299411557957,100 174.8736794358796,-36.872985660415644,100 174.87376952336737,-36.87286318612229,100 174.87378377629702,-36.87284379643311,100 174.87387384547094,-36.87272132054827,100 174.87389850228226,-36.87268782774215,100 174.8739782024004,-36.87257947236147,100 174.87403289702812,-36.872505081252456,100 174.87405961993926,-36.87246877883758,100 174.87408255853276,-36.87243760697205,100 174.87412168138636,-36.87232083503293,100 174.87413788208482,-36.872272449558714,100 174.87418717732297,-36.87212531729684,100 174.87419324022093,-36.87210729337553,100 174.87424145999051,-36.87196326059115,100 174.87426135827772,-36.87190390891867,100 174.87426551756568,-36.87189153929951,100 174.87424808622316,-36.871801335554345,100 174.87423458871586,-36.87173144603033,100 174.87422848403966,-36.871699834576674,100 174.8740055801259,-36.87134224424577,100 174.87393176034044,-36.87130457856031,100 174.87370594015934,-36.87118939577791,100 174.8736867356381,-36.871173792938094,100 174.87349880817177,-36.87102254766428,100 174.8733799472187,-36.87092687585704,100 174.87328146490205,-36.87088265390934,100 174.87307974129197,-36.87079203057311,100 174.87341294484239,-36.87035702814749,100 174.87339056293462,-36.87033832161417,100 174.87336747100932,-36.87032016977169,100 174.8733436514991,-36.87030263418688,100 174.8733191578788,-36.87028569959488,100 174.87329400806937,-36.87026941077912,100 174.87326820097118,-36.870253768657825,100 174.87324182477883,-36.87023880158379,100 174.8732481833307,-36.870215011763655,100 174.87359151495838,-36.870078422601274,100 174.873800990534,-36.86999508218271,100 174.8737164749419,-36.86985797401731,100 174.8737397382294,-36.86977091754885,100 174.87371123035896,-36.86976599432843,100 174.87377779987503,-36.869514812822366,100 174.87403660375435,-36.86955945124039,100 174.87401442987596,-36.86937019702925,100 174.87525853007537,-36.86895028011671,100 174.87544797380298,-36.8684178191698,100 174.87551504352783,-36.868546169313916,100 174.87565614381282,-36.86881610011657,100 174.87590509915208,-36.868732083202815,100 174.87591250199299,-36.86872915057663,100 174.875919419858,-36.86872551536205,100 174.87592573349022,-36.8687212551535,100 174.87593137373932,-36.86871638636548,100 174.87593622370395,-36.86871103702952,100 174.8759402313851,-36.86870523680917,100 174.87594336543347,-36.86869907993747,100 174.8759455253499,-36.86869267706177,100 174.8759467317208,-36.868686136016244,100 174.8759469498086,-36.86867950421834,100 174.87594615009078,-36.86867290471466,100 174.87594438496836,-36.868666415994454,100 174.87594164134276,-36.86866014462109,100 174.87613069641506,-36.868596405549525,100 174.87613434748556,-36.86860235163161,100 174.87613886818772,-36.86860789460839,100 174.87614419011564,-36.86861298959232,100 174.87615023925133,-36.86861749984917,100 174.8761568936937,-36.86862139485602,100 174.8761641175783,-36.86862463011274,100 174.87617175461364,-36.868627144994456,100 174.8761797162309,-36.86862889583331,100 174.87618788094755,-36.86862986922509,100 174.87619612798355,-36.86863003462926,100 174.87620437105954,-36.868629396112254,100 174.87621242027015,-36.86862798641671,100 174.87622022363553,-36.868625790139674,100 174.87623289553184,-36.86862152685176,100 174.87639359157606,-36.868567342197,100 174.87628160035598,-36.86835287630117,100 174.8761856244548,-36.8681689971724,100 174.87633693551695,-36.868118010889425,100 174.87644279154858,-36.86815759463692,100 174.87666662493638,-36.86808216055842,100 174.87673282534922,-36.86820893108652,100 174.87704739196502,-36.86810321791515,100 174.8770475192898,-36.86810282833329,100 174.87706593113833,-36.86804616580195,100 174.87712221605577,-36.86796499273046,100 174.87722680737508,-36.86787066587635,100 174.87733230258775,-36.86769273925013,100 174.87733163781482,-36.86768987001632,100 174.8772547705235,-36.86736896942652,100 174.87732562256318,-36.867188626596494,100 174.87780402567347,-36.867278445896694,100 174.8779139741491,-36.86697693061907,100 174.8778719948299,-36.86687300059711,100 174.87787280211813,-36.86687284723091,100 174.8778928478505,-36.86686902875118,100 174.87789300296686,-36.86686899565443,100 174.87813250755605,-36.86683720666716,100 174.87820337766476,-36.86687577268117,100 174.8784005762768,-36.866983268689076,100 174.87849175849678,-36.867033004407624,100 174.87851565276114,-36.867599027239855,100 174.87850615531607,-36.86763382167483,100 174.87843327771205,-36.86790092910522,100 174.87798912379552,-36.868084497618234,100 174.87811297865048,-36.8681999484185,100 174.87816785940706,-36.868251089208385,100 174.8782308231004,-36.868309756255485,100 174.87834670086227,-36.8684177563563,100 174.87797834411825,-36.86870272898312,100 174.87812055316323,-36.86882145167975,100 174.8781266184982,-36.868825930932935,100 174.87813332384337,-36.868829792574985,100 174.87814056349944,-36.868832980591776,100 174.8781482163325,-36.868835450029145,100 174.87815619520273,-36.868837169816736,100 174.87816435841643,-36.86883808000286,100 174.8781726391325,-36.86883819967065,100 174.8781808287318,-36.86883753031527,100 174.8781888760024,-36.86883604210123,100 174.87819664385793,-36.86883381741364,100 174.8782040290219,-36.86883085337857,100 174.87821091124678,-36.86882718704871,100 174.87821718846968,-36.86882286510389,100 174.8783594867212,-36.868941678931115,100 174.87835389967282,-36.868946561412805,100 174.87834908542382,-36.86895194272858,100 174.87834509548722,-36.86895777339248,100 174.87834202963123,-36.86896391302316,100 174.8783399214932,-36.86897031512125,100 174.87833876915383,-36.86897690130178,100 174.87833860250342,-36.868983517866795,100 174.8783394539919,-36.868990115631696,100 174.87834127053205,-36.86899658817793,100 174.878344048355,-36.869002827405886,100 174.878347751198,-36.86900877259866,100 174.87835230759055,-36.86901429960173,100 174.87835766180928,-36.86901933178194,100 174.87845251070772,-36.86909853605545,100 174.8788100865645,-36.868821927310165,100 174.8789524017898,-36.868940664435435,100 174.87909459515635,-36.86905935463813,100 174.8792368910042,-36.86917799707437,100 174.87937920638305,-36.869296685892415,100 174.87938364106267,-36.86930030937699,100 174.87939463510205,-36.86929849055066,100 174.87974732642473,-36.86923893965609,100 174.8799343459088,-36.869207334686294,100 174.88001794830637,-36.86919326978668,100 174.8804606010095,-36.869225099143115,100 174.88090625030713,-36.8692571534078,100 174.88117662145623,-36.86948271086086,100 174.88121662979557,-36.86951609972289,100 174.8812845614448,-36.86978832311286,100 174.88135613572757,-36.87007315058569,100 174.88136337540863,-36.87010381440636,100 174.8813809022842,-36.87017422241173,100 174.88138568845136,-36.8701914367473,100 174.8815127167314,-36.87032742618661,100 174.88172470198424,-36.870554931698244,100 174.88178342233846,-36.87098029697435,100 174.8817769154979,-36.87102532388725,100 174.8817419384054,-36.8712667128768,100 174.88181299713514,-36.871326118597054,100 174.88195526968903,-36.871444836413616,100 174.88199710452025,-36.871479865307904,100 174.88186995854502,-36.8718703946093,100 174.8818500348599,-36.87193176144722,100 174.88203203070526,-36.87208342340261,100 174.8818067126494,-36.872748674097004,100 174.88174600588835,-36.87292699926308,100 174.88177818025642,-36.872931316253855,100 174.88180301886058,-36.87293088227368,100 174.88183872635634,-36.872938049157824,100 174.88186223539296,-36.8729434146193,100 174.88189025327182,-36.87294805159057,100 174.88192642398772,-36.872954481938834,100 174.88196300104843,-36.87295804142856,100 174.88199868015096,-36.87295394756001,100 174.88203074024622,-36.87295278443381,100 174.88206595287255,-36.872948699737265,100 174.88211075703614,-36.872947204914155,100 174.88211518889824,-36.872947499742125,100 174.88214093763344,-36.87295068902049,100 174.88218511796424,-36.87295677878678,100 174.88219427256345,-36.87295852383396,100 174.88222637098326,-36.872966418363234,100 174.8822512325685,-36.87297578763614,100 174.88228060966927,-36.872981500794424,100 174.88229361328627,-36.8729842664045,100 174.882030965,-36.87298269999996,100</coordinates></LinearRing></outerBoundaryIs>
    </Polygon>
  </Placemark>

  <Placemark>
    <name>Wai O Taiki Bay</name>
    <Point>
      <altitudeMode>relativeToGround</altitudeMode>
      <coordinates>174.87624734397025,-36.872993655099904,100</coordinates>
    </Point>
  </Placemark>

</Document>
</kml>