<?xml version="1.0" encoding="utf-8"?>
<kml xmlns="http://www.opengis.net/kml/2.2">
<Document>
  <name>Whitford (polygon: official_shp)</name>
  <open>1</open>

  <Placemark>
    <name>Whitford (polygon: official_shp)</name>
    <Style>
      <LineStyle><color>ffff0000</color><width>2</width></LineStyle>
      <PolyStyle><color>66ff0000</color><fill>1</fill><outline>1</outline></PolyStyle>
    </Style>
    <Polygon>
      <tessellate>1</tessellate>
      <altitudeMode>relativeToGround</altitudeMode>
      <outerBoundaryIs><LinearRing><coordinates>175.0513399930938,-36.93048999305087,100 175.04859499603555,-36.932196996554644,100 175.04382800057107,-36.93516099883011,100 175.03534199715028,-36.94043799757007,100 175.03512400077508,-36.94057300261622,100 175.03599600107987,-36.94160300081226,100 175.03573099364434,-36.941869002199205,100 175.03619700645964,-36.94203699208175,100 175.03625200611262,-36.94291199308832,100 175.03610000703338,-36.943211992311035,100 175.03691299937722,-36.94368200185119,100 175.03720700582411,-36.943553991863375,100 175.03702800304572,-36.943168995973025,100 175.0372809970288,-36.94310999395819,100 175.0393939963978,-36.94565599994597,100 175.03861500568007,-36.947159994155044,100 175.02657800081087,-36.94447899908033,100 175.02622400491367,-36.94560699611775,100 175.0248720050286,-36.949909004436776,100 175.02480200740894,-36.950102992202204,100 175.02390200035603,-36.95305599838957,100 175.0226550012421,-36.95687400732016,100 175.02172199562395,-36.95982000292014,100 175.01714899394167,-36.96039100336821,100 175.0167999985236,-36.960833995010844,100 175.01409999762595,-36.96305599781225,100 175.01529300841537,-36.96378699236025,100 175.01555399582642,-36.963944005692376,100 175.01575300778077,-36.96422700004781,100 175.01609999871218,-36.96481300158095,100 175.01659499581814,-36.96497599486416,100 175.01711999800384,-36.96533199258205,100 175.01577000789192,-36.96667500009739,100 175.01530500784298,-36.967162996045836,100 175.015080007171,-36.96777599342209,100 175.01496400469225,-36.967925992890834,100 175.0140270045089,-36.96850599299757,100 175.01355299182856,-36.968920999807246,100 175.0131189943186,-36.969234995084804,100 175.01290400660156,-36.9694390068447,100 175.0127940044333,-36.96950200708023,100 175.0126729959726,-36.969571003591,100 175.01225299313023,-36.969816001548814,100 175.01017400441197,-36.96755599462437,100 175.00999200016247,-36.967664001941486,100 175.0081199983773,-36.96562799358398,100 175.00583700724863,-36.96698600142267,100 175.00310299766392,-36.968608005959084,100 175.00274000820568,-36.96882300199733,100 175.00095200911403,-36.966831006299785,100 174.9998009920294,-36.96769600088067,100 174.99921100827154,-36.96778699625675,100 174.99744300174294,-36.96850699332054,100 174.99650899277097,-36.96988200442179,100 174.99815199680268,-36.97063900382974,100 174.99901300059756,-36.970666995711426,100 175.00061000757782,-36.971509991246634,100 175.00187699274437,-36.97204300328812,100 174.99917100721808,-36.972939004200114,100 174.99841199629438,-36.97355400291852,100 174.99726700191943,-36.97481800406491,100 174.99714500378735,-36.976466003671455,100 174.99695299490344,-36.97723600226046,100 174.99580499592395,-36.97718699296199,100 174.99480300340576,-36.976803002221935,100 174.99443900673805,-36.97652399908679,100 174.99425100600462,-36.976631997809875,100 174.99381900007486,-36.976298999739896,100 174.99329400273695,-36.975433993767645,100 174.9928169927979,-36.9746480044103,100 174.99253699651564,-36.9741890047598,100 174.99173199219902,-36.97403499712261,100 174.99149599279622,-36.97400600341416,100 174.98934900068605,-36.97362100134709,100 174.9871429999346,-36.9730959980673,100 174.98665200485138,-36.9725290018658,100 174.98658300446914,-36.97280899527583,100 174.98628299464707,-36.973026005928915,100 174.98584599389574,-36.973153995101605,100 174.98526200690543,-36.97273700504915,100 174.98115699358806,-36.97530800494985,100 174.97771100540373,-36.97746599839372,100 174.9737080030348,-36.97982400183986,100 174.9726479927807,-36.9804470058397,100 174.9687739988853,-36.98274199240586,100 174.96867400530476,-36.982801004406745,100 174.96842600178667,-36.98294700414185,100 174.968083665979,-36.98256772617175,100 174.9653293000368,-36.97951751159499,100 174.96390443960962,-36.97793932684124,100 174.96265541255016,-36.97655555918599,100 174.96247514843785,-36.976743234341996,100 174.96231043609333,-36.97686559542444,100 174.9620849604786,-36.97696996058908,100 174.96183459883454,-36.97703065417471,100 174.96155324813785,-36.97691440715241,100 174.96122391358608,-36.97682407161728,100 174.9607440521497,-36.977633132951645,100 174.96020083082556,-36.97884927866356,100 174.9597149399656,-36.97901314768535,100 174.95931398150046,-36.979340093355766,100 174.9593234783289,-36.97935531633485,100 174.9589284722423,-36.97962568614886,100 174.95850206819927,-36.97971552795809,100 174.95776036465287,-36.98028349619945,100 174.9567989999213,-36.98078980902018,100 174.95665056316034,-36.98089700005524,100 174.9566027138306,-36.98133360233124,100 174.95658571631168,-36.98148763611618,100 174.9565010423385,-36.98149649215895,100 174.9563991343039,-36.98147028599869,100 174.95610646645227,-36.98137286067983,100 174.95600691902115,-36.98133581680056,100 174.9555992307343,-36.98159288328394,100 174.95544668421525,-36.981609267049,100 174.95355854797515,-36.98122296268264,100 174.9521901561371,-36.980943009591314,100 174.9513105167262,-36.980760087912486,100 174.95125185270783,-36.980620520849136,100 174.95117951238672,-36.98044867591867,100 174.95117763957217,-36.98044418759072,100 174.95115192478877,-36.980383073195576,100 174.9502863595387,-36.97953274277538,100 174.94999509004978,-36.97924658108232,100 174.94986609534476,-36.97911991008363,100 174.9497461977022,-36.97895218936088,100 174.94952567485285,-36.978643643003736,100 174.94942926302286,-36.978508703092935,100 174.94934732988864,-36.97836055556047,100 174.94931762000425,-36.97830686996965,100 174.94927312289323,-36.978226284574795,100 174.94922969788936,-36.97798047761599,100 174.9491731353711,-36.97765908158545,100 174.94917148991397,-36.977650375905796,100 174.94914079719018,-36.97747617002231,100 174.9486530916664,-36.97745431697183,100 174.94803293784716,-36.97734297459755,100 174.94818451841138,-36.97674141410202,100 174.94834190960674,-36.97627105144766,100 174.9481490343786,-36.97623665501946,100 174.9482308511188,-36.97615179920078,100 174.94840102086542,-36.97603141916814,100 174.94846875309352,-36.97598314930089,100 174.94871716875062,-36.97577094577264,100 174.94885360056816,-36.97561561410632,100 174.9490621870657,-36.97527256224029,100 174.94911164177952,-36.974891953427466,100 174.9490725653463,-36.97451261374701,100 174.94896023280694,-36.97423018081136,100 174.9483669602461,-36.9736415801224,100 174.94793105845528,-36.97325711699011,100 174.94774908606044,-36.97305222637316,100 174.94766547292028,-36.97289376257543,100 174.94761235971302,-36.97272949855941,100 174.94759227080664,-36.97255742540207,100 174.9476034858503,-36.97213338344304,100 174.94756519691194,-36.9718270508526,100 174.94740492642137,-36.97147101567108,100 174.94718463454763,-36.97118882081373,100 174.9469613765719,-36.97097200325324,100 174.9469650913684,-36.97092531975869,100 174.94699367239343,-36.97057153956326,100 174.95197457208695,-36.971396830683936,100 174.95312700722187,-36.96830999771727,100 174.95343599436833,-36.96743700617423,100 174.95634299565913,-36.965806996849544,100 174.95391900794414,-36.963076992591816,100 174.95168000516395,-36.960513006410665,100 174.95091799935037,-36.95964099424387,100 174.949097995382,-36.957560000800115,100 174.949044996973,-36.9576260028235,100 174.9485980044049,-36.957299000066115,100 174.9488359944007,-36.95719999290139,100 174.94954599584145,-36.956983994257,100 174.94984399499876,-36.95675000090141,100 174.94999599825647,-36.956207001213265,100 174.94717900527021,-36.95574999477501,100 174.9466320046757,-36.955669005241674,100 174.94444099425624,-36.95520200059988,100 174.9460120056248,-36.950263002062954,100 174.94477999371728,-36.94978499431683,100 174.9419139953321,-36.94892900565055,100 174.94058799844797,-36.95350799258952,100 174.93986100043165,-36.953477994923674,100 174.9387590004604,-36.95276799264287,100 174.93783999462258,-36.95169900565738,100 174.9381089909387,-36.95115699327337,100 174.93777400311956,-36.95047700230023,100 174.93746699925669,-36.950083999054264,100 174.9374470032849,-36.9501499927784,100 174.93464999468594,-36.94921100641705,100 174.9343750069277,-36.94911799854866,100 174.93437600298188,-36.94911400214704,100 174.93437599133262,-36.94909800323727,100 174.9344119954622,-36.948967994294215,100 174.934501000407,-36.94883599864998,100 174.93461299593642,-36.94875200593026,100 174.93474299922624,-36.948687993625725,100 174.93478099247645,-36.948629003985175,100 174.93478799671374,-36.94857100339238,100 174.93477400172617,-36.9484189980286,100 174.93472799358412,-36.94833699524613,100 174.93471899487415,-36.948301999940426,100 174.93473000729557,-36.94827499486784,100 174.93474199780385,-36.94825700044362,100 174.93474799466455,-36.94823499464085,100 174.93476000382609,-36.948208993600666,100 174.93477799544408,-36.9481380027595,100 174.93481400198877,-36.94807599816694,100 174.9348530009176,-36.94805699392004,100 174.93492400286968,-36.94802800162339,100 174.93500300707328,-36.94794899601572,100 174.93505800771342,-36.94791999586381,100 174.93507200436423,-36.947906998901196,100 174.93515099140913,-36.94779000338642,100 174.93518299601013,-36.94767299766573,100 174.93522100654522,-36.94759599588459,100 174.93523699288338,-36.94758299531023,100 174.93529199984945,-36.94749199944727,100 174.9353120067527,-36.947449995055344,100 174.93546499776323,-36.94718299701771,100 174.93547100151682,-36.9471650018825,100 174.93550500635854,-36.946855994971656,100 174.935501998832,-36.94677700117622,100 174.93549300416157,-36.94672100540196,100 174.9354949966395,-36.946656991830146,100 174.93554899246416,-36.946495995190595,100 174.93555099533467,-36.94642800127462,100 174.93554200520848,-36.946374003624925,100 174.93555599945307,-36.94627999265322,100 174.9355489980687,-36.946210998175566,100 174.9355590046735,-36.9459989999023,100 174.93555499181636,-36.94596600628104,100 174.93549500352466,-36.94584400274135,100 174.9354930082542,-36.945822000112,100 174.93547199252467,-36.94577100517811,100 174.93544200333443,-36.94572199790408,100 174.93543300123744,-36.94568500359486,100 174.9354259974529,-36.945671996544995,100 174.9354359955775,-36.945605997559255,100 174.93553300204204,-36.94556800503084,100 174.93563300827887,-36.94539199861104,100 174.93563100347464,-36.94538399614401,100 174.93562999311877,-36.94537499954466,100 174.93562899217514,-36.945366996032426,100 174.93562699486534,-36.94535800290642,100 174.93562600137003,-36.94534900693339,100 174.9356250004273,-36.94534100342107,100 174.9356240069097,-36.94533200654706,100 174.93562300594468,-36.94532400213375,100 174.93562199901945,-36.94531700457783,100 174.93562099805493,-36.94530900016448,100 174.935620993821,-36.94530199977991,100 174.93562200317706,-36.94529600405059,100 174.93562199259503,-36.945289995207524,100 174.9356230019281,-36.94528399857725,100 174.935623994447,-36.945278003122404,100 174.93562499630926,-36.94527299805193,100 174.93562500295147,-36.94526700425023,100 174.935626005936,-36.94526199916143,100 174.93562599464175,-36.94525600655348,100 174.93562600836682,-36.945249005876065,100 174.93562499990975,-36.94524199212152,100 174.93562399298574,-36.94523499456549,100 174.93562299238727,-36.94522700456699,100 174.93562100559396,-36.94521900360849,100 174.93561900191875,-36.94521100112257,100 174.93561799387336,-36.94520400358473,100 174.93561600068745,-36.94519699236573,100 174.9356140067899,-36.94518999738182,100 174.93561200652167,-36.94518399303844,100 174.93560999320994,-36.94518000242818,100 174.935607003389,-36.94517700475618,100 174.93560499307245,-36.94517499607172,100 174.93560299365475,-36.945173994871084,100 174.935600008339,-36.9451729944224,100 174.93559699800363,-36.94517300204312,100 174.93559500196818,-36.94517399808417,100 174.93559199275518,-36.94517400568647,100 174.93559000268058,-36.94517399487,100 174.93558699942864,-36.945172995614726,100 174.9355850000112,-36.945171994413776,100 174.9355830069197,-36.945170000770325,100 174.93558099660396,-36.94516799208544,100 174.93557900465788,-36.94516599932455,100 174.9355770006911,-36.945162999098045,100 174.93557599347514,-36.945161003801736,100 174.9355740074906,-36.9451580041833,100 174.93557300735847,-36.94515500201121,100 174.9355720012652,-36.94515300669656,100 174.93557200382216,-36.94515000169633,100 174.9355720004179,-36.945148003553534,100 174.93557400243702,-36.94514600155637,100 174.9355759995717,-36.94514500459644,100 174.93557799524189,-36.945143994140764,100 174.9355810014596,-36.94514200461292,100 174.9355840013057,-36.9451410057256,100 174.93558800386336,-36.94514000491091,100 174.9355910026096,-36.94513900694265,100 174.93559500516702,-36.94513800612773,100 174.9355979941369,-36.94513600065714,100 174.93560000813056,-36.94513500432326,100 174.93560299600054,-36.94513299977178,100 174.9356049991181,-36.945130996854886,100 174.93560700223554,-36.94512899393796,100 174.9356090057633,-36.945127007237836,100 174.93561100775807,-36.94512500433915,100 174.93561299403848,-36.94512300169664,100 174.93561500311617,-36.945119991922155,100 174.93561600242214,-36.94511799185186,100 174.93561700211563,-36.94511600709746,100 174.93561799166784,-36.94511300042591,100 174.93561800509914,-36.94511100200865,100 174.93561899465126,-36.945107995337096,100 174.93561899761684,-36.94510500655373,100 174.93561900017204,-36.945102001553536,100 174.9356190038725,-36.94509899743597,100 174.9356179966564,-36.945097002139995,100 174.93561699652346,-36.94509399996828,100 174.93561499370247,-36.945091000625,100 174.93561399356972,-36.94508799845324,100 174.93561099628164,-36.945085992341035,100 174.93560800052654,-36.94508400242729,100 174.93560299781709,-36.945082000169776,100 174.93559800600653,-36.945081005395906,100 174.93559300332032,-36.94507900403891,100 174.93558700728923,-36.9450779958943,100 174.93558099483198,-36.94507700424074,100 174.93557599214645,-36.94507500288298,100 174.93557100629792,-36.94507300125049,100 174.93556699695824,-36.94507000667985,100 174.93556400675587,-36.94506699369063,100 174.93556300664827,-36.94506399241931,100 174.9355620031141,-36.94505899210421,100 174.9355620026781,-36.94505400517793,100 174.93556200185455,-36.94504900293576,100 174.93556300484101,-36.945043997847286,100 174.93556399731682,-36.945038000590806,100 174.9355660030132,-36.945032993575225,100 174.9355679982444,-36.94502699619348,100 174.93556899414648,-36.94502299798072,100 174.9355709938809,-36.94501899782254,100 174.93557299246987,-36.94501499678169,100 174.9355749956081,-36.94501299476626,100 174.93557800179812,-36.94501100433766,100 174.93558199347353,-36.94500899694037,100 174.93558500042084,-36.94500699207834,100 174.93558800665596,-36.94500500345137,100 174.9355909955982,-36.945002997080124,100 174.93559300510702,-36.94500000442379,100 174.93559500477124,-36.94499600156244,100 174.93559600667814,-36.94499099829389,100 174.93559499265487,-36.94498500671199,100 174.93559500640666,-36.94497800693512,100 174.93559300159635,-36.944970003565565,100 174.93559100506084,-36.94496099600469,100 174.93558900774545,-36.944952001976084,100 174.935586993229,-36.944942993806954,100 174.9355839992125,-36.94493299664982,100 174.93557999611645,-36.944923992060396,100 174.93557699501798,-36.94491500177879,100 174.93557400550768,-36.944907001844925,100 174.93556999533047,-36.944899004130825,100 174.93556599454212,-36.94489199860289,100 174.93556099851781,-36.94488400344187,100 174.93555599502298,-36.94487699984053,100 174.9355519953596,-36.94486999429372,100 174.93554600599523,-36.94486299234426,100 174.9355410028908,-36.944856004058074,100 174.935536006484,-36.94484799357993,100 174.93553100340432,-36.944841006194174,100 174.93552499723035,-36.94483400541894,100 174.93551999371942,-36.94482700091488,100 174.93551400438426,-36.94481999986453,100 174.9355079970683,-36.94481299820568,100 174.93550099794336,-36.94480700595692,100 174.93549499177487,-36.94480000517998,100 174.93548900242138,-36.94479300322727,100 174.93548299623234,-36.9447860015487,100 174.93547799873676,-36.944777991986946,100 174.9354740065587,-36.944769994877106,100 174.93547100545663,-36.94476100369114,100 174.9354679946267,-36.944751006804644,100 174.93546700824635,-36.94474100395281,100 174.93546600390727,-36.94473100139372,100 174.93546500555414,-36.944719992878,100 174.93546499455792,-36.94470899710728,100 174.93546599371768,-36.94469700694955,100 174.93546699139,-36.94468500239513,100 174.9354690003401,-36.94467200343537,100 174.93547099841578,-36.94465799789251,100 174.935474000706,-36.94464400572104,100 174.9354770014852,-36.944629998251905,100 174.93548100305418,-36.94461400511012,100 174.93548499377044,-36.94459700628607,100 174.93549000400324,-36.9445800043602,100 174.9354950045051,-36.944561996733704,100 174.93550099121398,-36.94454400096918,100 174.9355070063887,-36.9445269970797,100 174.9355139957957,-36.944508999388184,100 174.93552100315864,-36.94449100140352,100 174.93552900687158,-36.944473993033576,100 174.9355369929869,-36.94445699937092,100 174.93554699271047,-36.94443899496023,100 174.93555699281703,-36.94442100586467,100 174.93556800268232,-36.9444020070647,100 174.93557900507074,-36.94438399982378,100 174.93559100417139,-36.94436699661151,100 174.9356020005884,-36.94434999622621,100 174.9356119965815,-36.94433499592853,100 174.9356210007455,-36.944321004140406,100 174.9356289947575,-36.94430800673991,100 174.93563700263712,-36.94429799784815,100 174.9356429969311,-36.94428900060592,100 174.935649001712,-36.944280994630546,100 174.93565400760718,-36.9442750049423,100 174.93565900600825,-36.94427000591287,100 174.93566300022133,-36.94426499441418,100 174.93566699592114,-36.94425999731205,100 174.93567100208617,-36.944255990575996,100 174.93567400490724,-36.94425200470548,100 174.93567799313536,-36.944247999162954,100 174.93568100187042,-36.94424300463285,100 174.93568399790948,-36.94423999318597,100 174.93568599647392,-36.944235992143476,100 174.9356879999772,-36.94423400544248,100 174.93568999219357,-36.94423099594157,100 174.93569200165672,-36.94422800238296,100 174.93569300092722,-36.94422600141118,100 174.93569499316598,-36.94422299281113,100 174.93569700372836,-36.94421999833322,100 174.93569899635446,-36.944217005049005,100 174.93570100540646,-36.944213995273415,100 174.93570300399222,-36.9442099951316,100 174.93570600039396,-36.94420699809918,100 174.93570799301935,-36.944204004814836,100 174.93570999158166,-36.94420000377198,100 174.93571200177809,-36.94419699487885,100 174.9357150045492,-36.94419300720552,100 174.9357170031337,-36.944189007063486,100 174.93571799860857,-36.94418499263265,100 174.93571999829234,-36.94418099157134,100 174.93572099420018,-36.94417699425824,100 174.93572300025374,-36.94417200255618,100 174.9357240031979,-36.94416699656535,100 174.93572500508785,-36.94416199329561,100 174.93572599756536,-36.944155996938555,100 174.9357270005319,-36.94415099184863,100 174.93572700008784,-36.94414600492196,100 174.93572799599494,-36.944142007608825,100 174.935727002954,-36.94413799856147,100 174.93572699501743,-36.9441340022938,100 174.93572600577133,-36.94413200670533,100 174.93572499817876,-36.94412999609377,100 174.93572299878753,-36.944128994894236,100 174.93572099937353,-36.944127992793746,100 174.93571899922475,-36.94412700602743,100 174.93571599713542,-36.944126006755816,100 174.9357140070882,-36.944125995940624,100 174.9357120076744,-36.94412499383997,100 174.93571000828345,-36.94412399264022,100 174.93570799725836,-36.94412199929066,100 174.93570700166538,-36.944120995243665,100 174.93570500112935,-36.944119993161195,100 174.93570300553264,-36.94412100542023,100 174.93570099862623,-36.94412099397841,100 174.93569899213023,-36.94412099875339,100 174.93569799541493,-36.94411999472463,100 174.93569799950157,-36.944117005922585,100 174.93569799867188,-36.94411200367992,100 174.9357000009543,-36.94410499942021,100 174.93570299199345,-36.94409500202055,100 174.9357070073872,-36.94408199828213,100 174.93571400123972,-36.944065998704815,100 174.93572200075008,-36.94404700841537,100 174.93573099313082,-36.94402700689317,100 174.9357410027782,-36.94400500590729,100 174.93574999886948,-36.943982001166795,100 174.9357600051211,-36.94395800293741,100 174.93576900754854,-36.94393400665395,100 174.93577600309266,-36.943909999830105,100 174.93578300355097,-36.943888006446514,100 174.93578800308768,-36.94386499566536,100 174.93579200033764,-36.94384200302939,100 174.93579600356722,-36.94381800443663,100 174.93579900407798,-36.943794006871364,100 174.93580200419953,-36.94376999399008,100 174.9358040079956,-36.94374499239656,100 174.93580600473229,-36.94372099857976,100 174.93580699875264,-36.94369700579057,100 174.9358079924079,-36.94367299858632,100 174.9358090032869,-36.94364900642337,100 174.93580899424992,-36.943625001147566,100 174.93580899494557,-36.94360200157213,100 174.93580900276845,-36.94357799692256,100 174.93580700408782,-36.943553996148346,100 174.93580600807638,-36.94352999254449,100 174.93580400234,-36.94350699954685,100 174.93580199770477,-36.943484005629806,100 174.935799991561,-36.94346099641501,100 174.9357980037879,-36.943438003124086,100 174.93579600850157,-36.943415999591174,100 174.93579400615786,-36.94339500383499,100 174.93579100823158,-36.94337300403204,100 174.93578799943026,-36.94334999764573,100 174.9357849944035,-36.94332900381739,100 174.93578199648326,-36.943307004013825,100 174.93577799813997,-36.94328700339885,100 174.9357750036312,-36.943267001738086,100 174.93577099894512,-36.94324799266441,100 174.93576800074234,-36.94323099512153,100 174.9357640032617,-36.94321599764982,100 174.93575999233047,-36.94320299769473,100 174.9357559923,-36.94319100522356,100 174.9357519952442,-36.94318099377768,100 174.93574800200636,-36.94317299669175,100 174.93574300610655,-36.94316500243446,100 174.9357390065001,-36.94315799598901,100 174.93573400310936,-36.943150992390436,100 174.93573000276973,-36.94314400127883,100 174.93572500687378,-36.94313600702064,100 174.93572099639462,-36.94312799399127,100 174.93572499701918,-36.943106998597756,100 174.93573500373512,-36.943093005776284,100 174.93574600333247,-36.94307800262279,100 174.93575699207196,-36.94306199378611,100 174.93576699534682,-36.943046001917935,100 174.93577799493139,-36.94303099876175,100 174.93578800868718,-36.94301599815925,100 174.9357979985211,-36.94300200470651,100 174.93580699501234,-36.94298900356601,100 174.935814998253,-36.94297699834169,100 174.9358220021935,-36.9429669922877,100 174.93582700458515,-36.94295900445049,100 174.9358300035085,-36.94295300331584,100 174.93583300243137,-36.94294700218114,100 174.93583399829726,-36.94294300396602,100 174.93583600733547,-36.94293999508959,100 174.93583599343725,-36.942937005679035,100 174.9358369927114,-36.942935005607175,100 174.93583899576763,-36.942933002687475,100 174.93584100480535,-36.94292999381096,100 174.93584399407243,-36.94292800365206,100 174.93584799312575,-36.942925005589345,100 174.93585300530552,-36.94292299506319,100 174.9358580010592,-36.94292100102821,100 174.93586399947216,-36.94291900416329,100 174.93586999788482,-36.94291700729808,100 174.9358749932272,-36.94291499704556,100 174.93588100251716,-36.942914006762976,100 174.9358870005413,-36.94291199458101,100 174.9358909924659,-36.94291000159104,100 174.93589499492637,-36.942909001670074,100 174.9358990044444,-36.942906993972024,100 174.93590299639115,-36.942905001882615,100 174.93590700590877,-36.9429029941843,100 174.9359110083458,-36.94290199336187,100 174.93591399763272,-36.94290000410223,100 174.9359159995636,-36.942898001199595,100 174.93591799665896,-36.942897005136324,100 174.93591899593045,-36.94289500506384,100 174.9359189984777,-36.94289200006292,100 174.93591799240795,-36.94289000474987,100 174.93591499520096,-36.94288799864238,100 174.9359100001439,-36.94288500663497,100 174.93590400089533,-36.94288200125886,100 174.9358969989654,-36.942878997811505,100 174.93588999591356,-36.94287599438203,100 174.93588200813917,-36.94287299258822,100 174.93587399200777,-36.94286900342317,100 174.93586700689357,-36.94286599879851,100 174.93586000386688,-36.94286299626811,100 174.9358549919545,-36.94286000363186,100 174.93585100551903,-36.942856001934466,100 174.93584699628897,-36.94285300736918,100 174.9358440061665,-36.94284999438376,100 174.9358400028959,-36.94284599296049,100 174.93583800010637,-36.94284299271753,100 174.9358349999054,-36.94283900468141,100 174.93583300307523,-36.94283499758061,100 174.93583100030907,-36.942831998238454,100 174.93583000657088,-36.94282800542594,100 174.9358280000093,-36.94282299262447,100 174.93582799207067,-36.94281899635612,100 174.93582699947808,-36.94281500442621,100 174.9358269922515,-36.942810991922705,100 174.93582799448572,-36.94280600306669,100 174.93582900830904,-36.94280200455874,100 174.93582900747464,-36.94279700231528,100 174.93582999993103,-36.94279100595681,100 174.93583199468029,-36.94278499235394,100 174.93583300399533,-36.94277899662186,100 174.93583399304302,-36.942771002120026,100 174.93583500603094,-36.94276200136854,100 174.93583600816424,-36.94275199493477,100 174.93583799648317,-36.94274200036103,100 174.93583899408523,-36.94272999580216,100 174.93584100634368,-36.94271899497874,100 174.93584300811196,-36.94270700288797,100 174.93584399632294,-36.942694006142496,100 174.93584599770261,-36.942681998735736,100 174.93584699642545,-36.94266999415846,100 174.93584799551292,-36.94265800399613,100 174.93584800727027,-36.94264600109114,100 174.93584800333676,-36.942633999343315,100 174.9358479982581,-36.9426219967128,100 174.93584800067126,-36.94260900342307,100 174.93584699179223,-36.942597002739376,100 174.93584700467258,-36.94258499981597,100 174.93584600289836,-36.94257199315707,100 174.9358459993305,-36.94256000582405,100 174.93584500094238,-36.942548996407545,100 174.935845006742,-36.94253800036011,100 174.93584499570554,-36.942527004587184,100 174.93584400819537,-36.94251700175384,100 174.9358420011952,-36.94250700202439,100 174.93584099687246,-36.94249700036643,100 174.9358400022819,-36.942488004409064,100 174.9358389915903,-36.94247899339197,100 174.9358390082683,-36.942469003927656,100 174.93584000327186,-36.94246000256773,100 174.9358420020967,-36.94245100016197,100 174.935845995761,-36.94244100173097,100 174.93585199697546,-36.94243099760436,100 174.93586000502728,-36.94242100401699,100 174.9358689985062,-36.94241099255817,100 174.9358789950688,-36.94240099538684,100 174.93588999540384,-36.94239099536666,100 174.935900994568,-36.94238099356196,100 174.93591199492008,-36.94237099444081,100 174.93592199891714,-36.942360004804996,100 174.93593099240374,-36.942349994242754,100 174.93593799663986,-36.942340002597994,100 174.93594399785755,-36.94232999936809,100 174.9359490027674,-36.942319007426285,100 174.93595300346868,-36.94230800121507,100 174.93595700529127,-36.942296994985426,100 174.9359600033848,-36.94228599340617,100 174.93596300179672,-36.94227500443994,100 174.9359659923755,-36.942264992618824,100 174.93597000395047,-36.94225499299033,100 174.93597399163136,-36.942246001413274,100 174.93597899355262,-36.942237997353715,100 174.93598399437326,-36.94222999421321,100 174.9359900038873,-36.942224001664684,100 174.93599599390907,-36.942217993210164,100 174.93600199595417,-36.94221299222123,100 174.93600900103627,-36.94220800371723,100 174.9360160057298,-36.94220299989692,100 174.9360229935864,-36.94219799635077,100 174.93603000462244,-36.94219200098782,100 174.9360380025936,-36.94218600304982,100 174.9360460065428,-36.942178999154486,100 174.93605400112094,-36.94217100397303,100 174.93606199416456,-36.94216299259255,100 174.93607099890068,-36.94215400482062,100 174.93608000320143,-36.94214499993029,100 174.9360899996796,-36.94213500184162,100 174.9360990028763,-36.94212599786919,100 174.93610900047196,-36.94211599976074,100 174.93611799319422,-36.94210600542062,100 174.93612800010976,-36.94209699679438,100 174.93613699394976,-36.94208700243463,100 174.93614099205033,-36.94207900031793,100 174.93614500813138,-36.942070998809186,100 174.93614900625317,-36.94206299759318,100 174.93615400702228,-36.942054993545206,100 174.93615799921005,-36.94204800008762,100 174.9361620032844,-36.94203899201348,100 174.93616600181335,-36.9420310070138,100 174.93616899687285,-36.94202299241232,100 174.93617199866202,-36.94201400158482,100 174.936173997461,-36.942005000075255,100 174.9361750058641,-36.94199400119619,100 174.93617499478378,-36.94198300542373,100 174.93617500759407,-36.941971001599676,100 174.9361750024916,-36.94195899987034,100 174.93617399471975,-36.94194700007204,100 174.93617300378432,-36.94193499999914,100 174.93617100271507,-36.94192399341738,100 174.9361690020341,-36.941913002151445,100 174.93616700435916,-36.941903992811966,100 174.9361640078422,-36.94189699976358,100 174.936159994849,-36.94189199174803,100 174.93615600249555,-36.94188899691703,100 174.93615099290793,-36.941888001552044,100 174.93614599385904,-36.94188799925601,100 174.93613999211863,-36.941887997989575,100 174.936134007237,-36.94188799734923,100 174.93612900814247,-36.94188799325059,100 174.9361239986008,-36.941886999686325,100 174.93612000622622,-36.941884003953135,100 174.93611599211414,-36.9418789959543,100 174.93611399939377,-36.9418720009556,100 174.93611199574798,-36.94186399757177,100 174.93611100826104,-36.94185399654223,100 174.93611000389282,-36.941843993985344,100 174.93610999916632,-36.94183200667043,100 174.9361090018769,-36.94182099723739,100 174.93610899680868,-36.94180899640841,100 174.93610899167214,-36.94179699287659,100 174.93610800072707,-36.94178499190157,100 174.936106996771,-36.94177500556136,100 174.9361049957164,-36.941763998977805,100 174.9361039988167,-36.941753004860466,100 174.93610200864325,-36.941743004860044,100 174.9361000075904,-36.94173199827631,100 174.93609800653817,-36.941720991692485,100 174.93609700258463,-36.941711005352026,100 174.93609500153354,-36.94169999876811,100 174.9360930004831,-36.94168899218411,100 174.93609200358657,-36.94167799806646,100 174.93609000292497,-36.941667006798255,100 174.93608900454203,-36.941655998283856,100 174.93608800764667,-36.94164500416609,100 174.93608799507115,-36.94163399309502,100 174.9360870052778,-36.94162199300198,100 174.93608600726105,-36.941610998902426,100 174.93608599619606,-36.9416000031289,100 174.93608500528134,-36.941588003054065,100 174.93608499421666,-36.94157700728049,100 174.9360839958134,-36.94156599786489,100 174.9360840086636,-36.941553994940584,100 174.9360829938355,-36.941543002016324,100 174.93608300556366,-36.94153099911026,100 174.93608199781485,-36.941518999309785,100 174.93608199270741,-36.941506996678235,100 174.93608200555838,-36.9414949937538,100 174.93608099778766,-36.94148299305229,100 174.93608099309108,-36.9414710066375,100 174.93608099137438,-36.94146100124847,100 174.93608100761608,-36.94145099556657,100 174.93608100706754,-36.94144099196109,100 174.9360809923158,-36.94143300030604,100 174.93608100493745,-36.94142600144571,100 174.93608099469841,-36.941420007015,100 174.93608200357016,-36.94141399506373,100 174.93608199223146,-36.94140800155223,100 174.93608299512385,-36.94140299555789,100 174.93608299429977,-36.94139799421473,100 174.93608399762522,-36.94139300533816,100 174.9360850005401,-36.941388000244736,100 174.9360859918634,-36.941382004803124,100 174.93608700185678,-36.941375992833514,100 174.93608799425658,-36.941369995571705,100 174.9360890035606,-36.941364000738155,100 174.93608999600573,-36.941358005278204,100 174.9360920015588,-36.94135299735366,100 174.9360929940036,-36.941347001893696,100 174.9360950059229,-36.94134100332806,100 174.93609700212846,-36.94133500501866,100 174.93609899721133,-36.941329006727535,100 174.93610099188345,-36.94132299221952,100 174.93610300492398,-36.941316993635475,100 174.93610600378955,-36.9413109933957,100 174.93610900263184,-36.94130499225495,100 174.93611299364252,-36.941297997916415,100 174.93611599248382,-36.9412919967755,100 174.93611900818328,-36.94128599626088,100 174.93612299282577,-36.941279992563075,100 174.9361259916884,-36.941273992322856,100 174.93612999357603,-36.94126800456713,100 174.93613299241488,-36.94126200342582,100 174.93620399700123,-36.94123400091331,100 174.93623699258922,-36.9410190038302,100 174.93623999824402,-36.94101699897364,100 174.93626800091425,-36.94100200057971,100 174.93687599371262,-36.94066800001255,100 174.9370540051012,-36.94056999789841,100 174.93711300871215,-36.94051600496155,100 174.93772599751838,-36.93995700357382,100 174.93744200858293,-36.93987200322093,100 174.93668900565692,-36.93964900341528,100 174.9366899942013,-36.93964099359019,100 174.93670500576548,-36.93956499198439,100 174.93670700126347,-36.939535995002494,100 174.93671999439712,-36.939444000164045,100 174.9367209982519,-36.939392997701766,100 174.9367419950318,-36.93924299841591,100 174.93674399849053,-36.93921799770176,100 174.93675700736804,-36.939171999047076,100 174.93678099276772,-36.938870001292045,100 174.9367880062059,-36.93885599862674,100 174.9367900073534,-36.93881600559158,100 174.9367770076476,-36.93873099628315,100 174.9367919957515,-36.938666007223134,100 174.93678500881163,-36.93861000576572,100 174.936789005816,-36.938597002285945,100 174.93679999307352,-36.93854300324449,100 174.93680900624503,-36.93850700398077,100 174.93681999435677,-36.93848599189521,100 174.93682599679286,-36.938439995765975,100 174.93681899693507,-36.93836299404239,100 174.93682599896087,-36.93834299876352,100 174.9368280032454,-36.93832299939004,100 174.93683699477288,-36.93830299959556,100 174.93684100904076,-36.93825200569825,100 174.9368320033067,-36.938218002050775,100 174.93683400303675,-36.938196004551244,100 174.9368440016287,-36.93802800526066,100 174.9368409923919,-36.9379769979531,100 174.9367950018785,-36.93786499636682,100 174.93679199713787,-36.93785399264189,100 174.93677400784404,-36.93778299623331,100 174.9367650020819,-36.93777200657928,100 174.93671799270268,-36.93758599443532,100 174.93666599823308,-36.93748700196495,100 174.9366500078312,-36.93744000540681,100 174.93660700462615,-36.93736699426621,100 174.93660000158172,-36.93735900393178,100 174.93655899912784,-36.93723599521454,100 174.93654000757374,-36.93717999214601,100 174.93653299481696,-36.93717099610552,100 174.93638600714138,-36.93706500125214,100 174.93632200541336,-36.93701499316317,100 174.93630799423076,-36.93700000397999,100 174.93627200585357,-36.93691799320527,100 174.93626900323704,-36.93685600512218,100 174.93625000633384,-36.93677799484197,100 174.93623900693873,-36.93675499167066,100 174.93623199506303,-36.93668999370412,100 174.93622300125242,-36.936667001086356,100 174.93620599650825,-36.936548005559466,100 174.9362110073003,-36.93653100538485,100 174.93624400287896,-36.936490998999226,100 174.93625800780785,-36.93647899320756,100 174.93626100223273,-36.93646599257241,100 174.93625699289151,-36.93643999933018,100 174.9362500015847,-36.93643300022024,100 174.93624999733024,-36.936425999827456,100 174.9362439977444,-36.936417992203424,100 174.9362359915149,-36.936371998313334,100 174.9362100006916,-36.93629499707532,100 174.93620500743987,-36.93624600676825,100 174.93619099181421,-36.93622400275655,100 174.93619199724031,-36.9362159935574,100 174.93616800499282,-36.93616299220292,100 174.93615700114705,-36.936156002639855,100 174.93614799528598,-36.93614499761212,100 174.9361319934711,-36.936115006139524,100 174.9361190026599,-36.9360999993888,100 174.93608799210043,-36.93604899800094,100 174.93600800184512,-36.93597999398607,100 174.93599299636472,-36.935950992106804,100 174.9359680002451,-36.935921006666035,100 174.9359620010297,-36.935907996758104,100 174.93590399327005,-36.935833999698815,100 174.9358930014423,-36.93582499729216,100 174.93588200815574,-36.93581899896949,100 174.93587000696505,-36.93580600309668,100 174.9358070032425,-36.93578499966382,100 174.9357610016419,-36.93577899257083,100 174.9357449966722,-36.93577500564695,100 174.93564000611394,-36.93576799628631,100 174.93562199446504,-36.935763997896345,100 174.93556499336603,-36.93575800240551,100 174.93547399343782,-36.93572599325196,100 174.93546099731103,-36.935721997799504,100 174.93536299583153,-36.935681998127514,100 174.93527000111726,-36.93566100557925,100 174.93521499171845,-36.93564199590618,100 174.93520400527532,-36.93563999381047,100 174.93511999971,-36.93560200466136,100 174.93511100156798,-36.93559999718978,100 174.93501900244698,-36.93556500170769,100 174.93500800253975,-36.93556499711304,100 174.9348139914694,-36.935448999543496,100 174.93480899656495,-36.93544599215497,100 174.93479699561308,-36.935432996165915,100 174.93478500475814,-36.93542599371408,100 174.93467199285342,-36.93532499503541,100 174.93465800553219,-36.93530399713248,100 174.93461199879485,-36.93527099637584,100 174.9346019981669,-36.93525900157345,100 174.93455800176264,-36.93515199762564,100 174.93451200314863,-36.935090004294814,100 174.93448700685445,-36.935039994151865,100 174.934469992867,-36.935019004078086,100 174.93446000468086,-36.9349999941732,100 174.9344259983542,-36.93496499700283,100 174.93441700301815,-36.93494999616319,100 174.93439300319878,-36.9349389964364,100 174.93437599929638,-36.934923998986505,100 174.93434599397523,-36.934830000921146,100 174.9343329959171,-36.93481099858053,100 174.93430399880907,-36.934776995926136,100 174.93421999628634,-36.934720995211585,100 174.9341890005305,-36.934686006608004,100 174.93417899548888,-36.934682003745195,100 174.93416699924396,-36.93467100581324,100 174.93414799157267,-36.934643004438456,100 174.93412300104885,-36.93457699498159,100 174.93411300018974,-36.93457000330432,100 174.93407299242736,-36.934563007412386,100 174.9340419965353,-36.93454799628321,100 174.9340199919893,-36.93453099821244,100 174.93401299659072,-36.9345220008285,100 174.93401000769728,-36.93451400082553,100 174.934000003142,-36.93450499657571,100 174.93397599279962,-36.93444999683101,100 174.9339290053472,-36.934381005376544,100 174.9338539994332,-36.93431200428299,100 174.93372500803324,-36.93412499521821,100 174.9336110074588,-36.93395399517434,100 174.93359699985527,-36.93392599699761,100 174.93357799454512,-36.9338699936133,100 174.93356100722266,-36.93378699199547,100 174.9335560081848,-36.93377199630596,100 174.93350200482962,-36.933682005752374,100 174.93349200042263,-36.93367300055272,100 174.93347300123102,-36.93363900521531,100 174.93346400004748,-36.93363500036314,100 174.9334089944455,-36.933502003892016,100 174.9334130003132,-36.93341699928251,100 174.9333630057146,-36.93318100068285,100 174.93335799277997,-36.93317300567784,100 174.9333490064294,-36.933123994598276,100 174.93334100028397,-36.93310600143713,100 174.93333900410573,-36.93309200596384,100 174.93333199172633,-36.93308299439069,100 174.93333000524262,-36.933070004620454,100 174.93329899385907,-36.93301200198554,100 174.93329500371956,-36.93253599357672,100 174.93330200210997,-36.93249899444071,100 174.93330399153862,-36.93246099889775,100 174.93330299168312,-36.932457996693095,100 174.9333069986728,-36.93234499197818,100 174.93331000702332,-36.932190994846366,100 174.93330899714906,-36.93213400437234,100 174.9333360026139,-36.93201400595602,100 174.933348997361,-36.93201299940817,100 174.9333489940308,-36.93201100125946,100 174.93334900753447,-36.93200900283662,100 174.93336599422187,-36.93200100201937,100 174.93336500036781,-36.93199699295465,100 174.9333629946689,-36.93199199540595,100 174.93336300486445,-36.93198799973535,100 174.93336099804367,-36.931983002204866,100 174.93336000419015,-36.93197899314008,100 174.93335799134994,-36.931975001568844,100 174.93335800156856,-36.93197100679916,100 174.93335599436165,-36.9319659939526,100 174.93335500201786,-36.931962000185436,100 174.9333539917181,-36.931958006710644,100 174.93335199204103,-36.93195200320234,100 174.93334999564888,-36.931947996040854,100 174.9333489924919,-36.9319429965884,100 174.93334799902655,-36.931939002839414,100 174.9333469958698,-36.93193400338692,100 174.9333459947178,-36.93192099576762,100 174.93334400829352,-36.931908006895355,100 174.93334299745106,-36.93189399357244,100 174.9333389978048,-36.931876997812346,100 174.9333350074876,-36.93186099334053,100 174.9333309976704,-36.93184799415166,100 174.93332899772395,-36.93183700280081,100 174.93332499121576,-36.93182600085948,100 174.93331799333686,-36.93181000389809,100 174.93330999513012,-36.93179600700628,100 174.9332999930572,-36.93177899541473,100 174.9332899958037,-36.93176399636775,100 174.93327799507378,-36.93174599793623,100 174.9332659917016,-36.93173100541343,100 174.9332509926991,-36.93171400397514,100 174.93324100211808,-36.931703001221166,100 174.93323100884498,-36.93169500257457,100 174.93322400299948,-36.93168499944458,100 174.93321099621022,-36.93167499487638,100 174.93320100714934,-36.93166400741635,100 174.93318900020574,-36.93165700505187,100 174.9331780028992,-36.93164899300467,100 174.93316599265788,-36.93163999338967,100 174.93315099434486,-36.93162799509572,100 174.9331320065532,-36.93161500001046,100 174.9331120065446,-36.93160100111957,100 174.93309499726882,-36.93158699499393,100 174.933075992663,-36.93157400017312,100 174.93305700231068,-36.93155899159168,100 174.9330419925085,-36.93154600383257,100 174.93301900669042,-36.931531005312436,100 174.9330040080349,-36.93151899168246,100 174.93299000518044,-36.931507998344905,100 174.93297400599297,-36.931492998737504,100 174.93296600540504,-36.93148699286967,100 174.9329569934244,-36.93147699354027,100 174.93294699361795,-36.93146500037123,100 174.93293599616214,-36.93145200225875,100 174.93292299635152,-36.93143600383558,100 174.93291200602962,-36.93142199884181,100 174.9328990002258,-36.93140700727614,100 174.93289199774566,-36.93139900137242,100 174.93288800215552,-36.93138900599956,100 174.9328790077888,-36.93137899195612,100 174.9328709961701,-36.93136699255254,100 174.93286300253268,-36.931354993756955,100 174.932858006005,-36.93134199619128,100 174.9328570016772,-36.931326992216555,100 174.93285699805122,-36.93131000259018,100 174.93285899195183,-36.93129399982765,100 174.93286100822382,-36.9312799940029,100 174.93286299672553,-36.93127000035907,100 174.93286399470406,-36.93125799489321,100 174.93286400483663,-36.93124399468659,100 174.93286500642765,-36.93122399815112,100 174.93286499797523,-36.93120499507747,100 174.93286400445598,-36.93119099678803,100 174.93286499252974,-36.93117299867582,100 174.93286700767618,-36.93115899286909,100 174.932867993039,-36.931143998865785,100 174.9328690018684,-36.931133000887144,100 174.9328720026858,-36.93111899255435,100 174.93287500711457,-36.93109699315179,100 174.9328790003333,-36.93107200333101,100 174.93288100225357,-36.93105000672828,100 174.93288399584813,-36.93102700073886,100 174.93289200278275,-36.93101699204095,100 174.93290100157827,-36.9310010032303,100 174.93290900077366,-36.93098699915178,100 174.93291600766037,-36.93096900130026,100 174.93292300703146,-36.93095199501126,100 174.93292299595586,-36.93094600058134,100 174.93292300249487,-36.930939992345024,100 174.9329229925643,-36.930933998797784,100 174.93292500120236,-36.93092600302822,100 174.9329250077185,-36.93091999389095,100 174.93292499666563,-36.930914000361945,100 174.932925006277,-36.93090500243161,100 174.9329250061577,-36.9308949969955,100 174.93292399528747,-36.930886001256845,100 174.93292500854707,-36.93087700140877,100 174.93292499686225,-36.93086600472033,100 174.9329250064739,-36.93085700678991,100 174.93292399253178,-36.93085100074523,100 174.93292399570782,-36.93084299255753,100 174.9329239948991,-36.93083300425742,100 174.93292299776837,-36.93082699703773,100 174.93292400080654,-36.93082199286157,100 174.93292400770994,-36.93081599904016,100 174.93292400378323,-36.93080899863221,100 174.93292500238124,-36.93080199632486,100 174.93293100435847,-36.93080199685979,100 174.93293999187304,-36.93073200355916,100 174.9329370064773,-36.93071599713088,100 174.9329380011457,-36.93070199441535,100 174.9329309951161,-36.9306769997846,100 174.9329349943829,-36.930593002020835,100 174.93296500327102,-36.9304790061603,100 174.93296399891844,-36.93046400128376,100 174.93296499750969,-36.93045699897592,100 174.93295999761378,-36.93043199872619,100 174.932966992702,-36.93039300144889,100 174.9329789989658,-36.930347005039266,100 174.9329909927879,-36.930333007127274,100 174.93300199688585,-36.930302005895854,100 174.9329939969678,-36.93026299766081,100 174.93300999247268,-36.93023799360216,100 174.93301699595534,-36.93021799759567,100 174.93304300752325,-36.93017999221619,100 174.93307100524314,-36.930159992406786,100 174.93307699613044,-36.930154000307375,100 174.93305800738676,-36.93012099614279,100 174.9331569991174,-36.92994200403834,100 174.9331660003185,-36.92991300656505,100 174.9331659917833,-36.92989400258868,100 174.93316599276022,-36.9298559979472,100 174.93329399435717,-36.92965799527451,100 174.93336499741642,-36.92942900068727,100 174.93341300507254,-36.92932299827919,100 174.93341400079197,-36.92930899644229,100 174.93349000676722,-36.92914500389255,100 174.93349100202914,-36.92904499998476,100 174.9335600061217,-36.928834997777926,100 174.93356999175842,-36.92870500419485,100 174.93364100505278,-36.92861599890434,100 174.93365199449678,-36.9285819928828,100 174.9336559922414,-36.928573991746454,100 174.93367899796826,-36.92846699755059,100 174.9336899949033,-36.92843200086375,100 174.9337190023449,-36.92828199755734,100 174.93375499974633,-36.92821500641075,100 174.93380100211132,-36.92810100222448,100 174.933801993758,-36.92807999997546,100 174.93380200413137,-36.92804300013511,100 174.93381200561208,-36.92802699312251,100 174.9338120016157,-36.928019992713814,100 174.93380000448093,-36.92799900641838,100 174.93379199380672,-36.92794900242041,100 174.93377499164984,-36.927890996113696,100 174.93377299774752,-36.92785900324297,100 174.93382199201903,-36.92770200019844,100 174.93383199715595,-36.92768800574943,100 174.93384499533215,-36.9276410016499,100 174.93384500019448,-36.92762000104958,100 174.93384899721266,-36.92760699764824,100 174.9338480041889,-36.927517003603796,100 174.93385200004843,-36.92748400556143,100 174.93385300538043,-36.927428001617095,100 174.93386199252194,-36.92740100071767,100 174.93386099780184,-36.92738700335117,100 174.93387800773496,-36.92733500194088,100 174.933876002536,-36.92730700566192,100 174.9338799926944,-36.92729999608215,100 174.93387899973374,-36.927291000055924,100 174.9339349974627,-36.927166998826365,100 174.93401699436941,-36.927090000132175,100 174.93407000334804,-36.926968001560056,100 174.93408199314317,-36.92695200630257,100 174.93409500620731,-36.92691799611745,100 174.93410299082782,-36.92691099176871,100 174.9341159938075,-36.92687600562684,100 174.93413300448006,-36.92672999843673,100 174.93407400260864,-36.92658000538398,100 174.93407299129655,-36.92657099433523,100 174.93405599577991,-36.9265299938653,100 174.93404899599133,-36.92649400320063,100 174.93405299958528,-36.926484995191714,100 174.93405499307414,-36.92637800425801,100 174.93406000373807,-36.92636100235024,100 174.9340609975094,-36.92634199736327,100 174.93406699327755,-36.926310001439056,100 174.93407200546136,-36.926289994538195,100 174.9340719921384,-36.92628200374015,100 174.93410800225791,-36.92618499774827,100 174.9342090071088,-36.92602899863523,100 174.93422300727644,-36.92598199258834,100 174.93423099193964,-36.92596499901099,100 174.93424099996056,-36.925909994871596,100 174.93425200512104,-36.92586099794344,100 174.93426800169777,-36.92582800178139,100 174.9344509983087,-36.92567899221354,100 174.93451300023847,-36.925615003965966,100 174.9345209926299,-36.92560200665251,100 174.93455300501805,-36.925560995553994,100 174.93462200098807,-36.92546299683277,100 174.93462400665547,-36.92545800424559,100 174.93468700016834,-36.925355001868155,100 174.93471400493422,-36.92527999378211,100 174.93473499688517,-36.925254992806316,100 174.93480499189718,-36.925198000832175,100 174.93487900802128,-36.9250989981248,100 174.9350129955405,-36.92498499822099,100 174.93509500145265,-36.92489099273399,100 174.935113007633,-36.924855003808304,100 174.93512600639386,-36.92483799785929,100 174.9351299937229,-36.92482400313074,100 174.935182000729,-36.92474699756881,100 174.93521699554353,-36.92465400600329,100 174.9352259957827,-36.92462000521168,100 174.9352679969572,-36.92455699418862,100 174.93527799883455,-36.92454600464068,100 174.93536499743323,-36.924412000377,100 174.93540099759863,-36.92430599457784,100 174.93545400503976,-36.924269998427214,100 174.93559799103215,-36.92417799632072,100 174.93564600568328,-36.924164003136454,100 174.93568700154432,-36.92416500407821,100 174.93574399576178,-36.92416299160182,100 174.93582500569985,-36.92417699773453,100 174.93611299505142,-36.924208992937075,100 174.93620399598106,-36.923882996950894,100 174.93620300251413,-36.92387900412291,100 174.93619899873565,-36.923771005032535,100 174.93622000024027,-36.92370900486462,100 174.93622500414568,-36.92368000023056,100 174.93622699913828,-36.923668999657814,100 174.9362269946437,-36.923667002427926,100 174.93623800700644,-36.92366499320129,100 174.93626700300283,-36.92365799941035,100 174.93630399472178,-36.923523000057116,100 174.93665100222614,-36.92286300254451,100 174.93683099922802,-36.922319007583575,100 174.93682399692818,-36.922049002731704,100 174.93689499359755,-36.9215740051782,100 174.9371459964652,-36.92057799442153,100 174.93725200049326,-36.92032800367674,100 174.93743999330908,-36.92007699243408,100 174.93754999736822,-36.919984001218346,100 174.93782700592445,-36.91986599440363,100 174.93875100547726,-36.918835005762126,100 174.93976800057052,-36.91805100574893,100 174.93985100696696,-36.918003997554926,100 174.9400169929949,-36.91795500729044,100 174.94032400586812,-36.91790399468176,100 174.94085699750136,-36.91789499985419,100 174.94114400293327,-36.91806999478212,100 174.9414100056666,-36.91856000673541,100 174.94146899483127,-36.91864900657853,100 174.94181500206582,-36.918958005414126,100 174.94192500244384,-36.919880004111036,100 174.94242900323965,-36.92031699981394,100 174.9424970037571,-36.92023100032425,100 174.94249599205313,-36.92018599735927,100 174.94226100464772,-36.91985200678707,100 174.9422989933194,-36.91822899531843,100 174.942238992084,-36.918094992913126,100 174.94217299865397,-36.91780300320948,100 174.9421629923199,-36.91744200292265,100 174.94226900435996,-36.91719299824914,100 174.94237800545488,-36.917100996067454,100 174.94243400219995,-36.917077006595996,100 174.94265000575678,-36.917030999863684,100 174.9430199973107,-36.916952999540705,100 174.9435969935541,-36.916558992676926,100 174.9437079984009,-36.916510999011656,100 174.94401600824796,-36.91648300441338,100 174.94535300511262,-36.916142998775584,100 174.94635800820885,-36.91594400315405,100 174.94677800407862,-36.915891002260686,100 174.94688900186605,-36.915866995923814,100 174.947386000767,-36.91558700197909,100 174.94749800019775,-36.91556299217336,100 174.9479460045132,-36.91553099433562,100 174.9481730031006,-36.915616995031904,100 174.9483159972193,-36.9157269963995,100 174.9487550086094,-36.916305003133736,100 174.94878100417205,-36.916364006161366,100 174.9488150027294,-36.91643900226826,100 174.9488220060669,-36.91670999843162,100 174.94879599810332,-36.916778007206105,100 174.94852700365274,-36.91718800410406,100 174.9482839969671,-36.917486007290655,100 174.94797799501552,-36.917581005917135,100 174.9478119984765,-36.91767399311188,100 174.94813200432515,-36.91807399756999,100 174.94816199316753,-36.918140997414504,100 174.94814699611226,-36.918591996206416,100 174.94822399593534,-36.91933400187944,100 174.9481289947727,-36.91992200338043,100 174.94813600690563,-36.92014700103203,100 174.9482320013,-36.92025300184578,100 174.9483870017669,-36.92009799874437,100 174.94843999843226,-36.91998400230553,100 174.94857599220526,-36.91885500138647,100 174.9486949959648,-36.918154005082386,100 174.94877400043393,-36.917971998840045,100 174.94945999578962,-36.917396002439084,100 174.9495150033519,-36.91737199614714,100 174.94976800640472,-36.91736799287774,100 174.94982299740377,-36.917344002038554,100 174.94990299957433,-36.917229997765936,100 174.94992800792699,-36.917117000119205,100 174.9498639948668,-36.916847992914605,100 174.94994700176036,-36.91677900201939,100 174.95003000386708,-36.91675500268688,100 174.95042200742498,-36.91670199697895,100 174.95061199854035,-36.91647299660909,100 174.95063800517107,-36.916405002799415,100 174.95063499932175,-36.91629199919268,100 174.9506049956685,-36.91624799891695,100 174.9501170005715,-36.91587399922871,100 174.9500289962673,-36.91576299254766,100 174.9500229975621,-36.915537991804925,100 174.95007600685946,-36.915423994421516,100 174.9507009980305,-36.91473600106906,100 174.95083800108543,-36.914072992663215,100 174.9509720050851,-36.913423992811836,100 174.9511859953176,-36.913060004750214,100 174.9518770041777,-36.91270800398679,100 174.9519600023834,-36.91268400341749,100 174.95296600310996,-36.912507991596705,100 174.95339400326725,-36.91277000655621,100 174.95385000172863,-36.91298700217328,100 174.95393600447503,-36.913053005070346,100 174.95414000041663,-36.91331900100165,100 174.95448399640824,-36.9135829944364,100 174.95552999303155,-36.91381199235302,100 174.95566999916116,-36.9138089963906,100 174.95594800168757,-36.91371400311671,100 174.95654699851204,-36.914040996236615,100 174.9565790043571,-36.914175994144756,100 174.95660800823495,-36.91421999584233,100 174.9567229955446,-36.914306999080324,100 174.9568629963798,-36.914304993225414,100 174.9569179996784,-36.914280998940015,100 174.9573569976031,-36.913913004561415,100 174.9577459994104,-36.91377099222989,100 174.95788499745638,-36.91374499717232,100 174.9585030062857,-36.91375600443375,100 174.95997799755,-36.91431400016567,100 174.96047300713732,-36.914913995594624,100 174.96050300530058,-36.914980992975785,100 174.96072499912833,-36.915854997694396,100 174.96067399751308,-36.91698300309818,100 174.96068399341982,-36.917342996849705,100 174.96081500308438,-36.91797199839129,100 174.9608180003163,-36.919031003673226,100 174.9605990031883,-36.91923799687176,100 174.9599050085068,-36.91949799755708,100 174.96002100677114,-36.91963099332174,100 174.96047099304232,-36.91969100088228,100 174.96073099730623,-36.919889003674065,100 174.96084700295899,-36.92004499712317,100 174.96099599735055,-36.92035700086951,100 174.96100800873356,-36.920740003011375,100 174.96106900318958,-36.92089699388841,100 174.96130300594015,-36.92123099657245,100 174.96141200071276,-36.9230539958809,100 174.96109000245465,-36.92357799534614,100 174.96095200157413,-36.92366099991914,100 174.96042900534098,-36.923972992898655,100 174.96004500674695,-36.92429600158993,100 174.95920300501618,-36.92525799605138,100 174.95881399567662,-36.92537899618992,100 174.95884800829154,-36.925602993796076,100 174.9592240056289,-36.92600200243487,100 174.959248999277,-36.926177006776655,100 174.9592950036833,-36.92649600410755,100 174.9591130039939,-36.926995996388634,100 174.95911699930465,-36.927152996594835,100 174.95907100545764,-36.92744700623979,100 174.95891399644864,-36.92785600640156,100 174.95880600414392,-36.92803800234856,100 174.95872399622158,-36.92810699642188,100 174.95856299100356,-36.92833500496725,100 174.9582699997661,-36.92888100420844,100 174.9581910005074,-36.92906399236358,100 174.95821999339478,-36.929107994567765,100 174.9582489916229,-36.929130003906884,100 174.9583330038845,-36.92912800271996,100 174.95858200294282,-36.928987996764526,100 174.95874600347355,-36.92884999277851,100 174.95927199704886,-36.928569997999574,100 174.95941100217397,-36.92852300122882,100 174.95952199205732,-36.92849700109053,100 174.95969200787545,-36.928502997344445,100 174.95976299670735,-36.92840499298645,100 174.95979700874432,-36.92835799182295,100 174.95985500194047,-36.92841300570924,100 174.95999799550242,-36.92843900588634,100 174.96000200760844,-36.92843899463792,100 174.95994899213593,-36.928515007122414,100 174.96031500725505,-36.92873099255266,100 174.96055200598104,-36.92917699512447,100 174.96057500177335,-36.92996499558542,100 174.96041799340702,-36.93032900706709,100 174.9605149935452,-36.93077799514171,100 174.9606569948344,-36.930842994104125,100 174.96073700657715,-36.93070599843052,100 174.96098599364896,-36.92959599543647,100 174.9611500081709,-36.929458003268756,100 174.96120600147182,-36.92943499643205,100 174.96131799560123,-36.929432997813116,100 174.9614040068404,-36.92949899467413,100 174.9614339941525,-36.92956599176972,100 174.96138400294276,-36.92979199344152,100 174.96136199441625,-36.9300179961224,100 174.96143299710906,-36.93012100241557,100 174.96175099756144,-36.9298530038571,100 174.9617969963204,-36.92951400284524,100 174.96182299678333,-36.92944600598643,100 174.962096003195,-36.92917100231518,100 174.96245599697363,-36.92900599234654,100 174.9629550060239,-36.92881600182725,100 174.96348499143969,-36.92867099669531,100 174.9635389938896,-36.92862400370805,100 174.96359199471146,-36.92848800713555,100 174.96364699231214,-36.928442002598636,100 174.9637590027753,-36.928440001423766,100 174.96400000623333,-36.928557002900114,100 174.96407200151592,-36.92859199942524,100 174.96418699575415,-36.92868000059736,100 174.96427499189406,-36.92881399664952,100 174.96461999522768,-36.929078005164726,100 174.96535199153126,-36.929175992833855,100 174.96567099647737,-36.92950900342176,100 174.96588599323115,-36.93013599319234,100 174.96594500343346,-36.930224996106624,100 174.96634699453182,-36.93057700194881,100 174.96688900012865,-36.93086000581742,100 174.96706100220527,-36.93097000061162,100 174.96710399884023,-36.931013002447195,100 174.96714800332575,-36.93105799837872,100 174.9672349963997,-36.931168995698116,100 174.96723499342488,-36.93126399593769,100 174.9666450049541,-36.9320809923889,100 174.96644699155723,-36.93231899245138,100 174.9663190020405,-36.93247100357916,100 174.9660319980861,-36.93319799313969,100 174.96600700839724,-36.93331099426613,100 174.96600999161242,-36.93342299231788,100 174.96606899495427,-36.9335349937877,100 174.96624199352993,-36.93368999330978,100 174.96630100340923,-36.933801004011116,100 174.96630599311703,-36.93395899391079,100 174.9661409909754,-36.93409699505464,100 174.96539399592208,-36.93444999899996,100 174.96498799859464,-36.934975006814014,100 174.96482399555043,-36.93511300314756,100 174.9647430042568,-36.93522799609647,100 174.96474700560094,-36.935340006164346,100 174.96488999279907,-36.93545000459148,100 174.9649180042169,-36.93542699218633,100 174.96510700442576,-36.93522100130082,100 174.96552599855582,-36.93514500055995,100 174.9656930039375,-36.935096992947216,100 174.96644100108074,-36.93474500609055,100 174.96663599519874,-36.93469599281969,100 174.9670000017935,-36.93466599266633,100 174.96705700613018,-36.93468800176525,100 174.96711699777083,-36.9348000007075,100 174.96599899981337,-36.93594699177529,100 174.96587100712844,-36.936333001717315,100 174.96582500278748,-36.936693996595,100 174.9658290046645,-36.93705699626582,100 174.96584500649178,-36.938362001225784,100 174.96582099984,-36.93847500039503,100 174.96569199958824,-36.938860997004426,100 174.9652089954365,-36.939635991597456,100 174.9649260068422,-36.94021399383965,100 174.96486399981754,-36.94033999392359,100 174.96486699661753,-36.94043100572823,100 174.9647349934905,-36.94083599728724,100 174.96466100585747,-36.94106599595085,100 174.96414799144915,-36.941751005554124,100 174.96414899285307,-36.94179700143032,100 174.96420700219156,-36.94184100231769,100 174.96448700091773,-36.94181299958696,100 174.96465499425483,-36.94180999704548,100 174.96476900092367,-36.94185299616015,100 174.96479700220712,-36.94187500674977,100 174.96503099822868,-36.94218499930936,100 174.965060994157,-36.94225199511416,100 174.96506800612363,-36.942504003315115,100 174.96506900531833,-36.942544995172206,100 174.96504300272852,-36.94261299266523,100 174.96496300740293,-36.94272799899132,100 174.96490799959386,-36.9427740034298,100 174.9644379980274,-36.94303099806471,100 174.9643869989352,-36.943211996227085,100 174.96430699560523,-36.943371001173674,100 174.96414299748886,-36.94353199511258,100 174.96411699377063,-36.94359999242608,100 174.964096001855,-36.943802995045864,100 174.96396199853612,-36.944031000109455,100 174.96396700211162,-36.944205004045585,100 174.9640509948356,-36.94418700079464,100 174.96456699802997,-36.943637003361985,100 174.9647359991191,-36.94363399659718,100 174.96488399768992,-36.94387900177224,100 174.96523299254366,-36.94429999569903,100 174.96540999355827,-36.94443599867344,100 174.96549399476336,-36.94433600543889,100 174.9653709952794,-36.94422999625978,100 174.96525399999013,-36.94405099467429,100 174.96510000564305,-36.94362700301644,100 174.96514499905106,-36.943219997681275,100 174.96544900259715,-36.94305599602543,100 174.9657300007889,-36.943051002060486,100 174.9657589911042,-36.9430589942907,100 174.9659000089514,-36.94309299886809,100 174.966611003858,-36.943418005869,100 174.9667729925811,-36.943188992603794,100 174.9667690045673,-36.943076997879835,100 174.9664719983856,-36.94251899196685,100 174.96643999808083,-36.94238399668114,100 174.96639800569258,-36.941889007069214,100 174.96642299814732,-36.9417760059304,100 174.96658200542652,-36.941480001559874,100 174.9668010071564,-36.94129599766924,100 174.9669960037445,-36.94122500712811,100 174.9671350069281,-36.94119999388808,100 174.96769600763676,-36.94118899280371,100 174.9680550049371,-36.9409570017484,100 174.96822300592157,-36.939985006764985,100 174.96845099594861,-36.939168995025064,100 174.96926199455942,-36.93809499777891,100 174.96942700620332,-36.937956000745366,100 174.96968000741754,-36.937973994652715,100 174.96997299174382,-36.93837400075876,100 174.96997999283317,-36.938644005109445,100 174.96987399205744,-36.93884900594629,100 174.96980000370127,-36.93916600143641,100 174.96980100197578,-36.93919400007375,100 174.9698089948574,-36.93948199868947,100 174.96983899374834,-36.93954899322345,100 174.9703080031129,-36.94021499930779,100 174.97047999549304,-36.94034699682716,100 174.97059200648684,-36.94034500519539,100 174.97070300747436,-36.94027600124424,100 174.97078300292864,-36.940161997900816,100 174.9707699972378,-36.93973400667441,100 174.97079699485684,-36.93968799766493,100 174.97085199723446,-36.939642005058616,100 174.97093599686096,-36.93964100266947,100 174.97105000461897,-36.93968399573781,100 174.9711360015376,-36.93975000344812,100 174.97154300723983,-36.940215005122425,100 174.97163199713722,-36.94037100107312,100 174.97166299197423,-36.94050500663728,100 174.97175099755313,-36.94063899640673,100 174.97186600229153,-36.94072699305992,100 174.9724609939473,-36.94057300455597,100 174.9723770087128,-36.93995099511087,100 174.97231700622663,-36.93981700656415,100 174.9720840068334,-36.93952900198347,100 174.97113799601084,-36.93889299906482,100 174.97104899213429,-36.93871499579468,100 174.97102199582542,-36.938559002140835,100 174.97100999264035,-36.93852900506272,100 174.9709969935298,-36.93849499839695,100 174.97098999779493,-36.938488000552226,100 174.97097800093042,-36.93844600161606,100 174.9709800079988,-36.93843499944005,100 174.97097199832706,-36.93840799598297,100 174.97099500236797,-36.93840799533738,100 174.97098200478848,-36.93833299378249,100 174.97094000182986,-36.93691399283475,100 174.97098499308277,-36.936528991580026,100 174.97111100717524,-36.936031007063086,100 174.97135400419327,-36.935710994618745,100 174.97151799667083,-36.93557300489974,100 174.9716010041257,-36.93552600614311,100 174.97171300894416,-36.93550200562402,100 174.97196500652515,-36.9354969975538,100 174.97216299264497,-36.93553799545054,100 174.97233300457884,-36.93560200562851,100 174.97244800209828,-36.9356900010907,100 174.97265499956944,-36.936002003646365,100 174.9730469957399,-36.93597200113545,100 174.9734179961706,-36.93619100134508,100 174.97349999980835,-36.93612199642318,100 174.97352700156435,-36.936074995303144,100 174.97354399295392,-36.93571500470396,100 174.97357000185275,-36.93566899799078,100 174.97367999713424,-36.93557699507857,100 174.97435300604744,-36.9355650041151,100 174.97440900535221,-36.935541000427854,100 174.97489999349654,-36.93520699457682,100 174.97426000181184,-36.93522800511179,100 174.97323199982918,-36.93466199938605,100 174.97283000412364,-36.934354000547664,100 174.97264499599814,-36.93374899318692,100 174.9725259979818,-36.933623993713375,100 174.97234100466704,-36.933429991571955,100 174.97218099552177,-36.93326200304641,100 174.97216000286073,-36.93312200708535,100 174.9720750017648,-36.93254200159922,100 174.97204500282461,-36.93247500665034,100 174.97184099497412,-36.932208992550336,100 174.9717479999866,-36.93189500584888,100 174.97171799574508,-36.931829003227264,100 174.97136800702145,-36.931406993813255,100 174.97126599796562,-36.93123300712935,100 174.97124999855342,-36.93120599389691,100 174.9711869966818,-36.93095999157386,100 174.97114700152204,-36.93057700293756,100 174.97117299510057,-36.93048699711823,100 174.97119900420998,-36.93044100621243,100 174.97139099367652,-36.930280002177234,100 174.97208400025755,-36.92995100241717,100 174.972131995066,-36.92967999615603,100 174.97195500478338,-36.929412003785785,100 174.97135199778575,-36.92892899824915,100 174.96960999808417,-36.92695599761538,100 174.96880100856336,-36.926182001896365,100 174.9686269961769,-36.9259599943466,100 174.96839000330647,-36.92553700667593,100 174.9681459977583,-36.92488799725303,100 174.96805700510902,-36.92473099309434,100 174.96741500158421,-36.92388700002373,100 174.96723099361995,-36.923304005449936,100 174.96719300805853,-36.923034996594694,100 174.9671309989658,-36.92280999266093,100 174.96676799767496,-36.92191599606389,100 174.96686999560757,-36.9215530055964,100 174.96630999343006,-36.92160899473591,100 174.96579499266383,-36.921281003675176,100 174.96538800178155,-36.92079199341683,100 174.9652989974553,-36.92061400114012,100 174.96498499206223,-36.91947100106513,100 174.96497600539087,-36.91920100121685,100 174.96507199657506,-36.918635004782466,100 174.96498600575842,-36.91857000055625,100 174.9648170039279,-36.91852800115183,100 174.9645079979453,-36.91853299279416,100 174.9642289989508,-36.918583002369104,100 174.96392399710834,-36.91870199923074,100 174.96383900097885,-36.91870299932287,100 174.963272998266,-36.91853400423958,100 174.96309999562695,-36.918402000034476,100 174.96301199896723,-36.918245996424275,100 174.9629800048809,-36.918133998953074,100 174.96296599792655,-36.91763800518619,100 174.9630110012314,-36.9172769971713,100 174.96313800316278,-36.9167790022075,100 174.96331999966733,-36.91632500099335,100 174.96340900569393,-36.916171004839086,100 174.96383600259148,-36.91570600544484,100 174.9638290048817,-36.91545799224121,100 174.9632820055367,-36.915019000623495,100 174.9632239926858,-36.91495200114334,100 174.963036008358,-36.91479299602425,100 174.9630059964214,-36.914708994572536,100 174.96300599592277,-36.9146929945739,100 174.96301500714304,-36.91465499611888,100 174.96303900599017,-36.91461500588309,100 174.96305000038518,-36.91460199943955,100 174.96308999685252,-36.91456399440725,100 174.96313500431114,-36.914532002065435,100 174.96324900268417,-36.91453499806136,100 174.9634500007851,-36.91457700710988,100 174.9651559919446,-36.914954005943585,100 174.9651880069295,-36.91491499935369,100 174.96558000786277,-36.91490800332229,100 174.96582899872308,-36.914767996276005,100 174.96591199468398,-36.91474400043762,100 174.96636199927633,-36.91475699517092,100 174.96641900630289,-36.91477900479023,100 174.96668000563938,-36.91506700434291,100 174.96682099962314,-36.91506399325681,100 174.9672500046097,-36.91471900172785,100 174.96739599699055,-36.91460200363794,100 174.9676759914607,-36.914574998686625,100 174.96770400266382,-36.914735001373,100 174.96812799214493,-36.914679000935614,100 174.96838000145277,-36.91467500520795,100 174.9686060007753,-36.91471500296768,100 174.96869100669468,-36.91475799842992,100 174.96888700434027,-36.91475500588252,100 174.96894300733047,-36.91473100301217,100 174.9690230046598,-36.914620996192504,100 174.96896299443216,-36.914438004816404,100 174.96898900077483,-36.91437000628428,100 174.96912499179535,-36.9142320011436,100 174.96912400417222,-36.91419700176558,100 174.96912399827397,-36.91418699555947,100 174.96892099866886,-36.91396499156412,100 174.9689869935849,-36.91333300262695,100 174.96875100492045,-36.91293200495899,100 174.96874000033762,-36.91259400541453,100 174.96874400431727,-36.91255699537588,100 174.96882900537997,-36.91175900678313,100 174.96887900186402,-36.91160000125636,100 174.9689089942258,-36.91156299657386,100 174.96904199603412,-36.911393994677894,100 174.96950799348022,-36.91100199878335,100 174.96986700505752,-36.91081500420298,100 174.97008699761986,-36.91065299622313,100 174.97175700587255,-36.90924700064853,100 174.9724100030338,-36.908591999621095,100 174.9727779917443,-36.908384993322954,100 174.97314900226536,-36.90826599155009,100 174.97347800155993,-36.90827800486304,100 174.9737299971211,-36.90829199465702,100 174.97485899572538,-36.90783600044377,100 174.97530499117957,-36.90773800371897,100 174.97538899731018,-36.90773600527619,100 174.97561500833328,-36.907776995604245,100 174.97581400757758,-36.907863003587266,100 174.97598600560323,-36.907994993578015,100 174.97680700251954,-36.90917399465436,100 174.97726900710134,-36.90963800275712,100 174.97790099300218,-36.91012199461019,100 174.97807200305783,-36.91020900740301,100 174.97880800807752,-36.910420000233,100 174.979255995561,-36.91041199667937,100 174.97981300844214,-36.910243993933385,100 174.98014500283298,-36.9100790043582,100 174.98073000346886,-36.90991099666501,100 174.98092599420676,-36.909906992168246,100 174.98138099313783,-36.910123002937254,100 174.98152200366172,-36.910166001170815,100 174.98185999226936,-36.91020499203213,100 174.98191600187107,-36.910203997829555,100 174.98222000873017,-36.91001800319874,100 174.982752005374,-36.909984998880866,100 174.98289200196675,-36.90995999363246,100 174.98319699174533,-36.90984099304084,100 174.9834610022668,-36.90986499484089,100 174.98361899941753,-36.909878996704634,100 174.9840960089073,-36.909869002106085,100 174.98580299844318,-36.90970199374385,100 174.98655399674888,-36.90946199215871,100 174.9870030016123,-36.90947599372339,100 174.9870879921744,-36.90949699973097,100 174.98785599287112,-36.90988799696243,100 174.98822599483282,-36.910039006671504,100 174.98845100662376,-36.91007899944912,100 174.98873199997948,-36.91009699356321,100 174.9906810002024,-36.91048700113153,100 174.99079599690631,-36.910597992346595,100 174.99079700446615,-36.910619997908235,100 174.9906610047893,-36.91078099724597,100 174.99060600255632,-36.91080400024686,100 174.98971100555403,-36.910934000727245,100 174.98932400707537,-36.911122004858235,100 174.9892449931901,-36.91157200643041,100 174.98931000342148,-36.91159500388344,100 174.9894450002083,-36.9114120013059,100 174.98963399240506,-36.911184006683754,100 174.98997000292297,-36.911132006436034,100 174.99028400316223,-36.91130700601076,100 174.9904250078753,-36.91130399743298,100 174.99050700248182,-36.911257994176694,100 174.990615997211,-36.911165001279734,100 174.99069899907371,-36.91114100255876,100 174.9910079974475,-36.911134998651974,100 174.9911189942457,-36.911087997699326,100 174.9912860051394,-36.91106200596367,100 174.9915399952642,-36.911079993696454,100 174.99156799341216,-36.911101998164995,100 174.9916290062632,-36.91121399659252,100 174.99182299282435,-36.91211100091471,100 174.99185199253975,-36.912156000582,100 174.99193899745887,-36.912222003778936,100 174.99230399843725,-36.91223700379768,100 174.9928480059642,-36.91261000409346,100 174.99301800255978,-36.91267399905216,100 174.99355299836446,-36.91273099904249,100 174.99375599984825,-36.912952994257815,100 174.99379400453074,-36.913267992431905,100 174.99385499744776,-36.913447006313994,100 174.99397099497742,-36.913579999910816,100 174.99403099960432,-36.91369099544696,100 174.99403799109817,-36.91393899225299,100 174.99401299867645,-36.9140519999339,100 174.99390900405567,-36.91430199458612,100 174.99388500145335,-36.914460006584974,100 174.99386600349948,-36.91475400059249,100 174.99383899813193,-36.91479899278298,100 174.99359199851352,-36.915006998971066,100 174.99273000015233,-36.91527100168438,100 174.99262099125988,-36.91536300531468,100 174.99259500109483,-36.91540900137124,100 174.99260000232564,-36.915611006633846,100 174.99263099632978,-36.91570099176576,100 174.9929509940111,-36.9160780039018,100 174.99298000161434,-36.91614499578896,100 174.99298800607406,-36.91637099824769,100 174.99296100117525,-36.91641600555596,100 174.9926879941478,-36.9166909922548,100 174.9926039962577,-36.917166998800234,100 174.99259200531054,-36.917234001840164,100 174.99256500435322,-36.91728099185873,100 174.99232200025617,-36.9175780059536,100 174.9924129990274,-36.91780200125467,100 174.992419992188,-36.91807200694238,100 174.99199199176812,-36.91874000428003,100 174.9920079995778,-36.918738006147414,100 174.99214600117273,-36.918721993968845,100 174.99214100627995,-36.91873300515407,100 174.99213600573336,-36.91874500696516,100 174.99213100364125,-36.91875699257854,100 174.99212500642506,-36.91876800705878,100 174.99212299308599,-36.91877199304555,100 174.99211599310271,-36.91878299370369,100 174.99210899201893,-36.91879399528119,100 174.9921010054204,-36.918804998970465,100 174.9920940058142,-36.91881299467915,100 174.99208299356087,-36.918821003625,100 174.99207399977382,-36.918826992238216,100 174.99206200312523,-36.91883500327533,100 174.99205199951567,-36.918842001161224,100 174.99204200189627,-36.918850998034294,100 174.99203599977722,-36.91885699323989,100 174.99202499871149,-36.91886599342532,100 174.9920139987183,-36.918874991789146,100 174.9920040067208,-36.91888299713225,100 174.99199700227547,-36.918888995630624,100 174.9919870050186,-36.91889800691392,100 174.9919770073843,-36.91890700378188,100 174.9919669917718,-36.918916000049315,100 174.99196199873975,-36.91892100131221,100 174.99195400199656,-36.91892799256416,100 174.991943000911,-36.91893699274247,100 174.9919320065764,-36.91894500137401,100 174.99192400349625,-36.918953000386246,100 174.9919150044479,-36.9189599958306,100 174.99190700620758,-36.91896999294774,100 174.99189900273177,-36.918980996906846,100 174.99189699503108,-36.91898399226406,100 174.99189399616745,-36.91899100062173,100 174.991885993493,-36.918995995584076,100 174.9918759958342,-36.91900499244414,100 174.99186699523824,-36.919014991951464,100 174.9918599941217,-36.91902599441648,100 174.99185399155934,-36.9190349936611,100 174.9918490033306,-36.9190419921247,100 174.9918409998392,-36.91905299608023,100 174.99183500213744,-36.919063994330905,100 174.99183000193946,-36.91907299208299,100 174.99182700641606,-36.91908500441336,100 174.99182299647987,-36.91909599455756,100 174.99181800789796,-36.919105999770274,100 174.99181199221314,-36.91911699742011,100 174.99180699161545,-36.91912900011981,100 174.99180299331704,-36.9191409986254,100 174.99180099196974,-36.9191460073838,100 174.9917979971161,-36.91915800257742,100 174.99179500116298,-36.9191699986907,100 174.9917930034211,-36.91918299833462,100 174.9917919987638,-36.919188995326934,100 174.99179000665427,-36.919201003443774,100 174.99178799619324,-36.91921299654625,100 174.9917860041061,-36.919225005563945,100 174.99178100307608,-36.91923699204631,100 174.99178099671917,-36.919237998907576,100 174.99177599650434,-36.91924699665768,100 174.99177099584648,-36.919258997554216,100 174.9917690037558,-36.91927100657165,100 174.99176699441213,-36.91928299965496,100 174.99176700133938,-36.91929599361381,100 174.99176799845407,-36.91929699806439,100 174.99177299803262,-36.91930799481514,100 174.99177800478608,-36.919314995972286,100 174.9916949928474,-36.91932499396829,100 174.99167299949772,-36.919393001985256,100 174.99168300426922,-36.91968500572921,100 174.99171500495297,-36.91981999510131,100 174.99198300326748,-36.920356001563675,100 174.9918219965281,-36.920629002891964,100 174.99179500065375,-36.92065200269021,100 174.9919099990687,-36.92073999478547,100 174.9919400058299,-36.92078499185823,100 174.99192700537412,-36.92132599385775,100 174.99213399669176,-36.9216830016175,100 174.99213999552765,-36.92186299641684,100 174.99208800087627,-36.92199900360728,100 174.99198099492614,-36.92218099872623,100 174.99146300592483,-36.922710005143365,100 174.9911140054889,-36.92323500590575,100 174.99105100708496,-36.923437006620674,100 174.99121399287117,-36.92379600113143,100 174.9912149997134,-36.92384100427035,100 174.99114099509106,-36.92413500158823,100 174.99114600012888,-36.924316006299584,100 174.99123100268216,-36.92442900472483,100 174.9913480063521,-36.92451499427866,100 174.99143299802478,-36.92453599687443,100 174.9918539923611,-36.92455000160707,100 174.99289699241695,-36.924711002644855,100 174.99303400180636,-36.924595004772286,100 174.99297499398136,-36.92448400669411,100 174.99288899524163,-36.92441800120279,100 174.99257699393138,-36.92431100633611,100 174.9924629983211,-36.924245004364856,100 174.9922320008049,-36.924024001027,100 174.99220200456455,-36.923956995909755,100 174.99219399646574,-36.923731999546106,100 174.9922200035268,-36.9236409977152,100 174.99238099895285,-36.92336799609439,100 174.99251600846475,-36.92320800469049,100 174.99309100805937,-36.92270199615598,100 174.9933349932594,-36.92244800302352,100 174.99384199801867,-36.92248400521928,100 174.99412200232166,-36.922455991988755,100 174.99491700109303,-36.92181000590479,100 174.99491599729313,-36.92178699541775,100 174.9948590070303,-36.92174300585091,100 174.99466300268952,-36.92174700243037,100 174.9944129968625,-36.921842005217265,100 174.99427200639116,-36.921845003220994,100 174.99382100181572,-36.921762997438854,100 174.99339999266908,-36.9217709905962,100 174.99328700250393,-36.92172800163352,100 174.99320100559095,-36.92166199627393,100 174.99311100666387,-36.92150600355514,100 174.99310500125856,-36.921281003330506,100 174.99301600610428,-36.92112499277289,100 174.99298699506622,-36.92110399896698,100 174.99275999542215,-36.92101800656676,100 174.99255900088318,-36.92086399322897,100 174.99258699935996,-36.920841006178414,100 174.9925859981544,-36.920794995290926,100 174.99264000520043,-36.920748995077524,100 174.99280799877357,-36.92072400565286,100 174.99286299567817,-36.92069999491561,100 174.9929999982203,-36.920583997221115,100 174.9929939987015,-36.92040400156634,100 174.99244299257663,-36.91978399611684,100 174.99251500870955,-36.91937700619067,100 174.99254199798574,-36.919331998347516,100 174.9927330034741,-36.919170000843366,100 174.99287199672878,-36.919099004359474,100 174.99303900138045,-36.9190510029772,100 174.99314900640323,-36.91898100374576,100 174.9935589988896,-36.91861300206905,100 174.9936700046671,-36.9185659994109,100 174.99381099923724,-36.91856399266197,100 174.99389600684896,-36.918607001314484,100 174.9940129982245,-36.9187630071453,100 174.99418500731062,-36.918893994412855,100 174.99461100195197,-36.91908899266702,100 174.9946969959176,-36.91915499710084,100 174.994902997678,-36.919422003665275,100 174.99490999963058,-36.919691993554935,100 174.9948839970612,-36.919759998279126,100 174.99469499962575,-36.92001100055417,100 174.99466999894972,-36.92010200133933,100 174.99467199807256,-36.92019199337957,100 174.99470199481848,-36.92025899789213,100 174.99518999659722,-36.92058799700725,100 174.99543999784188,-36.920516007443204,100 174.99557800476933,-36.920421995222156,100 174.996068991747,-36.91998499826184,100 174.9964039942558,-36.919911004596734,100 174.99660400131194,-36.92001999174558,100 174.99656199838174,-36.92047199672793,100 174.99673500289578,-36.92064900639912,100 174.99704599699652,-36.920732003087195,100 174.997135993853,-36.920932999257595,100 174.9967029968153,-36.921461005968645,100 174.99671400164507,-36.92184300507814,100 174.99734900092852,-36.92257800440268,100 174.9973060073391,-36.92263899668081,100 174.99724800225277,-36.92270599624557,100 174.99717099445172,-36.922761002725885,100 174.99714800114143,-36.9227830008528,100 174.9971330086198,-36.9228059973449,100 174.99712899268988,-36.92282400618662,100 174.9971340036758,-36.92286500230395,100 174.9971440046921,-36.92289000022115,100 174.99717199633903,-36.92294000497871,100 174.99722000476706,-36.923003006897225,100 174.99724799591144,-36.92305600035719,100 174.99724899525495,-36.92307399334343,100 174.99721799332494,-36.92312799709191,100 174.99721399423302,-36.923146005652406,100 174.9972019916286,-36.92329899606614,100 174.99720800389636,-36.92332600426982,100 174.99720299303297,-36.923405996988336,100 174.99719700615228,-36.92342100610442,100 174.99718199497863,-36.92349599535901,100 174.99717599162972,-36.92350499577794,100 174.99715999945235,-36.92351300332802,100 174.99712899864863,-36.923514999268576,100 174.99707699570973,-36.92352100681287,100 174.9969389965186,-36.92349200209129,100 174.99691999812936,-36.92348499582272,100 174.99688199446658,-36.92348100315463,100 174.99686800816505,-36.923489004873,100 174.99686200874868,-36.92350900108182,100 174.99686500823947,-36.9235250064144,100 174.99687699439033,-36.92353900393804,100 174.99690099950251,-36.92355900479172,100 174.9971810002344,-36.92373399517812,100 174.99730200289466,-36.923779993819565,100 174.99731600746267,-36.92378899658578,100 174.99735099405797,-36.923805991555604,100 174.99736699907876,-36.923822006134266,100 174.99742599303937,-36.92386699362846,100 174.99746100322838,-36.92388299763839,100 174.99760099607883,-36.92391699835896,100 174.9977380071543,-36.923937998244305,100 174.997833991272,-36.92396300685355,100 174.99779399878636,-36.92401099621418,100 174.99778000424251,-36.92402900441882,100 174.99758299985868,-36.92427100487371,100 174.9976989932289,-36.9244520066698,100 174.99779400176638,-36.92438000309216,100 174.99820899724585,-36.92402400494201,100 174.99825599747453,-36.923984001107655,100 174.99829300682387,-36.92395200310319,100 174.99830500621323,-36.92396400116969,100 174.99831700448428,-36.92397599925373,100 174.99832900390473,-36.923987998218436,100 174.99834100330548,-36.92399999628089,100 174.99835300161143,-36.924011995261786,100 174.99836500656525,-36.92402300179752,100 174.9983770060007,-36.92403500075684,100 174.99838500514565,-36.92404199271673,100 174.99839799680868,-36.92405299706357,100 174.99841200769274,-36.92406399777485,100 174.9984249982413,-36.92407500213736,100 174.9984389923253,-36.92408600402938,100 174.9984530032213,-36.92409700473541,100 174.9984660000477,-36.92410700223478,100 174.99847999414348,-36.92411800412154,100 174.99849300114258,-36.92412899287728,100 174.9985060034016,-36.9241410037862,100 174.99851899467546,-36.924151991902306,100 174.99852499349285,-36.92415799905016,100 174.99853600739564,-36.924170000159286,100 174.99854800688126,-36.924181999099545,100 174.9985590028611,-36.92419400140938,100 174.99856999210905,-36.92420699255818,100 174.99857999737353,-36.92422000387304,100 174.99859000109592,-36.924232998989524,100 174.99860000596743,-36.924245994987054,100 174.99861000343236,-36.92425999695978,100 174.99861900477683,-36.924272995425916,100 174.9986280009824,-36.92428700073054,100 174.99863700233323,-36.92429999919506,100 174.99863699606922,-36.92430100605321,100 174.9986459918581,-36.92431499513994,100 174.99865499321544,-36.92432799360285,100 174.99866300275448,-36.92434200199277,100 174.99867199785453,-36.924356007312305,100 174.9986800080749,-36.92436999856476,100 174.99868699687974,-36.92438399529264,100 174.9986950064073,-36.92439800277902,100 174.99870199631619,-36.924411998585995,100 174.9987089967963,-36.924427000967256,100 174.9987150000294,-36.92444099986222,100 174.99872000096315,-36.92445199627152,100 174.9987259990598,-36.924467002004945,100 174.9987309998848,-36.92448100335147,100 174.99873599404918,-36.924495996240395,100 174.99874100656925,-36.92451100414219,100 174.9987460007378,-36.92452599703052,100 174.9987520050848,-36.92453999500315,100 174.99875899429597,-36.92455400614003,100 174.99876100509715,-36.924559001548815,100 174.99876899747338,-36.92457299579862,100 174.99877700703712,-36.924587003278,100 174.99878600178857,-36.92460099327149,100 174.99879699896658,-36.92461299463576,100 174.9988090040805,-36.92462400112082,100 174.9988229971996,-36.92463500298083,100 174.99883700324506,-36.924644006438356,100 174.99885299834747,-36.924653002548304,100 174.99886999591766,-36.92466199800384,100 174.9988869990066,-36.92467000103217,100 174.9989030004275,-36.9246779920788,100 174.99890700643311,-36.92467900259567,100 174.99892300045227,-36.92468799961545,100 174.99893900228057,-36.924696005972365,100 174.998956004984,-36.92470399367493,100 174.99897200569686,-36.924712000046064,100 174.998988006413,-36.924720006414915,100 174.99900499229508,-36.92472799439349,100 174.99901200763088,-36.92473199973823,100 174.9989900048989,-36.92475599324257,100 174.99898599756278,-36.92476099262234,100 174.99962900001557,-36.92494199596307,100 175.00073999230872,-36.92514599867363,100 175.00072900729646,-36.92525700042123,100 175.0006940041182,-36.92559999862428,100 175.00089800442814,-36.92580299218191,100 175.0010139953112,-36.92595400705778,100 175.0010370058902,-36.92602799995415,100 175.00114400528741,-36.926115000874844,100 175.00127299775187,-36.92635100344361,100 175.00152100761986,-36.92649999898576,100 175.00177900207171,-36.926551995425456,100 175.00186000645098,-36.926555005564246,100 175.0019609942651,-36.926544994728786,100 175.00244500643004,-36.926409998595815,100 175.0024749935415,-36.92669599711152,100 175.00226600446135,-36.92705599541024,100 175.00213499925434,-36.927549000887126,100 175.00196699368556,-36.92770499783816,100 175.00283799889948,-36.92776699417299,100 175.00428299950224,-36.92789099286741,100 175.0088249918185,-36.92821399624596,100 175.00885300063368,-36.92787799959311,100 175.00898800615616,-36.92674600073995,100 175.00921499716432,-36.92456499257152,100 175.0159269980312,-36.92510799596808,100 175.01690399399436,-36.93272800226955,100 175.0242139931953,-36.934040006147455,100 175.03054700316,-36.93517600333204,100 175.03066500709227,-36.935196004587105,100 175.0307929970583,-36.935218003427536,100 175.03529599926938,-36.936022996578856,100 175.03834699676565,-36.92815099321966,100 175.04971900694335,-36.93019300499689,100 175.0513399930938,-36.93048999305087,100</coordinates></LinearRing></outerBoundaryIs>
    </Polygon>
  </Placemark>

  <Placemark>
    <name>Whitford</name>
    <Point>
      <altitudeMode>relativeToGround</altitudeMode>
      <coordinates>174.98101860916685,-36.94456463372397,100</coordinates>
    </Point>
  </Placemark>

</Document>
</kml>