<?xml version="1.0" encoding="UTF-8"?>
<kml xmlns="http://www.opengis.net/kml/2.2">
<Document>
  <name>Half Moon Bay 2 (Polygon: Official_Shp) Section 2</name>
  <Placemark>
    <name>Half Moon Bay 2 (Polygon: Official_Shp) Section 2</name>
    <Style>
      <LineStyle><color>ffff0000</color><width>2</width></LineStyle>
      <PolyStyle><color>66ff0000</color></PolyStyle>
    </Style>
    <Polygon>
      <tessellate>1</tessellate>
      <outerBoundaryIs>
        <LinearRing>
          <coordinates>174.89405110524694,-36.884764045617715,100 174.89408838000008,-36.884751181999945,100 174.8941371934769,-36.884720420298805,100 174.894199,-36.884682,100 174.894226,-36.884659,100 174.894388,-36.884408,100 174.8944103512424,-36.88433831679327,100 174.89443940000012,-36.88424932799995,100 174.89443426800005,-36.88410153299997,100 174.89443217838124,-36.884025492188414,100 174.89443,-36.883934,100 174.89446,-36.883848,100 174.894508,-36.883707,100 174.8947784981977,-36.88342285469558,100 174.89516221200006,-36.883019819999944,100 174.89519394366917,-36.882972456121784,100 174.895377,-36.8827,100 174.89557415746137,-36.88226675113715,100 174.8956149830001,-36.88217724099997,100 174.89564119007062,-36.88208358229009,100 174.895742,-36.881724,100 174.8958252701494,-36.881507259475654,100 174.8959513200001,-36.881179810999974,100 174.896190143,-36.88072497899997,100 174.8963893890001,-36.88031592599997,100 174.89642350151053,-36.88021326220948,100 174.896434,-36.880182,100 174.896529,-36.879967,100 174.89668,-36.880009,100 174.89679,-36.88004,100 174.897012,-36.88008,100 174.89709968299414,-36.880081941388745,100 174.8972826790001,-36.88008620099998,100 174.897282851277,-36.8800859967074,100 174.897283,-36.880086,100 174.89731844838266,-36.88004378425728,100 174.8973931390001,-36.87995521299996,100 174.89742161300012,-36.87993728599997,100 174.89742792177063,-36.8799333140049,100 174.89752,-36.879876,100 174.8976224471482,-36.879904084051525,100 174.8977790130001,-36.87994742799999,100 174.89808857755216,-36.88003319643072,100 174.898289,-36.880089,100 174.89881237651312,-36.880075084862895,100 174.8989656990001,-36.880071126999944,100 174.89896570159362,-36.880071007934866,100 174.898966,-36.880071,100 174.8989792194311,-36.87945042109611,100 174.89898410700005,-36.879226038999946,100 174.89903372100002,-36.879223497999924,100 174.8990939996387,-36.87922040993856,100 174.89909381374773,-36.8794313350812,100 174.89909274900003,-36.88035484299996,100 174.89909300005144,-36.880354941594135,100 174.899093,-36.880355,100 174.899645,-36.880572,100 174.90000953215628,-36.88071487565864,100 174.90019076200008,-36.88078604399994,100 174.90161989900005,-36.88134711299995,100 174.9017323700001,-36.88126384899992,100 174.90181674259404,-36.881106755429926,100 174.901822,-36.881097,100 174.90183135464162,-36.8810795420405,100 174.90197918,-36.88080419199997,100 174.90208319333644,-36.880610498507394,100 174.902168,-36.880453,100 174.902341,-36.880131,100 174.90174204840707,-36.87991821459789,100 174.9017329927327,-36.879914988947604,100 174.901685,-36.879842,100 174.90182958896384,-36.87960274028936,100 174.90193746400007,-36.879424677999964,100 174.90210578951087,-36.879146725744896,100 174.902159,-36.879059,100 174.90215256196186,-36.878984962948124,100 174.90212528400002,-36.87866831999998,100 174.9021250186428,-36.878668214393265,100 174.902125,-36.878668,100 174.90193411145555,-36.87859223703686,100 174.9014801090001,-36.87841155099994,100 174.90109999098004,-36.87827067528165,100 174.901096,-36.878127,100 174.901267,-36.877991,100 174.902619,-36.876917,100 174.903177,-36.876621,100 174.903254,-36.876629,100 174.903476,-36.8769,100 174.903546,-36.877007,100 174.90354636490315,-36.87700690606473,100 174.9035464970001,-36.87700710699995,100 174.9035802793987,-36.87699817561183,100 174.903647,-36.876981,100 174.903799,-36.876898,100 174.904164,-36.876738,100 174.90446,-36.876572,100 174.90454755543374,-36.87647163178995,100 174.9046650680001,-36.876337355999965,100 174.9047908404851,-36.876219331029105,100 174.904819,-36.876193,100 174.90481902207736,-36.87619288534042,100 174.9048190640001,-36.87619284599999,100 174.9048215587328,-36.876179711120336,100 174.90485,-36.876032,100 174.90502016720814,-36.87592931289738,100 174.9050238560001,-36.87592709599994,100 174.9050809778334,-36.875909364012266,100 174.90510781870086,-36.87590105611649,100 174.90525053400006,-36.875923460999964,100 174.90532205095388,-36.87589598065353,100 174.905393,-36.875869,100 174.905661,-36.875667,100 174.905783,-36.875465,100 174.90578597770408,-36.87545308921573,100 174.90584102400013,-36.875233464999944,100 174.90584213916657,-36.87520969094028,100 174.905854,-36.874967,100 174.905863,-36.874316,100 174.905822017184,-36.87405085596057,100 174.9057322294611,-36.87346679347192,100 174.905978,-36.874425,100 174.906016,-36.875042,100 174.906028,-36.875132,100 174.906027,-36.875144,100 174.906028,-36.875151,100 174.906027,-36.875152,100 174.906027,-36.875158,100 174.906026,-36.875161,100 174.906027,-36.875168,100 174.906026,-36.875172,100 174.906026,-36.875178,100 174.906025,-36.875186,100 174.906025,-36.875191,100 174.906023,-36.875199,100 174.906017,-36.875222,100 174.906017,-36.875225,100 174.906014,-36.875237,100 174.906013,-36.875246,100 174.906012,-36.875249,100 174.906012,-36.875251,100 174.906011,-36.875253,100 174.906009,-36.875259,100 174.906009,-36.87526,100 174.906008,-36.875268,100 174.905999,-36.875293,100 174.905991,-36.87533,100 174.90599,-36.875338,100 174.905986,-36.875356,100 174.905987,-36.875359,100 174.905985,-36.875369,100 174.905986,-36.875373,100 174.905985,-36.875377,100 174.905985,-36.875419,100 174.905982,-36.875434,100 174.905968,-36.875473,100 174.905965,-36.875488,100 174.905961,-36.875493,100 174.905959,-36.875501,100 174.905957,-36.875504,100 174.905954,-36.875515,100 174.905954,-36.87552,100 174.905953,-36.875523,100 174.905953,-36.87553,100 174.905952,-36.875532,100 174.905951,-36.875545,100 174.90595,-36.875567,100 174.905947,-36.875596,100 174.905946,-36.875599,100 174.905943,-36.875608,100 174.905941,-36.875612,100 174.905939,-36.875616,100 174.905938,-36.875618,100 174.905936,-36.875626,100 174.905932,-36.875632,100 174.905932,-36.875634,100 174.905927,-36.875645,100 174.905914,-36.875664,100 174.905903,-36.875674,100 174.905897,-36.875682,100 174.905896,-36.875684,100 174.905894,-36.875687,100 174.905886,-36.875704,100 174.905882,-36.875711,100 174.905879,-36.875714,100 174.905877,-36.875718,100 174.905867,-36.875729,100 174.905855,-36.875741,100 174.905845,-36.87575,100 174.905838,-36.875755,100 174.905831,-36.875761,100 174.905823,-36.875768,100 174.905818,-36.875775,100 174.905815,-36.875777,100 174.905807,-36.875783,100 174.90578,-36.875806,100 174.905776,-36.875809,100 174.905765,-36.875818,100 174.905759,-36.875822,100 174.905756,-36.875824,100 174.905744,-36.875832,100 174.905736,-36.875837,100 174.905733,-36.87584,100 174.905729,-36.875842,100 174.905719,-36.875848,100 174.90571,-36.875854,100 174.905694,-36.875859,100 174.90568,-36.875862,100 174.905676,-36.875862,100 174.905621,-36.875862,100 174.905618,-36.875862,100 174.905607,-36.875863,100 174.905603,-36.875863,100 174.905591,-36.875864,100 174.905587,-36.875865,100 174.905577,-36.875865,100 174.905571,-36.875866,100 174.905521,-36.875869,100 174.905515,-36.875868,100 174.905495,-36.875867,100 174.90549,-36.875868,100 174.905485,-36.87587,100 174.905481,-36.875871,100 174.905476,-36.875876,100 174.905468,-36.875882,100 174.905452,-36.875894,100 174.905437,-36.875903,100 174.905431,-36.875906,100 174.905404,-36.875927,100 174.9054,-36.875929,100 174.905395,-36.875934,100 174.90539,-36.875937,100 174.905374,-36.87595,100 174.905354,-36.875964,100 174.905351,-36.875967,100 174.905334,-36.875979,100 174.905332,-36.875982,100 174.905328,-36.875984,100 174.90532,-36.875994,100 174.905306,-36.876005,100 174.905269,-36.876024,100 174.905246,-36.876042,100 174.905225,-36.876052,100 174.905208,-36.876065,100 174.905202,-36.876069,100 174.905195,-36.876073,100 174.905173,-36.876086,100 174.905116,-36.876116,100 174.905108,-36.87612,100 174.905094,-36.876127,100 174.905081,-36.876135,100 174.905003,-36.876174,100 174.904989,-36.876179,100 174.904977,-36.876184,100 174.904941,-36.876202,100 174.904933,-36.876207,100 174.904926,-36.876211,100 174.904899,-36.876223,100 174.904869,-36.876238,100 174.904839,-36.876246,100 174.904807,-36.876254,100 174.90479,-36.87626,100 174.904777,-36.876267,100 174.904747,-36.876283,100 174.904732,-36.876295,100 174.904729,-36.876298,100 174.904727,-36.876302,100 174.904727,-36.876307,100 174.904726,-36.876311,100 174.904728,-36.876317,100 174.90473,-36.876318,100 174.904733,-36.876326,100 174.904736,-36.876335,100 174.904736,-36.87634,100 174.904737,-36.876343,100 174.904733,-36.876356,100 174.904727,-36.876367,100 174.904722,-36.876373,100 174.90472,-36.876378,100 174.904717,-36.87638,100 174.904716,-36.876383,100 174.904711,-36.876393,100 174.904698,-36.876421,100 174.904691,-36.876434,100 174.904686,-36.876441,100 174.904685,-36.876444,100 174.90468,-36.876451,100 174.904679,-36.876455,100 174.904677,-36.876457,100 174.904661,-36.87648,100 174.904658,-36.876488,100 174.904653,-36.876495,100 174.904634,-36.876513,100 174.90463,-36.876515,100 174.904623,-36.876521,100 174.904618,-36.876523,100 174.904611,-36.876528,100 174.904585,-36.87655,100 174.904581,-36.876554,100 174.904577,-36.876559,100 174.90457,-36.876566,100 174.904565,-36.876569,100 174.904547,-36.876586,100 174.904531,-36.876605,100 174.904526,-36.876609,100 174.904521,-36.876613,100 174.9045,-36.876635,100 174.904495,-36.876639,100 174.904489,-36.876642,100 174.904483,-36.876647,100 174.904454,-36.876667,100 174.904452,-36.876669,100 174.904444,-36.876675,100 174.904441,-36.876677,100 174.90443,-36.876684,100 174.90441,-36.876703,100 174.904402,-36.876709,100 174.904393,-36.876717,100 174.904377,-36.876727,100 174.904366,-36.87673,100 174.904347,-36.876738,100 174.904318,-36.876754,100 174.904312,-36.876757,100 174.904296,-36.87677,100 174.904254,-36.876797,100 174.904214,-36.876818,100 174.904207,-36.87682,100 174.9042,-36.876823,100 174.904193,-36.876826,100 174.904175,-36.876835,100 174.90417,-36.876837,100 174.904158,-36.876842,100 174.904152,-36.876844,100 174.904147,-36.876845,100 174.904083,-36.876872,100 174.904076,-36.876875,100 174.90407,-36.876878,100 174.904067,-36.87688,100 174.904062,-36.876881,100 174.904058,-36.876884,100 174.904055,-36.876885,100 174.90405,-36.876888,100 174.904041,-36.876891,100 174.904038,-36.876893,100 174.904127,-36.877108,100 174.904261,-36.877285,100 174.90435,-36.877404,100 174.904354,-36.877409,100 174.904596,-36.877729,100 174.904722,-36.87788,100 174.905052,-36.878317,100 174.904905,-36.878389,100 174.904759,-36.87846,100 174.904909,-36.878658,100 174.904887,-36.878669,100 174.904762,-36.878729,100 174.904717,-36.878751,100 174.904616,-36.878801,100 174.904548,-36.878834,100 174.904378,-36.878916,100 174.904289,-36.87896,100 174.904209,-36.878999,100 174.904337,-36.87917,100 174.904466,-36.87934,100 174.904702,-36.879399,100 174.904915,-36.879681,100 174.905021,-36.879822,100 174.905128,-36.879964,100 174.904867,-36.880167,100 174.90495,-36.880183,100 174.9054,-36.880265,100 174.905389,-36.880304,100 174.905294,-36.880639,100 174.905276,-36.880704,100 174.905223,-36.880891,100 174.905169,-36.881079,100 174.905084,-36.881379,100 174.905001,-36.881672,100 174.90499,-36.881708,100 174.904776,-36.882461,100 174.904765,-36.882499,100 174.904738,-36.882597,100 174.904945,-36.882636,100 174.905919,-36.882814,100 174.906334,-36.88289,100 174.906728,-36.882962,100 174.906769,-36.88297,100 174.907207,-36.88305,100 174.907899,-36.883177,100 174.908106,-36.883215,100 174.908325,-36.883255,100 174.908543,-36.883295,100 174.908762,-36.883335,100 174.908981,-36.883375,100 174.9092,-36.883415,100 174.909402,-36.883452,100 174.909604,-36.88349,100 174.909624,-36.883493,100 174.909821,-36.883529,100 174.910018,-36.883566,100 174.910215,-36.883602,100 174.910448,-36.883644,100 174.910378,-36.883894,100 174.910296,-36.883935,100 174.910247,-36.884112,100 174.910298,-36.884178,100 174.910261,-36.884311,100 174.909879,-36.884241,100 174.909831,-36.884408,100 174.909784,-36.884575,100 174.909737,-36.884742,100 174.909689,-36.884909,100 174.909642,-36.885076,100 174.909594,-36.885243,100 174.90955,-36.885398,100 174.909547,-36.88541,100 174.9095,-36.885577,100 174.909452,-36.885744,100 174.909409,-36.885897,100 174.909401,-36.885925,100 174.909385,-36.885922,100 174.909337,-36.886092,100 174.90929,-36.886261,100 174.909254,-36.886384,100 174.909242,-36.88643,100 174.909207,-36.886554,100 174.909194,-36.886599,100 174.909152,-36.886747,100 174.909146,-36.886768,100 174.909105,-36.886914,100 174.909098,-36.886937,100 174.909056,-36.887085,100 174.90905,-36.887106,100 174.909006,-36.887261,100 174.909003,-36.887274,100 174.908957,-36.887437,100 174.908955,-36.887443,100 174.908907,-36.887612,100 174.908853,-36.887801,100 174.90897,-36.88802,100 174.908887,-36.888313,100 174.908772,-36.888292,100 174.908679,-36.888275,100 174.908471,-36.888237,100 174.908373,-36.888219,100 174.908323,-36.888395,100 174.908317,-36.888417,100 174.908279,-36.888549,100 174.908262,-36.888611,100 174.908229,-36.888728,100 174.908371,-36.88885,100 174.908482,-36.888945,100 174.908366,-36.889003,100 174.908242,-36.889065,100 174.908376,-36.88939,100 174.90842668091858,-36.88964340459288,100 174.9066727,-36.8893539,100 174.9060934,-36.8891823,100 174.9033575,-36.8887104,100 174.9016623,-36.8883929,100 174.9002354,-36.8881354,100 174.9000101,-36.887981,100 174.8997419,-36.8880325,100 174.8992591,-36.8881526,100 174.8988943,-36.8882985,100 174.8983042,-36.8882727,100 174.8976498,-36.8879552,100 174.8970811,-36.8876291,100 174.8968236,-36.8871915,100 174.896534,-36.8869598,100 174.8959975,-36.8867453,100 174.8952465,-36.8864707,100 174.8940449,-36.885707,100 174.894635,-36.8850719,100 174.89405110524694,-36.884764045617715,100</coordinates>
        </LinearRing>
      </outerBoundaryIs>
    </Polygon>
  </Placemark>
</Document>
</kml>