<?xml version="1.0" encoding="UTF-8"?>
<kml xmlns="http://www.opengis.net/kml/2.2">
<Document>
  <name>Half Moon Bay 1(Polygon: Official_Shp) Section 1</name>
  <Placemark>
    <name>Half Moon Bay 1 (Polygon: Official_Shp) Section 1</name>
    <Style>
      <LineStyle><color>ffff0000</color><width>2</width></LineStyle>
      <PolyStyle><color>66ff0000</color></PolyStyle>
    </Style>
    <Polygon>
      <tessellate>1</tessellate>
      <outerBoundaryIs>
        <LinearRing>
          <coordinates>174.89599680929285,-36.89322694049922,100 174.896064,-36.893207,100 174.896298,-36.89317,100 174.896471,-36.893155,100 174.896628,-36.893061,100 174.89662801181336,-36.89306098245899,100 174.8966280410001,-36.89306096499997,100 174.89663020961606,-36.89305771905944,100 174.896694,-36.892963,100 174.89672872824252,-36.89286865502441,100 174.8967541180001,-36.89280044299994,100 174.8967534549269,-36.89277365488483,100 174.896751,-36.892655,100 174.896831,-36.892522,100 174.896836,-36.892431,100 174.89681732302608,-36.89239598067909,100 174.89681201200005,-36.89238590199994,100 174.89674817565444,-36.89239309162872,100 174.896623,-36.892407,100 174.896402,-36.892505,100 174.89637873766915,-36.892514467249434,100 174.89622979000012,-36.89257463499997,100 174.89619755826342,-36.892575581302445,100 174.896201,-36.892573,100 174.896217,-36.892546,100 174.896184,-36.892502,100 174.896149,-36.892467,100 174.896111,-36.89244,100 174.896067,-36.892398,100 174.896038,-36.89238,100 174.896021,-36.892385,100 174.8959630906984,-36.892408962469666,100 174.89595788286582,-36.892402294793044,100 174.895934,-36.892371,100 174.89583,-36.892387,100 174.895684,-36.892384,100 174.895654,-36.892368,100 174.895488,-36.892333,100 174.895415,-36.892303,100 174.895396,-36.892292,100 174.895369,-36.892251,100 174.89536,-36.892219,100 174.895349,-36.892196,100 174.895339,-36.892161,100 174.895326,-36.892127,100 174.895308,-36.892096,100 174.895295,-36.892065,100 174.89527514255298,-36.892036206701874,100 174.89527202200009,-36.89202007899996,100 174.89527201265778,-36.89202006750807,100 174.895272,-36.89202,100 174.89525525094908,-36.891999449077865,100 174.8951094890001,-36.89182014799996,100 174.8949288113519,-36.891611559208386,100 174.894822,-36.891488,100 174.894605,-36.891349,100 174.894603,-36.891347,100 174.894571,-36.891316,100 174.894524,-36.891267,100 174.894496,-36.891242,100 174.89448,-36.891215,100 174.894467,-36.891187,100 174.894456,-36.891166,100 174.894452,-36.891158,100 174.894436,-36.891124,100 174.894421,-36.891093,100 174.894409,-36.89107,100 174.894397,-36.891036,100 174.894382,-36.890993,100 174.894366,-36.890979,100 174.89435,-36.890983,100 174.894335,-36.890996,100 174.894324,-36.891024,100 174.89432,-36.891044,100 174.894319,-36.891058,100 174.894318,-36.891072,100 174.894321,-36.891093,100 174.894329,-36.891119,100 174.894337,-36.891156,100 174.894336,-36.891182,100 174.894334,-36.8912,100 174.89434,-36.891224,100 174.894347,-36.891243,100 174.894345,-36.891278,100 174.89434,-36.891279,100 174.89434001092695,-36.891279047350174,100 174.89433969000004,-36.891279100999945,100 174.89435633855345,-36.891353216259596,100 174.89436,-36.891388,100 174.894358,-36.891437,100 174.894361,-36.89147,100 174.894371,-36.891535,100 174.894371,-36.891537,100 174.89436919684627,-36.89155342874541,100 174.8943615930001,-36.89161870399993,100 174.89436199999983,-36.89181471536762,100 174.894362,-36.891817666762115,100 174.89436174238764,-36.89182031851181,100 174.894359,-36.891845,100 174.894354,-36.891858,100 174.894344,-36.891886,100 174.894344,-36.891932,100 174.894341,-36.891976,100 174.894336,-36.892002,100 174.894332,-36.892013,100 174.89429704513535,-36.89204457996815,100 174.89418595888066,-36.892144400430766,100 174.894148,-36.892159,100 174.894103,-36.892175,100 174.89407,-36.892191,100 174.894032,-36.892219,100 174.893989,-36.892244,100 174.893946,-36.892266,100 174.893815,-36.892306,100 174.893761,-36.892335,100 174.893707,-36.89235,100 174.89364,-36.89237,100 174.893566,-36.892397,100 174.893505,-36.892416,100 174.893444,-36.89244,100 174.893373,-36.892464,100 174.893297,-36.892479,100 174.893237,-36.892489,100 174.89317,-36.892502,100 174.893091,-36.892518,100 174.893034,-36.892537,100 174.892975,-36.892558,100 174.892907,-36.892571,100 174.892858,-36.892576,100 174.8928,-36.892576,100 174.892751,-36.89256,100 174.892695,-36.89255,100 174.892621,-36.892531,100 174.892555,-36.892514,100 174.892512,-36.892505,100 174.892467,-36.892489,100 174.892435,-36.89247,100 174.892383,-36.892445,100 174.892346,-36.892421,100 174.892327,-36.892391,100 174.892316,-36.892361,100 174.892291,-36.892309,100 174.892284,-36.892285,100 174.892278,-36.892256,100 174.892272,-36.892227,100 174.892266,-36.892211,100 174.892255,-36.892178,100 174.892236,-36.892143,100 174.892214,-36.892112,100 174.892189,-36.892085,100 174.89215,-36.892053,100 174.892118,-36.89203,100 174.892077,-36.89201,100 174.892038,-36.891995,100 174.89203,-36.891993,100 174.89194087842395,-36.89195316538269,100 174.8918984380001,-36.891934079999935,100 174.8914727550001,-36.89176462499995,100 174.89141646831254,-36.891746301080985,100 174.891343,-36.891722,100 174.891313,-36.891703,100 174.891263,-36.89168,100 174.891215,-36.891646,100 174.891171,-36.891614,100 174.891123,-36.89158,100 174.89106,-36.891546,100 174.891009,-36.891513,100 174.890977,-36.891486,100 174.890927,-36.891458,100 174.890878,-36.891436,100 174.890831,-36.891416,100 174.890759,-36.891381,100 174.890695,-36.891355,100 174.890649,-36.891334,100 174.890596,-36.891317,100 174.890539,-36.891306,100 174.890495,-36.8913,100 174.890466,-36.891292,100 174.890456,-36.89129,100 174.890415,-36.891268,100 174.890366,-36.891263,100 174.890312,-36.891249,100 174.890263,-36.891242,100 174.890231,-36.891236,100 174.890143,-36.89123,100 174.890129,-36.89122,100 174.890102,-36.891217,100 174.890068,-36.891197,100 174.890048,-36.891191,100 174.890039,-36.891189,100 174.890014,-36.891178,100 174.88999,-36.891167,100 174.889977,-36.891161,100 174.889953,-36.891147,100 174.889939,-36.89114,100 174.889907,-36.891137,100 174.889867,-36.891127,100 174.889845,-36.89113,100 174.889819,-36.891127,100 174.889796,-36.891127,100 174.889783,-36.891128,100 174.889757,-36.891122,100 174.889727,-36.891121,100 174.889712,-36.891115,100 174.889685,-36.891114,100 174.889675,-36.89112,100 174.889643,-36.891117,100 174.889617,-36.891122,100 174.889591,-36.891126,100 174.889555,-36.891134,100 174.889502,-36.891129,100 174.889484,-36.891133,100 174.889452,-36.89113,100 174.889423,-36.891131,100 174.889387,-36.891118,100 174.889356,-36.891112,100 174.889322,-36.891098,100 174.889286,-36.891073,100 174.889264,-36.891061,100 174.889253,-36.891049,100 174.889243,-36.891042,100 174.889229,-36.891042,100 174.889199,-36.891038,100 174.889185,-36.89103,100 174.889163,-36.891015,100 174.889158,-36.891014,100 174.889151,-36.891006,100 174.889141,-36.891004,100 174.889127,-36.890996,100 174.889102,-36.89099,100 174.889076,-36.890986,100 174.889055,-36.89098,100 174.889012,-36.890971,100 174.88899,-36.890966,100 174.88896,-36.890967,100 174.888938,-36.890964,100 174.888904,-36.890946,100 174.888878,-36.890937,100 174.888852,-36.890919,100 174.888823,-36.890911,100 174.888802,-36.890906,100 174.888781,-36.890892,100 174.88877,-36.890882,100 174.888746,-36.890871,100 174.888729,-36.89086,100 174.888682,-36.890832,100 174.888664,-36.890828,100 174.888642,-36.890817,100 174.88863,-36.890808,100 174.888619,-36.890795,100 174.888599,-36.890779,100 174.888596,-36.890777,100 174.888581,-36.890769,100 174.888561,-36.890756,100 174.888538,-36.890757,100 174.888524,-36.890755,100 174.888512,-36.890754,100 174.888492,-36.890761,100 174.888463,-36.890777,100 174.888443,-36.89077,100 174.888428,-36.890764,100 174.888403,-36.890752,100 174.888381,-36.890737,100 174.888359,-36.890725,100 174.888346,-36.890713,100 174.88833,-36.890696,100 174.888318,-36.890684,100 174.888304,-36.890657,100 174.888289,-36.890632,100 174.888279,-36.890608,100 174.888274,-36.890601,100 174.88827,-36.890594,100 174.888257,-36.890579,100 174.888247,-36.89056,100 174.88824,-36.89055,100 174.888232,-36.890529,100 174.888221,-36.89051,100 174.888214,-36.890501,100 174.888111,-36.890315,100 174.88809327946186,-36.89028919344121,100 174.8880077981808,-36.890164192723134,100 174.888007,-36.890161,100 174.887995,-36.890133,100 174.887982,-36.890106,100 174.887978,-36.890094,100 174.887962,-36.890066,100 174.887951,-36.89005,100 174.887941,-36.890036,100 174.887922,-36.890015,100 174.887908,-36.889967,100 174.887904,-36.889915,100 174.88791,-36.889896,100 174.887913,-36.889875,100 174.887917,-36.889854,100 174.887922,-36.889829,100 174.887907,-36.8898,100 174.8879,-36.889784,100 174.887902,-36.889773,100 174.887911,-36.889763,100 174.88792,-36.88975,100 174.887926,-36.889735,100 174.887915,-36.889706,100 174.887906,-36.88968,100 174.887899,-36.889662,100 174.887891,-36.889652,100 174.887887,-36.889632,100 174.887881,-36.889622,100 174.887886,-36.889601,100 174.887887,-36.889582,100 174.887892,-36.889568,100 174.887883,-36.889553,100 174.887883,-36.889533,100 174.887883,-36.889505,100 174.887881,-36.8895,100 174.887882,-36.88948,100 174.887889,-36.889457,100 174.887885,-36.889441,100 174.887892,-36.88942,100 174.887893,-36.8894,100 174.887897,-36.889388,100 174.887896,-36.889365,100 174.887896,-36.88936,100 174.887894,-36.889347,100 174.8879,-36.889329,100 174.887907,-36.889321,100 174.887914,-36.889294,100 174.887918,-36.88928,100 174.887916,-36.889261,100 174.887922,-36.889246,100 174.887925,-36.88923,100 174.887928,-36.889213,100 174.887928,-36.889199,100 174.887924,-36.889181,100 174.887926,-36.889163,100 174.887921,-36.889135,100 174.887921,-36.889112,100 174.887923,-36.889089,100 174.887923,-36.889069,100 174.887923,-36.88904,100 174.88792,-36.889015,100 174.88792585737315,-36.8889637481101,100 174.88795253205507,-36.88873366986241,100 174.887954,-36.88873,100 174.887959,-36.888718,100 174.887966,-36.888684,100 174.8879592907306,-36.8886753737965,100 174.88800438700002,-36.888286399999956,100 174.88821738251804,-36.88807562311842,100 174.888288,-36.888006,100 174.888297,-36.888,100 174.888314,-36.887993,100 174.888331,-36.88799,100 174.888341,-36.88798,100 174.888352,-36.887973,100 174.888358,-36.887959,100 174.888363,-36.887956,100 174.888375,-36.887946,100 174.888391,-36.887917,100 174.888407,-36.887897,100 174.888402,-36.887872,100 174.888402,-36.887871,100 174.888415,-36.887835,100 174.888416,-36.887808,100 174.888419,-36.887785,100 174.888431,-36.887754,100 174.888444,-36.887725,100 174.888448,-36.887692,100 174.888459,-36.887672,100 174.888472,-36.887646,100 174.888487,-36.887618,100 174.888503,-36.887595,100 174.88850779475814,-36.88758828733867,100 174.88883511300003,-36.887484264999955,100 174.88969630200006,-36.887175354999954,100 174.89064122321068,-36.88677424516028,100 174.890972,-36.886634,100 174.891138,-36.886541,100 174.8917081381942,-36.88608126994446,100 174.8917679440001,-36.886033080999944,100 174.89227946200003,-36.88585820199996,100 174.89254954573693,-36.885765863761236,100 174.892602,-36.885748,100 174.892796,-36.885655,100 174.892933,-36.885539,100 174.89302988314685,-36.88530200916837,100 174.8930632780001,-36.885220794999945,100 174.8930727907008,-36.88521281144782,100 174.893338,-36.884991,100 174.89347125280028,-36.88492609972973,100 174.8935313070001,-36.88489712599995,100 174.89379483502273,-36.884849886622675,100 174.893811,-36.884847,100 174.89387469959232,-36.884824923684576,100 174.89405110524694,-36.884764045617715,100 174.894635,-36.8850719,100 174.8940449,-36.885707,100 174.8952465,-36.8864707,100 174.8959975,-36.8867453,100 174.896534,-36.8869598,100 174.8968236,-36.8871915,100 174.8970811,-36.8876291,100 174.8976498,-36.8879552,100 174.8983042,-36.8882727,100 174.8988943,-36.8882985,100 174.8992591,-36.8881526,100 174.8997419,-36.8880325,100 174.9000101,-36.887981,100 174.9002354,-36.8881354,100 174.9016623,-36.8883929,100 174.9033575,-36.8887104,100 174.9060934,-36.8891823,100 174.9066727,-36.8893539,100 174.90842668091858,-36.88964340459288,100 174.90845,-36.88976,100 174.908366,-36.890056,100 174.908164,-36.890019,100 174.908085,-36.890041,100 174.908139,-36.890167,100 174.90817,-36.890238,100 174.908145,-36.890323,100 174.908103,-36.89047,100 174.908061,-36.890617,100 174.908058,-36.890628,100 174.908017,-36.890774,100 174.907988,-36.890875,100 174.907977,-36.890911,100 174.907942,-36.891035,100 174.907935,-36.891059,100 174.907893,-36.891206,100 174.90788,-36.891251,100 174.907851,-36.891353,100 174.907822,-36.891454,100 174.907809,-36.8915,100 174.907794,-36.891553,100 174.907458,-36.891943,100 174.907296,-36.892075,100 174.907128,-36.892213,100 174.907105,-36.892232,100 174.907067,-36.892251,100 174.907374,-36.892603,100 174.90743,-36.892588,100 174.907505,-36.892567,100 174.907862,-36.89276,100 174.907783,-36.892831,100 174.907754,-36.893122,100 174.907686,-36.893338,100 174.907631,-36.893327,100 174.907305,-36.89326,100 174.907257,-36.893413,100 174.90723,-36.8935,100 174.907158,-36.893523,100 174.906973,-36.893581,100 174.906793,-36.893638,100 174.906616,-36.893693,100 174.906438,-36.893743,100 174.90626,-36.893793,100 174.906082,-36.893843,100 174.905899,-36.893894,100 174.905911,-36.893938,100 174.905918,-36.893966,100 174.905924,-36.893994,100 174.905929,-36.894022,100 174.905933,-36.894051,100 174.905936,-36.894079,100 174.905938,-36.894107,100 174.905939,-36.894136,100 174.90594,-36.894164,100 174.905939,-36.894193,100 174.905937,-36.894227,100 174.905934,-36.894261,100 174.905929,-36.894295,100 174.905923,-36.894328,100 174.905881,-36.894542,100 174.905876,-36.894567,100 174.90587,-36.894591,100 174.905862,-36.894616,100 174.905854,-36.89464,100 174.905845,-36.894664,100 174.905835,-36.894688,100 174.905823,-36.894711,100 174.90581,-36.894737,100 174.905795,-36.894762,100 174.905779,-36.894787,100 174.905724,-36.89487,100 174.905566,-36.895107,100 174.905439,-36.895188,100 174.905398,-36.895214,100 174.905395,-36.895224,100 174.905392,-36.895232,100 174.905389,-36.895235,100 174.905359,-36.895302,100 174.905356,-36.895307,100 174.905355,-36.895312,100 174.905344,-36.895326,100 174.905329,-36.89535,100 174.90531,-36.895375,100 174.905306,-36.895386,100 174.905268,-36.895448,100 174.905267,-36.895455,100 174.905258,-36.895468,100 174.905257,-36.895475,100 174.905227,-36.895532,100 174.905224,-36.895539,100 174.905215,-36.895553,100 174.905215,-36.895554,100 174.905162,-36.89564,100 174.905126,-36.89571,100 174.905112,-36.895737,100 174.905102,-36.895756,100 174.905098,-36.895825,100 174.905096,-36.895827,100 174.905103,-36.895854,100 174.905102,-36.895856,100 174.905117,-36.895896,100 174.905117,-36.895899,100 174.905133,-36.895922,100 174.905134,-36.895925,100 174.905151,-36.895943,100 174.905153,-36.895948,100 174.905163,-36.895957,100 174.905167,-36.895959,100 174.90519,-36.895979,100 174.905193,-36.895984,100 174.905223,-36.896002,100 174.905268,-36.896041,100 174.905281,-36.896054,100 174.905285,-36.896058,100 174.905307,-36.896075,100 174.905313,-36.89608,100 174.905341,-36.896113,100 174.905353,-36.896132,100 174.905367,-36.896148,100 174.905387,-36.896156,100 174.905422,-36.896163,100 174.90543,-36.896166,100 174.905448,-36.89617,100 174.905469,-36.896176,100 174.905544,-36.896184,100 174.905562,-36.896189,100 174.90561,-36.896207,100 174.905645,-36.896214,100 174.905663,-36.89622,100 174.905691,-36.896224,100 174.905772,-36.896254,100 174.905809,-36.896289,100 174.905809,-36.896291,100 174.905814,-36.896296,100 174.90583,-36.896322,100 174.905834,-36.896344,100 174.905833,-36.896348,100 174.905835,-36.896351,100 174.905835,-36.896354,100 174.905837,-36.896365,100 174.905841,-36.896379,100 174.905838,-36.896395,100 174.905836,-36.896403,100 174.905839,-36.896411,100 174.905838,-36.896447,100 174.905837,-36.896453,100 174.905836,-36.896468,100 174.90584,-36.896477,100 174.905841,-36.896484,100 174.905843,-36.896489,100 174.905843,-36.89649,100 174.905845,-36.896495,100 174.905856,-36.896507,100 174.905907,-36.896559,100 174.90593,-36.896584,100 174.905944,-36.896596,100 174.90595,-36.896604,100 174.905979,-36.89663,100 174.905986,-36.896634,100 174.90599,-36.896636,100 174.905997,-36.896641,100 174.906003,-36.896647,100 174.906009,-36.896661,100 174.906015,-36.896671,100 174.906016,-36.896681,100 174.90601,-36.896684,100 174.906004,-36.896696,100 174.906001,-36.896707,100 174.905996,-36.896722,100 174.905995,-36.896742,100 174.90599,-36.89676,100 174.905984,-36.896786,100 174.90598,-36.896795,100 174.905959,-36.896881,100 174.905955,-36.896892,100 174.905952,-36.896899,100 174.905949,-36.896911,100 174.905951,-36.896949,100 174.905953,-36.896954,100 174.905955,-36.896965,100 174.905967,-36.896988,100 174.905973,-36.896997,100 174.905973,-36.896998,100 174.905974,-36.897,100 174.905983,-36.897014,100 174.905989,-36.897027,100 174.905996,-36.897048,100 174.905997,-36.897056,100 174.906005,-36.897072,100 174.906009,-36.897083,100 174.906006,-36.897117,100 174.906006,-36.897126,100 174.906002,-36.897142,100 174.905994,-36.897157,100 174.90599,-36.897161,100 174.905975,-36.897173,100 174.905938,-36.897192,100 174.905921,-36.897198,100 174.90591,-36.897202,100 174.905888,-36.897223,100 174.905876,-36.897229,100 174.905856,-36.897254,100 174.905838,-36.897295,100 174.905836,-36.897311,100 174.905838,-36.897315,100 174.905836,-36.897332,100 174.905834,-36.89734,100 174.905839,-36.897351,100 174.905865,-36.897368,100 174.906323,-36.89744,100 174.906112,-36.898001,100 174.905845,-36.897932,100 174.905777,-36.897915,100 174.905764,-36.89794,100 174.905749,-36.897958,100 174.905742,-36.898046,100 174.905744,-36.898057,100 174.905742,-36.898062,100 174.905747,-36.898068,100 174.905757,-36.898078,100 174.905761,-36.898083,100 174.905765,-36.89809,100 174.90577,-36.898119,100 174.905773,-36.898125,100 174.905783,-36.898227,100 174.905784,-36.898233,100 174.905779,-36.898249,100 174.905778,-36.898259,100 174.905781,-36.898275,100 174.90579,-36.898301,100 174.905798,-36.898318,100 174.905807,-36.898361,100 174.905804,-36.89839,100 174.905799,-36.898405,100 174.905796,-36.89841,100 174.905792,-36.898419,100 174.905769,-36.898444,100 174.905722,-36.898491,100 174.905677,-36.898515,100 174.905651,-36.898535,100 174.905638,-36.898549,100 174.90562,-36.898582,100 174.905612,-36.89859,100 174.905604,-36.898606,100 174.905601,-36.898612,100 174.905588,-36.898624,100 174.905578,-36.898632,100 174.905575,-36.898637,100 174.905571,-36.898645,100 174.905547,-36.898682,100 174.905534,-36.898698,100 174.905518,-36.898722,100 174.905515,-36.898725,100 174.905459,-36.898805,100 174.905453,-36.898811,100 174.905418,-36.898841,100 174.905409,-36.898855,100 174.905389,-36.898871,100 174.905366,-36.898898,100 174.905357,-36.898916,100 174.905356,-36.898927,100 174.905354,-36.898934,100 174.905353,-36.898973,100 174.905352,-36.898977,100 174.905354,-36.89905,100 174.905344,-36.89908,100 174.905332,-36.899091,100 174.905305,-36.899099,100 174.905302,-36.899101,100 174.905273,-36.899111,100 174.905264,-36.899114,100 174.90524,-36.899117,100 174.905234,-36.899117,100 174.905178,-36.899124,100 174.90501,-36.899178,100 174.905003,-36.899181,100 174.904998,-36.899183,100 174.904985,-36.899186,100 174.904958,-36.899196,100 174.904953,-36.899199,100 174.904931,-36.899208,100 174.904916,-36.899216,100 174.904891,-36.899239,100 174.904889,-36.899242,100 174.904879,-36.899253,100 174.904875,-36.899266,100 174.90487,-36.899284,100 174.90487,-36.899292,100 174.904872,-36.899298,100 174.904872,-36.899318,100 174.904889,-36.899419,100 174.904889,-36.899445,100 174.904891,-36.89946,100 174.904888,-36.899479,100 174.904893,-36.899507,100 174.904895,-36.899514,100 174.904899,-36.899523,100 174.9049,-36.899549,100 174.904897,-36.899573,100 174.904894,-36.899579,100 174.904886,-36.899609,100 174.904856,-36.899683,100 174.904845,-36.899699,100 174.904829,-36.899729,100 174.90482,-36.899752,100 174.904798,-36.899787,100 174.904787,-36.899803,100 174.904786,-36.899805,100 174.904737,-36.899884,100 174.904729,-36.899894,100 174.904723,-36.8999,100 174.9047,-36.899929,100 174.904686,-36.899957,100 174.90468,-36.899967,100 174.904655,-36.899993,100 174.904633,-36.900021,100 174.904628,-36.900029,100 174.90461,-36.900049,100 174.904589,-36.90009,100 174.904586,-36.900099,100 174.904582,-36.900108,100 174.904566,-36.900127,100 174.904538,-36.900174,100 174.904533,-36.90018,100 174.904518,-36.900209,100 174.904515,-36.900211,100 174.904499,-36.900237,100 174.904495,-36.900246,100 174.904486,-36.900253,100 174.904475,-36.900267,100 174.904443,-36.900294,100 174.904431,-36.900308,100 174.904418,-36.900328,100 174.904414,-36.900332,100 174.904411,-36.900334,100 174.904401,-36.900344,100 174.904396,-36.900352,100 174.904393,-36.900355,100 174.904382,-36.90037,100 174.904371,-36.900402,100 174.904368,-36.900416,100 174.904364,-36.900426,100 174.904352,-36.900447,100 174.904349,-36.900458,100 174.904346,-36.90049,100 174.90434,-36.900523,100 174.904341,-36.900536,100 174.90434,-36.900545,100 174.904327,-36.900573,100 174.904326,-36.900586,100 174.904327,-36.900604,100 174.904324,-36.900625,100 174.90432,-36.900651,100 174.904321,-36.900657,100 174.904317,-36.900681,100 174.904309,-36.900705,100 174.904308,-36.900715,100 174.904298,-36.900741,100 174.904295,-36.900752,100 174.904278,-36.900783,100 174.904275,-36.900785,100 174.904271,-36.900788,100 174.904269,-36.900789,100 174.904262,-36.900799,100 174.904239,-36.900797,100 174.904167,-36.900709,100 174.903998,-36.9005,100 174.903724,-36.900645,100 174.903397,-36.900818,100 174.902602,-36.899831,100 174.902484,-36.899691,100 174.902188,-36.899341,100 174.900821,-36.900068,100 174.899868,-36.900566,100 174.899534,-36.900742,100 174.898816,-36.901121,100 174.898771,-36.900815,100 174.898495,-36.900473,100 174.898449,-36.900415,100 174.898828,-36.900218,100 174.898823,-36.900212,100 174.898784,-36.900164,100 174.897839,-36.899005,100 174.897539,-36.899164,100 174.897237,-36.899323,100 174.897145,-36.899372,100 174.89696,-36.899381,100 174.896949,-36.899217,100 174.897017,-36.899181,100 174.896822,-36.898942,100 174.89701,-36.898844,100 174.897235,-36.898725,100 174.897125,-36.898589,100 174.897069,-36.898522,100 174.897014,-36.898454,100 174.896903,-36.898318,100 174.897166,-36.89818,100 174.896964,-36.897931,100 174.896845,-36.897613,100 174.897285,-36.897564,100 174.897242,-36.897552,100 174.897253,-36.897515,100 174.897256,-36.897502,100 174.897325,-36.897258,100 174.897359,-36.897138,100 174.897371,-36.897095,100 174.897413,-36.896947,100 174.897674,-36.89693,100 174.897819,-36.896817,100 174.897963,-36.896703,100 174.898108,-36.89659,100 174.898268,-36.896466,100 174.898348,-36.896403,100 174.898412,-36.896353,100 174.898466,-36.896311,100 174.898562,-36.896237,100 174.898604,-36.896205,100 174.898709,-36.896126,100 174.898753,-36.896092,100 174.898856,-36.896014,100 174.898903,-36.895979,100 174.899002,-36.895903,100 174.899052,-36.895865,100 174.899149,-36.895791,100 174.899248,-36.895716,100 174.899296,-36.89568,100 174.899345,-36.895633,100 174.899376,-36.895524,100 174.89939,-36.895472,100 174.899436,-36.895312,100 174.899441,-36.895296,100 174.899487,-36.895135,100 174.899532,-36.894975,100 174.899539,-36.894951,100 174.899578,-36.894814,100 174.899615,-36.894683,100 174.899438,-36.894488,100 174.899418,-36.894466,100 174.899223,-36.894252,100 174.899087,-36.894227,100 174.899091,-36.894212,100 174.898809,-36.894161,100 174.898611,-36.89417,100 174.898217,-36.894098,100 174.898247,-36.893992,100 174.898033,-36.893953,100 174.898,-36.893947,100 174.897982,-36.893944,100 174.897715,-36.893908,100 174.897703,-36.893907,100 174.897351,-36.893859,100 174.897334,-36.893737,100 174.897295,-36.893744,100 174.897097,-36.893708,100 174.897165,-36.893469,100 174.896869,-36.893419,100 174.896772,-36.893403,100 174.89672,-36.893394,100 174.89621,-36.893299,100 174.89590975591756,-36.893253115523315,100 174.89599680929285,-36.89322694049922,100</coordinates>
        </LinearRing>
      </outerBoundaryIs>
    </Polygon>
  </Placemark>
</Document>
</kml>