{
"type": "FeatureCollection",
"name": "in4326",
"crs": { "type": "name", "properties": { "name": "urn:ogc:def:crs:OGC:1.3:CRS84" } },
"features": [
{ "type": "Feature", "properties": { "id": null, "Name": "Meadowbank (polygon: official_shp)", "description": null, "timestamp": null, "begin": null, "end": null, "altitudeMode": "relativeToGround", "tessellate": 1, "extrude": 0, "visibility": -1, "drawOrder": null, "icon": null }, "geometry": { "type": "Polygon", "coordinates": [ [ [ 174.832282304319762, -36.865336165609129, 100.0 ], [ 174.835158992518075, -36.865769006410915, 100.0 ], [ 174.837827995430786, -36.866730998139801, 100.0 ], [ 174.84019800370379, -36.867868991571605, 100.0 ], [ 174.840797993944733, -36.868150994277883, 100.0 ], [ 174.840934005718651, -36.867964000427733, 100.0 ], [ 174.84393499234514, -36.8691250049704, 100.0 ], [ 174.843697996251819, -36.869525997631584, 100.0 ], [ 174.843509004363312, -36.869845000826786, 100.0 ], [ 174.842954997630926, -36.869629004625224, 100.0 ], [ 174.842944006385807, -36.869780004751426, 100.0 ], [ 174.842914992621075, -36.870183007242808, 100.0 ], [ 174.842979008303672, -36.870334998970854, 100.0 ], [ 174.84306099637206, -36.870530000082404, 100.0 ], [ 174.843100005569767, -36.870624003143583, 100.0 ], [ 174.843131996499324, -36.870699000541066, 100.0 ], [ 174.843193001759744, -36.870845004422407, 100.0 ], [ 174.843251004066133, -36.870981998282666, 100.0 ], [ 174.843273000039602, -36.871033998213093, 100.0 ], [ 174.843395000471162, -36.871114003913441, 100.0 ], [ 174.843606008451047, -36.871253006714788, 100.0 ], [ 174.843776000605914, -36.871365006340227, 100.0 ], [ 174.843818001783177, -36.871391992935784, 100.0 ], [ 174.84402999510371, -36.871530993187335, 100.0 ], [ 174.844179090972744, -36.871629102557925, 100.0 ], [ 174.844091468855709, -36.871863032935067, 100.0 ], [ 174.844009005398249, -36.871879996004623, 100.0 ], [ 174.843876993314922, -36.872023003940186, 100.0 ], [ 174.843633006709837, -36.87186299324901, 100.0 ], [ 174.843503008055592, -36.871981001773563, 100.0 ], [ 174.84337099562066, -36.87210000492545, 100.0 ], [ 174.84322100854655, -36.871993005027079, 100.0 ], [ 174.84305900523816, -36.871878002747351, 100.0 ], [ 174.842935997424377, -36.871790006727814, 100.0 ], [ 174.842750997949821, -36.871890000926633, 100.0 ], [ 174.842399993757851, -36.872079006839883, 100.0 ], [ 174.842357995219402, -36.871901007134063, 100.0 ], [ 174.842238005975901, -36.87139600430541, 100.0 ], [ 174.842185992384259, -36.871174007203464, 100.0 ], [ 174.842140004065186, -36.870983003552524, 100.0 ], [ 174.842102001389492, -36.870824000401051, 100.0 ], [ 174.842034991965733, -36.870761000659307, 100.0 ], [ 174.841930998209051, -36.870664006403167, 100.0 ], [ 174.841676008074984, -36.870624993686818, 100.0 ], [ 174.841695002459232, -36.870445995944813, 100.0 ], [ 174.841593999302489, -36.870448004101974, 100.0 ], [ 174.841496002526895, -36.870450007037732, 100.0 ], [ 174.841492994956667, -36.870477996720822, 100.0 ], [ 174.841123995085042, -36.870463995151056, 100.0 ], [ 174.841095996183356, -36.870528993178986, 100.0 ], [ 174.841069007203515, -36.870780003093166, 100.0 ], [ 174.841047006319656, -36.870977992411277, 100.0 ], [ 174.840844996295516, -36.871093994401761, 100.0 ], [ 174.840717007736231, -36.871167997340557, 100.0 ], [ 174.840467998902739, -36.871311006046483, 100.0 ], [ 174.840274996681359, -36.871483999321953, 100.0 ], [ 174.84016599939028, -36.871588000355601, 100.0 ], [ 174.840035007843028, -36.871715004091904, 100.0 ], [ 174.839771997952397, -36.872005996940054, 100.0 ], [ 174.839800993156132, -36.872119995370923, 100.0 ], [ 174.839560993136246, -36.87223599402499, 100.0 ], [ 174.839409006247536, -36.872189004706982, 100.0 ], [ 174.839566994476712, -36.871901001584831, 100.0 ], [ 174.839315005285698, -36.871826003099855, 100.0 ], [ 174.839007007476567, -36.871733996715982, 100.0 ], [ 174.838813991608902, -36.871677006868453, 100.0 ], [ 174.838621995357755, -36.87161999912157, 100.0 ], [ 174.838428996472885, -36.871562992153265, 100.0 ], [ 174.838317007846086, -36.871529999374779, 100.0 ], [ 174.838242995532937, -36.871701000431464, 100.0 ], [ 174.838134991407202, -36.871950993648731, 100.0 ], [ 174.838031994304202, -36.872191004575619, 100.0 ], [ 174.837884000244827, -36.872532992290814, 100.0 ], [ 174.837869006257876, -36.872512992049394, 100.0 ], [ 174.837793007116943, -36.87240800434251, 100.0 ], [ 174.83753100625097, -36.872464005928045, 100.0 ], [ 174.837460007382589, -36.872479993985529, 100.0 ], [ 174.837399003328557, -36.872492991841739, 100.0 ], [ 174.837273003072511, -36.872483003147778, 100.0 ], [ 174.837062994220219, -36.872465001657176, 100.0 ], [ 174.837033997703003, -36.872687007199247, 100.0 ], [ 174.837005999097727, -36.872903000741154, 100.0 ], [ 174.83687700704121, -36.872893001109837, 100.0 ], [ 174.836719007764287, -36.872879995874449, 100.0 ], [ 174.836573001605785, -36.872867002428201, 100.0 ], [ 174.836271993287284, -36.873063994738409, 100.0 ], [ 174.83629699096511, -36.873130998232895, 100.0 ], [ 174.835867000025161, -36.873094992349394, 100.0 ], [ 174.835810746145881, -36.872991617180425, 100.0 ], [ 174.836042001408686, -36.872614000947152, 100.0 ], [ 174.836072007047704, -36.8723829964431, 100.0 ], [ 174.835969993048451, -36.872374997166638, 100.0 ], [ 174.83574300617795, -36.872355998336083, 100.0 ], [ 174.83573499697124, -36.872355004435811, 100.0 ], [ 174.835518007274857, -36.872336996298749, 100.0 ], [ 174.835299998289628, -36.872319004410407, 100.0 ], [ 174.835294001803788, -36.87231899879518, 100.0 ], [ 174.835090000848766, -36.872302006930084, 100.0 ], [ 174.83488599848144, -36.872284999412386, 100.0 ], [ 174.834865001070767, -36.872283002763041, 100.0 ], [ 174.83471499715759, -36.872271005236449, 100.0 ], [ 174.834681997656162, -36.872268005940434, 100.0 ], [ 174.834583008316685, -36.87226000022202, 100.0 ], [ 174.834477995440267, -36.87225099771689, 100.0 ], [ 174.834451001564361, -36.872248995336911, 100.0 ], [ 174.834273994787878, -36.872234004440067, 100.0 ], [ 174.834069992744958, -36.872216996411659, 100.0 ], [ 174.834050007753916, -36.872216004296661, 100.0 ], [ 174.833866001321582, -36.872200991951402, 100.0 ], [ 174.833694005116314, -36.872186006670916, 100.0 ], [ 174.833661999772119, -36.872183997633208, 100.0 ], [ 174.833581994138001, -36.872176998711389, 100.0 ], [ 174.833470001490895, -36.872168005685573, 100.0 ], [ 174.83345799941975, -36.872167002944799, 100.0 ], [ 174.833366993521622, -36.872158999195896, 100.0 ], [ 174.833253998776883, -36.872149992586451, 100.0 ], [ 174.833246005317193, -36.872148998274582, 100.0 ], [ 174.833049997432937, -36.872132996308494, 100.0 ], [ 174.833042005120063, -36.872132002866451, 100.0 ], [ 174.833005992187736, -36.87241399762646, 100.0 ], [ 174.83266146427431, -36.872385304371306, 100.0 ], [ 174.832628004358469, -36.872711006697898, 100.0 ], [ 174.832370143020114, -36.872653020937626, 100.0 ], [ 174.832370323654857, -36.872652645901574, 100.0 ], [ 174.832210780993705, -36.872642000113508, 100.0 ], [ 174.832138761920703, -36.872664553420833, 100.0 ], [ 174.832090463536446, -36.87267968527604, 100.0 ], [ 174.832074995953775, -36.872625992580652, 100.0 ], [ 174.83205999734389, -36.872573004703348, 100.0 ], [ 174.832045005727281, -36.872518993703601, 100.0 ], [ 174.831987995604976, -36.872319997859279, 100.0 ], [ 174.831954000107032, -36.872331000035302, 100.0 ], [ 174.83193099423778, -36.872338004794827, 100.0 ], [ 174.831841993670793, -36.872366004220673, 100.0 ], [ 174.831670004684383, -36.872419994854958, 100.0 ], [ 174.831504996328192, -36.872471992045973, 100.0 ], [ 174.831547996557731, -36.872062994088196, 100.0 ], [ 174.831591995879876, -36.871649998606507, 100.0 ], [ 174.831611005713654, -36.87146999609265, 100.0 ], [ 174.831632994785338, -36.871267996592991, 100.0 ], [ 174.831667994777206, -36.870937003302586, 100.0 ], [ 174.831686007044965, -36.870767007411295, 100.0 ], [ 174.831711003906008, -36.870532992147218, 100.0 ], [ 174.831642005756407, -36.870537001418739, 100.0 ], [ 174.831093001922142, -36.870570994008652, 100.0 ], [ 174.831024996585654, -36.870575992607215, 100.0 ], [ 174.831040992277906, -36.870747997063532, 100.0 ], [ 174.831055995266922, -36.870902006384064, 100.0 ], [ 174.831070996842158, -36.871056000397516, 100.0 ], [ 174.831084003923223, -36.871192001196967, 100.0 ], [ 174.831084996706295, -36.87120999542153, 100.0 ], [ 174.831100008406224, -36.871362997800915, 100.0 ], [ 174.831114993377668, -36.871516992051802, 100.0 ], [ 174.831129995631272, -36.871671002254097, 100.0 ], [ 174.831137996505021, -36.871762006356732, 100.0 ], [ 174.831136000802758, -36.871780005177051, 100.0 ], [ 174.831128993427171, -36.871836001194822, 100.0 ], [ 174.831107996929177, -36.872002997382914, 100.0 ], [ 174.831076998091362, -36.87224800210587, 100.0 ], [ 174.831042995359269, -36.872520003847278, 100.0 ], [ 174.83103400726219, -36.872592001088499, 100.0 ], [ 174.831007000328526, -36.872598005563489, 100.0 ], [ 174.830750008174959, -36.872657995387783, 100.0 ], [ 174.830651999771021, -36.872679998264104, 100.0 ], [ 174.830444002545562, -36.87272899425772, 100.0 ], [ 174.830271003721691, -36.872768999847906, 100.0 ], [ 174.83017200231231, -36.87279199557392, 100.0 ], [ 174.83007999861502, -36.872812997841429, 100.0 ], [ 174.829974993162494, -36.872836994430635, 100.0 ], [ 174.829914999736104, -36.872850993200423, 100.0 ], [ 174.829889996183454, -36.872856993606817, 100.0 ], [ 174.829810996303365, -36.872875002153734, 100.0 ], [ 174.829699993887402, -36.872901004390947, 100.0 ], [ 174.829654005791269, -36.872911993211765, 100.0 ], [ 174.829508981265064, -36.872945373838675, 100.0 ], [ 174.829486016578244, -36.872950689298627, 100.0 ], [ 174.829318550467093, -36.872989499676514, 100.0 ], [ 174.82939656501577, -36.87320675440936, 100.0 ], [ 174.829196776463647, -36.873251937197139, 100.0 ], [ 174.829257991414039, -36.873375998707999, 100.0 ], [ 174.829080005085189, -36.87341700143746, 100.0 ], [ 174.829082997873115, -36.873423006007997, 100.0 ], [ 174.829083993849963, -36.8734300039429, 100.0 ], [ 174.829084998366881, -36.873435995859246, 100.0 ], [ 174.829083999642023, -36.873442005997269, 100.0 ], [ 174.829082006697007, -36.873448994064603, 100.0 ], [ 174.82908000505725, -36.873455006122668, 100.0 ], [ 174.829076005719656, -36.873459998883213, 100.0 ], [ 174.829071999005947, -36.873465999446914, 100.0 ], [ 174.829066998973985, -36.87347099319166, 100.0 ], [ 174.829061003789064, -36.873474997270861, 100.0 ], [ 174.829053997428389, -36.873477998411069, 100.0 ], [ 174.829046991002713, -36.873480996847881, 100.0 ], [ 174.829039993482183, -36.873483004582766, 100.0 ], [ 174.828875994414005, -36.873520997546549, 100.0 ], [ 174.828658996311134, -36.873346001845945, 100.0 ], [ 174.828488993547126, -36.873207993330816, 100.0 ], [ 174.828342995584762, -36.873090995668292, 100.0 ], [ 174.828328007448988, -36.873079000642456, 100.0 ], [ 174.828298003744209, -36.87312999827865, 100.0 ], [ 174.828190993148525, -36.87331600354873, 100.0 ], [ 174.828185992981133, -36.873324993768044, 100.0 ], [ 174.828114993881712, -36.873445992338858, 100.0 ], [ 174.828043001552487, -36.873569996771643, 100.0 ], [ 174.828002997998368, -36.873555003901039, 100.0 ], [ 174.827646008234325, -36.873422002680726, 100.0 ], [ 174.827631007370655, -36.873586000182037, 100.0 ], [ 174.827618998424924, -36.873712004647231, 100.0 ], [ 174.827592006401176, -36.874002006323742, 100.0 ], [ 174.827859995654393, -36.874102001047554, 100.0 ], [ 174.827806726959466, -36.874193962424137, 100.0 ], [ 174.82780041465125, -36.874204859303049, 100.0 ], [ 174.827764999759978, -36.874265996221283, 100.0 ], [ 174.827764761948828, -36.874266138685037, 100.0 ], [ 174.82776462811799, -36.874266219159843, 100.0 ], [ 174.82763820023942, -36.874445299373981, 100.0 ], [ 174.827507317341428, -36.87463066627673, 100.0 ], [ 174.827295383800163, -36.87454806603305, 100.0 ], [ 174.827260447975021, -36.874569065404849, 100.0 ], [ 174.827254006503637, -36.874572992434253, 100.0 ], [ 174.827228926487209, -36.874588481792102, 100.0 ], [ 174.827219996353534, -36.874593997386796, 100.0 ], [ 174.827118994760184, -36.874654006643979, 100.0 ], [ 174.827402007036852, -36.874970006418494, 100.0 ], [ 174.827428001483355, -36.874999005350496, 100.0 ], [ 174.827228000724773, -36.875119005957508, 100.0 ], [ 174.827187061153154, -36.875143953546356, 100.0 ], [ 174.82702273746753, -36.875242626693257, 100.0 ], [ 174.827097732677004, -36.875323061102328, 100.0 ], [ 174.827178352067165, -36.875409611934614, 100.0 ], [ 174.827194721036989, -36.875427187642828, 100.0 ], [ 174.827210555748565, -36.875444188403293, 100.0 ], [ 174.827372433286399, -36.87561798306168, 100.0 ], [ 174.827243950290466, -36.875690983302654, 100.0 ], [ 174.827236866967354, -36.875694532630369, 100.0 ], [ 174.827229316702585, -36.875697366270579, 100.0 ], [ 174.827221400023546, -36.87569946555179, 100.0 ], [ 174.82721323400105, -36.875700799830746, 100.0 ], [ 174.827204916511704, -36.875701333351429, 100.0 ], [ 174.827196583708258, -36.875701082947835, 100.0 ], [ 174.82718835004863, -36.875700049563633, 100.0 ], [ 174.827180317224702, -36.875698216312188, 100.0 ], [ 174.827172616962599, -36.875695649668948, 100.0 ], [ 174.827165350627013, -36.875692366101703, 100.0 ], [ 174.827158617034002, -36.875688416368071, 100.0 ], [ 174.827152517199522, -36.875683849389205, 100.0 ], [ 174.82714713311691, -36.875678716181497, 100.0 ], [ 174.827146871877574, -36.875678864412343, 100.0 ], [ 174.827146992791143, -36.875678995048659, 100.0 ], [ 174.827000182110567, -36.875761986948426, 100.0 ], [ 174.826963003369144, -36.875783003602734, 100.0 ], [ 174.826962471975094, -36.87578297301706, 100.0 ], [ 174.826847000171057, -36.8756589830246, 100.0 ], [ 174.826786383977236, -36.875695416772302, 100.0 ], [ 174.82667844997448, -36.875760299407894, 100.0 ], [ 174.826669483274088, -36.875765700153984, 100.0 ], [ 174.826611576658706, -36.875703524230453, 100.0 ], [ 174.826576846374422, -36.875665736238645, 100.0 ], [ 174.826544007313458, -36.875630005744959, 100.0 ], [ 174.826509002089011, -36.875650004587023, 100.0 ], [ 174.826409993502949, -36.875707006414345, 100.0 ], [ 174.826364007948001, -36.87573199434145, 100.0 ], [ 174.826373006874064, -36.875740993713251, 100.0 ], [ 174.826146001352981, -36.875864007104425, 100.0 ], [ 174.826218006989961, -36.875996992441891, 100.0 ], [ 174.826131996838114, -36.876042993568369, 100.0 ], [ 174.826047006397232, -36.876088994283108, 100.0 ], [ 174.825961997865903, -36.876134993413245, 100.0 ], [ 174.825877007196738, -36.876180993110246, 100.0 ], [ 174.82581200794408, -36.876217004305907, 100.0 ], [ 174.8258070015508, -36.876251997065921, 100.0 ], [ 174.825794992281828, -36.876385992556237, 100.0 ], [ 174.825564002232653, -36.876450995936395, 100.0 ], [ 174.825114008009905, -36.876425000251835, 100.0 ], [ 174.825112993863996, -36.876439002711457, 100.0 ], [ 174.825083992890711, -36.87645600390573, 100.0 ], [ 174.825046992240487, -36.876476997402875, 100.0 ], [ 174.825013006029394, -36.876496994578069, 100.0 ], [ 174.824943005611033, -36.876537999800028, 100.0 ], [ 174.824872001038415, -36.8765790068854, 100.0 ], [ 174.824771996033462, -36.876636999717206, 100.0 ], [ 174.824703998690296, -36.876315996118386, 100.0 ], [ 174.824675006517367, -36.876175000660368, 100.0 ], [ 174.824673997240637, -36.876091992598795, 100.0 ], [ 174.824673001444268, -36.87599300189639, 100.0 ], [ 174.824660004233152, -36.875946993786606, 100.0 ], [ 174.824613001059163, -36.875772992304945, 100.0 ], [ 174.824593998815118, -36.875703005415794, 100.0 ], [ 174.824560003198286, -36.875581993590011, 100.0 ], [ 174.82447300419949, -36.875459001587402, 100.0 ], [ 174.82438600558504, -36.875337994244532, 100.0 ], [ 174.8243050070827, -36.875224998583739, 100.0 ], [ 174.824299007572165, -36.87521700034312, 100.0 ], [ 174.824262999354829, -36.875165994302392, 100.0 ], [ 174.824013991407156, -36.875032000108227, 100.0 ], [ 174.8240059965743, -36.87502699426593, 100.0 ], [ 174.823704006826148, -36.875131002203737, 100.0 ], [ 174.823470994433279, -36.875210995572075, 100.0 ], [ 174.823341001619212, -36.874948005040366, 100.0 ], [ 174.823204992799106, -36.874675002721482, 100.0 ], [ 174.822977994393341, -36.874753004619237, 100.0 ], [ 174.822446007072443, -36.874936006857538, 100.0 ], [ 174.822326002783313, -36.874711004557859, 100.0 ], [ 174.822294997399467, -36.874653005231224, 100.0 ], [ 174.822089006254004, -36.874265005746906, 100.0 ], [ 174.822246005272433, -36.874211004616818, 100.0 ], [ 174.822403004062494, -36.874157003284765, 100.0 ], [ 174.822530005405952, -36.874113004331328, 100.0 ], [ 174.822635008012071, -36.874309006352966, 100.0 ], [ 174.823121994674608, -36.874188001641983, 100.0 ], [ 174.82305499922353, -36.874080993167986, 100.0 ], [ 174.823233993586683, -36.874018998208854, 100.0 ], [ 174.823167001110676, -36.873893003164419, 100.0 ], [ 174.823159001972641, -36.873877993430156, 100.0 ], [ 174.823097993287774, -36.873764006917106, 100.0 ], [ 174.823095000947774, -36.873758002183621, 100.0 ], [ 174.823088006609055, -36.87374500322273, 100.0 ], [ 174.823083994527906, -36.873739000616609, 100.0 ], [ 174.823017995394366, -36.873613995220943, 100.0 ], [ 174.82296299839274, -36.873470992597262, 100.0 ], [ 174.822879008140347, -36.873312996749313, 100.0 ], [ 174.822804000314534, -36.873172006385147, 100.0 ], [ 174.822793996968926, -36.873153002918237, 100.0 ], [ 174.82266499152874, -36.873197005844716, 100.0 ], [ 174.822624005492202, -36.873211004087963, 100.0 ], [ 174.822454007023168, -36.873269996590878, 100.0 ], [ 174.822394999262826, -36.873289999170133, 100.0 ], [ 174.82224999946888, -36.873282995359794, 100.0 ], [ 174.822180994663171, -36.873080994086422, 100.0 ], [ 174.822100996666819, -36.872848003157948, 100.0 ], [ 174.822069995520849, -36.872851997403266, 100.0 ], [ 174.821978998308651, -36.872863994391523, 100.0 ], [ 174.821973996009973, -36.872841994739638, 100.0 ], [ 174.821968003757661, -36.872828994761747, 100.0 ], [ 174.821932000041954, -36.872757002144041, 100.0 ], [ 174.821919994080389, -36.872719000353733, 100.0 ], [ 174.82191900726562, -36.872715004551736, 100.0 ], [ 174.821902001214227, -36.872660996938471, 100.0 ], [ 174.821888998491289, -36.872636996422919, 100.0 ], [ 174.821888002370684, -36.872631994874965, 100.0 ], [ 174.821878006518403, -36.872608005033179, 100.0 ], [ 174.821870994926655, -36.87259700541712, 100.0 ], [ 174.821865000522649, -36.872579993630104, 100.0 ], [ 174.821847001616732, -36.872552003806035, 100.0 ], [ 174.821839004699854, -36.872539006618943, 100.0 ], [ 174.821833005299538, -36.872530992920431, 100.0 ], [ 174.821833004969534, -36.872528995570129, 100.0 ], [ 174.821828999512832, -36.872515992158505, 100.0 ], [ 174.821826993792058, -36.872510002005356, 100.0 ], [ 174.821820005457312, -36.872491999568162, 100.0 ], [ 174.821822001661019, -36.872465995226641, 100.0 ], [ 174.821824004216438, -36.872459998592156, 100.0 ], [ 174.822045995966107, -36.872365993226651, 100.0 ], [ 174.822392000072341, -36.872137997594443, 100.0 ], [ 174.822008008874178, -36.872005995444852, 100.0 ], [ 174.820909992678025, -36.87186800405992, 100.0 ], [ 174.820000996390206, -36.871433000929102, 100.0 ], [ 174.819831994593301, -36.871390997945305, 100.0 ], [ 174.819636007577543, -36.87139399159927, 100.0 ], [ 174.819493999068499, -36.871351995639799, 100.0 ], [ 174.819378993902689, -36.871263004154372, 100.0 ], [ 174.819348008371151, -36.871173999586951, 100.0 ], [ 174.819337995005981, -36.87079099394424, 100.0 ], [ 174.819275003568777, -36.870499002328046, 100.0 ], [ 174.819121999939597, -36.870074001703621, 100.0 ], [ 174.819058007686124, -36.869758998856518, 100.0 ], [ 174.819056004514323, -36.86970499903358, 100.0 ], [ 174.819037000423975, -36.868993003207429, 100.0 ], [ 174.819005008484083, -36.868858994955552, 100.0 ], [ 174.818582998699839, -36.867762004141504, 100.0 ], [ 174.81855099813302, -36.867627005291673, 100.0 ], [ 174.81854100569754, -36.867266996560232, 100.0 ], [ 174.818617005173792, -36.866995000236322, 100.0 ], [ 174.818607996786966, -36.866635006160926, 100.0 ], [ 174.81854799798873, -36.866477994379927, 100.0 ], [ 174.818293995829123, -36.866126994577947, 100.0 ], [ 174.818225999534235, -36.866034000638088, 100.0 ], [ 174.818180179146225, -36.86590827964455, 100.0 ], [ 174.818190997054501, -36.865764006851485, 100.0 ], [ 174.818370250615686, -36.865585289771666, 100.0 ], [ 174.818650722048261, -36.865502659437986, 100.0 ], [ 174.819107456306028, -36.865506246701337, 100.0 ], [ 174.82136162382676, -36.866010081271298, 100.0 ], [ 174.822937189581268, -36.865907848954798, 100.0 ], [ 174.825978255734469, -36.865019182771199, 100.0 ], [ 174.828101867093409, -36.864806407006554, 100.0 ], [ 174.830404594309584, -36.864848182988347, 100.0 ], [ 174.831057446433448, -36.864921854270399, 100.0 ], [ 174.831338262799221, -36.865040160925673, 100.0 ], [ 174.831338298292195, -36.865040191023958, 100.0 ], [ 174.83149320144534, -36.865105446677774, 100.0 ], [ 174.831781271599084, -36.865226818554689, 100.0 ], [ 174.832282304319762, -36.865336165609129, 100.0 ] ] ] } }
]
}
