<?xml version="1.0" encoding="utf-8" ?>
<kml xmlns="http://www.opengis.net/kml/2.2">
<Document id="root_doc">
<Folder><name>Alfriston.final</name>
  <Placemark id="Alfriston.final.1">
	<name>Alfriston (polygon: official_shp)</name>
	<description></description>
	<Style><LineStyle><color>ff0000ff</color></LineStyle><PolyStyle><fill>0</fill></PolyStyle></Style>
      <Polygon><outerBoundaryIs><LinearRing><coordinates>174.95958106735,-37.0020459547003 174.957727297899,-37.0027005318837 174.957095594922,-37.0031610030486 174.954361231931,-37.0065424638729 174.956939611605,-37.0117646554175 174.958392794771,-37.0148341208738 174.954353184693,-37.0159853731156 174.956558248062,-37.0206186679441 174.951921782144,-37.0219949348262 174.949777062735,-37.0175341322473 174.947016163514,-37.0183298838404 174.945863906337,-37.0162732019378 174.945886171433,-37.016080448756 174.944875333593,-37.0146755556998 174.944772955491,-37.0147127207529 174.945748053705,-37.0160679554085 174.941624331887,-37.0173503837282 174.941423846612,-37.0169237255567 174.940599984946,-37.0172228882461 174.94046995441,-37.0169458276864 174.939851568926,-37.0171676438387 174.939627285513,-37.0166899454136 174.939437475738,-37.0168002389497 174.939943612296,-37.0178779451773 174.925700004336,-37.0223930024016 174.923086992117,-37.0170670039531 174.922897992208,-37.0170120076207 174.92042999592,-37.0178000022368 174.919732737404,-37.0163867503677 174.919283149734,-37.015628932599 174.919952809912,-37.0153888918967 174.920114191358,-37.0156968545581 174.920383008369,-37.0156021039832 174.920456379495,-37.0157374136705 174.920796928556,-37.0155925098948 174.921026571426,-37.0154435335984 174.920612367118,-37.0150808988645 174.921639388659,-37.0147542027459 174.921495842785,-37.0144897222309 174.921810941246,-37.0143820945866 174.920593838645,-37.0121391402306 174.919021000779,-37.0126863535584 174.917928572775,-37.0106731759986 174.919019065341,-37.0101788416747 174.918801005872,-37.0097749948987 174.919336999976,-37.0094880006657 174.919789999838,-37.009087005726 174.919950007835,-37.0093789950103 174.923366996834,-37.0082380013907 174.924621996581,-37.0105190036839 174.926944105953,-37.0097088263031 174.929865107733,-37.0086144334302 174.930338507461,-37.0091385015502 174.931952392729,-37.0079460837006 174.933144405772,-37.0063105144078 174.933383400548,-37.0061959450917 174.934342400418,-37.0068192846786 174.934413004832,-37.0067484541201 174.934282995441,-37.0062401472554 174.934838900387,-37.0056826740614 174.9363252954,-37.0046289597144 174.936453092492,-37.0051818309164 174.937665604361,-37.0056310234236 174.938970204418,-37.0058592520293 174.939670405964,-37.0057911243372 174.939265392704,-37.0035002677493 174.939059897838,-37.0016970318419 174.939291007497,-37.0010813446835 174.939187003368,-37.0005939021965 174.938731599804,-36.9998249386974 174.938629993164,-36.99950490162 174.938691596472,-36.9989631829682 174.939236305739,-36.9985338904189 174.939392905405,-36.9983459642645 174.939399391102,-36.9981387828771 174.939191598491,-36.9980174625793 174.938870507367,-36.9980109946377 174.93889460449,-36.9972282555869 174.937938494453,-36.9966099518802 174.938524192213,-36.99632970631 174.938910807856,-36.9957665709098 174.941853505388,-36.9965348128286 174.941852407674,-36.9965662257563 174.959540005111,-37.0018680040898 174.95958106735,-37.0020459547003</coordinates></LinearRing></outerBoundaryIs></Polygon>
  </Placemark>
</Folder>
</Document></kml>
