<?xml version="1.0" encoding="utf-8" ?>
<kml xmlns="http://www.opengis.net/kml/2.2">
<Document id="root_doc">
<Folder><name>Ardmore.final</name>
  <Placemark id="Ardmore.final.1">
	<name>Ardmore (polygon: official_shp)</name>
	<description></description>
	<Style><LineStyle><color>ff0000ff</color></LineStyle><PolyStyle><fill>0</fill></PolyStyle></Style>
      <Polygon><outerBoundaryIs><LinearRing><coordinates>174.984226005683,-37.0129600031776 174.987183007598,-37.0191319984275 174.988073993251,-37.019050004997 174.988300003422,-37.0189799948873 174.991654008117,-37.0226349984318 174.995042003243,-37.0206269991676 175.000056000465,-37.0253689947513 175.001715998203,-37.0246780049277 175.002828996293,-37.0264489998037 175.003445993267,-37.0262510048467 175.004511992982,-37.0279769929604 175.004695002771,-37.0278420005799 175.004730992007,-37.0279000029546 175.004860002538,-37.0277100035653 175.005041991969,-37.0275949931881 175.005066993539,-37.027508002978 175.00524499453,-37.0274729974526 175.005336007176,-37.0272099931424 175.005426005168,-37.0272010053728 175.005597005248,-37.027298996048 175.00571899284,-37.0272920033895 175.005857994769,-37.0272250073065 175.005914995087,-37.0271410025494 175.006752996137,-37.0269950028279 175.006853993862,-37.0268940004066 175.007044996354,-37.0268830041999 175.00724300779,-37.0267459957152 175.007500001655,-37.0267000009461 175.007572998545,-37.026645992559 175.007784993436,-37.0266430029078 175.008070004339,-37.0267889985808 175.008208003077,-37.0267299949355 175.008515006032,-37.0268409997267 175.008580996693,-37.0267650044357 175.008577007747,-37.0266299954434 175.008844997244,-37.0267260019592 175.008913996199,-37.0269109938982 175.00919400346,-37.0268679927372 175.013114992654,-37.0346190029436 175.006938004129,-37.0365759960652 175.008814004306,-37.0405349995413 175.011022005016,-37.044969001439 175.011413991916,-37.0450330019163 175.012245995085,-37.045521992109 175.01293599458,-37.0455900084164 175.013761003222,-37.0459260065721 175.014878004431,-37.046660997425 175.016027005225,-37.046827995606 175.018087000501,-37.0487509961089 175.018720002202,-37.0500360012388 175.020309998257,-37.0495519972841 175.021017004081,-37.0521089932494 175.021176999485,-37.0550250026401 175.019383007592,-37.0553309971383 175.01945599298,-37.0557700006088 175.019183992662,-37.0559730022641 175.019657008027,-37.0561200023563 175.019648007274,-37.0559400015473 175.020325003227,-37.0559609957558 175.01994599665,-37.0569520011703 175.020420999212,-37.0574929982139 175.020397992011,-37.0576599953176 175.021150000156,-37.0582679958325 175.021522993247,-37.0584229974159 175.024491992747,-37.0575240020673 175.025430005398,-37.0594070005642 175.02500700568,-37.0597909998928 175.02521500838,-37.0598119984294 175.024930004542,-37.0600689973914 175.023531005486,-37.0603459961626 175.023301997521,-37.0603199958956 175.023195003544,-37.060248994556 175.023241996447,-37.0603269987551 175.023380005744,-37.0603789928076 175.023879992561,-37.0603710009608 175.024082001346,-37.0607320038193 175.024030003204,-37.0609839956751 175.023704999068,-37.0611439948641 175.02348300402,-37.0618519936163 175.023069996749,-37.0621320010182 175.023235003557,-37.0624310003721 175.02315399632,-37.0627629975751 175.023084004762,-37.0628510010793 175.02293300384,-37.0629200060021 175.022384007808,-37.062897000409 175.022031006317,-37.0629940000835 175.021915001247,-37.0631300019293 175.021862002653,-37.0634590007251 175.021509992378,-37.0635730008206 175.021219999051,-37.0638129995954 175.021180991946,-37.0639480036608 175.021319007999,-37.0642430007876 175.021300996956,-37.0644879940822 175.021243007519,-37.0645579925804 175.021070002982,-37.064623003559 175.020981998399,-37.064755000544 175.020754997375,-37.0651800042884 175.020737008192,-37.0655090016641 175.020285992256,-37.0658979936113 175.0201400088,-37.066167000563 175.020114998899,-37.066322992703 175.020230998413,-37.0664290021173 175.020421999001,-37.0663869963358 175.020639994738,-37.0661019989466 175.020807992649,-37.0659980043791 175.020987996388,-37.0660400057928 175.021070005729,-37.0661939919342 175.020659004929,-37.0670609945817 175.020660004506,-37.0674869945764 175.02050900478,-37.0679029957487 175.020527005068,-37.0681340002109 175.020403002334,-37.068449000017 175.020287007457,-37.0692700019977 175.020491004651,-37.0697390009929 175.020397002696,-37.0706409973088 175.020534998542,-37.0711049974537 175.020506001193,-37.0712459926694 175.020427998438,-37.0712999925611 175.020299999758,-37.0712790009021 175.019951000939,-37.0710930074175 175.019259998588,-37.071019005703 175.019010993498,-37.0708729986161 175.018918003867,-37.0707450017219 175.018870007447,-37.0703580053949 175.018655001703,-37.0703600005775 175.018424999543,-37.0702969936256 175.018239007802,-37.0703549952514 175.017917002684,-37.0700589966014 175.017255005891,-37.0704419962286 175.011542998655,-37.0707580058415 175.011403995312,-37.0702000045565 175.012634998207,-37.066744002433 175.012342008143,-37.0656989990688 175.012371004746,-37.0650120049791 175.011755007102,-37.0644519971985 175.011711998467,-37.0645750062183 175.011003002389,-37.0649779998814 175.010281991029,-37.0658019925515 175.009123006393,-37.0664199960127 175.008294994722,-37.0669329970235 175.007291001904,-37.0673880063656 175.006732996487,-37.0679339979914 175.005434994825,-37.0662580058276 175.004689006758,-37.0651449929068 175.001495005115,-37.0609109943571 174.998559996492,-37.0572739935926 175.004496004022,-37.0553330073972 175.002390008633,-37.0508769966337 175.000161004206,-37.0515839933875 174.999204998804,-37.0518419955944 174.996712995155,-37.0468579986892 174.991462995965,-37.0484759915995 174.985805991982,-37.0504999956494 174.982558996395,-37.0494140034292 174.982690002222,-37.0442479972698 174.979276006811,-37.0453229940859 174.977829993614,-37.043791993562 174.977202006706,-37.0448329995751 174.976661992238,-37.0455160038546 174.97642400873,-37.04553399859 174.976290001198,-37.0453649951695 174.976025004327,-37.0454670057387 174.97557700374,-37.045305996902 174.975232000955,-37.0455260074051 174.97494400878,-37.046268993415 174.975041997834,-37.0464689950172 174.974177998643,-37.0467420003758 174.973389000257,-37.0451369921698 174.969151003662,-37.0464730074163 174.967509003076,-37.0433170051576 174.963231007316,-37.0446950067053 174.963184003748,-37.0445950043405 174.961106992349,-37.0450989957197 174.959483992162,-37.0418030060836 174.952862001226,-37.0434349957627 174.95163500262,-37.0410000043877 174.951612992709,-37.0407559956453 174.951737996279,-37.0405299982575 174.951320002749,-37.0403750020311 174.949650002232,-37.0370569988178 174.95177100408,-37.0363989963953 174.950563991621,-37.0339470029409 174.948419002809,-37.0346139945684 174.948160004306,-37.0341019969336 174.948625002893,-37.0339509962334 174.94844399491,-37.0335760051432 174.948032994223,-37.0337039951529 174.947992002562,-37.0335219977966 174.949712994708,-37.0329859986436 174.948824994273,-37.0305359915939 174.950210000228,-37.0301550003621 174.949245994504,-37.0279160011579 174.962724583655,-37.023834669068 174.961791602542,-37.0219085604129 174.968721420815,-37.0197476353102 174.966226366665,-37.0165722692037 174.962612841286,-37.0184018740277 174.961900902569,-37.0162208062278 174.959544601902,-37.0169426868139 174.960542611406,-37.0190370818576 174.960413944295,-37.0190764866111 174.956939611605,-37.0117646554175 174.954361231931,-37.0065424638729 174.957095594922,-37.0031610030486 174.957727297899,-37.0027005318837 174.960290003176,-37.00179099871 174.962802998806,-37.006933003599 174.962932999732,-37.0068949966308 174.962997001768,-37.0067719979272 174.962882008795,-37.0063710062838 174.96292299339,-37.0062680005958 174.963022997194,-37.0062879951469 174.963066005227,-37.0065069976359 174.963194999747,-37.006605994855 174.963300997163,-37.0066120037382 174.963610997706,-37.0064709952149 174.963647995883,-37.0063850050172 174.963606001031,-37.0062419966929 174.963732999173,-37.0061540031744 174.963819992234,-37.0061700042509 174.963928996896,-37.0063969945481 174.964038004548,-37.006432994004 174.964115002781,-37.0063989978486 174.964282004241,-37.0060429967357 174.964470997531,-37.006276992876 174.964316007764,-37.0063220064046 174.96425700343,-37.0064140014353 174.964307993505,-37.0066789959335 174.964445991758,-37.0067700077411 174.964571000165,-37.0067569934372 174.964776001408,-37.0064169976383 174.964820997023,-37.0065779943326 174.964971992684,-37.0067020056894 174.965037998412,-37.0068749957454 174.965377999555,-37.006928006742 174.965406994615,-37.0072730052305 174.965543995826,-37.0074010024349 174.965850000256,-37.007351002103 174.966126996232,-37.0070679932844 174.966210001632,-37.0070529973581 174.96627599274,-37.0070750002822 174.966229993078,-37.0072640069652 174.966283992973,-37.0073389929098 174.966385007915,-37.0074069933025 174.966731995215,-37.0074210009431 174.967035996395,-37.007781001558 174.967225993642,-37.0077740064384 174.967657996108,-37.0076540041888 174.967779994323,-37.0077599991194 174.96814600632,-37.0079099933529 174.968939003694,-37.0079020011282 174.969078002993,-37.0079619989243 174.969000994382,-37.0081470012308 174.969102993514,-37.0082699915851 174.969223999402,-37.0082659976446 174.969381003428,-37.0081849952586 174.969545997116,-37.0083310013789 174.969785008286,-37.0083510041932 174.970188003193,-37.0086730045621 174.970487006379,-37.0086299961891 174.970746003975,-37.0086489990436 174.970925996115,-37.0088189997431 174.971247993946,-37.0089010044012 174.9715039938,-37.0090460039264 174.971346005916,-37.0096089956618 174.972372002057,-37.010106001105 174.972108992494,-37.0116200066293 174.973304007079,-37.0117220043467 174.982309992463,-37.0089579963664 174.984226005683,-37.0129600031776</coordinates></LinearRing></outerBoundaryIs></Polygon>
  </Placemark>
</Folder>
</Document></kml>
