<?xml version="1.0" encoding="utf-8" ?>
<kml xmlns="http://www.opengis.net/kml/2.2">
<Document id="root_doc">
<Folder><name>Beachlands.final</name>
  <Placemark id="Beachlands.final.1">
	<name>Joined Boundary</name>
	<description></description>
	<Style><LineStyle><color>ff0000ff</color></LineStyle><PolyStyle><fill>0</fill></PolyStyle></Style>
      <Polygon><outerBoundaryIs><LinearRing><coordinates>174.99955574793,-36.8764535508626 175.000154937495,-36.8767229645905 175.000380252238,-36.8768981495676 175.000891257924,-36.8771387262016 175.0012291583,-36.8773568360445 175.00140936294,-36.8775384129753 175.001615008286,-36.8775871770884 175.001926457753,-36.8777831474238 175.002377614475,-36.8779817986291 175.002723704446,-36.8782248421796 175.003149151953,-36.8782384404313 175.003404771975,-36.8784858357344 175.003588757892,-36.8785271292943 175.004103727229,-36.8785308437605 175.004456049589,-36.8784045426638 175.005224942829,-36.8785553309364 175.005345706493,-36.8786062026526 175.005397184207,-36.878756516854 175.005605511824,-36.8789268959214 175.006005814719,-36.8791469657426 175.007239825373,-36.8789238674168 175.008220170047,-36.878601673266 175.008601099558,-36.8783824610174 175.008901792742,-36.8783969744266 175.009413004706,-36.878014997879 175.009608000261,-36.8779660023015 175.009861004344,-36.8779839978068 175.010203997652,-36.8781810023176 175.010600997767,-36.8783310053306 175.011818006548,-36.8786910049607 175.012020000694,-36.878890003426 175.012024000058,-36.8790019975854 175.01150300597,-36.8794180056827 175.01131399232,-36.8796360031749 175.01143000375,-36.8798019996973 175.011824000408,-36.8798400009291 175.012533005111,-36.880095993313 175.013799997236,-36.8802290015423 175.014111002093,-36.8803360034172 175.014285000912,-36.8805359970585 175.014586007802,-36.8812060044191 175.014569998079,-36.8816120023471 175.014971007717,-36.8818630044267 175.015277993786,-36.8819789977871 175.015686995744,-36.8820730052269 175.016080994115,-36.8820649940748 175.017820006501,-36.881706999696 175.018346999997,-36.882104992358 175.018846999957,-36.8823609994206 175.019079008283,-36.8827239982257 175.019240998373,-36.8831419981519 175.019143996862,-36.8833849951837 175.018456998799,-36.8836610057458 175.01811800746,-36.8838959938354 175.01857100563,-36.8836549945794 175.019061998441,-36.8835339962239 175.019256008566,-36.8835290039799 175.01941799421,-36.883577993187 175.019628600838,-36.8839160991982 175.020077902553,-36.8837914440667 175.020016991895,-36.8836489934067 175.020037002593,-36.8834310029415 175.020219006987,-36.8832179997526 175.0206820077,-36.8831159925819 175.020944992894,-36.8831910072769 175.021396992784,-36.8831969973932 175.021808999342,-36.8832849964196 175.021954995499,-36.8833589986517 175.022267007017,-36.883711005916 175.022659001208,-36.8835759963268 175.022556994687,-36.8833699920392 175.022349001068,-36.8831979947464 175.022291000085,-36.8829620063609 175.022004002128,-36.8828420029921 175.021917996582,-36.8827379974242 175.02168600176,-36.8827089953006 175.021643995153,-36.8825849942754 175.021675004909,-36.8823680060932 175.02142999834,-36.8823109961 175.021125004763,-36.8821130051143 175.020663005022,-36.882191995667 175.020616008035,-36.8821009983139 175.020648992444,-36.8819079955776 175.020132004637,-36.8823229922609 175.020167003211,-36.8823690043382 175.02028800411,-36.8823820045588 175.020694993254,-36.8823510001384 175.020736997721,-36.8824660029562 175.020207002403,-36.8827940003799 175.01992699593,-36.8828220012433 175.019740997414,-36.8827560051234 175.019378998589,-36.882397999852 175.019247993999,-36.8821750020248 175.018605999738,-36.8816929969121 175.018027991429,-36.8809369973704 175.017952002294,-36.8807240006774 175.01793600008,-36.8801609957317 175.018048999905,-36.8796740027147 175.018266000051,-36.8793879927054 175.019030002988,-36.8786190002536 175.019024005349,-36.8784160060639 175.018877004735,-36.8781929964498 175.018985997756,-36.8780219946464 175.019312996296,-36.8777120015405 175.019308993996,-36.8775769939101 175.01949999557,-36.8773479957465 175.020772008528,-36.8770600026814 175.02150299396,-36.8770980074153 175.022464006931,-36.8775989937392 175.023116007171,-36.8776659986361 175.023516995821,-36.8779529973148 175.023883004863,-36.8780129926542 175.024161994576,-36.8779749964534 175.025051998526,-36.8776650039036 175.025681993083,-36.8775980035969 175.026171762438,-36.8776142656128 175.027388497505,-36.877460304023 175.027652914227,-36.8774640479305 175.028284685873,-36.8773148065639 175.028933615242,-36.8770808483574 175.02953120525,-36.8770624142492 175.02975448789,-36.8769112401281 175.030307314777,-36.8771126374019 175.030683728517,-36.8771421537899 175.03227320669,-36.8770632450167 175.033407810513,-36.8768955374045 175.034922584927,-36.876481350366 175.036000735386,-36.8760524209804 175.036083455446,-36.8759504144255 175.036255706881,-36.8758926475921 175.036499045999,-36.8757085126227 175.036813495311,-36.875337049205 175.037085755216,-36.8752049351126 175.037387463218,-36.8749724647285 175.037618978335,-36.8747421168951 175.03772765958,-36.8745400350107 175.038091843854,-36.8743219683493 175.038359135156,-36.8747387388161 175.03861252783,-36.8749885179559 175.039299761749,-36.8755027858106 175.039863692875,-36.8756861182523 175.039938198909,-36.8758533631562 175.040319477908,-36.8763250273041 175.040291284003,-36.8764445967564 175.040478555709,-36.8765405052574 175.040579834785,-36.8766787177153 175.040594698245,-36.8767979108335 175.040871446807,-36.8770314009718 175.041162304335,-36.8776764151004 175.041324445802,-36.8779185663183 175.041750608377,-36.8780955925429 175.041825165231,-36.8784415504024 175.041810806692,-36.878743878679 175.042083738067,-36.8793995731709 175.042339237828,-36.879672010426 175.04290518037,-36.8800946855796 175.043543512174,-36.8804841832021 175.043831876618,-36.8806080105882 175.0443375397,-36.8799170357113 175.044421623808,-36.879951352187 175.043954658616,-36.880669523429 175.044091939718,-36.8807575867786 175.044908902697,-36.8810195298834 175.047020105618,-36.8813653922214 175.047945996031,-36.8813059933865 175.050245993186,-36.8812909926015 175.05075000592,-36.881258994822 175.051356004087,-36.8810969979846 175.052090999705,-36.880526004011 175.052735003594,-36.8804679942802 175.052793001415,-36.8805119965483 175.052716006557,-36.88080699516 175.053322995213,-36.8817230008654 175.053823994566,-36.8822299928008 175.054208007582,-36.8824490023631 175.054705007274,-36.8826420043032 175.055211991327,-36.8827009995525 175.055872993799,-36.8822599931164 175.056041997931,-36.8822799934074 175.056128997481,-36.8823680025651 175.056053998348,-36.882729997134 175.056851251471,-36.8837776045798 175.057363216746,-36.8835303806041 175.057415818543,-36.8836011848153 175.056909366458,-36.8838589461508 175.057166992611,-36.884367996787 175.057614001828,-36.8847419959197 175.058137998284,-36.8849470020084 175.058310000757,-36.8850800020413 175.058473002822,-36.8853590073708 175.058660003051,-36.8860309943324 175.05878000186,-36.8872920008727 175.058970991899,-36.887888997673 175.059159001371,-36.888311006878 175.059421993393,-36.8886669936422 175.059897007634,-36.8895599938672 175.06033199656,-36.8900480014276 175.060614996309,-36.8911260057066 175.061495998936,-36.8922770039214 175.061771993553,-36.8928290008944 175.061783003591,-36.8932129993125 175.061654002167,-36.8935979986345 175.061659993622,-36.8938009932977 175.062173004688,-36.8945809923488 175.062397991874,-36.894804003835 175.062030002119,-36.8950329957888 175.048710000183,-36.8993369960518 175.042251006338,-36.8936869917762 175.042796993347,-36.8926050041291 175.034402002636,-36.8909809985566 175.033469995759,-36.8937309984395 175.03201100121,-36.8987319998506 175.021446995171,-36.8967079986474 175.019641997989,-36.9026800065734 175.020702998341,-36.9027780050868 175.020897999359,-36.9028810035545 175.021005996126,-36.9030189989117 175.021293001883,-36.9032299966529 175.021677000319,-36.9034560040648 175.022107997613,-36.9036229932381 175.02258199425,-36.9037199953735 175.02285699716,-36.9038289943742 175.023719998364,-36.9044680053376 175.024304003576,-36.9050940046113 175.024884006045,-36.9054899917776 175.025264007978,-36.9056560018055 175.025475992795,-36.9058189997881 175.02582799696,-36.9058480004455 175.025990001835,-36.9059400057072 175.026266994633,-36.9059400037472 175.026501006836,-36.9058230042194 175.026643992059,-36.9058039929944 175.026834005471,-36.9054609976298 175.027214994537,-36.9054389934424 175.02768999581,-36.9055080003771 175.028278000501,-36.9058649925661 175.028448993675,-36.9064439935768 175.028676998913,-36.9068300051 175.028905996753,-36.9069670002375 175.029409007892,-36.9070410068971 175.029652994206,-36.9071600023797 175.029953998132,-36.9074230037419 175.030073996132,-36.9076299968769 175.031750996244,-36.9064109985725 175.035227000599,-36.9083329933865 175.035427008696,-36.9080909931292 175.035809999048,-36.9080090005692 175.04699799429,-36.9077289990405 175.051502993011,-36.9195380039524 175.053125994792,-36.9200509940406 175.051954994347,-36.9234130022079 175.049719006943,-36.9301930049969 175.038346996766,-36.9281509932197 175.035295999269,-36.9360229965789 175.016903993994,-36.9327280022695 175.015926998031,-36.9251079959681 175.009214997164,-36.9245649925715 175.008824991818,-36.928213996246 175.001966993686,-36.9277049978382 175.002134999254,-36.9275490008871 175.002266004461,-36.9270559954102 175.002474993542,-36.9266959971115 175.00244500643,-36.9264099985958 175.001860006451,-36.9265550055642 175.00152100762,-36.9264999989858 175.001272997752,-36.9263510034436 175.001144005287,-36.9261150008749 175.000694004118,-36.9255999986243 175.000739992309,-36.9251459986736 174.999629000016,-36.9249419959631 174.998985997563,-36.9247609926223 174.999012007631,-36.9247319997382 174.998786001789,-36.9246009932715 174.998600005967,-36.9242459949871 174.998293006824,-36.9239520031032 174.997698993229,-36.9244520066698 174.997582999859,-36.9242710048737 174.997833991272,-36.9239630068535 174.997425993039,-36.9238669936285 174.996862008749,-36.9235090010818 174.997181994979,-36.923495995359 174.997248995255,-36.9230739933434 174.997134003676,-36.922865002304 174.997148001141,-36.9227830008528 174.997349000929,-36.9225780044027 174.997635002243,-36.922614005973 174.997745001476,-36.9225219946351 174.997822993783,-36.922340003159 174.997868007128,-36.9219559946123 174.998233997512,-36.9210479926267 174.998029003727,-36.9207370033825 174.99776800698,-36.9204709998439 174.997664000945,-36.9197969935712 174.997547001015,-36.9196410069493 174.99703599221,-36.9194480043701 174.996560000008,-36.9194799921514 174.996416996874,-36.91937000057 174.996398998798,-36.9187849960992 174.996105999789,-36.9183619926662 174.996097005773,-36.918091993972 174.996146003068,-36.9178199965701 174.996281997812,-36.9176829955529 174.996478994229,-36.9177019935925 174.99664999815,-36.9177880048044 174.996928006891,-36.9177149987017 174.997266003538,-36.9177539927185 174.997611005381,-36.9180179986357 174.997689996222,-36.9178360039032 174.997624998443,-36.9175440066791 174.997195007137,-36.917213994804 174.996911999217,-36.9171289963467 174.996718994524,-36.9172459996183 174.996384005006,-36.9173199929262 174.996273994435,-36.9174120031871 174.996107006586,-36.9174380016927 174.995385994022,-36.917766997337 174.995303994572,-36.9178360025772 174.994986999245,-36.9184960045638 174.994876005806,-36.9185210011472 174.994296004645,-36.9179000031965 174.994227995334,-36.9174959920218 174.994285994774,-36.9166160058902 174.994109000678,-36.9163260062903 174.994130992274,-36.9161459921175 174.994185999035,-36.9161000041785 174.994714007118,-36.9159320003621 174.995153002809,-36.9155850012934 174.995392997241,-36.9151300013735 174.99588499398,-36.9147149935892 174.996023991666,-36.9137209958738 174.996158001386,-36.9134929968323 174.996331005742,-36.9136469918405 174.9964009954,-36.9140969945488 174.996862005136,-36.9145160018689 174.99712600592,-36.9149170031136 174.997187994205,-36.9150959965766 174.997059995127,-36.9155270058474 174.997081001908,-36.9162249993253 174.996919005769,-36.9164309969122 174.996922991836,-36.9165879979546 174.997040995971,-36.916789004701 174.997213000279,-36.9169209944404 174.99794600103,-36.9170190058497 174.998109991232,-36.916857993362 174.99850999869,-36.9151839963189 174.998345000558,-36.9143749947639 174.998050992268,-36.9139079985793 174.998124992695,-36.913590997624 174.998400998671,-36.9134279962864 174.998480000184,-36.9132459999095 174.998047992694,-36.9128489983411 174.997953007612,-36.9125120060391 174.997776995784,-36.9122449937986 174.997764999805,-36.9118399971147 174.99745999506,-36.9113320071988 174.996509001714,-36.9101739990885 174.995985997046,-36.9086740003844 174.995257998773,-36.9077190064073 174.995060007849,-36.9076999938371 174.994887992427,-36.9075910010231 174.99473899213,-36.9072779998167 174.994314993597,-36.9071729958108 174.994056995174,-36.9069760047498 174.993588998587,-36.9063530059282 174.992936001694,-36.9060949976448 174.992649001193,-36.9058519972107 174.992174997374,-36.9050279978897 174.992171993502,-36.9049160008513 174.992332991834,-36.904709997444 174.992353996009,-36.9044619964444 174.992297002594,-36.9044180063001 174.991958998658,-36.904379000071 174.991596001487,-36.9044530002261 174.991368007218,-36.9042999936639 174.991387995763,-36.9040289968055 174.991828997558,-36.9037499934162 174.991961998328,-36.9035450008277 174.991929001501,-36.9033099956516 174.991340992423,-36.9033990061178 174.991000007848,-36.9032709990746 174.990748001231,-36.9032749963498 174.990641001992,-36.9034570065767 174.990649000772,-36.9037280002401 174.990513003554,-36.9038649940309 174.990345002248,-36.9038689957516 174.990173007135,-36.9037820035541 174.990033996484,-36.9038290069732 174.990074005847,-36.9041889926956 174.990305994128,-36.9044550026001 174.990972007028,-36.904664000087 174.990734995559,-36.904763001268 174.990398999954,-36.9047690068413 174.989976005784,-36.9046869994276 174.989572000798,-36.9043120025529 174.989418998728,-36.903885995213 174.989445995401,-36.9028719942336 174.989208999307,-36.9024930003611 174.98849600063,-36.9020780045792 174.988234993548,-36.9018130048253 174.988196998374,-36.9014529971271 174.987628007695,-36.9002470059202 174.987277001485,-36.8997799942831 174.986646001816,-36.8992969955927 174.986633004708,-36.8988230053775 174.987004999932,-36.8981399929629 174.987951992295,-36.8960040046465 174.988124008066,-36.8951899951095 174.988328000843,-36.893541006277 174.988315004098,-36.8931129979026 174.988424992034,-36.8930430025972 174.988011717182,-36.8924498459075 174.98864285527,-36.8918245600843 174.98875547938,-36.8910221565622 174.988405288618,-36.8914272846283 174.987563138471,-36.8916284447584 174.986898884123,-36.8912994634259 174.986667875434,-36.8913274445806 174.985491946636,-36.8907606155974 174.985240885337,-36.8901846225438 174.985908985624,-36.8892749278286 174.985704772163,-36.889059602717 174.985473355588,-36.8884673446381 174.98526954304,-36.8881692918121 174.984212481308,-36.8878856298398 174.986336596577,-36.8875033283334 174.98649387896,-36.8880359556937 174.987606871753,-36.8879509577646 174.986724005398,-36.8867199981423 174.98653600279,-36.8860789959624 174.986045994335,-36.8856289982164 174.98559599198,-36.8855919992447 174.985197000889,-36.8853519971352 174.984657006894,-36.8851370057291 174.984429795647,-36.8847541216133 174.983928008767,-36.8831025774089 174.98389289809,-36.8828309641636 174.984007488019,-36.8824609262789 174.983965767103,-36.8818829983816 174.983562381343,-36.8813832993725 174.985086585603,-36.8815595416541 174.985277342617,-36.8814165618043 174.985931515691,-36.8806878596288 174.986245256095,-36.8808237834322 174.986580018116,-36.8808984219016 174.987156045753,-36.8809465154055 174.987340701193,-36.8809154785866 174.987799161166,-36.8810593195584 174.988479983632,-36.8809842450076 174.988513322994,-36.8810801512111 174.988554867384,-36.8809985904297 174.98856940059,-36.8810859353456 174.988646720942,-36.8810547644306 174.988648865086,-36.8811252234303 174.988709526104,-36.8811226234141 174.988814718995,-36.8809613073983 174.988902619717,-36.8809411840704 174.988886198916,-36.8808676734299 174.988919630981,-36.8809000618972 174.989359513643,-36.8809188503478 174.989635305986,-36.8807895553595 174.990218254995,-36.8810447151679 174.990522576853,-36.8810851178419 174.991775827627,-36.8809681193481 174.993215925364,-36.8807365603161 174.993423413339,-36.8806347812294 174.993966491328,-36.8805837685761 174.994565314566,-36.8803543807647 174.994672917242,-36.8802567470683 174.994711313004,-36.8801614245516 174.99468535385,-36.8796928004002 174.994797219677,-36.8796319792036 174.994764238971,-36.8795343491234 174.994832453388,-36.8794979364111 174.994966523068,-36.8795876318259 174.995174550804,-36.8795164589693 174.995180942538,-36.8793813511391 174.995452179918,-36.8791596343829 174.995604943646,-36.8791952908533 174.995837138527,-36.8789258334159 174.996077642337,-36.8788698718277 174.996381635527,-36.8787029167074 174.997159353993,-36.8789435315801 174.9974863414,-36.878923856286 174.998147105763,-36.8786861499926 174.998403342008,-36.8785264986594 174.998459720583,-36.8784328733646 174.99879750126,-36.8782141504129 174.999079835593,-36.8777766940137 174.998856116764,-36.877284491939 174.998852460624,-36.8770769013788 174.999197488854,-36.876833277566 174.99955574793,-36.8764535508626</coordinates></LinearRing></outerBoundaryIs></Polygon>
  </Placemark>
</Folder>
</Document></kml>
