<?xml version="1.0" encoding="utf-8" ?><kml xmlns="http://www.opengis.net/kml/2.2"><Document id="root_doc"><Folder><name>Botany_Downs.final</name><Placemark id="Botany_Downs.final.1"><name>Botany Downs (polygon: official_shp)</name><description></description><Style><LineStyle><color>ff0000ff</color></LineStyle><PolyStyle><fill>0</fill></PolyStyle></Style><Polygon><outerBoundaryIs><LinearRing><coordinates>174.929348,-36.90883 174.928011,-36.908029 174.924376,-36.907038 174.919626,-36.905327 174.91969,-36.904572 174.919544,-36.90439 174.919566,-36.90421 174.919766,-36.904177 174.919762,-36.903862 174.919826,-36.903762 174.919384,-36.903425 174.91887,-36.90284 174.918775,-36.902328 174.919005,-36.902345 174.918805,-36.901939 174.919018,-36.90188 174.918931,-36.901636 174.918797,-36.90134 174.918564,-36.901321 174.918533,-36.901394 174.917967,-36.900931 174.917725,-36.900922 174.917052,-36.901453 174.917356,-36.901701 174.916239,-36.902582 174.914641,-36.903418 174.911803,-36.904807 174.911506,-36.905201 174.910731,-36.905056 174.909512,-36.904468 174.909285,-36.90477 174.90919,-36.904725 174.909051,-36.904911 174.908987,-36.90488 174.908904,-36.904992 174.908937,-36.90506 174.909281,-36.905248 174.909449,-36.905071 174.909252,-36.905309 174.909881,-36.905593 174.909706,-36.905766 174.909371,-36.905668 174.909281,-36.90587 174.909174,-36.905839 174.909056,-36.906152 174.909108,-36.90633 174.908979,-36.906354 174.90907,-36.906612 174.90911,-36.906979 174.908573,-36.907057 174.908894,-36.907514 174.908688,-36.907725 174.909087,-36.908278 174.908714,-36.908452 174.908804,-36.908906 174.909251,-36.909031 174.90919,-36.909193 174.909294,-36.909243 174.909233,-36.909652 174.909094,-36.909664 174.909184,-36.909901 174.909516,-36.909868 174.909703,-36.910977 174.909504,-36.911799 174.909773,-36.911905 174.909619,-36.91196 174.909743,-36.912254 174.909233,-36.912324 174.909013,-36.912286 174.90898,-36.912732 174.909096,-36.913122 174.909232,-36.913276 174.909132,-36.913442 174.908856,-36.913321 174.908416,-36.913214 174.908005,-36.913224 174.908062,-36.913735 174.908015,-36.914188 174.907927,-36.914322 174.907666,-36.914488 174.907617,-36.914731 174.913341,-36.915795 174.913577,-36.91587 174.913931,-36.916221 174.914578,-36.916483 174.914787,-36.916153 174.915323,-36.91639 174.915461,-36.91591 174.915636,-36.915618 174.916572,-36.914813 174.916686,-36.914665 174.916727,-36.914467 174.916681,-36.914114 174.916772,-36.913836 174.91664,-36.913618 174.916738,-36.913608 174.917105,-36.913742 174.917562,-36.913733 174.917997,-36.913595 174.918149,-36.913604 174.918307,-36.913902 174.918529,-36.914081 174.919307,-36.914189 174.919856,-36.914098 174.92008,-36.914124 174.920334,-36.914323 174.92108,-36.914376 174.921338,-36.914335 174.923061,-36.913036 174.923528,-36.913156 174.923717,-36.913256 174.924168,-36.912852 174.924509,-36.912365 174.924626,-36.912318 174.925374,-36.912373 174.926106,-36.912285 174.926083,-36.91201 174.9262,-36.912017 174.926586,-36.911903 174.926536,-36.911692 174.926848,-36.911155 174.927608,-36.910536 174.927645,-36.91057 174.927812,-36.910431 174.927747,-36.910381 174.928512,-36.909736 174.92822,-36.909533 174.928352,-36.909394 174.928665,-36.909589 174.929019,-36.909114 174.929348,-36.90883</coordinates></LinearRing></outerBoundaryIs></Polygon></Placemark></Folder></Document></kml>