<?xml version="1.0" encoding="utf-8" ?><kml xmlns="http://www.opengis.net/kml/2.2"><Document id="root_doc"><Folder><name>Bucklands_Beach_Eastern_Beach.final</name><Placemark id="Bucklands_Beach_Eastern_Beach.final.1"><name>Joined Boundary</name><description></description><Style><LineStyle><color>ff0000ff</color></LineStyle><PolyStyle><fill>0</fill></PolyStyle></Style><Polygon><outerBoundaryIs><LinearRing><coordinates>174.921229997089,-36.8789030025843 174.92101599541,-36.8796579924372 174.920707006028,-36.8797180059453 174.920177002311,-36.8794300022345 174.920025992654,-36.8796089959442 174.919567992906,-36.8798829956547 174.918911996904,-36.8797630025508 174.918804995909,-36.8801400065875 174.918880007133,-36.8803390012619 174.918779997344,-36.8806900019546 174.919764007883,-36.8808710053296 174.919928996486,-36.8810530037556 174.920585006491,-36.8811730070519 174.920325007276,-36.8820900030423 174.919605993854,-36.8818860005747 174.918873000384,-36.8817510072289 174.918419998499,-36.8833410061225 174.919260004168,-36.8839030049116 174.91915999221,-36.8842540058089 174.919266001396,-36.8845290022183 174.919614993792,-36.8845940075566 174.919498995647,-36.8850040050043 174.919719001157,-36.8850439987751 174.919861002433,-36.8845440070132 174.920725993919,-36.8849919990491 174.920464992394,-36.8853169960419 174.92113600449,-36.8856649974382 174.920904006211,-36.8859530067279 174.921143993634,-36.8861219930039 174.920968996363,-36.8863410004324 174.921192996674,-36.8864579993519 174.921299991377,-36.8864499938883 174.921140002644,-36.8866459978447 174.920957996495,-36.8865519919451 174.920763005042,-36.8867950036168 174.920803995586,-36.8868059984476 174.920667003678,-36.8872030049462 174.920729003399,-36.8872549918115 174.920564000158,-36.8880409945548 174.920115005232,-36.8878589990128 174.919905996501,-36.8879110060883 174.919426004775,-36.8878780054435 174.91921400803,-36.8877939921981 174.918958998153,-36.8879700014056 174.919264998459,-36.8881340069464 174.919013997883,-36.8885339982755 174.919642002997,-36.8888679965666 174.919974003694,-36.8890990021412 174.920305994352,-36.8892129997315 174.920157994829,-36.8894579916394 174.92036799337,-36.889563999606 174.920064005432,-36.8897259979545 174.920091000525,-36.8899290050827 174.919995003787,-36.8899799931183 174.920179002892,-36.8905110014276 174.92000500707,-36.8906000033307 174.919776005154,-36.8903540028906 174.919009993553,-36.8907620047387 174.919228997392,-36.8909990009053 174.918307999703,-36.8915019964397 174.917424007565,-36.8921340006027 174.917136992343,-36.8918029945409 174.916210008813,-36.8923600045623 174.916279002606,-36.8924349933474 174.916179997417,-36.8926960067683 174.915797007511,-36.8926059941389 174.913643006417,-36.8945340036005 174.913719997435,-36.8945880058257 174.913594004466,-36.8947039928599 174.913550995887,-36.8947429944337 174.91350400458,-36.8947100034341 174.912624994697,-36.8955180015519 174.912700998914,-36.8957789934297 174.912777994527,-36.8967549977792 174.912358004116,-36.8967780040796 174.912101993768,-36.8970080029998 174.911784996833,-36.8971379967198 174.911377995586,-36.8970649966975 174.91114700792,-36.897286001368 174.910601997452,-36.8976239964187 174.910488999392,-36.8978800017587 174.910163992795,-36.8980390000575 174.910154004409,-36.8982540014138 174.909702998804,-36.8982350027945 174.909687992004,-36.8985519967714 174.909480992965,-36.8985330018339 174.909409004201,-36.8988769905492 174.909139995914,-36.8988410042735 174.909085995557,-36.8987699588253 174.909145402992,-36.8985022959865 174.909960298188,-36.8968808469663 174.908396257041,-36.8968504701284 174.908490417445,-36.896673923089 174.908431104472,-36.8964941122969 174.907911157571,-36.8964147039602 174.90801467025,-36.8959555673411 174.907953645614,-36.8959031228806 174.907783099706,-36.8959398383504 174.907528030257,-36.8961174792241 174.907019673154,-36.8962382970061 174.906671258876,-36.897520584056 174.906597207769,-36.8981267148421 174.906111992649,-36.8980009984422 174.906323002252,-36.8974399935478 174.905834001406,-36.8973400044361 174.905875994006,-36.8972289939699 174.906002001535,-36.8971420074441 174.905949001123,-36.8969110064414 174.906014999017,-36.8966709971202 174.905845006128,-36.8964949988636 174.90580899261,-36.896289003574 174.905367003146,-36.8961479944116 174.905133995802,-36.8959250025923 174.905102006011,-36.8957559993131 174.905397997458,-36.8952140017004 174.905565995837,-36.8951069916353 174.905834994927,-36.8946880044009 174.905936998151,-36.8942269917858 174.905898995392,-36.8938940064325 174.90722999892,-36.8935000039233 174.907304995862,-36.8932600043807 174.907685839507,-36.8933375695673 174.907783001812,-36.8928309994264 174.90786172528,-36.8927598837243 174.907504581353,-36.8925668004369 174.907373993706,-36.8926029943331 174.907067000273,-36.8922510067855 174.907457999925,-36.8919429932634 174.907793993252,-36.8915530010275 174.908170002383,-36.8902379924031 174.908085004807,-36.8900409964398 174.908365933303,-36.8900564864295 174.908450448034,-36.8897603784439 174.908375876879,-36.8893901123715 174.908241993785,-36.8890650033383 174.908482008631,-36.8889450070324 174.908229005841,-36.8887279988209 174.908373003851,-36.8882190054315 174.908887003842,-36.8883129958998 174.908969991143,-36.8880199963751 174.908853001291,-36.887801000969 174.909878991629,-36.884240995073 174.91026104846,-36.8843114199126 174.91029612585,-36.8839350020897 174.910377936718,-36.8838936273273 174.910447631338,-36.8836444120527 174.904738006011,-36.8825970032653 174.90539999986,-36.8802650030869 174.904867006332,-36.8801669974201 174.905128006524,-36.8799639969937 174.904701992635,-36.8793990041256 174.904466006215,-36.8793399987767 174.904208998753,-36.8789990010558 174.904909001338,-36.8786580025726 174.904758998361,-36.8784599999444 174.905051999713,-36.8783170048978 174.904126995527,-36.8771080045899 174.904038331015,-36.8768929364284 174.904499736234,-36.8766347172866 174.90465797491,-36.8764876446053 174.904746922018,-36.8762828660751 174.905173288841,-36.8760864698292 174.905481341965,-36.8758711916226 174.90571941588,-36.8758483856617 174.905943255904,-36.8756079726996 174.906027655233,-36.8751507692 174.905977853873,-36.8744249581932 174.905588822,-36.8727794969999 174.904995964,-36.8717494699999 174.904604371294,-36.871270082263 174.904190648446,-36.8709270361582 174.904038510774,-36.8710402387976 174.903649515,-36.8711719099999 174.903653599,-36.871079669 174.903534261161,-36.8710539878796 174.90347205,-36.870698513 174.903633289,-36.8700046129999 174.903412811,-36.868825225 174.902481964671,-36.8669981979303 174.901462069953,-36.8653173485992 174.899813655027,-36.8632124083972 174.898950182513,-36.8614985665593 174.898983928647,-36.8612401728466 174.899792854201,-36.8603324037629 174.900094139284,-36.8593062256105 174.900313131776,-36.8590197708013 174.90021817081,-36.8584202936877 174.900450675687,-36.8578941677154 174.90033768282,-36.8573771996008 174.900159097613,-36.8571505017346 174.900322536794,-36.8567526815959 174.900338782567,-36.8564876568169 174.900431408896,-36.8562180953948 174.900374469935,-36.8559158283925 174.900219173972,-36.8555845900469 174.900315522,-36.8550713829999 174.900129031998,-36.8544056459663 174.899776828787,-36.8538494815629 174.899700677819,-36.8533976209635 174.899490328725,-36.8529625132749 174.899575671175,-36.8524374494115 174.899520577089,-36.8517417025301 174.899630882826,-36.8515216937804 174.899615399292,-36.8506990691284 174.899672737625,-36.8505325006359 174.899628635012,-36.8500963836924 174.899801731736,-36.8496996336218 174.900032443659,-36.8495353053629 174.900118288626,-36.8493928590991 174.900354575463,-36.8491961574099 174.900381447849,-36.8489964401019 174.900050182992,-36.8483191236334 174.900141771403,-36.8481371453049 174.900437910478,-36.8478985319979 174.900791011782,-36.8472298722047 174.900742969418,-36.8470482492643 174.900522651311,-36.8468574530887 174.900446085618,-36.8467133007599 174.900442390425,-36.8466630530642 174.900560038186,-36.8465855726653 174.900881603658,-36.8466002369916 174.901208994394,-36.8463695421014 174.901359565931,-36.8465175769871 174.901555604498,-36.8464517368529 174.901679617633,-36.846516051229 174.901794505953,-36.8467155435962 174.902335604,-36.84719228 174.902199842,-36.8473524239999 174.902333507,-36.847869368 174.902894887794,-36.8484133490953 174.902986180959,-36.8485779924115 174.903113740355,-36.8486694855662 174.903207581559,-36.848891943948 174.903381117146,-36.8490511549607 174.903567913,-36.849358071 174.903549491268,-36.8496441159527 174.903619792262,-36.8497649760256 174.903870274012,-36.8497703997638 174.903822297,-36.849913107 174.903674936,-36.8500878239999 174.903749780287,-36.8503894171763 174.904241940027,-36.8512503643901 174.904426226385,-36.8517392783526 174.904498861896,-36.8517943992627 174.904725845117,-36.8518002641321 174.904868196019,-36.8521061217945 174.904839398862,-36.8522112475606 174.90490897528,-36.8522310097245 174.905020281163,-36.8528484283477 174.904949658,-36.853341967 174.905154391734,-36.8536314296342 174.905093233259,-36.8537302721562 174.905203124366,-36.8538727176583 174.905203805535,-36.854087048822 174.905408057011,-36.8543528122783 174.905724298401,-36.8550897707503 174.906061765582,-36.8552928735338 174.905879409,-36.855465285 174.905855684,-36.8556234549999 174.905774726,-36.855737576 174.90566491,-36.855784575 174.905580021,-36.85604204 174.905646773,-36.8561454119999 174.90565106,-36.856303133 174.9055969,-36.8563716769999 174.905606896335,-36.8568870941436 174.905849302,-36.8573587029999 174.905658718,-36.857564877 174.905607002,-36.857724397 174.905418552,-36.8579755929999 174.905130237164,-36.8582112656956 174.905003954718,-36.8582164071414 174.904875250543,-36.8583963962677 174.904816487124,-36.858622463688 174.904861009075,-36.858818736921 174.905358721,-36.8596991809999 174.905675613202,-36.8600588087471 174.905815902739,-36.8604039877034 174.90642004652,-36.861200566438 174.906510958722,-36.861423662443 174.906712289553,-36.861617231716 174.906990126543,-36.8620708119723 174.907661552,-36.8629140739999 174.907845572,-36.8634516219999 174.907991238,-36.863651859 174.908654481,-36.864271013 174.90890918,-36.864714605 174.909119077,-36.864932524 174.90915818,-36.8652692539999 174.909488509,-36.8655807329999 174.909473053,-36.865782574 174.909526999,-36.8658927879999 174.909765311804,-36.8661896015528 174.909981966966,-36.8662991347036 174.910041491,-36.8664028979999 174.909974852,-36.866605562 174.910173174714,-36.8667769300667 174.91032843,-36.8670277459999 174.910593665,-36.8671921599999 174.910673616,-36.867318412 174.910685344439,-36.8674404074921 174.910523417298,-36.8676687763651 174.910516691322,-36.867804703751 174.91142979473,-36.8691131064433 174.911873671845,-36.8700601993373 174.912141123233,-36.8704862371717 174.914034592755,-36.8731359999127 174.915479877862,-36.8747537225563 174.917844269696,-36.8770040768154 174.919923010678,-36.8783469260801 174.921242927728,-36.8788592697032 174.921229997089,-36.8789030025843</coordinates></LinearRing></outerBoundaryIs></Polygon></Placemark></Folder></Document></kml>