<?xml version="1.0" encoding="utf-8" ?><kml xmlns="http://www.opengis.net/kml/2.2"><Document id="root_doc"><Folder><name>Burswood.final</name><Placemark id="Burswood.final.1"><name>Burswood (polygon: official_shp)</name><description></description><Style><LineStyle><color>ff0000ff</color></LineStyle><PolyStyle><fill>0</fill></PolyStyle></Style><Polygon><outerBoundaryIs><LinearRing><coordinates>174.887575992679,-36.9250729928259 174.887769993213,-36.9248330021289 174.889599995174,-36.9252659948772 174.890148001141,-36.9248320021159 174.890450994521,-36.9247130026592 174.89068900208,-36.924686995815 174.890818005175,-36.9247740026205 174.890850997237,-36.924854003602 174.890958996052,-36.9253769996789 174.891252999826,-36.9254120041672 174.891336991726,-36.9251619949662 174.891578008043,-36.9251339969677 174.891783997825,-36.92525900608 174.891859991686,-36.9255529972036 174.89252499939,-36.9257039954316 174.892720997857,-36.9256999998875 174.892666000781,-36.925574001821 174.892675997832,-36.9250509970041 174.892323997245,-36.9245819963618 174.892481992921,-36.9244360005694 174.892512993231,-36.9243289979375 174.893150007323,-36.9239879939364 174.893618998701,-36.9238839921467 174.893802007093,-36.9237739972162 174.894029996638,-36.9237130029652 174.894165005607,-36.9237150000172 174.89434899715,-36.923845004588 174.894422003284,-36.9238409989496 174.894474998705,-36.9236350030751 174.894699995065,-36.9233669977202 174.895080997821,-36.9231450048664 174.895081998932,-36.9230509960261 174.895173991094,-36.9229740047918 174.895297006385,-36.9229630012246 174.895326007894,-36.9229179970867 174.895241996373,-36.9228619998377 174.895196001947,-36.9227390039233 174.894170006332,-36.9233080038689 174.89385899861,-36.9232910066029 174.893286002052,-36.9228729991091 174.893247007383,-36.9228940023004 174.8932699994,-36.9233010028458 174.893164001893,-36.9234829930554 174.892915995233,-36.9236459939672 174.892354995089,-36.9236790033422 174.892273000375,-36.9237479961665 174.892362997026,-36.9239490048973 174.892310999139,-36.9241079938588 174.891895999216,-36.9243400041579 174.891783994794,-36.9243420004148 174.891148996655,-36.9237010003821 174.891140997985,-36.9234310004324 174.891391000265,-36.922367005191 174.891497004039,-36.9221399956233 174.892156002646,-36.9216090025534 174.892519004641,-36.921512996951 174.892770993065,-36.9215080036637 174.893138000749,-36.9215910023392 174.893277997795,-36.9215889947902 174.893332997698,-36.9215429925576 174.893059996439,-36.9208260067391 174.893072992706,-36.9202850004124 174.893231003425,-36.9199219978445 174.893561991439,-36.9197129975962 174.894007996349,-36.9195920053084 174.895004992955,-36.9191009965765 174.895439005348,-36.9186199944152 174.895675000877,-36.9179840050046 174.895951003641,-36.9178669981754 174.896119999729,-36.9178639979985 174.896804994748,-36.9182790002558 174.89720099452,-36.9183850018456 174.897789997309,-36.9183739950474 174.897932006581,-36.9184390051629 174.898138992428,-36.918795998099 174.89794399655,-36.9198580046494 174.897954992466,-36.9202179948751 174.898072995911,-36.9204190022734 174.898272996929,-36.9205730038674 174.898866995331,-36.9207210029522 174.898876000445,-36.9210129925938 174.899017990833,-36.9210789948633 174.89965299912,-36.9207280010642 174.899822007233,-36.9207479933215 174.899854998098,-36.9209049938884 174.899757002462,-36.9214249958326 174.899934993299,-36.9217599937547 174.899918998423,-36.9221660066705 174.900033998958,-36.9222769924342 174.900481998697,-36.9222459979198 174.900592007625,-36.9221540029319 174.900643006174,-36.9219730046751 174.900892004166,-36.9218320073328 174.901143996193,-36.9218050040964 174.901454994069,-36.9219129991187 174.901577004849,-36.9222710027919 174.90158400625,-36.9225189993667 174.901510005885,-36.9228580000699 174.901093004552,-36.9231799984411 174.900971999545,-36.923675998852 174.901016004979,-36.9238980066732 174.901105004527,-36.923829998966 174.901296007891,-36.9233699965509 174.901606001318,-36.9231479941744 174.901796007243,-36.9230559977503 174.901992001399,-36.9230299949533 174.902192002677,-36.9231619976015 174.902280992421,-36.923317004304 174.902299996844,-36.9239920020949 174.902558999155,-36.9242129920644 174.902924996131,-36.9242740022689 174.903342000563,-36.9241090056388 174.903566008338,-36.9241049939297 174.903906000259,-36.9242110006176 174.904215006439,-36.9242280062665 174.904358007099,-36.9243160057999 174.904415997319,-36.9243819956849 174.904419992576,-36.924540002378 174.904123991111,-36.9249510033589 174.904013999533,-36.9250430013027 174.903487001108,-36.925278005741 174.903269997077,-36.9255299982748 174.903218004347,-36.9256889934318 174.903192008036,-36.9267479969309 174.903001991699,-36.9269550026386 174.902751006639,-36.9270269983083 174.902669001328,-36.9270959983821 174.902508999963,-36.9273920057769 174.90253899303,-36.9274579935582 174.903267993586,-36.9274459935694 174.903720997768,-36.9275949997012 174.90411400368,-36.9275870000725 174.904454994856,-36.9277390000967 174.904852004173,-36.9278450050291 174.905053996137,-36.9280439977294 174.905143995599,-36.9282449970102 174.905258005687,-36.9283110042006 174.905397991751,-36.928624006946 174.905545004235,-36.928801992573 174.906007009135,-36.9289949998077 174.906439999706,-36.928988005356 174.906595993207,-36.9290480049711 174.90676800545,-36.9290519981834 174.906613999211,-36.9295740019394 174.904954005777,-36.9291580028303 174.904966997736,-36.9291309974306 174.902437998584,-36.9282190007462 174.902139007809,-36.9281159989527 174.902051992161,-36.9281459978737 174.901826997968,-36.9280770026677 174.901788991908,-36.9280070042105 174.90127000274,-36.9278620035733 174.90095999298,-36.9289659976949 174.900466002501,-36.9288759963146 174.900184001953,-36.9287340043961 174.900214008348,-36.9286270023185 174.899154997425,-36.9284360063948 174.898919991513,-36.9283170031003 174.899154996187,-36.9274780041157 174.89697299577,-36.927044003568 174.896761003996,-36.9278569939453 174.896041002827,-36.927735001008 174.895656005328,-36.929208007303 174.895327007068,-36.929265993423 174.894856001821,-36.9292210036936 174.893632994363,-36.9294059985599 174.89349599146,-36.9291920019262 174.893776005178,-36.9290530014342 174.894103005645,-36.9278259945818 174.892977001403,-36.9276289968369 174.892944261098,-36.927750277089 174.892867300019,-36.9276103236336 174.892413971073,-36.9275313150249 174.892519945278,-36.9271390263069 174.891598458282,-36.9269784927206 174.891799008596,-36.9262350034204 174.891565999528,-36.9261689932407 174.891432006172,-36.9266839955867 174.890727001079,-36.9265340013586 174.890506007186,-36.9271200029575 174.889441994729,-36.9268939922098 174.889278002757,-36.9266069923123 174.889064999691,-36.9264670024007 174.88898000616,-36.9263499990234 174.889007003429,-36.9261680019976 174.889536996973,-36.9255550032141 174.887575992679,-36.9250729928259</coordinates></LinearRing></outerBoundaryIs></Polygon></Placemark></Folder></Document></kml>