<?xml version="1.0" encoding="utf-8" ?>
<kml xmlns="http://www.opengis.net/kml/2.2">
<Document id="root_doc">
<Folder><name>Clevedon.final</name>
  <Placemark id="Clevedon.final.1">
	<name>Joined Boundary</name>
	<description></description>
	<Style><LineStyle><color>ff0000ff</color></LineStyle><PolyStyle><fill>0</fill></PolyStyle></Style>
      <Polygon><outerBoundaryIs><LinearRing><coordinates>175.020749005784,-37.0652280030338 175.020737008192,-37.0655090016641 175.02027599519,-37.0659099968279 175.020112005486,-37.0662860020647 175.020187006165,-37.066416996759 175.020391997309,-37.0664009978818 175.020509000372,-37.0663130060005 175.020656008408,-37.0660859969422 175.020831007471,-37.0659939989154 175.020987996388,-37.0660400057928 175.021070005729,-37.0661939919342 175.020659004929,-37.0670609945817 175.020660004506,-37.0674869945764 175.02050900478,-37.0679029957487 175.020527005068,-37.0681340002109 175.020403002334,-37.068449000017 175.020287007457,-37.0692700019977 175.020491004651,-37.0697390009929 175.020397002696,-37.0706409973088 175.020534998542,-37.0711049974537 175.020506001193,-37.0712459926694 175.020427998438,-37.0712999925611 175.020299999758,-37.0712790009021 175.019951000939,-37.0710930074175 175.019259998588,-37.071019005703 175.019010993498,-37.0708729986161 175.018918003867,-37.0707450017219 175.018870007447,-37.0703580053949 175.018655001703,-37.0703600005775 175.018424999543,-37.0702969936256 175.018239007802,-37.0703549952514 175.017917002684,-37.0700589966014 175.017255005891,-37.0704419962286 175.011542998655,-37.0707580058415 175.011403995312,-37.0702000045565 175.012634998207,-37.066744002433 175.012342008143,-37.0656989990688 175.012371004746,-37.0650120049791 175.011755007102,-37.0644519971985 175.011711998467,-37.0645750062183 175.011003002389,-37.0649779998814 175.010281991029,-37.0658019925515 175.009123006393,-37.0664199960127 175.008294994722,-37.0669329970235 175.007291001904,-37.0673880063656 175.006732996487,-37.0679339979914 175.005434994825,-37.0662580058276 175.004689006758,-37.0651449929068 175.001495005115,-37.0609109943571 174.998559996492,-37.0572739935926 175.004496004022,-37.0553330073972 175.002390008633,-37.0508769966337 175.000161004206,-37.0515839933875 174.999204998804,-37.0518419955944 174.996712995155,-37.0468579986892 174.991462995965,-37.0484759915995 174.985805991982,-37.0504999956494 174.982558996395,-37.0494140034292 174.982690002222,-37.0442479972698 174.979276006811,-37.0453229940859 174.977829993614,-37.043791993562 174.977202006706,-37.0448329995751 174.976661992238,-37.0455160038546 174.97642400873,-37.04553399859 174.976290001198,-37.0453649951695 174.976025004327,-37.0454670057387 174.97557700374,-37.045305996902 174.975232000955,-37.0455260074051 174.97494400878,-37.046268993415 174.975041997834,-37.0464689950172 174.974177998643,-37.0467420003758 174.973389000257,-37.0451369921698 174.969151003662,-37.0464730074163 174.967509003076,-37.0433170051576 174.963231007316,-37.0446950067053 174.963184003748,-37.0445950043405 174.961106992349,-37.0450989957197 174.959483992162,-37.0418030060836 174.952862001226,-37.0434349957627 174.95163500262,-37.0410000043877 174.951612992709,-37.0407559956453 174.951737996279,-37.0405299982575 174.951320002749,-37.0403750020311 174.949650002232,-37.0370569988178 174.95177100408,-37.0363989963953 174.950563991621,-37.0339470029409 174.948419002809,-37.0346139945684 174.948160004306,-37.0341019969336 174.948625002893,-37.0339509962334 174.94844399491,-37.0335760051432 174.948032994223,-37.0337039951529 174.947992002562,-37.0335219977966 174.949712994708,-37.0329859986436 174.948824994273,-37.0305359915939 174.950210000228,-37.0301550003621 174.949245994504,-37.0279160011579 174.962724583655,-37.023834669068 174.961791602542,-37.0219085604129 174.968721420815,-37.0197476353102 174.966226366665,-37.0165722692037 174.962612841286,-37.0184018740277 174.961900902569,-37.0162208062278 174.959544601902,-37.0169426868139 174.960542611406,-37.0190370818576 174.960413944295,-37.0190764866111 174.956939611605,-37.0117646554175 174.954361231931,-37.0065424638729 174.957095594922,-37.0031610030486 174.957727297899,-37.0027005318837 174.95958106735,-37.0020459547003 174.959540005111,-37.0018680040898 174.953828505549,-37.0001583968851 174.953467992823,-36.9998569958679 174.952616994306,-36.9912239983816 174.950104000401,-36.9904459966061 174.951279007419,-36.987626004122 174.952048991842,-36.9856159929214 174.963781992375,-36.9855409927942 174.964679999367,-36.9834410037765 174.966980999771,-36.983796993811 174.977711005404,-36.9774659983937 174.985262006905,-36.9727370050491 174.985845993896,-36.9731539951016 174.986282994647,-36.9730260059289 174.986583004469,-36.9728089952758 174.986652004851,-36.9725290018658 174.987142999935,-36.9730959980673 174.989349000686,-36.9736210013471 174.992536996516,-36.9741890047598 174.993819000075,-36.9762989997399 174.994251006005,-36.9766319978099 174.994439006738,-36.9765239990868 174.994803003406,-36.9768030022219 174.995804995924,-36.977186992962 174.996952994903,-36.9772360022605 174.997145003787,-36.9764660036715 174.997267001919,-36.9748180040649 174.998411996294,-36.9735540029185 174.999171007218,-36.9729390042001 175.001876992744,-36.9720430032881 175.000610007578,-36.9715099912466 174.999013000598,-36.9706669957114 174.998151996803,-36.9706390038297 174.996508992771,-36.9698820044218 174.997443001743,-36.9685069933205 174.999211008272,-36.9677869962567 174.999800992029,-36.9676960008807 175.000952009114,-36.9668310062998 175.002740008206,-36.9688230019973 175.008119998377,-36.965627993584 175.009992000162,-36.9676640019415 175.010174004412,-36.9675559946244 175.01225299313,-36.9698160015488 175.012904006602,-36.9694390068447 175.014027004509,-36.9685059929976 175.014964004692,-36.9679259928908 175.015080007171,-36.9677759934221 175.015305007843,-36.9671629960458 175.017119998004,-36.965331992582 175.016594995818,-36.9649759948642 175.016099998712,-36.9648130015809 175.015553995826,-36.9639440056924 175.014099997626,-36.9630559978122 175.016799998524,-36.9608339950108 175.017148993942,-36.9603910033682 175.021721995624,-36.9598200029201 175.023902000356,-36.9530559983896 175.026578000811,-36.9444789990803 175.03861500568,-36.947159994155 175.039393996398,-36.945655999946 175.037280997029,-36.9431099939582 175.037028003046,-36.943168995973 175.037207005824,-36.9435539918634 175.036912999377,-36.9436820018512 175.036100007033,-36.943211992311 175.036252006113,-36.9429119930883 175.03619700646,-36.9420369920818 175.035730993644,-36.9418690021992 175.03599600108,-36.9416030008122 175.035124000775,-36.9405730026162 175.051339993094,-36.9304899930509 175.049719006943,-36.9301930049969 175.051954994347,-36.9234130022079 175.053125994792,-36.9200509940406 175.051502993011,-36.9195380039524 175.04699799429,-36.9077289990405 175.035809999048,-36.9080090005692 175.035427008696,-36.9080909931292 175.035227000599,-36.9083329933865 175.031750996244,-36.9064109985725 175.030073996132,-36.9076299968769 175.029953998132,-36.9074230037419 175.029652994206,-36.9071600023797 175.029409007892,-36.9070410068971 175.028905996753,-36.9069670002375 175.028676998913,-36.9068300051 175.028448993675,-36.9064439935768 175.028278000501,-36.9058649925661 175.02768999581,-36.9055080003771 175.027214994537,-36.9054389934424 175.026834005471,-36.9054609976298 175.026643992059,-36.9058039929944 175.026501006836,-36.9058230042194 175.026266994633,-36.9059400037472 175.025990001835,-36.9059400057072 175.02582799696,-36.9058480004455 175.025475992795,-36.9058189997881 175.025264007978,-36.9056560018055 175.024884006045,-36.9054899917776 175.024304003576,-36.9050940046113 175.023719998364,-36.9044680053376 175.02285699716,-36.9038289943742 175.02258199425,-36.9037199953735 175.022107997613,-36.9036229932381 175.021677000319,-36.9034560040648 175.021293001883,-36.9032299966529 175.021005996126,-36.9030189989117 175.020897999359,-36.9028810035545 175.020702998341,-36.9027780050868 175.019641997989,-36.9026800065734 175.021446995171,-36.8967079986474 175.03201100121,-36.8987319998506 175.033469995759,-36.8937309984395 175.034402002636,-36.8909809985566 175.042796993347,-36.8926050041291 175.042251006338,-36.8936869917762 175.048710000183,-36.8993369960518 175.062030002119,-36.8950329957888 175.062397991874,-36.894804003835 175.063530994566,-36.8959650074219 175.063607999963,-36.8961999960304 175.06352199858,-36.896641997746 175.06305800852,-36.8970900042552 175.062992996238,-36.8972710065832 175.063232005922,-36.8977860055492 175.063230998539,-36.8982260050071 175.063539001657,-36.8987050002822 175.063585993532,-36.8989069983395 175.063489005756,-36.8994040047678 175.063521005099,-36.8995730037715 175.063870998127,-36.9000170030429 175.064081996249,-36.900531991857 175.064864005687,-36.9014089950649 175.065879003176,-36.9020099966469 175.067167993419,-36.9029109944244 175.06845399339,-36.9036879938931 175.070064002958,-36.9044860018601 175.070749002178,-36.9047549952936 175.070709998986,-36.9048199978597 175.071399008135,-36.9051109973808 175.072544996792,-36.9054170033625 175.073222004288,-36.9055170070136 175.073729004768,-36.9055410007657 175.074484999403,-36.9054939962832 175.075037002522,-36.9053339955912 175.075490996505,-36.9048099937902 175.075793998282,-36.9046240035825 175.077008997634,-36.9043879936567 175.077903993189,-36.9038100006237 175.079477992234,-36.9033500041377 175.080376007547,-36.9033669962484 175.081200998041,-36.9032169948815 175.081601002397,-36.9030069994228 175.081888998078,-36.9027419956414 175.082524003948,-36.9016730070666 175.08338100035,-36.9014070067397 175.083638007624,-36.9010520051083 175.083828996736,-36.9008909995691 175.084010000506,-36.9008320048311 175.084457994248,-36.9007900046384 175.084879999669,-36.9008380066619 175.08549100851,-36.9010639928183 175.086012003511,-36.9011099983158 175.086719005755,-36.9012999996771 175.087675994968,-36.9013949932864 175.088015999149,-36.901502002585 175.089114993041,-36.9016169938922 175.090366003896,-36.9016719927144 175.092451995787,-36.901463998161 175.093343006589,-36.9011999957736 175.093980005678,-36.9009399969925 175.09567300743,-36.9009109971839 175.096336998175,-36.9008510038605 175.097031002508,-36.9006129970198 175.097589992825,-36.9005130020891 175.098227993611,-36.9002750004465 175.098663008292,-36.9002559948624 175.099036995389,-36.9005530069314 175.099330006307,-36.9009649997225 175.099121003354,-36.9010470005975 175.098266001617,-36.9010970065626 175.097157992505,-36.9015919924012 175.096193997546,-36.9017560004385 175.095957997086,-36.9018389977706 175.095686996392,-36.9021480037106 175.095311008404,-36.9027529949848 175.095189991641,-36.903453991557 175.094403004149,-36.9044050037217 175.094060992625,-36.9046929938328 175.093797999677,-36.9048330061535 175.093473002447,-36.9047939938949 175.093264001611,-36.9048210024095 175.092876004619,-36.9050079946994 175.09238899865,-36.9051639954206 175.091690996822,-36.905278006298 175.091171004199,-36.905287004281 175.090630999235,-36.9055340013521 175.089637004755,-36.9056310028008 175.089307005962,-36.9058749943078 175.08906399722,-36.9061829973197 175.088882008636,-36.9067280010496 175.08866399332,-36.9069569983014 175.088469005518,-36.9069839926467 175.088138005955,-36.9072150056051 175.087948993301,-36.907467001721 175.087750999769,-36.9074250063286 175.087669002247,-36.9074949917465 175.087426999896,-36.9083899975693 175.087071004484,-36.9091749959703 175.086894003132,-36.9093690049451 175.086535005809,-36.9096119960962 175.085476992686,-36.910049996688 175.084619002925,-36.9103129931391 175.083078995026,-36.9104080038843 175.082510001959,-36.9105729979641 175.082202992974,-36.9107279981744 175.081812993137,-36.9108250061899 175.081490001752,-36.910785999235 175.080972007168,-36.9108629968973 175.080379995184,-36.9107840067952 175.080183997508,-36.9108099986289 175.079825994449,-36.911041999917 175.079552996274,-36.9113399929414 175.079498007036,-36.9124260066048 175.0792830084,-36.9126759919257 175.078894998702,-36.9128859971854 175.077667992044,-36.9132020003065 175.077433998741,-36.9133189941274 175.077284001727,-36.9134790022251 175.077192004232,-36.9137640040088 175.077184002111,-36.9145090030374 175.076776005577,-36.9169850043477 175.076631992132,-36.918757995585 175.076698004038,-36.9191169989145 175.076924993998,-36.9196440060924 175.077187006252,-36.9199989993056 175.077266008395,-36.9202949965928 175.07643499293,-36.9201700003103 175.076190991467,-36.920221993784 175.076613995643,-36.9205850021714 175.077194994846,-36.9212280001587 175.077696004523,-36.9215800041853 175.078028995657,-36.9219010058755 175.077902996717,-36.9224199997464 175.078326993723,-36.9223960017151 175.078752005914,-36.9222359980279 175.079469993525,-36.9222570026634 175.079862009023,-36.9222059960583 175.080498005017,-36.9218779936349 175.081058997576,-36.9218219988448 175.08135600176,-36.9219299930342 175.081688003589,-36.922170001911 175.08172099444,-36.9223730064033 175.081413995307,-36.9229090061737 175.08137700352,-36.9230789975685 175.081576006145,-36.9236730068711 175.081770002167,-36.924064001989 175.082353999176,-36.9248869971741 175.082653991832,-36.9255349957869 175.083324995979,-36.9264479924458 175.083386000928,-36.926628002286 175.083647996669,-36.9269159967792 175.083736992542,-36.9275790032767 175.083873008494,-36.9279260062304 175.083681994445,-36.9281099935675 175.083072994872,-36.9284369997812 175.083074999644,-36.9285049991393 175.083345995643,-36.9286680053367 175.082322007974,-36.9287089983201 175.081652996524,-36.9289059937162 175.080977998389,-36.9292020065538 175.082897996602,-36.9319119924016 175.084117997266,-36.9324750011502 175.083835000734,-36.9324579996822 175.083400005067,-36.9329400040773 175.08334899874,-36.9331430062231 175.083437006318,-36.9332769945598 175.084127999557,-36.93379000006 175.084591992107,-36.9343490016687 175.085061005672,-36.9350619951196 175.085379004943,-36.9353830023755 175.085916999392,-36.9355319917727 175.086286995333,-36.9357280029747 175.086457002134,-36.9362090028021 175.086569997255,-36.9367950054281 175.086546991094,-36.9369640023517 175.08638400019,-36.937100991585 175.086024001856,-36.937266000576 175.085230005816,-36.9374949948934 175.084585997599,-36.937597003706 175.084113006107,-36.9377410018596 175.082929999609,-36.9376270059761 175.081214004692,-36.9375460007838 175.080845000954,-36.9374170030158 175.080549996272,-36.9373900000681 175.080483993571,-36.9375589978093 175.08041500764,-36.9386090060727 175.080439000913,-36.9389580024034 175.080575994673,-36.9392829963771 175.081392005301,-36.9403499992004 175.081528002174,-36.9406749967789 175.081799006125,-36.9422939975545 175.081951997253,-36.9427639926291 175.082046998634,-36.9436080012784 175.082424008131,-36.9440069991212 175.082493006335,-36.9444339963495 175.082435992323,-36.9449200003271 175.082051992118,-36.9457510030279 175.081485002661,-36.9465380057343 175.080941001137,-36.9471570008418 175.080694008539,-36.9473539952222 175.080454999874,-36.9473690068859 175.08032499706,-36.9472700024384 175.080649993142,-36.9468360070778 175.080818003607,-36.9463020054158 175.080853005239,-36.9461239983129 175.080689007545,-36.9460470019335 175.080370006656,-36.9464940006242 175.079904995098,-36.9473010045628 175.079686001634,-36.9474849946676 175.079516990725,-36.9474879942466 175.079400996211,-36.9473550037808 175.079336995434,-36.9470970063581 175.079360007921,-36.9469270039806 175.079577004205,-36.9466069932959 175.079370006187,-36.9460610067546 175.078969992554,-36.9460319966007 175.07879399293,-36.9457650041512 175.078679998091,-36.9457220045485 175.078379998722,-36.946032001647 175.07819199805,-36.9463399949978 175.077880994417,-36.9472699945889 175.077647991957,-36.9474769989784 175.077086995174,-36.9477750039879 175.077758993773,-36.9479270010467 175.078245999368,-36.9482329955464 175.078304997674,-36.9483440013582 175.078196002169,-36.9484369988332 175.077052997537,-36.9487239941129 175.076511005735,-36.9489859947018 175.076209008105,-36.9492060073601 175.075468003955,-36.9503129975597 175.075436008177,-36.9506630014124 175.075237991401,-36.9511299933548 175.074898001681,-36.9515080069844 175.074636007144,-36.9516819953891 175.074257995356,-36.9517559923382 175.074046994009,-36.9517370029027 175.073420997599,-36.9514790053424 175.073308991623,-36.9514799964349 175.073227994055,-36.9515939978776 175.073232994671,-36.9517529936938 175.074078007017,-36.9528419997736 175.074362002304,-36.9534339960373 175.074440005571,-36.9536919919962 175.074369007692,-36.9541669975841 175.074165998238,-36.954456003629 175.075689001096,-36.9556200020627 175.076405007892,-36.9560799971798 175.077023995853,-36.9566210003313 175.077354008403,-36.9568399981812 175.078547996858,-36.9573370023668 175.079148001743,-36.9576870046494 175.079650994145,-36.9580950031458 175.079971998609,-36.9585060002632 175.080044002018,-36.9590679963327 175.079879004014,-36.9592069967755 175.079557008478,-36.9592579921148 175.078656002104,-36.9591620018601 175.07770200431,-36.9592130060558 175.077409002094,-36.95927499565 175.077187993366,-36.9594139939137 175.076997993305,-36.959643002932 175.076991995374,-36.9599249978448 175.07703899734,-36.9600699958282 175.077270007417,-36.9602920013345 175.077638999965,-36.9605109981199 175.077894995497,-36.9605510059791 175.078496998161,-36.9609459970146 175.078777000295,-36.9609180016317 175.078849004405,-36.9605330048119 175.078981996377,-36.9602150046256 175.079115998395,-36.9600220026906 175.079378002001,-36.9598250052463 175.07965500928,-36.9597190055849 175.080412000225,-36.9596810014221 175.080854991933,-36.9594140009333 175.081759002853,-36.9591050014381 175.082007001991,-36.9588970049135 175.082192008441,-36.9585320053849 175.082302998252,-36.9584860027063 175.082658008345,-36.9580960015952 175.083006996167,-36.9580219930615 175.083302992953,-36.9580610061388 175.083732996877,-36.9583799982371 175.083924001649,-36.9586700052292 175.084136006258,-36.9592069992402 175.084357002958,-36.9600600074456 175.084350998545,-36.9603420015592 175.084106004666,-36.9605939931157 175.083815007402,-36.9607349949756 175.083499006994,-36.9610110037041 175.083545995695,-36.9616419958016 175.083403994505,-36.9620619921371 175.083397997697,-36.9623560064369 175.084445008182,-36.9633559973207 175.084341005494,-36.9619210035877 175.084475996419,-36.9617609968891 175.084615002512,-36.9616900004425 175.084922999622,-36.9616619963597 175.085464997859,-36.9619449936137 175.086547997821,-36.9619589953969 175.086703994658,-36.962035006924 175.08670899535,-36.9621929966095 175.08655100574,-36.9626019980121 175.086680997605,-36.9626889936732 175.087198994445,-36.9626119930586 175.087651007242,-36.9626449976738 175.08727300087,-36.9622950060243 175.087236997846,-36.9620030056352 175.0873319941,-36.9618759938071 175.087636002265,-36.9617240004291 175.087760008154,-36.9616090067355 175.087817006058,-36.9613739980841 175.087620005696,-36.9611499977329 175.087405000182,-36.9610289967138 175.086403992101,-36.9608570023571 175.086246991619,-36.9608030020102 175.085960006132,-36.9605830012646 175.085954992916,-36.9604030033013 175.086099006648,-36.9600499970173 175.086073996157,-36.9596789983997 175.08584100221,-36.959390000633 175.08579500145,-36.9588050043782 175.085678994343,-36.958603996593 175.085492007078,-36.9584840029277 175.084802991508,-36.9584180063824 175.084572993086,-36.9582410043935 175.084481999305,-36.9580169960659 175.084442997191,-36.9571719939438 175.084288005247,-36.9565810010314 175.083487991683,-36.9566600008466 175.083098991221,-36.9568479951944 175.082942996615,-36.9567710034461 175.082810008028,-36.9565600015973 175.082836996958,-36.9560519920672 175.082732997146,-36.9558290062737 175.082471992503,-36.9555519995577 175.08231700476,-36.9550350070786 175.081684997896,-36.9545400002269 175.081450992335,-36.9542170027844 175.081445006613,-36.954014999402 175.081577999096,-36.9537420036914 175.082035992793,-36.9530340019936 175.082205001245,-36.952568992586 175.082235996717,-36.9521729926222 175.082177996959,-36.9521290026079 175.081813996857,-36.952203995429 175.081150004379,-36.9525099989015 175.081062999755,-36.9524430059704 175.08108500404,-36.9522170035977 175.081453991556,-36.9518719946306 175.082048996372,-36.9515459968715 175.08253700222,-36.9514350054006 175.084063001627,-36.9512829982483 175.084558999842,-36.9509249984382 175.08499499883,-36.9504200038377 175.085399004854,-36.9498039989353 175.086384003582,-36.9489170070094 175.086660993446,-36.9487250012258 175.0869800024,-36.9486229936947 175.087879006265,-36.9486189971679 175.088278999641,-36.9483640055559 175.088800004743,-36.9484330045531 175.089235002876,-36.9484139950507 175.089455001174,-36.9482289929309 175.089739008619,-36.9478409996244 175.090169002561,-36.9476299996998 175.090540997266,-36.9469240021322 175.090731000804,-36.9466719999961 175.091034993449,-36.9465089985905 175.091802006309,-36.9463249995731 175.092940997091,-36.9458879965919 175.09343899433,-36.9455960053997 175.093779004656,-36.945228993744 175.094032006463,-36.9447509962254 175.094276992338,-36.9439909920867 175.094561992133,-36.9436590027852 175.095112999672,-36.943242992944 175.095943002903,-36.9423149934084 175.096082003479,-36.9417820053694 175.096067001602,-36.9412629969904 175.095930004755,-36.9408719940136 175.095666992547,-36.9405149982712 175.09509199531,-36.9400750012519 175.095058004958,-36.9398950046607 175.095113002438,-36.9398270056394 175.095308002211,-36.9397779925417 175.095563994912,-36.9399090009551 175.095912003159,-36.9402850042321 175.096964994326,-36.9407620003618 175.097375997464,-36.9408560034223 175.098346995655,-36.9409399946457 175.098993994753,-36.9404990074225 175.09926000561,-36.9404490053747 175.099347002087,-36.9405370021897 175.099326005518,-36.9408079988842 175.098761007844,-36.9411909989795 175.098093993454,-36.9418790035426 175.097688002276,-36.9424400027491 175.097544994152,-36.9428370065863 175.097478001442,-36.9434469930641 175.097312002672,-36.9440249999802 175.097455999207,-36.9441349917886 175.097853007434,-36.944262996788 175.098152993848,-36.9444159935973 175.098512008381,-36.9447129913097 175.098994007945,-36.9453580001771 175.099285006752,-36.9452280016941 175.099426001293,-36.9452259940395 175.099511998024,-36.9452920016763 175.099406007377,-36.945507998225 175.099053006563,-36.945931994652 175.098899006834,-36.946431000361 175.098789007,-36.9465229986009 175.098425996287,-36.9466209926768 175.09773499185,-36.9470160053071 175.097767004589,-36.9471510014086 175.098329993039,-36.9478919946117 175.099050998725,-36.9473299966006 175.099455992467,-36.9472330029672 175.099619994921,-36.9470939925767 175.099614000563,-36.9468909983884 175.099696994258,-36.9468219928961 175.100534006428,-36.9466479988476 175.101699003068,-36.9471229941463 175.102705007092,-36.9473859990575 175.103378992072,-36.9474190037125 175.104648998566,-36.9475979930008 175.105970006179,-36.9475959942635 175.106509006956,-36.9477659990984 175.107295994375,-36.9478190042721 175.108398004773,-36.9480019952474 175.108998998178,-36.9479119975713 175.109633003502,-36.9480010028273 175.110354991122,-36.9481789966425 175.111379001452,-36.9486110035821 175.111609994723,-36.9488210009044 175.111990008227,-36.9493210027135 175.112308993074,-36.9494150057061 175.112531999217,-36.9493659948479 175.112653005815,-36.9494100030076 175.112399991793,-36.9496619943432 175.112561993953,-36.9498500040614 175.112483004817,-36.9500929958717 175.112052007145,-36.9503870052349 175.112008992209,-36.9503230073585 175.112012008621,-36.9504490056954 175.111754000061,-36.950771997201 175.111866006054,-36.9510099980489 175.111929006215,-36.9516330066354 175.121696005821,-36.962222004964 175.098759007981,-36.979072000409 175.094782999673,-36.9773130039833 175.094793992527,-36.9772349962644 175.094306006654,-36.9770790068188 175.093922004726,-36.9767379930569 175.093652992704,-36.9766299983609 175.093495995129,-36.976442996582 175.093251002764,-36.976416005054 175.09314299704,-36.9763609934276 175.09270499312,-36.9758740033383 175.092646002568,-36.9757269958759 175.092106006017,-36.9755610006757 175.08430700207,-36.9765830053663 175.084374996573,-36.9778389977307 175.085607999702,-36.9779299956267 175.085901001654,-36.978154002585 175.086427994682,-36.9789609958317 175.086725002135,-36.9791810060391 175.08670300009,-36.9792179947842 175.086611007188,-36.97930599638 175.0864480075,-36.9793289933027 175.085496003109,-36.9790589988589 175.085250999082,-36.9788829969288 175.08510099827,-36.9789380041606 175.0849789917,-36.9790979934328 175.084822999784,-36.979674997016 175.084674003017,-36.9798579921398 175.08426699906,-36.9800660022707 175.08416599566,-36.9801840034404 175.084181998474,-36.9802530055615 175.084259994427,-36.9802790030608 175.084963002732,-36.980209002411 175.085491994596,-36.9804390040499 175.085709996202,-36.9806309963865 175.085652007474,-36.9808409934302 175.08553399977,-36.9809609944065 175.085452997008,-36.9810089960748 175.085323996587,-36.9810079985892 175.084885993637,-36.9808579977718 175.084573003563,-36.9808499932864 175.083922001726,-36.9812999988741 175.083676007096,-36.9813699920433 175.083137994829,-36.9813219982166 175.083208994035,-36.9817829992917 175.082904003499,-36.9821999971697 175.082591998618,-36.9824929922456 175.082216996419,-36.9826079968401 175.081793007693,-36.9824299919645 175.081546004516,-36.9824610018931 175.081041007708,-36.9827169980466 175.081044006157,-36.9828079936593 175.079870993205,-36.9836530047127 175.086421007119,-36.9872580055523 175.084158997388,-36.9884139923646 175.083100998524,-36.9891810022512 175.08481299289,-36.9906049946964 175.085712006165,-37.0081720067255 175.088070006002,-37.0087220027125 175.087869001195,-37.0082029997976 175.087902992991,-37.0079099971739 175.087728005923,-37.00758299531 175.087323001772,-37.0070800005841 175.087190005876,-37.0067019957799 175.087292008205,-37.0062389940796 175.087224004391,-37.0059549943773 175.087334003701,-37.0055889959368 175.08771400522,-37.0052200030485 175.087879004389,-37.0048789993201 175.087906006177,-37.0045269976876 175.087721007297,-37.0039039953155 175.088378996843,-37.0039100060499 175.089000992307,-37.0034500041182 175.09032700256,-37.0034039971244 175.091847001877,-37.0035309969329 175.091862994515,-37.0040270022513 175.090647007312,-37.0040010001428 175.089484005872,-37.004505005623 175.090520991866,-37.0053689964127 175.090947005403,-37.0053570033318 175.091707999444,-37.0055449986591 175.092932996779,-37.0054249970835 175.093104992124,-37.005849995372 175.092776998268,-37.006639992612 175.09287900775,-37.0069279980458 175.093507996916,-37.0069179963974 175.09381099927,-37.0070550000958 175.094372005929,-37.0070439936257 175.094495995856,-37.0068800060934 175.094925998467,-37.0066919957892 175.095054999107,-37.0067980068417 175.095026007239,-37.0069949993519 175.094884993326,-37.0072409975741 175.094968003318,-37.0077420012604 175.095520998742,-37.0079960044453 175.095873005346,-37.0083319937957 175.096028007302,-37.0086569991907 175.096700994196,-37.0087670026112 175.097145992552,-37.0087720009985 175.097319997612,-37.0085929998909 175.097612008073,-37.0085769975601 175.097786003221,-37.0087740001837 175.098214000575,-37.0090159939882 175.098743998593,-37.0094019952185 175.099296996099,-37.0099400004413 175.099498002389,-37.0100750051162 175.099733992898,-37.0103530036372 175.100034008633,-37.0105159924347 175.100413007917,-37.0105380018961 175.10063000335,-37.0107839935752 175.100977003197,-37.0109269932145 175.101627991661,-37.0119220066737 175.101850995294,-37.0119709983877 175.101778005188,-37.0126890061327 175.101912001371,-37.013142000923 175.101865004502,-37.0140799947821 175.101907994657,-37.0148110049637 175.102184002839,-37.0151050004252 175.101975005545,-37.0153499960624 175.102429003885,-37.0155109987638 175.101874992292,-37.0159050033092 175.102321994345,-37.0163969963217 175.102663992354,-37.017631001212 175.101415992214,-37.0172549978368 175.101404993809,-37.0176410011046 175.101076002973,-37.0179169930373 175.10061000425,-37.0178920006518 175.099680997738,-37.0186249935652 175.099815993377,-37.0188739940598 175.099772004646,-37.0193929933635 175.099569998141,-37.0196650002268 175.098413000609,-37.0201600062805 175.097513991684,-37.0208999928998 175.09734899274,-37.0216940029489 175.097114005849,-37.021721001207 175.096891004,-37.0220279917646 175.096881004814,-37.0229530044072 175.099263000529,-37.02357800044 175.098058007433,-37.0268519918681 175.119330003837,-37.0319220011634 175.119522999199,-37.0328659960918 175.119733004207,-37.0334120033511 175.120105992921,-37.0340079967323 175.121311002829,-37.0351969958677 175.121544993046,-37.0354939966778 175.122905001364,-37.0367809936864 175.123147998521,-37.0369290056378 175.123292993783,-37.0370979920226 175.123374001768,-37.0368659978894 175.123531997614,-37.0370609987893 175.123580006729,-37.0373169945605 175.122985003547,-37.0385229939323 175.122815993037,-37.0392639981524 175.122627993268,-37.0396389999807 175.122524002444,-37.0397460027888 175.122238993062,-37.0399009954151 175.119425006705,-37.0473570054066 175.119301003495,-37.047576001051 175.119089002369,-37.0477400047472 175.119073995208,-37.0479579960605 175.118994003239,-37.0480949946353 175.118242999476,-37.0483790011318 175.116982998671,-37.0490779924446 175.116689008831,-37.049150005132 175.116602998671,-37.049084007591 175.116572000186,-37.0489489952126 175.116427994282,-37.0488399977094 175.116047999399,-37.0488570073099 175.114426994215,-37.0491449997906 175.114129997572,-37.0491059985845 175.113844006351,-37.0489299936974 175.113066006709,-37.0482460060599 175.112985005854,-37.0478979959998 175.112855997988,-37.0477760027319 175.112553990811,-37.0480289987877 175.112412001995,-37.047985997936 175.112409997227,-37.0478960052559 175.11281699662,-37.0473140064185 175.113335007468,-37.0472820040098 175.113633000306,-37.0474220007746 175.113858997448,-37.0474430043542 175.113968000077,-37.0473279983983 175.113908999245,-37.047239001924 175.113681995041,-37.0471759993511 175.113567996655,-37.0470869996513 175.113565991721,-37.0469970070001 175.113862991867,-37.0465639949432 175.113939996103,-37.0463139954156 175.113869001092,-37.0462230018925 175.113741003276,-37.0462279925761 175.113576000847,-37.0463659999065 175.113524993085,-37.04654700632 175.11322699689,-37.0469579966402 175.113117005078,-37.0470500066209 175.112837998425,-37.0471230036036 175.112744001657,-37.0472749977525 175.112255003414,-37.0473809948274 175.111505005,-37.0482620029382 175.111271008294,-37.0483900057961 175.11093499841,-37.04846399428 175.110737992666,-37.0484440040011 175.110051994033,-37.0480510034275 175.109941005019,-37.0481210040071 175.109945003045,-37.0482559975954 175.110211002873,-37.0487019997237 175.110185998945,-37.0488150047311 175.110045992249,-37.0488849954197 175.109709006282,-37.0488910062817 175.109395006799,-37.0486940025688 175.10908599635,-37.0486999980084 175.108796996785,-37.0484340067081 175.108655995231,-37.0484139976301 175.108523001554,-37.0486870073733 175.108117003318,-37.0492230022664 175.107881991252,-37.0493970010132 175.10766000479,-37.04948000392 175.107426993984,-37.0497430041688 175.107066992636,-37.0499290057187 175.106702002538,-37.0499359986601 175.106530004088,-37.0498259973635 175.106418003128,-37.0498280066756 175.106301991349,-37.0497180055536 175.106489996802,-37.0493990063595 175.106510998675,-37.0491279936158 175.106783003711,-37.0488080047335 175.106428000988,-37.0486849990068 175.105728004265,-37.0486340012526 175.105651992268,-37.0484940015888 175.105662991431,-37.0483199986905 175.105962001951,-37.0481480042077 175.105897007992,-37.0480909941973 175.105727000819,-37.0480620018369 175.105669005364,-37.047985992186 175.105726998817,-37.0477860049665 175.105915002252,-37.0476409981326 175.105871999203,-37.0475519982457 175.105302996253,-37.0475370034235 175.105289996155,-37.0471189992217 175.105550994193,-37.0469589996317 175.105404007082,-37.0461020063738 175.105519008581,-37.0459390036548 175.106434999977,-37.0460170035458 175.106947997008,-37.0460080031869 175.107065007277,-37.045889998754 175.10613699275,-37.0456760023695 175.10593500545,-37.0453720038748 175.105413006032,-37.045086004335 175.105454998749,-37.0448729922275 175.105689995343,-37.0446889917934 175.106328991932,-37.0445559930011 175.106518007524,-37.0443049962313 175.106878002185,-37.0440729968558 175.106894992557,-37.0436670055766 175.107111995005,-37.0434159928548 175.107188997768,-37.0431440064377 175.107272002901,-37.0430749977814 175.107579008124,-37.0430249980588 175.107800992687,-37.0429079987939 175.108053996501,-37.042925005209 175.107828994407,-37.0427570074339 175.107590997748,-37.0426550047516 175.107029992514,-37.042493004986 175.105892996599,-37.041613995782 175.106055005904,-37.0414080037123 175.10605199831,-37.0412509976227 175.105673996352,-37.040829004215 175.105766001157,-37.0401059945775 175.105502991025,-37.0397949975735 175.105011004112,-37.039423993076 175.104764007341,-37.039523999547 175.104793997034,-37.0397150067261 175.105248999236,-37.0401930065835 175.104909006559,-37.0406630062332 175.104746006212,-37.0413530018132 175.104693999161,-37.0419629956148 175.104734000754,-37.042070994891 175.105090008608,-37.0423490056563 175.105033998102,-37.0424609973232 175.104668996844,-37.0424669941321 175.104480996797,-37.0427530023149 175.10402200353,-37.0431709962318 175.104301003672,-37.0431659974257 175.104847994715,-37.0428030033738 175.105409997129,-37.0428599998684 175.105609991718,-37.0429689977653 175.105671997089,-37.0431480026619 175.105758007643,-37.0432139930885 175.10589899445,-37.0432119961694 175.106041994977,-37.0432999927778 175.105836004942,-37.0434829993492 175.105430998357,-37.0435809956533 175.104626991725,-37.0440000035842 175.103839992802,-37.0439919981296 175.103808006616,-37.0440769945559 175.1041549932,-37.0442349947183 175.104299991629,-37.0443670029402 175.104303006069,-37.0444799918987 175.104081002504,-37.0446180017222 175.103392999271,-37.0446080044342 175.102986992967,-37.0446840030519 175.102933004363,-37.0447509927252 175.103018992116,-37.0448180066742 175.103442005799,-37.0448780059681 175.103643005649,-37.0450100022698 175.104202993739,-37.0449320048162 175.104289004014,-37.0449979953862 175.104293993472,-37.0451790004282 175.103882005596,-37.045545997923 175.103871004554,-37.0456479976115 175.10403599798,-37.0460280011544 175.103879001309,-37.0464479995861 175.103701004569,-37.0466540037783 175.103381995879,-37.046748999568 175.102777006046,-37.0472329977262 175.102396995394,-37.0472510011043 175.10200800366,-37.0473939925838 175.101795999358,-37.0473860021374 175.101595999133,-37.0472769980535 175.101427006821,-37.0472799936288 175.101316998126,-37.047349998597 175.101348995731,-37.0474840035713 175.101505006694,-37.0475610066758 175.10218099764,-37.0475709985844 175.10264799297,-37.0476639940563 175.103144003704,-37.0473400008411 175.103285000613,-37.0473149928777 175.103398008434,-37.0473569983541 175.103485004432,-37.0474690024229 175.103506004162,-37.0477050054341 175.103333999003,-37.0480800067763 175.102698006554,-37.048473996871 175.102623007446,-37.0488139960421 175.102514995045,-37.0489730038684 175.102127002387,-37.049182994574 175.101411997295,-37.0492530045715 175.100923994766,-37.0493850022415 175.100783995707,-37.0495970055731 175.101136995262,-37.0494820010607 175.10195100028,-37.0494459993794 175.102356006539,-37.0493370037964 175.103797004118,-37.0485669962703 175.104373992528,-37.048613998425 175.104589002242,-37.0487569984123 175.104693994487,-37.0489909931414 175.104655003908,-37.0496509928441 175.104792001925,-37.0499700028377 175.104907004288,-37.0501029921708 175.104944001359,-37.0503950012568 175.104558000745,-37.0506730002894 175.104480999466,-37.0509220007847 175.10394300677,-37.051244005567 175.10440799987,-37.0513519947808 175.105118006736,-37.0516319982634 175.105234001903,-37.0517419998918 175.105211999164,-37.0524759992206 175.105002006862,-37.0529969982972 175.10496000674,-37.053539006817 175.104761991657,-37.0539819936958 175.104542002733,-37.0542110030436 175.102882003206,-37.0551640058043 175.102713006287,-37.0551679949214 175.102366004447,-37.0549769999099 175.101902996134,-37.053723998954 175.088258002111,-37.0565509934069 175.088254999565,-37.0564080040765 175.088037995179,-37.055839001325 175.087794008266,-37.0554599947498 175.087436998139,-37.0550459981773 175.086974007764,-37.0541609993248 175.086761000173,-37.0539589970819 175.086386005601,-37.0534189915973 175.086247996194,-37.0533459924145 175.086042995651,-37.0531370045903 175.08588499331,-37.0530859943548 175.085286999321,-37.0530480060475 175.084349995792,-37.0528869940796 175.084097000016,-37.0527990001155 175.083138997164,-37.0522099998801 175.082835002721,-37.0519059929656 175.082764994877,-37.0513710008502 175.082906005321,-37.0506960050742 175.08284699434,-37.050583994271 175.082700007979,-37.0505809969557 175.082382997514,-37.0507590059776 175.081319993811,-37.0515730038158 175.080951006801,-37.0516589966889 175.080790004061,-37.0516170025583 175.080608000339,-37.0513749980193 175.080517995229,-37.051180005436 175.080509991284,-37.0508130023198 175.080443994739,-37.0505829976593 175.080293993998,-37.0504460068995 175.080145004496,-37.0504309951586 175.079771993412,-37.0505399985624 175.07960500853,-37.0507569987261 175.079221006394,-37.0515530059295 175.078901003513,-37.0516009948989 175.07836999797,-37.0513700002581 175.077938993636,-37.0508810023864 175.077502007034,-37.0506500055755 175.077377002891,-37.0505210063413 175.077175992692,-37.0502299981563 175.077043996706,-37.0496839971735 175.077313996441,-37.0494790062476 175.077931994175,-37.0491919935522 175.078361006268,-37.0488160006234 175.078631994993,-37.0482900006446 175.078602004533,-37.0477819973002 175.078378007908,-37.0474810067386 175.077938999361,-37.04646399331 175.077736994065,-37.0462779978113 175.077655991735,-37.0461250056064 175.077519001648,-37.0456020062102 175.077602993424,-37.0452590040408 175.077469992971,-37.0448399927941 175.077094994539,-37.0445160006608 175.07652000142,-37.0442280064028 175.076282992301,-37.0439770057799 175.0760540039,-37.0436109952489 175.07537600198,-37.0429109988224 175.075028995633,-37.0422669987878 175.074435000501,-37.0417830012228 175.074189997811,-37.0414500020175 175.065749004535,-37.0447939915676 175.064989008129,-37.0442730004333 175.064503001675,-37.0442299954161 175.064373005486,-37.0441419965766 175.064116999589,-37.0441179993073 175.063936005751,-37.0440040034451 175.062678001524,-37.0438420010394 175.062239993683,-37.0438400025527 175.061549996766,-37.0440800041373 175.060597997513,-37.0437229983189 175.059787997352,-37.0434880035962 175.059676001169,-37.0437079905972 175.060772999634,-37.0460199965935 175.059033994258,-37.046662996924 175.0619399957,-37.0514229962352 175.060744003531,-37.0518719988085 175.061873999443,-37.0537939905659 175.056963006551,-37.0556519932063 175.058759992362,-37.0587750002121 175.058199002569,-37.058669002617 175.057851997405,-37.0585179917462 175.0575890062,-37.0585290049727 175.057295996924,-37.0584059962954 175.057056996811,-37.0584109942901 175.056878993398,-37.0585259941205 175.056715991904,-37.058849998415 175.05628300012,-37.0589389945872 175.056014001117,-37.0590679960248 175.055672001873,-37.0592979919564 175.055652995837,-37.0594470027692 175.055515991919,-37.0595559921389 175.055294008469,-37.0596390024211 175.054900992107,-37.0596660005787 175.054604001187,-37.0600240028297 175.054084992648,-37.0602560039886 175.053926999934,-37.0601749961773 175.053789003116,-37.059952005717 175.053562998568,-37.0591400028533 175.053331998022,-37.0592209962672 175.053180993038,-37.0591129994261 175.05116200439,-37.0605630055498 175.046161999104,-37.0648449959154 175.040234001935,-37.0649189970812 175.039970996313,-37.0648360056697 175.039875998451,-37.064482995315 175.038843994239,-37.0639680044371 175.037288001789,-37.0637260020576 175.036748995402,-37.0635600032355 175.035563008008,-37.0630029987028 175.034640008814,-37.0619519926872 175.034188993001,-37.0617210068779 175.033505007058,-37.0616939964135 175.032855992911,-37.0618059956579 175.032078993485,-37.0623269977696 175.031443994215,-37.0625190006982 175.030410003394,-37.0625840023275 175.030230007172,-37.0624820007952 175.030032996323,-37.0624829998352 175.029707003535,-37.0628519934479 175.029230998688,-37.0628750034155 175.026606994853,-37.0638119943309 175.026069995133,-37.0640659960598 175.025970002599,-37.0654170045927 175.025129998973,-37.0649609935476 175.024719993327,-37.0646769989053 175.022379001989,-37.0637199979894 175.022346000537,-37.0652009977274 175.022019997426,-37.0654749986611 175.020749005784,-37.0652280030338</coordinates></LinearRing></outerBoundaryIs></Polygon>
  </Placemark>
</Folder>
</Document></kml>
