<?xml version="1.0" encoding="utf-8" ?><kml xmlns="http://www.opengis.net/kml/2.2"><Document id="root_doc"><Folder><name>Cockle_Bay_Shelly_Park.final</name><Placemark id="Cockle_Bay_Shelly_Park.final.1"><name>Joined Boundary</name><description></description><Style><LineStyle><color>ff0000ff</color></LineStyle><PolyStyle><fill>0</fill></PolyStyle></Style><Polygon><outerBoundaryIs><LinearRing><coordinates>174.954529506769,-36.9059491945814 174.954571649648,-36.9063345653137 174.954900306937,-36.9066525115648 174.954883124337,-36.9069154423162 174.955110933194,-36.9073813358088 174.954986895305,-36.9080264601815 174.954857791848,-36.9083200498699 174.954547463165,-36.9086150718795 174.954481480527,-36.9087858202697 174.954620581804,-36.909395584866 174.954505107607,-36.9101658154152 174.954540641867,-36.9103596790338 174.954442503744,-36.9102905819469 174.954360989297,-36.9100539056885 174.954341566301,-36.9095544944086 174.954388615219,-36.9095583060117 174.954360065467,-36.9094489386869 174.954423201976,-36.9094610389573 174.954417491496,-36.90937757255 174.954253442976,-36.9091713802042 174.953982301161,-36.9090928797316 174.95364509599,-36.9092347810388 174.951902506324,-36.9103177179271 174.951675131046,-36.9106515945878 174.951691721708,-36.910889165801 174.951387872967,-36.9108295710649 174.950492026866,-36.9109343836668 174.950284113747,-36.9110388945632 174.949966972669,-36.9114048353194 174.949692849992,-36.9115785289742 174.949478145287,-36.9118174983099 174.949420413044,-36.911772371055 174.949130831879,-36.9121737744145 174.949033065297,-36.9121915034265 174.948842274752,-36.9121417294394 174.948668526078,-36.9122946675929 174.948103478599,-36.9124056427613 174.94815075886,-36.912666480444 174.948277415102,-36.9127823209884 174.948413134332,-36.9130986983163 174.948412994724,-36.9133102875617 174.948317223306,-36.9134409471122 174.948114001731,-36.9135454313992 174.947808580868,-36.9138445115815 174.94707739471,-36.9139928397056 174.946603145323,-36.9142531263071 174.945941102766,-36.9144405774019 174.945543535814,-36.9146613336481 174.945232538976,-36.914700940348 174.944406004861,-36.9149537093099 174.943562210471,-36.9151426196343 174.943374882064,-36.9151619693375 174.943027641989,-36.9149839120281 174.942798604504,-36.9149255986529 174.942141037336,-36.9148602722286 174.941034678126,-36.9149487216287 174.940951910374,-36.9150141089495 174.940954742272,-36.9151288346482 174.940786730565,-36.9150054899278 174.940664173944,-36.91502542257 174.940739545177,-36.9152086170075 174.939089997604,-36.9139769962822 174.938739996426,-36.9140919956087 174.936545993248,-36.9125149968068 174.937282994418,-36.9118559987912 174.938648000271,-36.9111250063988 174.940040995591,-36.9128009992988 174.941399004434,-36.9120729974083 174.94246700218,-36.9117429948816 174.942638993105,-36.9116419927851 174.941644002747,-36.9092729935819 174.940827000775,-36.9084200048802 174.938883004625,-36.9096610020137 174.936622005672,-36.9073819920137 174.936874999417,-36.9072420060837 174.934637771477,-36.9056588439719 174.934798758102,-36.9050856102528 174.934623157346,-36.9049629359538 174.934273786062,-36.905353539347 174.934045622024,-36.9052493823803 174.933258346364,-36.9047010823269 174.933393006047,-36.9045770039156 174.933225998391,-36.9044479946868 174.933578005078,-36.9034749940348 174.933830997586,-36.9029999928989 174.93430900815,-36.9023810039763 174.933844006466,-36.9021889993011 174.934049992722,-36.9019359976164 174.933962004432,-36.901664005255 174.934278996958,-36.9011700014304 174.93403200877,-36.9012149981911 174.933720158184,-36.9005503368246 174.934416580629,-36.9004457977978 174.934632203782,-36.900350903406 174.934593913306,-36.9002201471393 174.935203895256,-36.9001281634278 174.935090505904,-36.8996424363408 174.93468370268,-36.8997037254141 174.934569200218,-36.8992133110223 174.934413405186,-36.8992344534188 174.934274394157,-36.8988506107911 174.934781293729,-36.8987746443546 174.934801401417,-36.8983985474103 174.935322693741,-36.8975043894397 174.934617502921,-36.8976114909161 174.93457609716,-36.8974332923822 174.934777696119,-36.897402687097 174.934768291615,-36.8973621874302 174.934639801065,-36.8972583372469 174.934591892494,-36.8970532133203 174.934491097369,-36.8970683377626 174.934274800626,-36.8961396258617 174.934167806604,-36.8960079629016 174.934094799708,-36.8953836288655 174.933566307458,-36.8954082821049 174.933552592005,-36.8946435625846 174.933742999766,-36.8946360040503 174.93375529333,-36.8946859467302 174.934079602633,-36.8946548041036 174.934086503683,-36.8945459130072 174.934413391382,-36.8945154972149 174.934840303399,-36.894364471435 174.934772609004,-36.8942896861622 174.934983995189,-36.8942066053107 174.935016703398,-36.894303187276 174.936590596764,-36.8937186354409 174.936861405384,-36.8937274547406 174.936808098737,-36.8930321156125 174.936928294915,-36.8928768529381 174.937194403051,-36.8919230328733 174.937472301129,-36.891933382842 174.937715308403,-36.8920448077886 174.938251698559,-36.8921701754261 174.938566007762,-36.8924293844309 174.938892094229,-36.8925737450852 174.939005203066,-36.8925329655689 174.939131201403,-36.8925696859017 174.939338504694,-36.8925315224352 174.939633772054,-36.892761614238 174.939748900432,-36.892466635064 174.939953670911,-36.8923704222202 174.940054253149,-36.8922385837757 174.940617996163,-36.892234795309 174.940773592766,-36.8921797777225 174.940907724463,-36.8924185675784 174.941129152869,-36.8923973221878 174.94164032588,-36.892667716664 174.942103369608,-36.8928440821646 174.943655026154,-36.8933237841827 174.943869972386,-36.8933454220178 174.944186117396,-36.893476601439 174.944553428526,-36.8934828661859 174.944807099115,-36.8935389308593 174.944892631803,-36.893472654779 174.944911287356,-36.8933041308856 174.945047572,-36.893263325 174.945421513,-36.8934048779999 174.945723951119,-36.8934550272075 174.945865777652,-36.8935299095498 174.945980522,-36.893697404 174.946199832,-36.893645288 174.946332447,-36.8936958569999 174.9463168,-36.893803707 174.946442395412,-36.8939186565298 174.946449309332,-36.89400536638 174.946632754854,-36.8940766814104 174.947595394956,-36.8941719796744 174.948212876,-36.8943300389999 174.948506694,-36.894243848 174.948736673,-36.8940961639999 174.949054595,-36.894040935 174.949893818,-36.89426488 174.950167664,-36.894419343 174.950405935,-36.8946484959999 174.950574329,-36.894899424 174.950753806938,-36.8948654848856 174.950905134663,-36.8948927066783 174.951342075626,-36.8953964935715 174.951322029601,-36.8957816396955 174.95109515965,-36.896034987575 174.950936044693,-36.8964722352751 174.950828166909,-36.8966017671751 174.950866446302,-36.8968540942333 174.950725711289,-36.8971111532946 174.950797692111,-36.8974299168207 174.95099113773,-36.8976018056561 174.951053075723,-36.8979113332708 174.951290015697,-36.8981566679021 174.951335841,-36.898363704 174.951241367,-36.898526396 174.95081759,-36.898710883 174.950611157,-36.899017434 174.95065397,-36.8992297629999 174.950606597,-36.8993725629999 174.950610092,-36.8999105469999 174.950663034,-36.900119977 174.950887878,-36.900269231 174.952082234,-36.900831347 174.953745096,-36.901494992 174.954234817,-36.901628956 174.954369828,-36.901722326 174.954379382945,-36.9019567499128 174.954079669718,-36.902482945216 174.95394547536,-36.9028303206078 174.954194686,-36.903388492 174.954337655462,-36.9034965489616 174.954474189638,-36.9037133818489 174.954448886896,-36.9039931538752 174.954271991,-36.9042857759999 174.954365166593,-36.904604359706 174.954332672516,-36.9051316415573 174.954576944905,-36.9056603498666 174.954529506769,-36.9059491945814</coordinates></LinearRing></outerBoundaryIs></Polygon></Placemark></Folder></Document></kml>