<?xml version="1.0" encoding="utf-8" ?><kml xmlns="http://www.opengis.net/kml/2.2"><Document id="root_doc"><Folder><name>Dannemora_Shamrock_Park.final</name><Placemark id="Dannemora_Shamrock_Park.final.1"><name>Joined Boundary</name><description></description><Style><LineStyle><color>ff0000ff</color></LineStyle><PolyStyle><fill>0</fill></PolyStyle></Style><Polygon><outerBoundaryIs><LinearRing><coordinates>174.915354007376,-36.9313950040321 174.915547000063,-36.929793999275 174.915488993715,-36.9296500058304 174.915757993296,-36.9292679980952 174.915948998298,-36.929213006926 174.917386006947,-36.9282200051554 174.917785007969,-36.9278820065533 174.918982991311,-36.9265929930425 174.918672998,-36.9264069999546 174.918975996435,-36.925993993883 174.919004999749,-36.9258559984147 174.919320992127,-36.9258819936882 174.919325003709,-36.9257049967305 174.919465994561,-36.9257839998462 174.919605996672,-36.9256370011986 174.919777004203,-36.9257389960668 174.9200779945,-36.925414005817 174.919807992113,-36.9252540045552 174.919861997281,-36.9251359932439 174.92108900736,-36.9238369915734 174.921244998674,-36.9236110009181 174.921351991185,-36.9236749961676 174.921981994625,-36.9230140063743 174.922189005329,-36.9231380001772 174.923297005722,-36.9219480009923 174.923586991237,-36.921761002628 174.923351999958,-36.9216299979566 174.923503993793,-36.9214450076494 174.923533004832,-36.9214259986231 174.923634004898,-36.9215259981004 174.923874999375,-36.9213859921292 174.923752002682,-36.9212859977009 174.923958993312,-36.9211520016845 174.924071996871,-36.9212640055688 174.925291997063,-36.9204669949567 174.925172003089,-36.9203479924034 174.925251001883,-36.9202969925486 174.925096995473,-36.9201730063873 174.925305994821,-36.9200499985496 174.925184006046,-36.919936994121 174.925284998401,-36.919707004802 174.92601399424,-36.9199119939508 174.926171002748,-36.9200969932108 174.926868997761,-36.9196479921638 174.926527000918,-36.9194950065577 174.927075993491,-36.9191420021109 174.927217992015,-36.918995003732 174.927322999457,-36.9190710007064 174.927562997424,-36.9187680012649 174.927824997762,-36.9189589930695 174.927982999807,-36.9187430062432 174.928421994845,-36.9187520070458 174.928363996197,-36.9185769983786 174.928794008128,-36.9191110064263 174.929064992367,-36.9188800067507 174.928983005581,-36.9187779995727 174.929034998947,-36.9187760031011 174.92921699442,-36.9190019968542 174.92919300042,-36.9190309988023 174.930963005951,-36.9200019983154 174.931379004857,-36.9194729988302 174.931725998088,-36.9197939962253 174.931412998504,-36.9202919939081 174.932723994511,-36.9210819931308 174.932589007952,-36.9212490074217 174.932764994841,-36.9213849963878 174.932778003646,-36.9213490044101 174.935959989044,-36.9223572383763 174.935869997117,-36.9225009926771 174.935847991595,-36.9227360039553 174.935655002792,-36.9232720064475 174.935477999547,-36.9234689996284 174.935303999117,-36.9238949953799 174.935272008806,-36.9242400056246 174.935298992752,-36.9243050027582 174.935400997599,-36.9243059945778 174.935364997433,-36.924412000377 174.935095001453,-36.924890992734 174.934714004934,-36.9252799937821 174.934513000238,-36.925615003966 174.934268001698,-36.9258280017814 174.934108002258,-36.9261849977483 174.934048995991,-36.9264940032006 174.93413300448,-36.9267299984367 174.934115993808,-36.9268760056268 174.933934997463,-36.9271669988264 174.933861992522,-36.9274010007177 174.932487695171,-36.9273877150398 174.932286807796,-36.9280910688493 174.931605395362,-36.9279247428082 174.931093396546,-36.9286980343529 174.930975006979,-36.9295169333739 174.931944805538,-36.9296073935663 174.931793295986,-36.9306549040301 174.93172339246,-36.932510615819 174.930346105602,-36.9329919263209 174.930536904159,-36.9340959667832 174.930977908914,-36.9343538966299 174.930928190996,-36.9344951923044 174.929361501548,-36.9348300040419 174.929017001554,-36.9348309968284 174.928218804108,-36.9358147739379 174.924132804351,-36.9350929831422 174.923745493475,-36.9349586052081 174.923188603747,-36.9349238683081 174.92243689397,-36.9347894050766 174.922411997258,-36.9348755381534 174.922045198744,-36.9348061458824 174.921917006471,-36.9348538498693 174.921867708065,-36.9350216021477 174.921657094566,-36.9351041470876 174.921493001455,-36.9350329440053 174.921292104571,-36.9351059457033 174.920964095442,-36.9351166564166 174.920273606726,-36.93497120962 174.919574195994,-36.9349161296581 174.919349894303,-36.9348139815526 174.918701493905,-36.9346994018482 174.918295404462,-36.9342432844119 174.916726607012,-36.9333007179794 174.915147199723,-36.9330210017815 174.915354007376,-36.9313950040321</coordinates></LinearRing></outerBoundaryIs></Polygon></Placemark></Folder></Document></kml>