<?xml version="1.0" encoding="utf-8" ?>
<kml xmlns="http://www.opengis.net/kml/2.2">
<Document id="root_doc">
<Folder><name>Drury.final</name>
  <Placemark id="Drury.final.1">
	<name>Joined Boundary</name>
	<description></description>
	<Style><LineStyle><color>ff0000ff</color></LineStyle><PolyStyle><fill>0</fill></PolyStyle></Style>
      <Polygon><outerBoundaryIs><LinearRing><coordinates>174.995304001438,-37.1134400002185 174.99463900592,-37.1158619999206 174.992308995586,-37.1234869936483 174.992588992021,-37.1234780041464 174.993063991704,-37.1280359954502 174.992950008233,-37.1294340031139 174.993056998636,-37.1304150014113 174.989903998754,-37.1306639948267 174.990129002063,-37.1319039988886 174.984476006702,-37.1323760020622 174.984713997082,-37.1339190055613 174.981900000083,-37.1341730029696 174.981688992223,-37.1325809956357 174.977525992028,-37.1329840035864 174.97775899542,-37.1345749960794 174.976416997435,-37.1346929927792 174.976457996935,-37.1349180063921 174.972626998331,-37.1352630064175 174.972226006054,-37.1327810009957 174.970345993801,-37.1329850032484 174.97042799825,-37.1335070048061 174.970502995549,-37.1336760052614 174.969226005018,-37.1337389988669 174.96663000052,-37.1339999965795 174.966366993231,-37.1334380004132 174.968099994995,-37.1326680006414 174.967925006522,-37.1326029956069 174.967869996707,-37.1324090070403 174.967941993017,-37.1322420034086 174.968208996362,-37.1319630073859 174.96370600673,-37.1336569952275 174.963579007466,-37.1334359947573 174.963202006182,-37.1335780008034 174.962780000333,-37.1327149943384 174.962412000867,-37.1323199970548 174.962109003492,-37.1315210004215 174.960175991431,-37.1281599940043 174.959771995085,-37.1276639955451 174.959401006899,-37.127084993603 174.959403997763,-37.1269510050377 174.959270992679,-37.1268779977674 174.959029994252,-37.1265080033392 174.958843004524,-37.1259400040192 174.958068005358,-37.1245979946327 174.956518003357,-37.1216449933664 174.95562100613,-37.120564998627 174.955614991658,-37.1204459954307 174.955459995664,-37.1204000018762 174.954990996465,-37.1199260066282 174.953685005273,-37.1191479958098 174.951459001545,-37.1180449960061 174.95034000472,-37.1181970048396 174.949637997589,-37.1165590028142 174.948528001945,-37.1152580034267 174.948512998109,-37.1151760035672 174.948553998128,-37.1151579987384 174.948444998811,-37.1149529995723 174.948395000862,-37.1149759975793 174.948150005699,-37.1144549917612 174.947887005937,-37.1140889945519 174.947354990657,-37.1122999940038 174.947339001769,-37.1126950051412 174.94672199782,-37.110762999216 174.946128992031,-37.1108549950942 174.945576003242,-37.1117989993323 174.945380005649,-37.1117180005836 174.944559006139,-37.1129699997816 174.944159991245,-37.1128640023947 174.944055992533,-37.1130260051419 174.94381199639,-37.1129129997224 174.943487998565,-37.1130049930298 174.942681005201,-37.1125370061701 174.942120995179,-37.1128849989716 174.942321998757,-37.1108329923529 174.942035001235,-37.1108510017451 174.941645992178,-37.1107700000819 174.941473003551,-37.110569005719 174.941789006352,-37.1103530006935 174.94188000285,-37.1102349999694 174.941869006571,-37.1101640021171 174.942190996412,-37.109903005891 174.942787003565,-37.1095300061583 174.943011005255,-37.1089529959308 174.943019008232,-37.108760995767 174.942472002007,-37.1082629982476 174.942325000641,-37.1080520002692 174.942332997834,-37.1078149945656 174.942552003962,-37.1070790046601 174.942798997343,-37.106837005655 174.94282500569,-37.1067359969095 174.942675997362,-37.1064449963246 174.942919003923,-37.1060689954476 174.942825996247,-37.1057099944366 174.94284999942,-37.1055850002074 174.943094999774,-37.1052879936226 174.943510007829,-37.1049770069574 174.94383499179,-37.1045529951392 174.943922627059,-37.1039111645831 174.943799524117,-37.1036818055935 174.94393253395,-37.1036862829992 174.943855143865,-37.1035742561763 174.943583324792,-37.1033775620739 174.943657923788,-37.1031284593964 174.943586337377,-37.1029207108887 174.94372540933,-37.1027475792927 174.943603506204,-37.1026274919624 174.94352375038,-37.10235811139 174.943815268927,-37.1021910287138 174.943745138609,-37.1020695030493 174.943815016401,-37.1018345160798 174.944117849093,-37.1017076364224 174.944098033148,-37.1014990985542 174.94431827516,-37.1010040028427 174.944247249941,-37.1008529588215 174.944278766602,-37.1006682192136 174.944230369548,-37.100577603801 174.944422422711,-37.1004695593298 174.944253262454,-37.1004050053492 174.944163187365,-37.1001397438065 174.943867513832,-37.0997545022321 174.943928685662,-37.0993978636292 174.943851002496,-37.0991808552653 174.943398274279,-37.0987855715655 174.943091446074,-37.0983506444125 174.943155905732,-37.0982071918656 174.943508859479,-37.0979235986861 174.943724632667,-37.0974834564405 174.943856733478,-37.0973533789312 174.944157332368,-37.0972291100114 174.94422911594,-37.0970619239944 174.944340809262,-37.0969546388997 174.944120785815,-37.0960823457777 174.943903992775,-37.0959571154451 174.943811756087,-37.0957929626179 174.943824941686,-37.0956922755713 174.943415115489,-37.0952398981132 174.943867066627,-37.094922532028 174.944263757473,-37.0947130631507 174.945106487642,-37.0944774264093 174.945809852588,-37.094199897581 174.9459612724,-37.0943755322146 174.946129091878,-37.0944223281143 174.946449941433,-37.0947258190747 174.946909776761,-37.0949101487419 174.947071094709,-37.0949010730259 174.947258444315,-37.0950616879965 174.947493289526,-37.0951102821364 174.947927070402,-37.0951518964016 174.948170977947,-37.0951099891328 174.948654039057,-37.0951393318891 174.949212482536,-37.0950524490194 174.949731850529,-37.0948935374247 174.949842358481,-37.0947641365852 174.949904175776,-37.0945733370824 174.949788983632,-37.094242864916 174.949638838973,-37.0940926431672 174.949409563282,-37.0939730359272 174.949211348081,-37.0939635583834 174.949043010727,-37.0940288889506 174.948891096682,-37.0939633665624 174.94885524469,-37.0935873295749 174.949111930723,-37.0929095626383 174.949324045678,-37.0925651384263 174.94947416909,-37.0924158224131 174.950153796817,-37.0920228640484 174.950240289573,-37.0917942649716 174.950103974396,-37.0915906890246 174.950067991722,-37.0912120056032 174.950025998153,-37.0912039953711 174.948456991872,-37.091640998631 174.947795022914,-37.090138390109 174.946896683837,-37.0904682949912 174.946809072759,-37.0903152118965 174.946408766229,-37.0904197513047 174.946201196315,-37.0894878908605 174.946428217474,-37.0893782390985 174.946839899786,-37.0889767598643 174.944852576656,-37.088370322129 174.944792003026,-37.0884980015914 174.943899993978,-37.0883959995645 174.944134997924,-37.0878989978463 174.943806005126,-37.0877989952143 174.943631001848,-37.0873560068848 174.943381006694,-37.0873870023566 174.943228996964,-37.087102005187 174.942806006202,-37.0869739953342 174.942887003982,-37.0868000002472 174.942715004155,-37.0867529966826 174.942701003896,-37.0864569919364 174.942535992452,-37.0864069975731 174.94248099277,-37.0864419944501 174.942185008164,-37.0863929981756 174.942157340574,-37.0861970996891 174.94174709325,-37.0862994165817 174.941696136775,-37.0859346448465 174.941532024646,-37.0859758220855 174.941464754591,-37.0858027490391 174.942080001112,-37.0856489977607 174.941895223804,-37.0840609311911 174.941492697769,-37.0841613432852 174.941519008907,-37.083777005301 174.941649006703,-37.0837450031488 174.941553997823,-37.0834999929306 174.941913000716,-37.0834099932248 174.941923995097,-37.08325500165 174.941863008436,-37.0832170045642 174.941845931668,-37.0830310448664 174.941915136102,-37.0829598957022 174.941930286244,-37.082742710279 174.941602506919,-37.0827479615967 174.940330876234,-37.0830652679376 174.940016614887,-37.0828592759721 174.939463463323,-37.0814363883 174.941662997947,-37.0808869991532 174.941680992994,-37.0806320040279 174.942076275599,-37.0806496716121 174.942043425955,-37.0803089829327 174.942103025011,-37.0802662860405 174.942112491823,-37.0801304943134 174.941677997502,-37.0801110048774 174.941696994265,-37.0798410003879 174.9410956411,-37.0799749106414 174.940984398322,-37.0796596460262 174.941497881845,-37.0795433399135 174.941540999079,-37.0789179977544 174.942194732527,-37.0789469408952 174.942148950736,-37.0786166134084 174.941564002725,-37.0785910067496 174.941577008212,-37.0778460068323 174.941783000515,-37.0778239955852 174.941750000884,-37.0776300046301 174.941534991381,-37.0776529989708 174.941557000123,-37.0774040027894 174.941646994547,-37.0773950032715 174.941605008302,-37.0771179921176 174.941757001844,-37.0771039944065 174.941747996159,-37.0767159983449 174.941876000179,-37.0767209995725 174.94191025813,-37.0761174051611 174.942384874674,-37.0761348884147 174.94239215363,-37.0757978016732 174.941928332142,-37.0758044863248 174.941990005473,-37.074739005433 174.942536995198,-37.0747379998253 174.942577000129,-37.0741940051269 174.942011993212,-37.0741949923283 174.942011005063,-37.0736510049011 174.942618008647,-37.0736499921324 174.942669994583,-37.0732869997745 174.942010994048,-37.0732879992004 174.942010005925,-37.0726719959917 174.942666008206,-37.072457000422 174.942451913532,-37.0720379268849 174.942506994433,-37.0714809939662 174.942392002939,-37.0712769962837 174.94252800458,-37.0706470004215 174.943066995805,-37.0704760072183 174.943610006298,-37.0707269987128 174.944074999354,-37.0710140016393 174.943979998376,-37.0710240070157 174.94373899981,-37.0713329947701 174.943773993482,-37.0714010074036 174.944779002445,-37.072020993423 174.944728000348,-37.0720740073651 174.944670007286,-37.0724300014351 174.944839008823,-37.0724440042723 174.945072001698,-37.0722020005701 174.945365001986,-37.0723829934339 174.945244004616,-37.0725100071563 174.946382899889,-37.0727509267457 174.946426010845,-37.0729951306658 174.94665450918,-37.0729692058919 174.946712997376,-37.072643000358 174.947330991695,-37.0730759976727 174.947542001672,-37.0734500040483 174.94772700417,-37.0733359931118 174.947812532925,-37.0734883226183 174.948220058583,-37.0733020436613 174.948351007568,-37.0735009954437 174.949064001194,-37.0731749943279 174.949159997304,-37.0733100055646 174.95100200411,-37.073315003576 174.950446991895,-37.0725369960194 174.950828921649,-37.0722273328507 174.951110527405,-37.0722497396513 174.951293993646,-37.072100996648 174.951439833736,-37.0722171437493 174.95160659664,-37.072081973679 174.951182005962,-37.0717039971512 174.951362005479,-37.0716220046009 174.951654992128,-37.0713440002298 174.95255800527,-37.0720409936922 174.954394996116,-37.0732770073656 174.955263007814,-37.0740340061394 174.955917004625,-37.0747490013414 174.956501004841,-37.0755489962741 174.956977008257,-37.0763840020247 174.956967996133,-37.0765640033862 174.957255993239,-37.0772859980814 174.95761199075,-37.078444995164 174.958768997046,-37.078441002973 174.959062998608,-37.0782200007782 174.959249996058,-37.0781659953131 174.960719997348,-37.0781869945549 174.961457004589,-37.0780899920542 174.961967996195,-37.077950007203 174.962126004632,-37.0779489921393 174.962131998789,-37.0779999922203 174.962197999386,-37.0780140063708 174.963282005306,-37.0778769985608 174.964142001917,-37.0776650063154 174.964845008485,-37.0775860058 174.965378005788,-37.0773290027524 174.966021006846,-37.0771490050858 174.966270003448,-37.0770270049655 174.966561005194,-37.0771309942925 174.96741100653,-37.0777479964159 174.967671992128,-37.0778830057418 174.967885006502,-37.0781189957114 174.968201992428,-37.0781469931327 174.968518007914,-37.0779640069995 174.968682007627,-37.0779310016758 174.968851004767,-37.0779920063366 174.969040005048,-37.0781819984402 174.969252998961,-37.0782840048864 174.970114008388,-37.0783759981541 174.970259003451,-37.0808480018475 174.970504991815,-37.0808100046173 174.970837002527,-37.0835580047011 174.981064000788,-37.0820300021425 174.98522500288,-37.0822319982569 174.9854959955,-37.0817309955645 174.986030995084,-37.0813089970905 174.987966996652,-37.0814229935784 174.990114996592,-37.0820020036834 174.990300007216,-37.0816389948488 174.990972000826,-37.0816690046784 174.992113002074,-37.0822399979761 174.992370994362,-37.0827490003221 174.994206004966,-37.083691005611 174.99679299676,-37.0837019939372 174.997987005967,-37.0833609974121 174.998402001617,-37.083454000587 174.99964900166,-37.0832969961058 175.000426998891,-37.0837659930969 175.000557008367,-37.0837430013706 174.998940999056,-37.0860000056008 174.99772200501,-37.0874809939956 174.998645002165,-37.0882019984228 174.999061008682,-37.0883770035884 174.999454000498,-37.0887949979671 174.999580007988,-37.089129006197 174.999744998848,-37.089312005414 174.999661999515,-37.0897169988176 174.999793004888,-37.0898129948986 175.000260006009,-37.0899309938879 175.000416998256,-37.0900579972682 175.000579999944,-37.0903830062439 175.000586998022,-37.0906330009101 175.00099900394,-37.0908539947145 175.001121002147,-37.0909699955525 175.00120999681,-37.0914150006895 175.001351999045,-37.0915890050758 175.001685000334,-37.091654997237 175.001984993176,-37.0919669962599 175.002241996789,-37.092000995096 175.002435000113,-37.0922669989123 175.002594998184,-37.0922660022248 175.002821998998,-37.0920090001464 175.002969994026,-37.0919829952198 175.003612004897,-37.0923510066717 175.003877001973,-37.0926009994244 175.003897003988,-37.0929280060956 175.003839997648,-37.093159000024 175.003875004802,-37.0932589925909 175.004016004221,-37.0933609958184 175.004318995439,-37.0934419992229 175.004484004727,-37.0934409999412 175.004585998799,-37.0932900048163 175.004633006527,-37.0930289940733 175.00480099659,-37.0929430058007 175.005134008128,-37.0929679915739 175.005454002883,-37.0930779968702 175.005433996996,-37.0931989982802 175.004979992628,-37.0934340044398 175.004640001569,-37.0939169968683 175.004637008136,-37.094158998893 175.004936007237,-37.0944639931115 175.005341000466,-37.0945019927855 175.009172008148,-37.1006770056403 175.005106003516,-37.1020609978016 175.005314998504,-37.10222600258 175.005325997902,-37.1025850028089 175.005781000917,-37.102912006332 175.006323008911,-37.104099997349 175.006089997161,-37.1045900026775 175.006310007403,-37.1049490015452 175.006526991717,-37.1050220008625 175.006403999389,-37.1050810020363 175.00643899759,-37.1052750039186 175.006067990745,-37.1051989928133 175.005427005383,-37.1048159958608 175.005049000348,-37.1048569935439 175.004816996074,-37.1047330062299 175.004887998098,-37.1040510033593 175.005374007654,-37.1037850069333 175.005506993193,-37.1036190041547 175.001585994417,-37.1049920007495 174.996795002917,-37.1042349960122 174.990162003944,-37.1059359962818 174.993694004232,-37.1097969981145 174.99339099586,-37.1103980051754 174.996250999428,-37.1102680053448 174.995304001438,-37.1134400002185</coordinates></LinearRing></outerBoundaryIs></Polygon>
  </Placemark>
</Folder>
</Document></kml>
