<?xml version="1.0" encoding="utf-8" ?><kml xmlns="http://www.opengis.net/kml/2.2"><Document id="root_doc"><Folder><name>East_Tamaki.final</name><Placemark id="East_Tamaki.final.1"><name>Joined Boundary</name><description></description><Style><LineStyle><color>ff0000ff</color></LineStyle><PolyStyle><fill>0</fill></PolyStyle></Style><Polygon><outerBoundaryIs><LinearRing><coordinates>174.898365,-36.927335 174.899155,-36.927478 174.89892,-36.928317 174.899155,-36.928436 174.900214,-36.928627 174.900184,-36.928734 174.900466,-36.928876 174.90096,-36.928966 174.90127,-36.927862 174.901789,-36.928007 174.901827,-36.928077 174.902052,-36.928146 174.902139,-36.928116 174.90316,-36.928492 174.903196,-36.929225 174.903389,-36.92949 174.90345,-36.929714 174.903868,-36.929915 174.90389,-36.930088 174.903803,-36.930769 174.903902,-36.931014 174.903812,-36.931249 174.903059,-36.931972 174.903489,-36.93264 174.903301,-36.933191 174.903271,-36.933654 174.903568,-36.933708 174.903386,-36.934357 174.904157,-36.934856 174.90463,-36.935238 174.905001,-36.935446 174.90497,-36.935335 174.905289,-36.934968 174.90538,-36.934985 174.905533,-36.934799 174.905589,-36.934598 174.905651,-36.934609 174.906664,-36.933397 174.906734,-36.933442 174.906885,-36.933282 174.906794,-36.933224 174.907141,-36.932825 174.906757,-36.932556 174.906939,-36.93237 174.907421,-36.932713 174.907976,-36.932178 174.907856,-36.932087 174.908252,-36.931751 174.908502,-36.931945 174.908949,-36.931574 174.909765,-36.93109 174.909904,-36.931141 174.910229,-36.930574 174.910659,-36.930733 174.910785,-36.930514 174.911382,-36.930735 174.910998,-36.931396 174.911381,-36.931521 174.911693,-36.930934 174.912418,-36.931133 174.914245,-36.931182 174.915331,-36.931604 174.915147,-36.933021 174.915439,-36.933075 174.915388,-36.933513 174.914725,-36.935855 174.915067,-36.935917 174.914894,-36.936445 174.914968,-36.936469 174.914911,-36.936675 174.914626,-36.936589 174.914509,-36.936928 174.914831,-36.936946 174.914729,-36.937309 174.914544,-36.937298 174.914488,-36.937475 174.914616,-36.937498 174.914407,-36.938061 174.914117,-36.938008 174.914104,-36.938052 174.914526,-36.938129 174.914204,-36.93928 174.913892,-36.939224 174.913872,-36.939294 174.914058,-36.939328 174.914007,-36.939513 174.914133,-36.939535 174.913912,-36.940281 174.913709,-36.940244 174.913658,-36.94043 174.913801,-36.940455 174.913237,-36.94256 174.9129,-36.942514 174.912713,-36.943121 174.912812,-36.943092 174.913847,-36.943154 174.913915,-36.943208 174.913916,-36.943785 174.913568,-36.943785 174.91291,-36.943967 174.912484,-36.944651 174.912315,-36.945256 174.912274,-36.945487 174.912335,-36.945497 174.912122,-36.94629 174.912181,-36.9463 174.912118,-36.946532 174.911747,-36.946467 174.911572,-36.947116 174.911944,-36.947181 174.911879,-36.947419 174.911799,-36.947488 174.911444,-36.948809 174.911163,-36.948785 174.910915,-36.94857 174.909831,-36.948382 174.909204,-36.948302 174.908938,-36.948382 174.908584,-36.948356 174.907007,-36.948092 174.906454,-36.948341 174.905104,-36.953208 174.904861,-36.953967 174.904635,-36.954358 174.904671,-36.954521 174.904144,-36.956611 174.903611,-36.956517 174.903046,-36.956186 174.90166,-36.955914 174.901726,-36.9557 174.900198,-36.954814 174.899058,-36.955078 174.898889,-36.955684 174.899496,-36.955791 174.899219,-36.956758 174.898938,-36.956792 174.89856,-36.957103 174.899017,-36.957461 174.899313,-36.957382 174.899872,-36.957425 174.900228,-36.957646 174.900392,-36.95808 174.900056,-36.958829 174.900205,-36.959786 174.900328,-36.959904 174.90242,-36.959939 174.902601,-36.960139 174.902863,-36.960238 174.902517,-36.961409 174.901714,-36.961381 174.901041,-36.963422 174.901729,-36.963508 174.901576,-36.96383 174.902338,-36.964018 174.902184,-36.964088 174.901603,-36.965648 174.900084,-36.970936 174.899553,-36.970839 174.89955,-36.970029 174.899623,-36.969426 174.89977,-36.968831 174.899962,-36.968314 174.900263,-36.96772 174.896546,-36.967034 174.89601,-36.968916 174.895459,-36.968888 174.894482,-36.968612 174.893287,-36.968358 174.894935,-36.962567 174.8956,-36.962684 174.895669,-36.962343 174.895756,-36.962282 174.895919,-36.961745 174.893549,-36.961325 174.895268,-36.955083 174.890862,-36.954389 174.891283,-36.952987 174.891792,-36.953079 174.891859,-36.953043 174.892016,-36.953072 174.892151,-36.952586 174.891998,-36.952388 174.891477,-36.952298 174.891646,-36.951524 174.891396,-36.951246 174.891024,-36.951255 174.891018,-36.950622 174.890303,-36.950571 174.889818,-36.950119 174.889145,-36.949935 174.888687,-36.950529 174.888607,-36.950489 174.888233,-36.95058 174.887942,-36.950427 174.887868,-36.950508 174.887704,-36.950529 174.887304,-36.950346 174.887103,-36.950058 174.886989,-36.95009 174.886948,-36.950158 174.886858,-36.950148 174.886744,-36.950213 174.886585,-36.95018 174.886428,-36.950205 174.886214,-36.950063 174.885893,-36.949991 174.885378,-36.949654 174.885274,-36.949285 174.884738,-36.949262 174.884477,-36.949324 174.884345,-36.949244 174.88412,-36.949203 174.883783,-36.949209 174.883135,-36.949108 174.882689,-36.949251 174.881899,-36.949108 174.881647,-36.949112 174.881287,-36.9493 174.880952,-36.949396 174.880531,-36.949381 174.880361,-36.949316 174.8803,-36.949082 174.880145,-36.948909 174.880135,-36.948574 174.880385,-36.948278 174.880752,-36.948156 174.880777,-36.948106 174.880518,-36.948103 174.880263,-36.947948 174.880248,-36.947584 174.880025,-36.947308 174.879979,-36.947054 174.879813,-36.947079 174.879349,-36.947008 174.87879,-36.946866 174.878608,-36.946724 174.878155,-36.946598 174.877825,-36.946185 174.87744,-36.945897 174.877112,-36.945809 174.876759,-36.945451 174.876594,-36.945352 174.876446,-36.945149 174.876479,-36.945027 174.876692,-36.944888 174.876928,-36.944574 174.876996,-36.943999 174.87753,-36.943719 174.878525,-36.942969 174.878679,-36.942988 174.878908,-36.943117 174.879109,-36.943386 174.879359,-36.943553 174.879497,-36.943447 174.879661,-36.943419 174.879977,-36.94362 174.88015,-36.943587 174.880201,-36.943517 174.880497,-36.943656 174.88109,-36.943523 174.881533,-36.943712 174.881676,-36.94368 174.881704,-36.943594 174.881475,-36.943638 174.8812,-36.943513 174.881112,-36.943409 174.880549,-36.943577 174.880292,-36.943427 174.87997,-36.943411 174.87967,-36.943229 174.879523,-36.943192 174.879516,-36.943112 174.879758,-36.942805 174.879729,-36.942605 174.879538,-36.942955 174.879421,-36.943055 174.879282,-36.943073 174.879016,-36.943004 174.87876,-36.942846 174.878462,-36.942476 174.878463,-36.942636 174.878108,-36.942716 174.877968,-36.942706 174.877879,-36.942931 174.877746,-36.943011 174.877479,-36.943072 174.877377,-36.943247 174.877257,-36.943329 174.876997,-36.943394 174.876597,-36.943344 174.876329,-36.942988 174.876117,-36.942877 174.876316,-36.943109 174.876317,-36.943381 174.876237,-36.943542 174.876008,-36.943672 174.876092,-36.943695 174.876084,-36.943894 174.876188,-36.944095 174.876519,-36.944409 174.875953,-36.94462 174.875577,-36.94483 174.875309,-36.945173 174.874819,-36.945559 174.8741,-36.945747 174.873884,-36.945754 174.87377,-36.945668 174.873708,-36.945471 174.873542,-36.94541 174.873599,-36.945646 174.87382,-36.945964 174.873579,-36.946063 174.872898,-36.946138 174.872502,-36.946576 174.872241,-36.946723 174.87187,-36.946799 174.871217,-36.946738 174.869407,-36.946933 174.867409,-36.947674 174.866534,-36.947823 174.866195,-36.947738 174.865914,-36.947564 174.865731,-36.947296 174.865634,-36.9469 174.865313,-36.94698 174.865378,-36.946863 174.865572,-36.946788 174.865777,-36.946516 174.865618,-36.946502 174.865046,-36.946603 174.864768,-36.946568 174.864609,-36.946322 174.864591,-36.945966 174.864677,-36.945724 174.865021,-36.945534 174.864854,-36.945208 174.865064,-36.944888 174.865281,-36.944763 174.865739,-36.944851 174.866093,-36.945044 174.866456,-36.945096 174.866828,-36.945236 174.866987,-36.94539 174.866909,-36.945636 174.866974,-36.945683 174.867191,-36.94552 174.86731,-36.945314 174.867377,-36.945016 174.867223,-36.944255 174.86724,-36.943672 174.867198,-36.943578 174.86676,-36.943542 174.866241,-36.943281 174.866091,-36.943314 174.865834,-36.94351 174.865756,-36.943522 174.865435,-36.943374 174.865407,-36.943309 174.865471,-36.943158 174.865828,-36.9431 174.86585,-36.943042 174.865749,-36.942945 174.865229,-36.942804 174.864894,-36.94279 174.864698,-36.942856 174.864551,-36.943009 174.864231,-36.943027 174.864026,-36.9432 174.863681,-36.943235 174.863886,-36.943709 174.864054,-36.94387 174.864057,-36.943988 174.863402,-36.943928 174.863292,-36.944034 174.862895,-36.944226 174.862739,-36.944416 174.862451,-36.94459 174.862106,-36.944552 174.861951,-36.94438 174.861605,-36.943341 174.861387,-36.943139 174.861471,-36.94255 174.861934,-36.942047 174.861822,-36.94185 174.861858,-36.941683 174.862149,-36.941403 174.862332,-36.941108 174.862594,-36.941002 174.863038,-36.940549 174.863637,-36.940213 174.863697,-36.94012 174.863991,-36.939987 174.864271,-36.93969 174.864821,-36.939479 174.865407,-36.939045 174.866061,-36.938865 174.866423,-36.938906 174.866581,-36.938773 174.867209,-36.938689 174.867551,-36.938551 174.867719,-36.938592 174.867948,-36.938739 174.867982,-36.938813 174.868091,-36.938795 174.868194,-36.938542 174.868621,-36.938162 174.868752,-36.938074 174.868953,-36.938127 174.869079,-36.937807 174.869016,-36.937719 174.868665,-36.93759 174.868403,-36.937592 174.868352,-36.937535 174.868385,-36.937403 174.869315,-36.937261 174.869826,-36.937239 174.869887,-36.937283 174.869827,-36.937575 174.869876,-36.93767 174.870539,-36.937757 174.870637,-36.937822 174.870695,-36.937941 174.870697,-36.937756 174.870594,-36.937636 174.870094,-36.937341 174.87041,-36.936931 174.87051,-36.936723 174.870741,-36.936692 174.871318,-36.936796 174.871487,-36.936711 174.871646,-36.936715 174.871717,-36.936669 174.871713,-36.936599 174.87137,-36.936641 174.87066,-36.936446 174.870443,-36.936442 174.870144,-36.936503 174.869908,-36.936675 174.869676,-36.936697 174.868532,-36.936221 174.868557,-36.936026 174.868975,-36.935678 174.869643,-36.935399 174.870022,-36.935522 174.871219,-36.935595 174.871484,-36.935498 174.871878,-36.935511 174.872504,-36.935214 174.872756,-36.934986 174.872952,-36.935018 174.873152,-36.935156 174.873365,-36.935198 174.873581,-36.935346 174.873321,-36.934941 174.873413,-36.934779 174.873573,-36.934668 174.874104,-36.934721 174.874212,-36.934789 174.874557,-36.934735 174.874794,-36.934621 174.874915,-36.934634 174.874757,-36.934542 174.874446,-36.934548 174.874079,-36.934423 174.873963,-36.934329 174.873986,-36.934169 174.874236,-36.934015 174.874384,-36.933999 174.874287,-36.933954 174.87434,-36.93383 174.873801,-36.934122 174.873491,-36.93402 174.873619,-36.934197 174.873561,-36.934343 174.873101,-36.93454 174.872829,-36.934737 174.872509,-36.934721 174.872269,-36.934778 174.872109,-36.934743 174.87202,-36.934471 174.872132,-36.93438 174.872145,-36.934267 174.87198,-36.933566 174.871616,-36.932912 174.871182,-36.932459 174.871177,-36.932361 174.870912,-36.931976 174.870935,-36.931912 174.870844,-36.931756 174.870759,-36.931688 174.870553,-36.931708 174.870471,-36.931633 174.870393,-36.931669 174.870177,-36.931431 174.87006,-36.930934 174.869965,-36.930909 174.869825,-36.930456 174.869875,-36.930344 174.869837,-36.930003 174.869512,-36.929198 174.869319,-36.928899 174.868649,-36.928204 174.868745,-36.927725 174.868992,-36.927492 174.869585,-36.927462 174.869973,-36.927605 174.87039,-36.927862 174.87078,-36.927948 174.870977,-36.928043 174.871634,-36.928162 174.871961,-36.928424 174.872337,-36.929047 174.872316,-36.929316 174.87238,-36.929487 174.872495,-36.928853 174.872847,-36.928463 174.872966,-36.928351 174.873204,-36.928243 174.873641,-36.928119 174.873956,-36.928145 174.874908,-36.92839 174.875096,-36.928324 174.877678,-36.92857 174.877885,-36.928819 174.877683,-36.929118 174.87721,-36.92958 174.877237,-36.929722 174.877181,-36.929859 174.877241,-36.929972 174.877303,-36.930748 174.877199,-36.931013 174.877003,-36.931166 174.876963,-36.931414 174.877202,-36.931667 174.877654,-36.931927 174.877663,-36.932042 174.877621,-36.932024 174.877565,-36.932107 174.877817,-36.932024 174.877976,-36.932115 174.878405,-36.932107 174.878691,-36.932252 174.87882,-36.932514 174.878928,-36.932562 174.878757,-36.932149 174.878481,-36.931987 174.878048,-36.931841 174.877507,-36.931442 174.877705,-36.931012 174.877834,-36.930929 174.877746,-36.930273 174.877825,-36.930004 174.877769,-36.929715 174.878446,-36.929249 174.878949,-36.929261 174.879441,-36.929452 174.879722,-36.929643 174.880098,-36.92973 174.880218,-36.929813 174.88029,-36.930019 174.880791,-36.930196 174.880458,-36.929966 174.88024,-36.929462 174.879823,-36.92931 174.879768,-36.929049 174.879829,-36.928734 174.880137,-36.92809 174.88075,-36.927525 174.880832,-36.927338 174.881073,-36.927024 174.881162,-36.926975 174.88172,-36.927046 174.882181,-36.927206 174.882356,-36.927376 174.882752,-36.927292 174.883368,-36.927421 174.883929,-36.927462 174.884332,-36.927587 174.884673,-36.927792 174.88489,-36.928151 174.884893,-36.92825 174.88476,-36.928402 174.884496,-36.928486 174.88452,-36.928785 174.884414,-36.928838 174.884378,-36.928988 174.884155,-36.929234 174.884077,-36.929257 174.884042,-36.929325 174.884087,-36.929337 174.884579,-36.92909 174.88469,-36.928678 174.884961,-36.928572 174.885135,-36.928325 174.8852,-36.928133 174.885068,-36.927843 174.885035,-36.927628 174.885097,-36.927542 174.885274,-36.927447 174.885594,-36.927394 174.885831,-36.927415 174.886031,-36.927349 174.886446,-36.927343 174.886679,-36.927184 174.886744,-36.927245 174.887486,-36.927537 174.887957,-36.927369 174.888383,-36.927447 174.888678,-36.92761 174.88875,-36.927833 174.888667,-36.927973 174.888036,-36.928624 174.888017,-36.92877 174.88813,-36.928978 174.887827,-36.929252 174.887887,-36.929466 174.88779,-36.929794 174.887973,-36.929557 174.88805,-36.929246 174.888289,-36.92913 174.888348,-36.929055 174.888361,-36.928665 174.888805,-36.92832 174.889087,-36.928183 174.889206,-36.928206 174.889332,-36.928305 174.889452,-36.928202 174.889555,-36.928179 174.88975,-36.928191 174.890019,-36.928297 174.890215,-36.928491 174.890594,-36.928687 174.890651,-36.928861 174.890636,-36.929043 174.891252,-36.929315 174.891456,-36.929347 174.891514,-36.929415 174.891662,-36.929445 174.89169,-36.929406 174.891032,-36.928916 174.891008,-36.928825 174.891094,-36.928618 174.890966,-36.928394 174.890843,-36.928322 174.890565,-36.928302 174.890151,-36.927953 174.889684,-36.927733 174.889554,-36.927604 174.88949,-36.927164 174.889347,-36.927135 174.889221,-36.927206 174.889079,-36.927072 174.889044,-36.926907 174.889135,-36.926666 174.888871,-36.926493 174.888818,-36.926396 174.888832,-36.926265 174.889004,-36.925917 174.889374,-36.925515 174.889537,-36.925555 174.889007,-36.926168 174.88898,-36.92635 174.889065,-36.926467 174.889278,-36.926607 174.889442,-36.926894 174.890506,-36.92712 174.890727,-36.926534 174.891432,-36.926684 174.891566,-36.926169 174.891799,-36.926235 174.891598,-36.926978 174.89252,-36.927139 174.892414,-36.927531 174.892867,-36.92761 174.892944,-36.92775 174.892977,-36.927629 174.894103,-36.927826 174.893776,-36.929053 174.893496,-36.929192 174.893633,-36.929406 174.894856,-36.929221 174.895327,-36.929266 174.895656,-36.929208 174.896041,-36.927735 174.896761,-36.927857 174.896973,-36.927044 174.898365,-36.927335</coordinates></LinearRing></outerBoundaryIs></Polygon></Placemark></Folder></Document></kml>