<?xml version="1.0" encoding="utf-8" ?><kml xmlns="http://www.opengis.net/kml/2.2"><Document id="root_doc"><Folder><name>East_Tamaki_Heights.final</name><Placemark id="East_Tamaki_Heights.final.1"><name>East Tāmaki Heights (polygon: official_shp)</name><description></description><Style><LineStyle><color>ff0000ff</color></LineStyle><PolyStyle><fill>0</fill></PolyStyle></Style><Polygon><outerBoundaryIs><LinearRing><coordinates>174.933861992522,-36.9274010007177 174.933772997748,-36.927859003243 174.933801002111,-36.9281010022245 174.933641005053,-36.9286159989043 174.933569991758,-36.9287050041949 174.933490006767,-36.9291450038926 174.932993996968,-36.9302629976608 174.93286499253,-36.9311729986758 174.932891997746,-36.9313990013724 174.933241002118,-36.9317030012212 174.933342997451,-36.9318939935724 174.933298993859,-36.9330120019855 174.933408994446,-36.933502003892 174.933725008033,-36.9341249952182 174.934019991989,-36.9345309982124 174.934123001049,-36.9345769949816 174.934332995917,-36.9348109985805 174.934611998795,-36.9352709963758 174.93500800254,-36.935564997113 174.935564993366,-36.9357580024055 174.935870006965,-36.9358060030967 174.936168004993,-36.9361629922029 174.936261002233,-36.9364659925724 174.936205996508,-36.9365480055595 174.936272005854,-36.9369179932053 174.936322005413,-36.9370149931632 174.936540007574,-36.937179992146 174.936840992392,-36.9379769979531 174.936689005657,-36.9396490034153 174.937725997518,-36.9399570035738 174.937054005101,-36.9405699978984 174.936236992589,-36.9410190038302 174.936203997001,-36.9412340009133 174.936103004924,-36.9413169936355 174.936090002925,-36.9416670067983 174.936173997461,-36.9420050000753 174.935842002097,-36.942451000162 174.935828000009,-36.9428229926245 174.93591899593,-36.9428950050638 174.935841004805,-36.9429299938109 174.935720996395,-36.9431279939913 174.935794006158,-36.943395003835 174.935792000338,-36.9438420030294 174.935697998672,-36.9441120036799 174.935717003134,-36.9441890070635 174.935536992987,-36.9444569993709 174.93546699139,-36.9446850023951 174.935586993229,-36.9449429938069 174.935562003114,-36.9450589921042 174.935619003873,-36.945098997436 174.935572001265,-36.9451530066966 174.935633008279,-36.945391998611 174.935425997453,-36.945671996545 174.935559004674,-36.9459989999023 174.935471001517,-36.9471650018825 174.935072004364,-36.9479069989012 174.934777995444,-36.9481380027595 174.934718994874,-36.9483019999404 174.934780992476,-36.9486290039852 174.934501000407,-36.94883599865 174.934375991333,-36.9490980032373 174.937447003285,-36.9501499927784 174.937155508831,-36.9508597164288 174.936962504216,-36.9516712527544 174.936068601985,-36.9545768915459 174.923678902101,-36.9520889453972 174.924630699162,-36.9487183503424 174.92358947494,-36.9487315435971 174.922267462516,-36.9484923719053 174.921863392326,-36.9485522147359 174.921670100241,-36.9486601137089 174.916206394159,-36.9477176411826 174.915656891668,-36.9497875840602 174.913244304363,-36.9493723180555 174.913310715972,-36.9491256695805 174.911443594501,-36.9488088056572 174.91179920573,-36.9474876826522 174.911879491529,-36.9474185679013 174.911943606863,-36.9471807890081 174.911572103449,-36.9471163548108 174.911746703911,-36.9464673567613 174.91211820353,-36.9465318058387 174.912180804938,-36.9463000467061 174.912121797752,-36.9462898794475 174.912335306918,-36.9454971671758 174.912273693608,-36.9454865336244 174.912315496731,-36.9452558710152 174.912484300093,-36.9446512529163 174.912910198994,-36.9439668903856 174.913568302591,-36.9437850915994 174.913916402553,-36.9437846403527 174.91391459425,-36.9432080063948 174.913847292496,-36.9431540032333 174.912811893396,-36.9430918241928 174.912712602581,-36.943120623657 174.912900100095,-36.9425136604198 174.913237405188,-36.9425599225569 174.913800552109,-36.940455445705 174.913657612201,-36.9404296676019 174.913709475054,-36.9402443269358 174.913912325419,-36.9402812474228 174.914132805898,-36.9395351946099 174.914006800213,-36.939512523802 174.914058195365,-36.9393278421642 174.913872096177,-36.9392942652196 174.913891904933,-36.9392239725973 174.914203992445,-36.9392802223337 174.914526206787,-36.9381292186978 174.914104302204,-36.9380519028128 174.914116603295,-36.9380079953985 174.914407107367,-36.938061357828 174.914616197111,-36.9374976967965 174.91448840241,-36.9374746560219 174.914544195841,-36.9372977951101 174.914728606858,-36.937309145814 174.914830795312,-36.9369458168206 174.914508595507,-36.9369278165805 174.91462600123,-36.936588874301 174.914910708118,-36.9366750006969 174.914968001291,-36.9364690733357 174.914893801202,-36.9364445096865 174.91506729396,-36.935916929099 174.91472500647,-36.9358551017423 174.915388091865,-36.9335128465582 174.915438506435,-36.9330752755545 174.916726607012,-36.9333007179794 174.918295404462,-36.9342432844119 174.918701493905,-36.9346994018482 174.919349894303,-36.9348139815526 174.919574195994,-36.9349161296581 174.920273606726,-36.93497120962 174.920964095442,-36.9351166564166 174.921292104571,-36.9351059457033 174.921493001455,-36.9350329440053 174.921657094566,-36.9351041470876 174.921867708065,-36.9350216021477 174.921917006471,-36.9348538498693 174.922045198744,-36.9348061458824 174.922411997258,-36.9348755381534 174.92243689397,-36.9347894050766 174.923188603747,-36.9349238683081 174.923745493475,-36.9349586052081 174.924132804351,-36.9350929831422 174.928218804108,-36.9358147739379 174.929017001554,-36.9348309968284 174.929361501548,-36.9348300040419 174.930928190996,-36.9344951923044 174.930977908914,-36.9343538966299 174.930536904159,-36.9340959667832 174.930346105602,-36.9329919263209 174.93172339246,-36.932510615819 174.931793295986,-36.9306549040301 174.931944805538,-36.9296073935663 174.930975006979,-36.9295169333739 174.931093396546,-36.9286980343529 174.931605395362,-36.9279247428082 174.932286807796,-36.9280910688493 174.932487695171,-36.9273877150398 174.933861992522,-36.9274010007177</coordinates></LinearRing></outerBoundaryIs></Polygon></Placemark></Folder></Document></kml>