<?xml version="1.0" encoding="utf-8" ?><kml xmlns="http://www.opengis.net/kml/2.2"><Document id="root_doc"><Folder><name>Ellerslie.final</name><Placemark id="Ellerslie.final.1"><name>Ellerslie (polygon: official_shp)</name><description></description><Style><LineStyle><color>ff0000ff</color></LineStyle><PolyStyle><fill>0</fill></PolyStyle></Style><Polygon><outerBoundaryIs><LinearRing><coordinates>174.801429001326,-36.8919570030369 174.801626001713,-36.8917530052764 174.800996003595,-36.8916890025624 174.800888002107,-36.8916210011046 174.800886995721,-36.8915669994168 174.800489991717,-36.8913129997784 174.800697007386,-36.890938992616 174.801256995229,-36.8912450041262 174.801292996123,-36.8914250062262 174.801546991415,-36.8914160068813 174.801884999374,-36.8914930042967 174.802407991537,-36.8909539923377 174.807836001119,-36.8928419921915 174.808203992361,-36.8921589952946 174.809495993959,-36.8920209968859 174.809469007391,-36.8912350014368 174.809760997344,-36.8913359965901 174.810558003797,-36.8912720039995 174.810937993309,-36.8910660058193 174.812452003675,-36.8899340055718 174.812831994296,-36.8903160046063 174.813122007311,-36.8901570016742 174.813563004139,-36.8898230040808 174.812781995735,-36.8891589924174 174.813678000633,-36.8889450053747 174.813689994798,-36.8889780066095 174.814887007975,-36.8887409956129 174.814789002432,-36.8891489938097 174.815233003574,-36.8892179993016 174.815154996623,-36.8887730020483 174.815706003776,-36.8886769978817 174.815769998844,-36.8889360026931 174.816285004194,-36.8888459928843 174.816162001337,-36.8883430003601 174.81660300284,-36.8882659947631 174.816922007043,-36.889569997128 174.817146998262,-36.8895520072165 174.816872002772,-36.8884270012624 174.817532999247,-36.8883109930994 174.817556997492,-36.8883990024311 174.819754999995,-36.8880149950259 174.819746001985,-36.8878440023973 174.820089996664,-36.8878479953064 174.824578000835,-36.8873079992728 174.827044993742,-36.8901220033105 174.826654992213,-36.8903740039846 174.827218998642,-36.8902419961547 174.826028993453,-36.8910119947644 174.825612000495,-36.8918739975425 174.825599992451,-36.8919969955776 174.825117005867,-36.8920909938901 174.82546199621,-36.8921569960731 174.825331997994,-36.8926129993127 174.825551998185,-36.8926540053754 174.825446001176,-36.8930249959127 174.825336004663,-36.893004995729 174.825051991621,-36.8940070007995 174.825577000681,-36.8941029953483 174.825282003026,-36.8949319979876 174.825381000246,-36.8950219986621 174.825331006176,-36.8951269967379 174.825387005206,-36.8952159942897 174.825746000376,-36.8954280002829 174.82599299378,-36.8954289932822 174.826096005557,-36.8955229993234 174.825803003526,-36.895826996422 174.825686008089,-36.8960829976791 174.825360002426,-36.8959870004289 174.825144998338,-36.8964409926788 174.824917994029,-36.89623800385 174.824749004348,-36.896401006119 174.82518000527,-36.8966900005701 174.823206001693,-36.8977310050014 174.823248993764,-36.8978500047577 174.823007003046,-36.8978889997889 174.822917996367,-36.8978009953341 174.822576005954,-36.8981939955729 174.822605992994,-36.8982279923872 174.822184005167,-36.8983280041498 174.822319003743,-36.8984959933169 174.819515992837,-36.9017749947765 174.819970994793,-36.9020270055585 174.819584006679,-36.9046529939212 174.818776993354,-36.9048309955826 174.818756992457,-36.9052120000636 174.818577001524,-36.9052040032872 174.818396992118,-36.9054900067302 174.818523005037,-36.9058360032269 174.818689996374,-36.9061030041792 174.818561998785,-36.9061270061111 174.817270997171,-36.906142999757 174.817194000992,-36.9062000070936 174.816361994361,-36.9059270060991 174.814500001953,-36.9052259926044 174.814131008305,-36.905043994812 174.812373003662,-36.9044240010945 174.810150002313,-36.9034420068665 174.810105006752,-36.9034700074432 174.80761700855,-36.9026590045623 174.80735100415,-36.9024330056942 174.807303994526,-36.9024639958383 174.807248998552,-36.9027369924302 174.806004005923,-36.9040099999327 174.805629993162,-36.9047410032216 174.805202007371,-36.9045969991273 174.804955008451,-36.9051650045633 174.804697999048,-36.9050799945527 174.804477993755,-36.9051199926066 174.80439299404,-36.9047850016258 174.803107001978,-36.9059849949064 174.802577002667,-36.905627999569 174.803989994281,-36.9042399932001 174.803805994759,-36.9041190033359 174.803952997397,-36.9039750020349 174.803612998165,-36.9037520032667 174.803538993919,-36.9035370038421 174.803964994035,-36.9031190033773 174.803503993791,-36.902816002793 174.803440001127,-36.9028780027497 174.802843997778,-36.9024869936086 174.803616001272,-36.9017600029831 174.803718006793,-36.9010710042817 174.803267001027,-36.9010119991566 174.803406997034,-36.9003240047832 174.803031002046,-36.9001380031223 174.803179992485,-36.8998699979086 174.802917995234,-36.8997380035916 174.80300199803,-36.8996059938125 174.803174992908,-36.8996539955556 174.802670001388,-36.8994000020862 174.80306599276,-36.89882400144 174.802806005141,-36.8987039919707 174.802652001994,-36.8985559996039 174.802227000623,-36.8983590008931 174.801998001467,-36.8986779976201 174.801469994725,-36.898432005768 174.801562996752,-36.8983009925564 174.801432996622,-36.898240993976 174.802041002712,-36.897395005362 174.801990997045,-36.8973439950283 174.801701005371,-36.8977429976484 174.801433008586,-36.8975859968822 174.801564000631,-36.8974050054362 174.801237992231,-36.8972519981613 174.801210008051,-36.896930993588 174.800822994012,-36.8966920027475 174.800869999292,-36.8966270070143 174.800139002436,-36.8961389939369 174.799765992362,-36.8959649960823 174.799875003944,-36.8958980003438 174.799279994888,-36.8952830043876 174.79909699365,-36.8953970017416 174.799000007435,-36.8949359918015 174.799101991913,-36.8948719955781 174.798906999148,-36.8946700007822 174.798679003123,-36.8945669923488 174.798787003397,-36.894312006391 174.798980997432,-36.8942239979445 174.799102991991,-36.8940299958267 174.799680995344,-36.8944319941065 174.799926998083,-36.8941249967614 174.800135998935,-36.8942460072804 174.800247007951,-36.8941069950267 174.8004039915,-36.8941620045794 174.8006270027,-36.8940160053032 174.80073799353,-36.8940000041915 174.800843005786,-36.8941490070259 174.800410005129,-36.8946860074047 174.800689998113,-36.8943719956091 174.800830994592,-36.89444500501 174.801381003326,-36.8937560052879 174.801312994072,-36.8937629998507 174.801173008374,-36.8936749982175 174.801512998823,-36.8933240033733 174.801691005568,-36.8934349996101 174.802315996298,-36.8927909957829 174.802234008215,-36.8924520034098 174.801429001326,-36.8919570030369</coordinates></LinearRing></outerBoundaryIs></Polygon></Placemark></Folder></Document></kml>