<?xml version="1.0" encoding="utf-8" ?><kml xmlns="http://www.opengis.net/kml/2.2"><Document id="root_doc"><Folder><name>Flat_Bush.final</name><Placemark id="Flat_Bush.final.1"><name>Flat Bush (polygon: official_shp)</name><description></description><Style><LineStyle><color>ff0000ff</color></LineStyle><PolyStyle><fill>0</fill></PolyStyle></Style><Polygon><outerBoundaryIs><LinearRing><coordinates>174.968426001787,-36.9829470041418 174.966980999771,-36.983796993811 174.964679999367,-36.9834410037765 174.963781992375,-36.9855409927942 174.952048991842,-36.9856159929214 174.951279007419,-36.987626004122 174.950104000401,-36.9904459966061 174.952616994306,-36.9912239983816 174.953467992823,-36.9998569958679 174.953828505549,-37.0001583968851 174.941852407674,-36.9965662257563 174.941853505388,-36.9965348128286 174.938910807856,-36.9957665709098 174.938698800748,-36.9957951947592 174.936392993339,-36.9951613246342 174.937465096458,-36.9919289628662 174.938950394644,-36.9871637375826 174.934770493662,-36.9859350561947 174.934897892743,-36.9855345540203 174.934388196429,-36.9851775341284 174.934134700276,-36.9850628761276 174.933885606394,-36.9850369430253 174.933518406738,-36.985101304638 174.933265705046,-36.9851997663638 174.932812400301,-36.9851742896738 174.932570898653,-36.9852560087882 174.932490204133,-36.9852525874351 174.932201507406,-36.984995095861 174.932110392764,-36.984980973296 174.931850905192,-36.9850987726967 174.931772001702,-36.9850775389981 174.931655794431,-36.9849387580086 174.931595607838,-36.9846251938967 174.931441199751,-36.9845947770674 174.931209691323,-36.9847341907891 174.931055593004,-36.9847423784202 174.930998807147,-36.9846431118339 174.931164002256,-36.9845407810978 174.931201807737,-36.9844636461863 174.931038698099,-36.9842299130646 174.930605995613,-36.9840203025526 174.9304555017,-36.9840935651998 174.930373093637,-36.9842305490767 174.930284504901,-36.9842207463093 174.930162107349,-36.9841463156523 174.930126795833,-36.9839950159362 174.929998298628,-36.9838098042213 174.929692300758,-36.984115886701 174.928689002961,-36.9878867997823 174.919600091041,-36.9862457329715 174.919414999576,-36.9860785200578 174.918556806015,-36.9891830720422 174.918421103714,-36.9892587645635 174.91578432638,-36.9889676806761 174.915505001624,-36.989447001417 174.915536642507,-36.9894766564236 174.914047655506,-36.9893646503815 174.913974663785,-36.9895186618864 174.9137826628,-36.9894606536621 174.913855655248,-36.9893066575804 174.91228866303,-36.9888286561661 174.910407691911,-36.9888036681216 174.910377672244,-36.990253656267 174.909812681013,-36.9902466505485 174.909805679522,-36.9905596611698 174.908746692116,-36.9905456578832 174.907978683867,-36.9914596546851 174.906505708125,-36.9887526662991 174.906072704149,-36.9887476671587 174.904502721867,-36.9890796678393 174.904614724976,-36.9894596688341 174.9046277071,-36.9903856621436 174.903398310953,-36.9904735455485 174.903510695308,-36.9892626580216 174.903331728964,-36.9889336740258 174.903890993435,-36.9888280032876 174.904301999796,-36.9866009930014 174.904549998086,-36.9858109920077 174.904698997869,-36.985856004843 174.904836993927,-36.9856969977559 174.905149003502,-36.985798001742 174.906130996602,-36.9848609978476 174.90629099806,-36.9849860058834 174.906336996376,-36.9849359916713 174.90694899227,-36.9851730043269 174.907475005607,-36.9843519943713 174.907429999618,-36.9843340021356 174.907462994027,-36.9842800054322 174.907604991533,-36.9842299997352 174.907191998557,-36.9838959988504 174.903392003522,-36.9837349999323 174.902543991892,-36.9840600022158 174.901913996209,-36.9841480030971 174.901681000176,-36.9841070059849 174.901592713428,-36.9843308921088 174.90128160536,-36.9843326969914 174.900608002368,-36.9841189956448 174.900822999915,-36.9836939945985 174.900915993884,-36.9833649925602 174.901267006583,-36.9834290027661 174.901316000727,-36.9832529974057 174.900965007114,-36.9831890005477 174.901094995876,-36.9827299996699 174.900606007329,-36.9826439931749 174.900699002806,-36.9823030029453 174.901183005193,-36.9824149934385 174.901211998728,-36.9823120034495 174.90156300642,-36.9823759994063 174.901673995864,-36.9819849932079 174.901592005517,-36.9820269974139 174.901408999391,-36.9819950003748 174.901476993712,-36.9817430059257 174.901368996014,-36.9817250057292 174.90159700401,-36.9809180018863 174.901814002378,-36.980680001779 174.901932004559,-36.9807500008215 174.901993005045,-36.980547997403 174.899955992629,-36.9793410023945 174.900011004481,-36.9791420006903 174.899806001145,-36.9790209975598 174.899724995462,-36.9788690069991 174.899290002813,-36.9785749980552 174.898952991318,-36.978514003239 174.8990769932,-36.9780390017269 174.898726008764,-36.9779769977278 174.898663993148,-36.9782009933653 174.898353007143,-36.9780790008187 174.898396004134,-36.9779190068108 174.898033995267,-36.9778549950239 174.898018000438,-36.9779169922504 174.89758399637,-36.9778489938918 174.897684002186,-36.977782996381 174.897813008305,-36.9773180070902 174.89739100138,-36.9772449968346 174.897526007902,-36.976749995643 174.897583004144,-36.9767320045636 174.897917992162,-36.9769309981575 174.897954001194,-36.9767990043161 174.896726007043,-36.9760710001889 174.896272005429,-36.9759000039173 174.896419993566,-36.9756480011116 174.896240995727,-36.9758880036237 174.895761994632,-36.9757070045822 174.89521200059,-36.9753509925977 174.895423000299,-36.9751410015548 174.895371008093,-36.9751070061857 174.895159004103,-36.9753169996545 174.894374991545,-36.9748100024067 174.896545995283,-36.9670339925854 174.900262996346,-36.9677199967996 174.89996200726,-36.9683140029964 174.899769996004,-36.9688309949519 174.899623007956,-36.9694259926783 174.899550000906,-36.9700289968642 174.899553003759,-36.9708389968282 174.900084005225,-36.9709359919225 174.90160300718,-36.9656479939055 174.902183802278,-36.9640878007201 174.902337796801,-36.9640177976555 174.901575812908,-36.9638298057029 174.901728818691,-36.9635077986287 174.9010408082,-36.9634217999138 174.901713819714,-36.961380814059 174.902516803243,-36.961408812083 174.90286280937,-36.9602378215411 174.902600808843,-36.9601388131489 174.902419819207,-36.9599388263519 174.900327828671,-36.9599038280921 174.900204830075,-36.959785828194 174.900055832597,-36.958828838417 174.900391838497,-36.9580798377288 174.900227839778,-36.9576458321384 174.899871845605,-36.9574248380339 174.899312845442,-36.9573818454179 174.899016842616,-36.9574608311518 174.898559849177,-36.9571028442327 174.898937836777,-36.9567918458728 174.899218836909,-36.9567578342644 174.899495847074,-36.9557908395639 174.898888851726,-36.9556838454456 174.899057852513,-36.95507785192 174.900197846951,-36.9548138441587 174.901725832312,-36.9556998500429 174.901659833934,-36.9559138357166 174.903045825493,-36.9561858446311 174.90361081022,-36.9565168366827 174.904143812326,-36.9566108328995 174.904670813783,-36.9545208440853 174.904634813627,-36.9543578419354 174.904860822919,-36.9539668484204 174.905103811113,-36.9532078580554 174.906453818145,-36.9483408812409 174.907006826018,-36.9480918719257 174.908583815178,-36.9483558717988 174.908937799326,-36.948381875798 174.909203800962,-36.9483018745989 174.910914787112,-36.9485698712723 174.911162784652,-36.9487848596792 174.913310715972,-36.9491256695805 174.913244304363,-36.9493723180555 174.915656891668,-36.9497875840602 174.916206394159,-36.9477176411826 174.921670100241,-36.9486601137089 174.921863392326,-36.9485522147359 174.922267462516,-36.9484923719053 174.92358947494,-36.9487315435971 174.924630699162,-36.9487183503424 174.923678902101,-36.9520889453972 174.936068601985,-36.9545768915459 174.936962504216,-36.9516712527544 174.937155508831,-36.9508597164288 174.937466999257,-36.9500839990543 174.93777400312,-36.9504770023002 174.938108990939,-36.9511569932734 174.937839994623,-36.9516990056574 174.93875900046,-36.9527679926429 174.939861000432,-36.9534779949237 174.940587998448,-36.9535079925895 174.941913995332,-36.9489290056505 174.944779993717,-36.9497849943168 174.946012005625,-36.9502630020629 174.944440994256,-36.9552020005999 174.946632004676,-36.9556690052417 174.949995998256,-36.9562070012133 174.949843994999,-36.9567500009014 174.949545995841,-36.956983994257 174.948598004405,-36.9572990000661 174.949044996973,-36.9576260028235 174.949097995382,-36.9575600008001 174.956342995659,-36.9658069968495 174.953435994368,-36.9674370061742 174.951974572087,-36.9713968306839 174.946993672393,-36.9705715395633 174.946961376572,-36.9709720032532 174.947404926421,-36.9714710156711 174.947565196912,-36.9718270508526 174.947592270807,-36.9725574254021 174.94766547292,-36.9728937625754 174.947931058455,-36.9732571169901 174.948960232807,-36.9742301808114 174.949072565346,-36.974512613747 174.94911164178,-36.9748919534275 174.949062187066,-36.9752725622403 174.948717168751,-36.9757709457726 174.948149034379,-36.9762366550195 174.948341909607,-36.9762710514477 174.948032937847,-36.9773429745975 174.948653091666,-36.9774543169718 174.94914079719,-36.9774761700223 174.949273122893,-36.9782262845748 174.949429263023,-36.9785087030929 174.949866095345,-36.9791199100836 174.951151924789,-36.9803830731956 174.951310516726,-36.9807600879125 174.955446684215,-36.981609267049 174.955599230734,-36.9815928832839 174.956006919021,-36.9813358168006 174.956399134304,-36.9814702859987 174.956585716312,-36.9814876361162 174.95665056316,-36.9808970000552 174.957760364653,-36.9802834961994 174.958502068199,-36.9797155279581 174.958928472242,-36.9796256861489 174.959714939966,-36.9790131476854 174.960200830826,-36.9788492786636 174.96074405215,-36.9776331329516 174.961223913586,-36.9768240716173 174.961834598835,-36.9770306541747 174.962310436093,-36.9768655954244 174.96265541255,-36.976555559186 174.968426001787,-36.9829470041418</coordinates></LinearRing></outerBoundaryIs></Polygon></Placemark></Folder></Document></kml>