<?xml version="1.0" encoding="utf-8" ?><kml xmlns="http://www.opengis.net/kml/2.2"><Document id="root_doc"><Folder><name>Glendowie.final</name><Placemark id="Glendowie.final.1"><name>Glendowie (polygon: official_shp)</name><description></description><Style><LineStyle><color>ff0000ff</color></LineStyle><PolyStyle><fill>0</fill></PolyStyle></Style><Polygon><outerBoundaryIs><LinearRing><coordinates>174.892039502104,-36.8717324177973 174.891309710947,-36.8720657768587 174.89047437632,-36.8718521643346 174.889840160659,-36.8717452885995 174.889530224415,-36.8717803026477 174.888053896151,-36.8722755253021 174.88734859792,-36.8725710444338 174.887472786304,-36.8723508420109 174.887378374404,-36.8722156353264 174.886948570259,-36.8719708604421 174.886880084541,-36.8718899150008 174.886922662665,-36.8718108352725 174.887315053542,-36.8718575509208 174.887709378837,-36.8721921210983 174.887912995962,-36.872273379424 174.888445805948,-36.8720631285538 174.888303900824,-36.8718220959265 174.887908349777,-36.8715328648757 174.887526835368,-36.8713595703381 174.886965138657,-36.8710105840299 174.886746568886,-36.8709876175806 174.886589916355,-36.8708677792331 174.886597590474,-36.8706352291992 174.886386662139,-36.8705072031088 174.886318923857,-36.8703874659409 174.886035179395,-36.8701818059693 174.885949515089,-36.8702110122352 174.885963671556,-36.8703659920335 174.886358026071,-36.8709060964327 174.886325403344,-36.871102501963 174.886420674602,-36.8713402341875 174.88663109426,-36.8714762143265 174.886649028348,-36.8715627360983 174.886474796448,-36.8715631998509 174.88633536377,-36.8714596153518 174.88615305828,-36.8710730879089 174.886142373678,-36.8708153975711 174.886098410602,-36.8707745849875 174.886038326205,-36.8707606137781 174.885882901735,-36.8708396539029 174.885610663624,-36.8711808603096 174.885594181926,-36.8710037898633 174.885451208591,-36.8709186808558 174.885350095718,-36.8706871361525 174.885306878208,-36.8701337929086 174.885023815397,-36.8694423199194 174.884394330668,-36.8690721283739 174.884163956667,-36.8688632089358 174.883565268937,-36.8684793723172 174.883461407119,-36.8685512212541 174.883418460899,-36.8686844176039 174.883455471877,-36.8687455635682 174.883612060164,-36.8688633476961 174.884055553924,-36.8689734673657 174.884174699418,-36.8691385835921 174.884759601172,-36.8694278595631 174.884803920319,-36.8695526551893 174.884092483568,-36.8692701586169 174.88383788761,-36.8690346523005 174.883453193631,-36.8689115796394 174.883319627302,-36.8685935164152 174.883482035093,-36.8684061486086 174.883274990245,-36.8682532543712 174.882788637166,-36.8697617431324 174.88294520499,-36.8697459979999 174.883006637085,-36.8697996095479 174.883013637211,-36.870231810225 174.883100823179,-36.8704030609959 174.883093129081,-36.8705797173858 174.883344474488,-36.870745497954 174.883469241956,-36.8709267468569 174.883984165636,-36.8713397700374 174.884434638683,-36.8718051336991 174.884753595075,-36.8720060305478 174.88503939445,-36.8723690366636 174.885201048344,-36.8724655281664 174.885309805887,-36.8726328385855 174.885936404955,-36.8732178984227 174.885407252609,-36.8732479856004 174.885078168967,-36.8732074202843 174.884698720234,-36.873067052597 174.88448879277,-36.8730998397051 174.883890554285,-36.8730350473879 174.883648820322,-36.8731338681701 174.88330511199,-36.8730126178666 174.882688129216,-36.8730130994143 174.881746005888,-36.8729269992631 174.882032030705,-36.8720834234026 174.88185003486,-36.8719317614472 174.88199710452,-36.8714798653079 174.881741938405,-36.8712667128768 174.881783422338,-36.8709802969744 174.881724701984,-36.8705549316982 174.881385688451,-36.8701914367473 174.881216629796,-36.8695160997229 174.880906250307,-36.8692571534078 174.880017948306,-36.8691932697867 174.879383641063,-36.869300309377 174.878810086564,-36.8688219273102 174.878452510708,-36.8690985360555 174.87821718847,-36.8688228651039 174.878133323843,-36.868829792575 174.877978344118,-36.8687027289831 174.878346700862,-36.8684177563563 174.877989123796,-36.8680844976182 174.878433277712,-36.8679009291052 174.878515652761,-36.8675990272398 174.878491758497,-36.8670330044076 174.878132507556,-36.8668372066672 174.87787199483,-36.8668730005971 174.877913974149,-36.8669769306191 174.877804025673,-36.8672784458967 174.877325622563,-36.8671886265965 174.877254770524,-36.8673689694265 174.877332302588,-36.8676927392501 174.877047391965,-36.8681032179151 174.876732825349,-36.8682089310865 174.876666624936,-36.8680821605584 174.876442791549,-36.8681575946369 174.876336935517,-36.8681180108894 174.876185624455,-36.8681689971724 174.876393591576,-36.868567342197 174.875941641343,-36.8686601446211 174.875919419858,-36.868725515362 174.875656143813,-36.8688161001166 174.875447973803,-36.8684178191698 174.875258530075,-36.8689502801167 174.874014429876,-36.8693701970292 174.872138001586,-36.8690469970804 174.869733005128,-36.8684359967957 174.869449007204,-36.8684649943989 174.869032996119,-36.8683420005794 174.868697002142,-36.8684340014071 174.867101007095,-36.8691380050735 174.865778003724,-36.8695859952076 174.865538997528,-36.8695860014225 174.86553900542,-36.8698380071392 174.865312993355,-36.8698380035649 174.865254000391,-36.8697190017524 174.865081002609,-36.8696880043001 174.865081001498,-36.8695359989785 174.862883007071,-36.8695080004303 174.862143993975,-36.8695590067178 174.861480006779,-36.8694859927287 174.861496998757,-36.869383004812 174.861131001351,-36.8693849962271 174.860806006563,-36.8693120027714 174.860623003444,-36.8692169944134 174.860492000548,-36.8692569999173 174.860610574547,-36.8687495932963 174.860760531666,-36.8685772479839 174.861238365335,-36.8683198783121 174.861127605356,-36.8681871801781 174.860794638938,-36.8681789827197 174.860625898777,-36.867682705614 174.860389194126,-36.8674199397095 174.860207984643,-36.8675066392802 174.86012595291,-36.8674206488026 174.860002044765,-36.8674931779847 174.859893145132,-36.8673723867184 174.860061590758,-36.8672749444128 174.859920351708,-36.8671196491183 174.860119768391,-36.8670037205694 174.859799208288,-36.8666479168699 174.859660653825,-36.8667284426022 174.859520507978,-36.8665725861849 174.859292030302,-36.8667060820345 174.859171724238,-36.8665715799778 174.85946939621,-36.8663989455683 174.859188997216,-36.8660870021035 174.859272003187,-36.8660389990538 174.858998991735,-36.8657369947241 174.859110002037,-36.8656719980144 174.859625998846,-36.8657480000339 174.860229992164,-36.8653970037037 174.860330996287,-36.8654940033812 174.860718003551,-36.8640619964357 174.860919006157,-36.8637739942376 174.861003007765,-36.863461995798 174.861385995078,-36.8635289989059 174.861426998749,-36.8633800013607 174.861043994215,-36.8633129986446 174.861088999511,-36.8631449916843 174.861031995405,-36.8629030024152 174.86170599991,-36.8604110045595 174.860592997298,-36.8599070049811 174.860670996491,-36.8596510028989 174.860602005929,-36.8594510037228 174.861133994928,-36.8595559920837 174.86188099753,-36.8592869949703 174.861932003621,-36.859386995041 174.862692005226,-36.8591679923408 174.86263199889,-36.8589539929047 174.868159999605,-36.8528129992961 174.8678500042,-36.8527500031245 174.868150997715,-36.8524149991377 174.868489004363,-36.8522970060419 174.868756005903,-36.8519399945758 174.870198001849,-36.8522360029445 174.870286996893,-36.8519330003208 174.871031991588,-36.8520869919486 174.871169999997,-36.851656995699 174.870941001154,-36.8510490033189 174.871135993237,-36.8500639967801 174.870560992797,-36.8498790045988 174.870696993436,-36.8495689920476 174.87057599494,-36.8488640008681 174.870235000955,-36.8485080066877 174.870148000967,-36.8485259963752 174.870092994981,-36.8483499967145 174.870414007415,-36.8482849962628 174.870296997132,-36.8479580056356 174.870465991877,-36.8479190005929 174.869919005852,-36.846388002436 174.869377004508,-36.8465129958277 174.869360992507,-36.84647000277 174.86970600429,-36.8463899990975 174.869683993546,-36.846140000882 174.869844996113,-36.8460589952175 174.870140008357,-36.8461779993676 174.870090006997,-36.8457749974273 174.869538007065,-36.84567699475 174.869655254937,-36.8454143421177 174.870201904391,-36.8456217436286 174.871187668115,-36.8457186151156 174.872495247983,-36.846211136746 174.873264619737,-36.8464017504467 174.873784215633,-36.8464527212805 174.874174314835,-36.8464478217256 174.874317969129,-36.8464052874024 174.874608461479,-36.8465363456204 174.874799976503,-36.8465613837261 174.875266577884,-36.8464651370957 174.8754071798,-36.8464990210799 174.875510553384,-36.8468019759533 174.875386644025,-36.8471315475565 174.87540833257,-36.8473701513168 174.8752978297,-36.8476459344234 174.875350308646,-36.8479481953896 174.87565285092,-36.8484476350208 174.876068244886,-36.8489676271862 174.876975009419,-36.8498327640107 174.878288727712,-36.8506073850878 174.879558374824,-36.8517690867841 174.88006378209,-36.8520893680409 174.88035719256,-36.8520542940324 174.880605579437,-36.852145746414 174.880828496116,-36.8523073028955 174.880866205535,-36.852758218131 174.880801804001,-36.8528063615904 174.880862800116,-36.8527919771874 174.880883645798,-36.8529086341852 174.88077236432,-36.8530951524078 174.880874736495,-36.853415559379 174.881440211852,-36.8538238519506 174.881425624007,-36.853887511148 174.881582009675,-36.8541926184412 174.88174958111,-36.8543600021817 174.882225814719,-36.8545250143326 174.882209193269,-36.8546705896174 174.882310081295,-36.8548604641194 174.882562685548,-36.855067078313 174.882417589137,-36.8552470664152 174.882627674748,-36.8553706982067 174.882388451976,-36.8554128061763 174.882368795012,-36.8555438613967 174.882490598836,-36.855680405426 174.882725479908,-36.8558053540196 174.882781856923,-36.8559183695814 174.882716281765,-36.8561447448753 174.882771599569,-36.8562767041836 174.882557332674,-36.8564187645536 174.882670148166,-36.8565487584068 174.882639469764,-36.8566294093992 174.882298251465,-36.8568189723963 174.882331157889,-36.8569508425572 174.882152437496,-36.8571967109871 174.882333574361,-36.8574902935768 174.882215800548,-36.8575678986056 174.882302784024,-36.857810796573 174.882540018452,-36.8578500469277 174.882419002856,-36.857956001578 174.882432834226,-36.8580138062827 174.882765800739,-36.8582392886265 174.882544184486,-36.8587375877904 174.882587753789,-36.8589920694274 174.882980792033,-36.8592325302576 174.88313302559,-36.8594308458736 174.883493461432,-36.8595404208364 174.883511879768,-36.8595793275724 174.883302047078,-36.8602084121032 174.883031063961,-36.8607424515489 174.882653831168,-36.8608755892212 174.882445008456,-36.8611171669814 174.88220607954,-36.8612340261371 174.882072736039,-36.8613781855753 174.881846597166,-36.8615060953928 174.881639097487,-36.8617596663953 174.881323924409,-36.8618794959824 174.881262113845,-36.8620741643044 174.880590721543,-36.8621844927345 174.880399113512,-36.8623486706949 174.880279586409,-36.8627484348393 174.880270019006,-36.8631832482704 174.880085074269,-36.8635039149615 174.880162063028,-36.8636180277618 174.880138762744,-36.8638516858907 174.880207703707,-36.8642222821569 174.880391989404,-36.864446710964 174.880438323173,-36.8646745215864 174.8802529218,-36.8648223925502 174.87982880663,-36.8647837350813 174.879794274115,-36.8648799707388 174.880291394368,-36.8650739144289 174.880488754557,-36.8652193773347 174.881200238615,-36.8660818087381 174.881484907079,-36.8662587958362 174.881511521137,-36.8665751345637 174.881610438029,-36.8667382682797 174.882860114621,-36.8678526046042 174.88461152097,-36.869085861807 174.885434635795,-36.8695530212438 174.886547368359,-36.8701157721793 174.887929232363,-36.8706874432307 174.88826605625,-36.8707907117786 174.888572744725,-36.8708227075699 174.888738813422,-36.8709219984076 174.889464200421,-36.8711391295403 174.889892916374,-36.8712101499596 174.891062294927,-36.8715449789601 174.891420477804,-36.8715805263225 174.892039502104,-36.8717324177973</coordinates></LinearRing></outerBoundaryIs></Polygon></Placemark></Folder></Document></kml>