<?xml version="1.0" encoding="utf-8" ?><kml xmlns="http://www.opengis.net/kml/2.2"><Document id="root_doc"><Folder><name>Glen_Innes_Point_England_Wai.final</name><Placemark id="Glen_Innes_Point_England_Wai.final.1"><name>Joined Boundary</name><description></description><Style><LineStyle><color>ff0000ff</color></LineStyle><PolyStyle><fill>0</fill></PolyStyle></Style><Polygon><outerBoundaryIs><LinearRing><coordinates>174.866914992164,-36.8906829983182 174.866747996674,-36.8906520069909 174.866946000057,-36.8901090070382 174.866797007469,-36.8899309944249 174.866712000571,-36.8899690016213 174.866655003173,-36.8901269973297 174.866256995048,-36.8900329958124 174.86611099521,-36.8904330000358 174.864567003551,-36.8901390031718 174.864663000989,-36.8898580016677 174.864411000688,-36.8897999982725 174.864350994285,-36.889999998653 174.864011999158,-36.8899130058242 174.864012999626,-36.8893150040524 174.863620992998,-36.8894689919342 174.863705994472,-36.8899450011427 174.863065004254,-36.8902870026008 174.862152002846,-36.8904270004079 174.862099007808,-36.8906959962191 174.861175006578,-36.890545003819 174.861216995077,-36.8903269948663 174.860837998037,-36.890194006754 174.860435992269,-36.8899749974183 174.859148996544,-36.8889610054136 174.858770007062,-36.8888019927433 174.858959001071,-36.8884409960776 174.858897007559,-36.8884179990457 174.858834003614,-36.8883959957313 174.858648002778,-36.8887500015562 174.857275992059,-36.8887559924163 174.857240994389,-36.8888790064233 174.856975000801,-36.8888390061973 174.856907004478,-36.8888740022713 174.855915992905,-36.888694003599 174.856074999305,-36.8876339962985 174.855283994167,-36.8875189945654 174.855676000753,-36.8860340059126 174.855765004384,-36.8845799926639 174.855617994084,-36.8831530003607 174.855445993884,-36.8823800054052 174.855063003829,-36.8811650066786 174.855133991084,-36.8809309986908 174.852236006668,-36.8804110019798 174.852621996904,-36.8803920014285 174.852792001032,-36.8803029984214 174.852893002489,-36.8799589959644 174.852935005691,-36.8788339950998 174.852769996848,-36.8775759940585 174.852121997612,-36.8753310040639 174.850903991749,-36.8739209934002 174.850173006826,-36.8732839943469 174.848903003543,-36.8725250017658 174.85105799936,-36.8728969939498 174.850413002093,-36.8724009971195 174.849111004331,-36.8717360060676 174.847585994328,-36.8713850038737 174.848128992144,-36.870487004373 174.846874002726,-36.8698929954185 174.846715000775,-36.8700909997442 174.846277005744,-36.8698790051887 174.845985000621,-36.8698269929539 174.845782005307,-36.8691560036649 174.846373000887,-36.8690810021999 174.846300991885,-36.8687169939598 174.8478609994,-36.8685470013617 174.848316997565,-36.8687849928845 174.848705000603,-36.8682680002141 174.848929001946,-36.8684160003094 174.849296008917,-36.8681750025651 174.849387992823,-36.8682030019729 174.85041999596,-36.8675239956498 174.851682477475,-36.8683242327333 174.852926573529,-36.8671127501109 174.853815833617,-36.8673816195862 174.853851913986,-36.867304540044 174.854302161881,-36.8674406100416 174.854422653808,-36.8671835855928 174.854595379118,-36.8672358680384 174.854547183843,-36.8673387274493 174.854770429686,-36.8674081935745 174.854699019372,-36.8675606100141 174.854922995192,-36.8676282680956 174.854850804565,-36.8677825075735 174.855106712849,-36.8678598067403 174.85583085831,-36.8689546428163 174.856111943563,-36.8688027936224 174.856244074256,-36.8689602006662 174.856151105078,-36.869010572757 174.856411175702,-36.8693204271489 174.856756775845,-36.8691345842504 174.856859274529,-36.8692674751197 174.856752625695,-36.8693233026997 174.856900206753,-36.8694812949399 174.856755876935,-36.8696020437927 174.856898260844,-36.8697847658863 174.856795864172,-36.8698975433239 174.857629855445,-36.8700733333226 174.858284495232,-36.8700804629494 174.858454508319,-36.8698578443427 174.858871915519,-36.8699313389828 174.858919881048,-36.8696495452144 174.85919135,-36.8693586876054 174.859434251392,-36.8693906394032 174.859515116763,-36.8693252325611 174.859807300395,-36.8694028847799 174.85984030365,-36.869322735777 174.860074182831,-36.8693892582467 174.860139348668,-36.8692307263356 174.860374991467,-36.8692930005819 174.860623003444,-36.8692169944134 174.860806006563,-36.8693120027714 174.861131001351,-36.8693849962271 174.861496998757,-36.869383004812 174.861480006779,-36.8694859927287 174.862143993975,-36.8695590067178 174.862883007071,-36.8695080004303 174.865081001498,-36.8695359989785 174.865081002609,-36.8696880043001 174.865254000391,-36.8697190017524 174.865312993355,-36.8698380035649 174.86553900542,-36.8698380071392 174.865538997528,-36.8695860014225 174.865778003724,-36.8695859952076 174.867101007095,-36.8691380050735 174.868697002142,-36.8684340014071 174.869032996119,-36.8683420005794 174.869449007204,-36.8684649943989 174.869733005128,-36.8684359967957 174.872138001586,-36.8690469970804 174.874014429876,-36.8693701970292 174.875258530075,-36.8689502801167 174.875447973803,-36.8684178191698 174.875656143813,-36.8688161001166 174.875919419858,-36.868725515362 174.875941641343,-36.8686601446211 174.876393591576,-36.868567342197 174.876185624455,-36.8681689971724 174.876336935517,-36.8681180108894 174.876442791549,-36.8681575946369 174.876666624936,-36.8680821605584 174.876732825349,-36.8682089310865 174.877047391965,-36.8681032179151 174.877332302588,-36.8676927392501 174.877254770524,-36.8673689694265 174.877325622563,-36.8671886265965 174.877804025673,-36.8672784458967 174.877913974149,-36.8669769306191 174.87787199483,-36.8668730005971 174.878132507556,-36.8668372066672 174.878491758497,-36.8670330044076 174.878515652761,-36.8675990272398 174.878433277712,-36.8679009291052 174.877989123796,-36.8680844976182 174.878346700862,-36.8684177563563 174.877978344118,-36.8687027289831 174.878133323843,-36.868829792575 174.87821718847,-36.8688228651039 174.878452510708,-36.8690985360555 174.878810086564,-36.8688219273102 174.879383641063,-36.869300309377 174.880017948306,-36.8691932697867 174.880906250307,-36.8692571534078 174.881216629796,-36.8695160997229 174.881385688451,-36.8701914367473 174.881724701984,-36.8705549316982 174.881783422338,-36.8709802969744 174.881741938405,-36.8712667128768 174.88199710452,-36.8714798653079 174.88185003486,-36.8719317614472 174.882032030705,-36.8720834234026 174.881746005888,-36.8729269992631 174.882293613286,-36.8729842664045 174.882030965,-36.8729827 174.880972395,-36.873249982 174.880523833,-36.8732578039999 174.879676019,-36.8740170959999 174.879482287,-36.874110635 174.878975843,-36.8740518719999 174.878670493,-36.874169793 174.878446165,-36.874173791 174.878274949,-36.874064937 174.878106748,-36.8740678659999 174.877704968,-36.8747283549999 174.876860321,-36.8756452769999 174.876443991,-36.8758102739999 174.876307856,-36.8759253379999 174.876285341,-36.876068457 174.876415958,-36.876219347 174.876466119,-36.876486224 174.876398269,-36.876793204 174.876476019,-36.876890758 174.876434198,-36.8769647089999 174.876163348,-36.877080516 174.876081731,-36.877311235 174.875964264,-36.877373635 174.875370235,-36.877574206 174.874282773,-36.877785564 174.873061722,-36.8781928299999 174.872705722,-36.8785144729999 174.872501891,-36.878605894 174.871749345,-36.878417463 174.872189980996,-36.8788205550064 174.872390257093,-36.8788600688379 174.872789650179,-36.878800764642 174.873073766746,-36.878591923403 174.873161328625,-36.878470390727 174.873524590875,-36.8783011025933 174.873736426566,-36.8783442358329 174.873896386866,-36.8785190134349 174.873954587716,-36.8783546274151 174.874040955727,-36.8782786010282 174.875042238952,-36.8780314281152 174.875507444352,-36.8777756922324 174.876009439818,-36.8777050033305 174.876614668574,-36.8773969869484 174.876658908871,-36.8772643908955 174.876525141998,-36.8768877670286 174.87657687797,-36.8768286187655 174.876720834009,-36.8767925973621 174.876827367616,-36.8772012886503 174.877124046622,-36.8776229605604 174.877297173642,-36.8781968692169 174.877520293788,-36.8783397211136 174.877550661611,-36.8785010938853 174.877631686239,-36.8784980250958 174.877671647844,-36.8785423335547 174.877512470801,-36.8791873424482 174.877564650621,-36.8793756391501 174.877346436825,-36.8795970505671 174.876984359848,-36.8796763803005 174.876892222076,-36.8798907307241 174.8765841849,-36.8801153174298 174.876438605637,-36.880318146404 174.876327698224,-36.8803238099032 174.876141357081,-36.880220163102 174.875915414155,-36.8806485994229 174.875800615385,-36.8807073722561 174.875521437978,-36.8807424476771 174.875387216157,-36.8808179606113 174.875294830326,-36.8809541517573 174.875230957229,-36.8812324517015 174.875446730799,-36.8814916816114 174.875401670582,-36.881557589393 174.874840965936,-36.8817568319553 174.874566853347,-36.8815260894411 174.874161796647,-36.8815508538893 174.873823138181,-36.8816780399585 174.873455186613,-36.8819996629886 174.873286057643,-36.882356513842 174.873174533335,-36.8831219037146 174.873244723033,-36.8833836232545 174.873199513991,-36.8835422374263 174.873446958834,-36.8838594935886 174.87342232281,-36.8839849337025 174.873253508678,-36.8839579007947 174.873165725002,-36.88379049483 174.873056213942,-36.8838783206157 174.872740619293,-36.8837477225786 174.872588118132,-36.8837583647039 174.872559633634,-36.8837217683565 174.872484734377,-36.8837265542719 174.87243115149,-36.8838117817912 174.872235625023,-36.8837086288517 174.871646375357,-36.8837620466196 174.870923232031,-36.8840262720946 174.870665183285,-36.8841713148615 174.869912318818,-36.8847971145766 174.869030635648,-36.8858565386916 174.868696812185,-36.886725764645 174.868513220981,-36.8869682554074 174.868402712116,-36.887284234254 174.868314469522,-36.8872679697018 174.868235136297,-36.8876049808014 174.868090871379,-36.8878188194123 174.868033732409,-36.8881777783132 174.868065562874,-36.8885388640621 174.867964349925,-36.8887243106369 174.867969950355,-36.8889686934103 174.867866331896,-36.8894215953829 174.867969286573,-36.8904770491246 174.867678541757,-36.890820884855 174.866914992164,-36.8906829983182</coordinates></LinearRing></outerBoundaryIs></Polygon></Placemark></Folder></Document></kml>