<?xml version="1.0" encoding="utf-8" ?><kml xmlns="http://www.opengis.net/kml/2.2"><Document id="root_doc"><Folder><name>Golflands_Huntington_Park.final</name><Placemark id="Golflands_Huntington_Park.final.1"><name>Joined Boundary</name><description></description><Style><LineStyle><color>ff0000ff</color></LineStyle><PolyStyle><fill>0</fill></PolyStyle></Style><Polygon><outerBoundaryIs><LinearRing><coordinates>174.903131996548,-36.9318960074088 174.903812000335,-36.9312489967061 174.903902005445,-36.9310140032829 174.903803001243,-36.9307689921543 174.903890005869,-36.9300880045756 174.903867995761,-36.929914999654 174.903449994422,-36.9297140069167 174.903388992161,-36.9294899915576 174.903196005666,-36.9292250025994 174.903159996147,-36.9284919955663 174.904966997736,-36.9291309974306 174.904954005777,-36.9291580028303 174.906613999211,-36.9295740019394 174.90676800545,-36.9290519981834 174.906601992745,-36.9289279969516 174.906229000493,-36.9288789999815 174.905781998873,-36.9286440066455 174.90559699789,-36.9284169938133 174.905330005386,-36.9278810027601 174.904815999391,-36.927598002424 174.904553992985,-36.9272420057592 174.904157007726,-36.9271139919968 174.903926998435,-36.9269160030317 174.903829993087,-36.9264670084129 174.903594997861,-36.9261100067526 174.903583992016,-36.9257500007429 174.903716008656,-36.9254319978445 174.903989995748,-36.9252010062993 174.904460006102,-36.9249449981952 174.904679000179,-36.9247159965944 174.904640998212,-36.9244009936977 174.904347001247,-36.9239100030085 174.903944005045,-36.9235800035452 174.903745005594,-36.9234930058257 174.903324006119,-36.9235010038213 174.902897002978,-36.9232610005477 174.902694991475,-36.9230839980095 174.902550006112,-36.922883997429 174.902713000595,-36.9227009930014 174.902509992092,-36.9225019995718 174.902195993831,-36.9223040014185 174.901663005122,-36.9213460052682 174.901266996467,-36.9212170048377 174.900703993469,-36.9211600017128 174.900502001533,-36.9209389954081 174.900544005487,-36.9204870073067 174.900681998807,-36.9203939920239 174.901103996134,-36.9204319989022 174.90171000367,-36.9209840008379 174.901878002541,-36.920980994827 174.901904993494,-36.9209359933849 174.901786997629,-36.92073500515 174.901802998686,-36.9203290063441 174.901601002185,-36.9201299940715 174.900897004193,-36.920051997354 174.900724005109,-36.9198750062896 174.900743999542,-36.9196269992456 174.900954997327,-36.9191269976251 174.900945994832,-36.9188119930093 174.900766004823,-36.9184100038596 174.900816002223,-36.9181829957822 174.900952992084,-36.9180680068616 174.901424998862,-36.9178799940795 174.901644008323,-36.9176949972753 174.90207600326,-36.9171009948479 174.902189993783,-36.9171670047493 174.902249000333,-36.917277999408 174.902437007777,-36.9179509944205 174.902840007768,-36.9184450066914 174.902892992129,-36.9182130044344 174.902711998043,-36.9177430012772 174.902703005546,-36.9174279957558 174.902755007273,-36.9173149982958 174.902920005403,-36.9171760042822 174.903453005222,-36.9169999941194 174.903910996467,-36.9164599935427 174.903987000582,-36.9162100073059 174.904338993854,-36.9157529969122 174.904551991289,-36.9153210027091 174.904768993124,-36.9150909990992 174.904902002766,-36.9148190044334 174.905035993045,-36.914259999562 174.912981004558,-36.9157049993122 174.913576998302,-36.915870001574 174.91393099958,-36.9162210009536 174.914577996355,-36.9164830038308 174.914786998896,-36.9161529977531 174.915492095194,-36.9164645936861 174.915431300626,-36.9167349635632 174.915416496151,-36.9172635256297 174.915214593613,-36.9177775188579 174.915218505801,-36.9181422968485 174.915453595664,-36.9187587000805 174.916258606867,-36.9197367302862 174.915898906691,-36.9198017928864 174.915846346983,-36.9199994282817 174.915584824517,-36.9200102160547 174.915492505053,-36.9209488451764 174.915274994085,-36.9212641197476 174.915105094191,-36.9218795440172 174.915546802896,-36.9231840953561 174.916371993045,-36.9233384368494 174.916073506124,-36.9246105862827 174.913194235442,-36.9240725777332 174.913271489299,-36.926040591735 174.913344702765,-36.9260937945689 174.913337498252,-36.9263294048564 174.913250840206,-36.9263916803794 174.912822005366,-36.9286605001822 174.912553999304,-36.9293630067213 174.912019005177,-36.9304480039808 174.911763994835,-36.9308099925979 174.911381004252,-36.9315210057832 174.910998005926,-36.9313960043405 174.911381992578,-36.9307349982682 174.910785006556,-36.9305139996232 174.910658991582,-36.9307330032334 174.910228993053,-36.930573999093 174.909904004958,-36.9311410028195 174.909764992314,-36.9310900000368 174.908949007685,-36.9315740000117 174.908501995946,-36.9319449982392 174.90825200696,-36.9317509949945 174.907856001791,-36.9320870022875 174.907975997585,-36.932178005809 174.907421002244,-36.9327129968013 174.906939002905,-36.932369998309 174.90675700283,-36.9325559923234 174.90714100511,-36.9328250049488 174.906793999477,-36.9332239968333 174.906885004956,-36.9332819994407 174.906733991687,-36.9334420003199 174.906663993103,-36.9333969915884 174.905650999927,-36.9346089976471 174.905589006546,-36.9345979961452 174.905533008229,-36.9347990008142 174.90538000244,-36.9349849916044 174.905288995444,-36.9349679976408 174.90496999604,-36.9353350033421 174.905001001737,-36.9354459947008 174.904629991321,-36.9352379967269 174.904157005527,-36.9348560022159 174.903386006285,-36.9343570043553 174.903567996974,-36.9337079972749 174.903270996629,-36.93365399465 174.903301000609,-36.9331910045914 174.903489006898,-36.9326400028053 174.903058998634,-36.931972003597 174.903131996548,-36.9318960074088</coordinates></LinearRing></outerBoundaryIs></Polygon></Placemark></Folder></Document></kml>