<?xml version="1.0" encoding="utf-8" ?><kml xmlns="http://www.opengis.net/kml/2.2"><Document id="root_doc"><Folder><name>Half_Moon_Bay.final</name><Placemark id="Half_Moon_Bay.final.1"><name>Half Moon Bay (polygon: official_shp)</name><description></description><Style><LineStyle><color>ff0000ff</color></LineStyle><PolyStyle><fill>0</fill></PolyStyle></Style><Polygon><outerBoundaryIs><LinearRing><coordinates>174.896063683,-36.893206833 174.896471331,-36.893154706 174.896628041,-36.893060965 174.896830538,-36.892522465 174.896812012,-36.8923859019999 174.896623218,-36.8924071649999 174.896196823494,-36.8925756028747 174.896184221829,-36.8925024987473 174.896038141873,-36.8923795425759 174.895963408345,-36.8924093691586 174.895933575,-36.8923711729999 174.895684249718,-36.8923840305061 174.895395945913,-36.8922922390964 174.895272022,-36.892020079 174.89482213,-36.8914883969999 174.894496433982,-36.8912418139425 174.894365813784,-36.890978612321 174.894318134734,-36.8910717220111 174.89437110643,-36.8915370358995 174.894332242364,-36.8920129521852 174.894186547023,-36.8921438719361 174.893760745772,-36.8923354283352 174.893372872861,-36.8924638144215 174.892799972927,-36.8925764255621 174.892345916768,-36.8924210509725 174.892235765234,-36.8921430844404 174.892117688628,-36.8920300406362 174.891342532225,-36.8917222314119 174.890649354981,-36.8913336600016 174.889867458042,-36.8911274023869 174.889423481802,-36.8911306454273 174.888801693162,-36.8909055145591 174.888561225978,-36.890756188128 174.888403481567,-36.890752461553 174.888317504417,-36.8906836884071 174.887907812576,-36.8899674892129 174.887882308557,-36.8894799982362 174.888004387,-36.8882864 174.888374949592,-36.8879455167544 174.88850759506,-36.8875883508028 174.889696302,-36.887175355 174.890971988,-36.8866338359999 174.891767944,-36.8860330809999 174.892795591,-36.8856545429999 174.89293262,-36.885538546 174.893063278,-36.8852207949999 174.893337564,-36.8849905989999 174.893531307,-36.8848971259999 174.89408838,-36.8847511819999 174.894226171,-36.884658691 174.8944394,-36.884249328 174.894429664,-36.883933994 174.8945077,-36.883707285 174.895162212,-36.8830198199999 174.895376712,-36.882699648 174.895614983,-36.882177241 174.89595132,-36.881179811 174.896528958,-36.87996658 174.89701173,-36.8800798939999 174.897282679,-36.880086201 174.89751958,-36.879875606 174.898288566,-36.880088605 174.898965699,-36.8800711269999 174.898984107,-36.8792260389999 174.899094057,-36.8792204069999 174.899092749,-36.8803548429999 174.901619899,-36.8813471129999 174.90173237,-36.8812638489999 174.902340508,-36.880131385 174.901732583,-36.8799148429999 174.901684701,-36.8798418959999 174.902158937,-36.8790589639999 174.902125284,-36.87866832 174.901099715,-36.878270573 174.901095778,-36.878126724 174.9026193,-36.876916685 174.903176957,-36.876620584 174.903254027,-36.876628613 174.903546497,-36.8770071069999 174.903647121,-36.876980504 174.904459507,-36.87657224 174.904819064,-36.876192846 174.904849654,-36.876031788 174.905107767,-36.875901048 174.905250534,-36.8759234609999 174.905393415,-36.875868559 174.905660566,-36.875666512 174.905783034,-36.8754648339999 174.905853524,-36.874966979 174.905862852,-36.87431648 174.905731470075,-36.8734618536749 174.905977853873,-36.8744249581932 174.906027655233,-36.8751507692 174.905931621574,-36.875634367061 174.90571941588,-36.8758483856617 174.905481341965,-36.8758711916226 174.905173288841,-36.8760864698292 174.904746922018,-36.8762828660751 174.90465797491,-36.8764876446053 174.904499736234,-36.8766347172866 174.904038331015,-36.8768929364284 174.904126995527,-36.8771080045899 174.905051999713,-36.8783170048978 174.904758998361,-36.8784599999444 174.904909001338,-36.8786580025726 174.904208998753,-36.8789990010558 174.904466006215,-36.8793399987767 174.904701992635,-36.8793990041256 174.905128006524,-36.8799639969937 174.904867006332,-36.8801669974201 174.90539999986,-36.8802650030869 174.904738006011,-36.8825970032653 174.910447631338,-36.8836444120527 174.910377936718,-36.8838936273273 174.91029612585,-36.8839350020897 174.91026104846,-36.8843114199126 174.909878991629,-36.884240995073 174.908853001291,-36.887801000969 174.908969991143,-36.8880199963751 174.908887003842,-36.8883129958998 174.908373003851,-36.8882190054315 174.908229005841,-36.8887279988209 174.908482008631,-36.8889450070324 174.908241993785,-36.8890650033383 174.908375876879,-36.8893901123715 174.908450448034,-36.8897603784439 174.908365933303,-36.8900564864295 174.908085004807,-36.8900409964398 174.908170002383,-36.8902379924031 174.907793993252,-36.8915530010275 174.907457999925,-36.8919429932634 174.907067000273,-36.8922510067855 174.907373993706,-36.8926029943331 174.907504581353,-36.8925668004369 174.90786172528,-36.8927598837243 174.907783001812,-36.8928309994264 174.907685839507,-36.8933375695673 174.907304995862,-36.8932600043807 174.90722999892,-36.8935000039233 174.905898995392,-36.8938940064325 174.905936998151,-36.8942269917858 174.905834994927,-36.8946880044009 174.905565995837,-36.8951069916353 174.905397997458,-36.8952140017004 174.905102006011,-36.8957559993131 174.905133995802,-36.8959250025923 174.905367003146,-36.8961479944116 174.90580899261,-36.896289003574 174.905845006128,-36.8964949988636 174.906014999017,-36.8966709971202 174.905949001123,-36.8969110064414 174.906002001535,-36.8971420074441 174.905856003257,-36.8972540027431 174.905839004054,-36.8973510049713 174.906323002252,-36.8974399935478 174.906111992649,-36.8980009984422 174.905777001393,-36.8979149973754 174.905748997671,-36.8979580042322 174.905799008212,-36.8984049964423 174.905365991996,-36.8988979946562 174.905344005505,-36.899080001693 174.904878992093,-36.8992529946523 174.904886002076,-36.8996089983827 174.904381992094,-36.9003699983852 174.90426199657,-36.9007990046074 174.903997678965,-36.9004997953525 174.903397013081,-36.9008181233868 174.902188338691,-36.8993406838066 174.898816003499,-36.9011210060145 174.89877100465,-36.9008149976348 174.898448769484,-36.9004147660859 174.898827686531,-36.9002179313046 174.897838982109,-36.8990049058592 174.8971453083,-36.8993719798937 174.896960465569,-36.8993806510492 174.896948548914,-36.8992174556344 174.897017231578,-36.8991812937634 174.896822386883,-36.8989422526387 174.897235392299,-36.8987251549784 174.896903496105,-36.8983180735693 174.89716631225,-36.8981798281738 174.896963707151,-36.8979312607462 174.896844997852,-36.8976129962055 174.897284999387,-36.8975640014018 174.897242008318,-36.8975519948327 174.89741300493,-36.8969470017222 174.897674005388,-36.8969300054013 174.899345005951,-36.8956330033149 174.899615001754,-36.8946830051119 174.899223007337,-36.894251992045 174.898216999936,-36.8940979923459 174.898247003524,-36.8939919971628 174.897350995584,-36.8938590066409 174.897333994824,-36.893737003343 174.897097006145,-36.8937079985886 174.897164993609,-36.8934689967017 174.895909059967,-36.8932533247799 174.896063683,-36.893206833</coordinates></LinearRing></outerBoundaryIs></Polygon></Placemark></Folder></Document></kml>