<?xml version="1.0" encoding="utf-8" ?><kml xmlns="http://www.opengis.net/kml/2.2"><Document id="root_doc"><Folder><name>Highland_Park.final</name><Placemark id="Highland_Park.final.1"><name>Highland Park (polygon: official_shp)</name><description></description><Style><LineStyle><color>ff0000ff</color></LineStyle><PolyStyle><fill>0</fill></PolyStyle></Style><Polygon><outerBoundaryIs><LinearRing><coordinates>174.917725,-36.900922 174.914783,-36.900805 174.914846,-36.899746 174.914464,-36.89973 174.914475,-36.899587 174.913957,-36.899566 174.913972,-36.899329 174.909848,-36.899164 174.909916,-36.898844 174.909489,-36.898826 174.909409,-36.898877 174.90914,-36.898841 174.909086,-36.89877 174.909145,-36.898502 174.90996,-36.896881 174.908396,-36.89685 174.90849,-36.896674 174.908431,-36.896494 174.907911,-36.896415 174.908015,-36.895956 174.907954,-36.895903 174.907807,-36.895928 174.907513,-36.896123 174.90702,-36.896238 174.906671,-36.897521 174.906597,-36.898127 174.905777,-36.897915 174.905742,-36.898062 174.905799,-36.898405 174.905366,-36.898898 174.905344,-36.89908 174.904879,-36.899253 174.904886,-36.899609 174.904382,-36.90037 174.904295,-36.900752 174.904117,-36.901099 174.904039,-36.901527 174.904005,-36.902193 174.904184,-36.902631 174.904185,-36.902812 174.904364,-36.903364 174.904424,-36.903792 174.904179,-36.904437 174.904092,-36.905026 174.90394,-36.90545 174.904119,-36.906231 174.904245,-36.906475 174.904208,-36.906876 174.904384,-36.90706 174.904456,-36.90724 174.904263,-36.907544 174.903994,-36.907676 174.90386,-36.907831 174.903493,-36.908519 174.90341,-36.9089 174.9035,-36.909018 174.903675,-36.909119 174.903905,-36.909139 174.903984,-36.909208 174.903757,-36.909478 174.903726,-36.909655 174.903785,-36.909777 174.903886,-36.909845 174.904276,-36.909943 174.904542,-36.910198 174.904766,-36.910309 174.904672,-36.910503 174.904685,-36.910696 174.905132,-36.910951 174.9049,-36.911197 174.904448,-36.911435 174.904359,-36.911576 174.904387,-36.911881 174.904513,-36.912024 174.904668,-36.912392 174.904902,-36.912701 174.904927,-36.912822 174.904893,-36.91292 174.904588,-36.913028 174.904409,-36.913184 174.904407,-36.913556 174.904523,-36.913732 174.904641,-36.913539 174.904608,-36.913337 174.904773,-36.913244 174.905748,-36.912978 174.905937,-36.912749 174.905927,-36.912366 174.90609,-36.91216 174.906201,-36.912113 174.906425,-36.912109 174.906823,-36.912235 174.906629,-36.912398 174.906556,-36.912782 174.905756,-36.91327 174.905115,-36.913417 174.905005,-36.91351 174.905125,-36.913778 174.90508,-36.914083 174.904804,-36.914052 174.904716,-36.914211 174.907617,-36.914731 174.907666,-36.914488 174.907927,-36.914322 174.908015,-36.914188 174.908062,-36.913735 174.908005,-36.913224 174.908416,-36.913214 174.908856,-36.913321 174.909132,-36.913442 174.909232,-36.913276 174.909096,-36.913122 174.90898,-36.912732 174.909013,-36.912286 174.909233,-36.912324 174.909743,-36.912254 174.909619,-36.91196 174.909773,-36.911905 174.909504,-36.911799 174.909703,-36.910977 174.909516,-36.909868 174.909184,-36.909901 174.909094,-36.909664 174.909233,-36.909652 174.909294,-36.909243 174.90919,-36.909193 174.909251,-36.909031 174.908804,-36.908906 174.908714,-36.908452 174.909087,-36.908278 174.908688,-36.907725 174.908894,-36.907514 174.908573,-36.907057 174.90911,-36.906979 174.90907,-36.906612 174.908979,-36.906354 174.909108,-36.90633 174.909056,-36.906152 174.909174,-36.905839 174.909281,-36.90587 174.909371,-36.905668 174.909706,-36.905766 174.909881,-36.905593 174.909252,-36.905309 174.909449,-36.905071 174.909281,-36.905248 174.908937,-36.90506 174.908904,-36.904992 174.908987,-36.90488 174.909051,-36.904911 174.90919,-36.904725 174.909285,-36.90477 174.909512,-36.904468 174.910731,-36.905056 174.911506,-36.905201 174.911803,-36.904807 174.914641,-36.903418 174.916239,-36.902582 174.917356,-36.901701 174.917052,-36.901453 174.917725,-36.900922</coordinates></LinearRing></outerBoundaryIs></Polygon></Placemark></Folder></Document></kml>