<?xml version="1.0" encoding="utf-8" ?><kml xmlns="http://www.opengis.net/kml/2.2"><Document id="root_doc"><Folder><name>Howick.final</name><Placemark id="Howick.final.1"><name>Howick (polygon: official_shp)</name><description></description><Style><LineStyle><color>ff0000ff</color></LineStyle><PolyStyle><fill>0</fill></PolyStyle></Style><Polygon><outerBoundaryIs><LinearRing><coordinates>174.934524,-36.90631 174.934991,-36.905904 174.934638,-36.905659 174.934799,-36.905086 174.934623,-36.904963 174.934274,-36.905354 174.934046,-36.905249 174.933258,-36.904701 174.933393,-36.904577 174.933226,-36.904448 174.933409,-36.903849 174.933638,-36.903345 174.933831,-36.903 174.934309,-36.902381 174.933844,-36.902189 174.93405,-36.901936 174.933962,-36.901664 174.934279,-36.90117 174.934032,-36.901215 174.93372,-36.90055 174.934417,-36.900446 174.934632,-36.900351 174.934594,-36.90022 174.935204,-36.900128 174.935091,-36.899642 174.934684,-36.899704 174.934569,-36.899213 174.934413,-36.899234 174.934274,-36.898851 174.934781,-36.898775 174.934801,-36.898399 174.935323,-36.897504 174.934618,-36.897611 174.934576,-36.897433 174.934778,-36.897403 174.93464,-36.897258 174.934592,-36.897053 174.934491,-36.897068 174.934275,-36.89614 174.934168,-36.896008 174.934095,-36.895384 174.933566,-36.895408 174.933553,-36.894644 174.933359,-36.894651 174.933328,-36.894535 174.933053,-36.894481 174.932997,-36.89408 174.932075,-36.894093 174.931715,-36.893862 174.931888,-36.89327 174.931731,-36.893199 174.931607,-36.893377 174.931424,-36.89325 174.931106,-36.893542 174.930896,-36.893391 174.930976,-36.893387 174.931455,-36.892947 174.930993,-36.892613 174.931569,-36.891798 174.930948,-36.891352 174.930639,-36.891627 174.930202,-36.891316 174.929625,-36.891786 174.929445,-36.891658 174.929244,-36.891838 174.929048,-36.891699 174.928855,-36.891872 174.928539,-36.891119 174.929376,-36.890384 174.928845,-36.889738 174.928483,-36.889734 174.928163,-36.889533 174.927917,-36.889786 174.925774,-36.888259 174.925945,-36.888248 174.925999,-36.887707 174.926227,-36.887377 174.926421,-36.887291 174.926802,-36.886995 174.926454,-36.886798 174.926216,-36.886793 174.925248,-36.885755 174.924462,-36.886233 174.924174,-36.885931 174.923203,-36.886672 174.922667,-36.886218 174.922196,-36.886537 174.922025,-36.886783 174.9213,-36.88645 174.92114,-36.886646 174.920958,-36.886552 174.920763,-36.886795 174.920804,-36.886806 174.920667,-36.887203 174.920729,-36.887255 174.920564,-36.888041 174.920115,-36.887859 174.919906,-36.887911 174.919426,-36.887878 174.919214,-36.887794 174.918959,-36.88797 174.919265,-36.888134 174.919014,-36.888534 174.919642,-36.888868 174.919974,-36.889099 174.920306,-36.889213 174.920158,-36.889458 174.920368,-36.889564 174.920064,-36.889726 174.920091,-36.889929 174.919995,-36.88998 174.920179,-36.890511 174.920005,-36.8906 174.919776,-36.890354 174.91901,-36.890762 174.919229,-36.890999 174.918308,-36.891502 174.917424,-36.892134 174.917137,-36.891803 174.91621,-36.89236 174.916279,-36.892435 174.91618,-36.892696 174.915797,-36.892606 174.913643,-36.894534 174.91372,-36.894588 174.913594,-36.894704 174.913551,-36.894743 174.913504,-36.89471 174.912625,-36.895518 174.912701,-36.895779 174.912778,-36.896755 174.912358,-36.896778 174.912102,-36.897008 174.911785,-36.897138 174.911378,-36.897065 174.911147,-36.897286 174.910602,-36.897624 174.910489,-36.89788 174.910164,-36.898039 174.910154,-36.898254 174.909703,-36.898235 174.909688,-36.898552 174.909481,-36.898533 174.909409,-36.898877 174.909489,-36.898826 174.909916,-36.898844 174.909848,-36.899164 174.913972,-36.899329 174.913957,-36.899566 174.914475,-36.899587 174.914464,-36.89973 174.914846,-36.899746 174.914783,-36.900805 174.917967,-36.900931 174.918533,-36.901394 174.918564,-36.901321 174.918797,-36.90134 174.919018,-36.90188 174.918805,-36.901939 174.919005,-36.902345 174.918775,-36.902328 174.91887,-36.90284 174.919384,-36.903425 174.919826,-36.903762 174.919762,-36.903862 174.919766,-36.904177 174.919566,-36.90421 174.919544,-36.90439 174.91969,-36.904572 174.919626,-36.905327 174.924376,-36.907038 174.928011,-36.908029 174.929348,-36.90883 174.930184,-36.908032 174.930053,-36.907939 174.930495,-36.907571 174.930557,-36.907615 174.931312,-36.906937 174.932714,-36.907933 174.934524,-36.90631</coordinates></LinearRing></outerBoundaryIs></Polygon></Placemark></Folder></Document></kml>