<?xml version="1.0" encoding="utf-8" ?>
<kml xmlns="http://www.opengis.net/kml/2.2">
<Document id="root_doc">
<Folder><name>Karaka.final</name>
  <Placemark id="Karaka.final.1">
	<name>Joined Boundary</name>
	<description></description>
	<Style><LineStyle><color>ff0000ff</color></LineStyle><PolyStyle><fill>0</fill></PolyStyle></Style>
      <Polygon><outerBoundaryIs><LinearRing><coordinates>174.942010994048,-37.0732879992004 174.942669994583,-37.0732869997745 174.942618008647,-37.0736499921324 174.942011005063,-37.0736510049011 174.942011993212,-37.0741949923283 174.942577000129,-37.0741940051269 174.942536995198,-37.0747379998253 174.941990005473,-37.074739005433 174.941928332142,-37.0758044863248 174.94239215363,-37.0757978016732 174.942384874674,-37.0761348884147 174.94191025813,-37.0761174051611 174.941876000179,-37.0767209995725 174.941747996159,-37.0767159983449 174.941757001844,-37.0771039944065 174.941605008302,-37.0771179921176 174.941646994547,-37.0773950032715 174.941557000123,-37.0774040027894 174.941534991381,-37.0776529989708 174.941750000884,-37.0776300046301 174.941783000515,-37.0778239955852 174.941577008212,-37.0778460068323 174.941564002725,-37.0785910067496 174.942148950736,-37.0786166134084 174.942194732527,-37.0789469408952 174.941540999079,-37.0789179977544 174.941497881845,-37.0795433399135 174.940984398322,-37.0796596460262 174.9410956411,-37.0799749106414 174.941696994265,-37.0798410003879 174.941677997502,-37.0801110048774 174.942112491823,-37.0801304943134 174.942103025011,-37.0802662860405 174.942043425955,-37.0803089829327 174.942076275599,-37.0806496716121 174.941680992994,-37.0806320040279 174.941662997947,-37.0808869991532 174.939463463323,-37.0814363883 174.940016614887,-37.0828592759721 174.940330876234,-37.0830652679376 174.941602506919,-37.0827479615967 174.941930286244,-37.082742710279 174.941915136102,-37.0829598957022 174.941845931668,-37.0830310448664 174.941863008436,-37.0832170045642 174.941923995097,-37.08325500165 174.941913000716,-37.0834099932248 174.941553997823,-37.0834999929306 174.941649006703,-37.0837450031488 174.941519008907,-37.083777005301 174.941492697769,-37.0841613432852 174.941895223804,-37.0840609311911 174.942080001112,-37.0856489977607 174.941464754591,-37.0858027490391 174.941532024646,-37.0859758220855 174.941696136775,-37.0859346448465 174.94174709325,-37.0862994165817 174.942157340574,-37.0861970996891 174.942185008164,-37.0863929981756 174.94248099277,-37.0864419944501 174.942535992452,-37.0864069975731 174.942701003896,-37.0864569919364 174.942715004155,-37.0867529966826 174.942887003982,-37.0868000002472 174.942806006202,-37.0869739953342 174.943228996964,-37.087102005187 174.943381006694,-37.0873870023566 174.943631001848,-37.0873560068848 174.943806005126,-37.0877989952143 174.944134997924,-37.0878989978463 174.943899993978,-37.0883959995645 174.944792003026,-37.0884980015914 174.944852576656,-37.088370322129 174.946839899786,-37.0889767598643 174.946428217474,-37.0893782390985 174.946201196315,-37.0894878908605 174.946408766229,-37.0904197513047 174.946809072759,-37.0903152118965 174.946896683837,-37.0904682949912 174.947795022914,-37.090138390109 174.948456991872,-37.091640998631 174.950067991722,-37.0912120056032 174.950097893193,-37.09157281743 174.950237893207,-37.091745243827 174.950190892168,-37.0919680216581 174.950082103153,-37.0920769642061 174.94947416909,-37.0924158224131 174.949324045678,-37.0925651384263 174.949111930723,-37.0929095626383 174.94885524469,-37.0935873295749 174.948891096682,-37.0939633665624 174.949043010727,-37.0940288889506 174.949211348081,-37.0939635583834 174.949432376425,-37.0939812220783 174.949703980561,-37.0941448873117 174.949833327668,-37.0943124420868 174.949903894798,-37.0945620684308 174.949874846611,-37.094698180625 174.949749704576,-37.0948812287374 174.949517885378,-37.094973471886 174.948654039057,-37.0951393318891 174.948170977947,-37.0951099891328 174.947927070402,-37.0951518964016 174.947290684166,-37.0950722604311 174.947071094709,-37.0949010730259 174.946909776761,-37.0949101487419 174.946434203842,-37.0947171340256 174.946129091878,-37.0944223281143 174.9459612724,-37.0943755322146 174.945809852588,-37.094199897581 174.945106487642,-37.0944774264093 174.944283974114,-37.0947046326141 174.94359280771,-37.0950996973734 174.943232003232,-37.0954659952672 174.942896003283,-37.0963030002842 174.94275199905,-37.0963860056904 174.942628999973,-37.0963150010622 174.942668006707,-37.0962110023564 174.942522999242,-37.095975003863 174.942354992587,-37.0954310043117 174.942220007798,-37.0957210047512 174.942082997746,-37.0958360048689 174.941929002199,-37.0958380040495 174.941769991631,-37.0957279967358 174.941473007886,-37.0951139956522 174.940313998795,-37.0938370068558 174.940192993778,-37.093547005684 174.940296998112,-37.0932279955539 174.940094002901,-37.0930289943925 174.939896999758,-37.0930100016411 174.939314005857,-37.0932909936043 174.938067999515,-37.0930409974197 174.937839995071,-37.0929319999249 174.937512001735,-37.0928819995653 174.936067997761,-37.0940340005502 174.935904997083,-37.0942510066847 174.936002996707,-37.0958049942891 174.935950002163,-37.0959180060023 174.935730007274,-37.0961020047111 174.935477996137,-37.0961520059876 174.935395003748,-37.0962209962861 174.935262001818,-37.0965160021348 174.935095993341,-37.0966320066866 174.934243004085,-37.0968259997804 174.933549995602,-37.0967039971568 174.933376993292,-37.0965709976346 174.933304001086,-37.0964479988295 174.933071005038,-37.0956300011822 174.933077994384,-37.0953470028392 174.93286800002,-37.0943479979522 174.932751999641,-37.0942139967535 174.932453992861,-37.0941179929076 174.932324003535,-37.094007006569 174.932090997183,-37.0936839939031 174.931932002072,-37.0930109978267 174.931987000728,-37.092964995649 174.932410993594,-37.093001993836 174.932626993549,-37.0926829930465 174.932937994864,-37.0927459931105 174.93353300775,-37.0923630051488 174.933656004519,-37.0922149993604 174.933702994941,-37.0918759976016 174.933952007408,-37.0916799936663 174.934030993212,-37.0915100056403 174.933858992906,-37.090692005145 174.932638002356,-37.0915110041002 174.932096999347,-37.0918130026598 174.931322996472,-37.091791998722 174.930560002922,-37.091670003142 174.930039003858,-37.0916670023431 174.929446007634,-37.0920950036327 174.929108002909,-37.0921229979169 174.928760002277,-37.0922529976669 174.92847699721,-37.0921899988965 174.928329994997,-37.0919669977551 174.927765000225,-37.0918650011684 174.926268001312,-37.0906159934033 174.925632008083,-37.0899729966123 174.925403004647,-37.0898300006939 174.925148991051,-37.0897889965875 174.925004993057,-37.0896789964067 174.924704998836,-37.0890080011931 174.92450100533,-37.0887289992966 174.924155004291,-37.0884079945723 174.923697993817,-37.0881230013089 174.923295441606,-37.0880009700313 174.922962432766,-37.088037283594 174.922660362549,-37.0881627628984 174.92246799649,-37.0884599995532 174.922302008214,-37.0885530031136 174.921766997766,-37.0885839921228 174.921653991848,-37.0885410064011 174.921365992809,-37.0883209935795 174.920954007524,-37.0875939935908 174.920401998806,-37.0869610044196 174.920380997745,-37.0867019955906 174.920472997054,-37.0864419935835 174.921067007301,-37.0860379937762 174.921299007837,-37.0857740037019 174.921457001075,-37.085342997624 174.921921992302,-37.0848060009968 174.922223992402,-37.0843220057558 174.9153216,-37.089551 174.9094851,-37.0857852 174.9055369,-37.0867438 174.9038203,-37.0874969 174.9000437,-37.085032 174.8992713,-37.0808552 174.9021037,-37.0748977 174.9027903,-37.069967 174.9028761,-37.0619539 174.9130042,-37.0585292 174.9206431,-37.0599676 174.923447,-37.059517 174.923864,-37.060389 174.924209,-37.060653 174.924492,-37.060717 174.924833,-37.060668 174.925069,-37.060752 174.925344,-37.06096 174.9264,-37.061056 174.926954,-37.061261 174.927244,-37.061693 174.927657,-37.061867 174.92785,-37.062088 174.927872,-37.062307 174.927763,-37.062623 174.927581,-37.0627 174.927339,-37.062682 174.927079,-37.062814 174.926978,-37.063098 174.92765,-37.063289 174.928146,-37.063139 174.928346,-37.06317 174.928495,-37.063323 174.928804,-37.063426 174.928971,-37.063423 174.928923,-37.063256 174.928617,-37.063026 174.928566,-37.062654 174.928614,-37.06236 174.928753,-37.062244 174.929521,-37.062041 174.930267,-37.062061 174.930439,-37.062182 174.93076,-37.062628 174.931251,-37.063104 174.931284,-37.063284 174.931013,-37.063694 174.931022,-37.064033 174.931109,-37.064099 174.931193,-37.064097 174.931356,-37.063914 174.931553,-37.063911 174.931754,-37.064054 174.932021,-37.064557 174.932452,-37.064876 174.932832,-37.065456 174.933034,-37.065644 174.93326,-37.065663 174.933774,-37.065947 174.934032,-37.065837 174.934094,-37.06588 174.933866,-37.066082 174.933685,-37.066141 174.933698,-37.066304 174.933824,-37.066486 174.935728,-37.065564 174.936183,-37.065981 174.935447,-37.066345 174.93553,-37.066561 174.935726,-37.066577 174.935619,-37.06739 174.93591,-37.068216 174.936196,-37.068831 174.936676,-37.068754 174.93691,-37.068615 174.937152,-37.068626 174.937419,-37.068912 174.937537,-37.068836 174.938519,-37.068995 174.938599,-37.069115 174.939578,-37.069273 174.939612,-37.069135 174.939758,-37.069023 174.939788,-37.069308 174.940597,-37.069439 174.940613,-37.06959 174.941704,-37.069555 174.942266,-37.06963 174.942717,-37.0696 174.942721,-37.069639 174.943206,-37.069681 174.943121,-37.07051 174.943067,-37.070476 174.942528,-37.070647 174.942392,-37.071277 174.942507,-37.071481 174.942452,-37.072038 174.942666,-37.072457 174.942010010607,-37.0726723373818 174.942010994048,-37.0732879992004</coordinates></LinearRing></outerBoundaryIs></Polygon>
  </Placemark>
</Folder>
</Document></kml>
