<?xml version="1.0" encoding="utf-8" ?><kml xmlns="http://www.opengis.net/kml/2.2"><Document id="root_doc"><Folder><name>Kohimarama.final</name><Placemark id="Kohimarama.final.1"><name>Kohimarama (polygon: official_shp)</name><description></description><Style><LineStyle><color>ff0000ff</color></LineStyle><PolyStyle><fill>0</fill></PolyStyle></Style><Polygon><outerBoundaryIs><LinearRing><coordinates>174.847709762623,-36.8507216572488 174.847704004015,-36.8510019928233 174.847245996378,-36.8512819981446 174.846881000603,-36.851777004095 174.846669994089,-36.8522229973079 174.84679599864,-36.8523370019101 174.846782008105,-36.8534149961183 174.847000547524,-36.8534841099752 174.847051108962,-36.8536436414219 174.84710298481,-36.8535849361769 174.847908998086,-36.8537980065974 174.847101899856,-36.8567084926099 174.846970593126,-36.856685162916 174.846835987847,-36.8570465395879 174.846971027197,-36.8571796702769 174.846756668973,-36.8579530225908 174.846932308887,-36.8579846506052 174.846838504366,-36.8584152967644 174.846625852149,-36.8584244928069 174.84644358416,-36.8590813732024 174.845939709567,-36.8589911225833 174.845911123373,-36.8590941833195 174.845962956299,-36.8591597639083 174.845910892051,-36.8593474296691 174.845829306605,-36.8593890803299 174.845799783253,-36.8594958591678 174.846303785872,-36.8595862633753 174.84551568778,-36.8624257715962 174.844971515993,-36.862659420998 174.844629688777,-36.8630392477316 174.844260608594,-36.8632837352234 174.843364804562,-36.8634798096126 174.843181703645,-36.8636160120486 174.843130734424,-36.863337562874 174.842886327722,-36.863473776628 174.842802747235,-36.8632699297802 174.842531541753,-36.8633417274292 174.842068097695,-36.8636000440336 174.841999212633,-36.8635201804393 174.841577767258,-36.8637549168826 174.841221377809,-36.8636601064195 174.840757923136,-36.8639182937539 174.840958815931,-36.8641511545898 174.841226912261,-36.8640623158087 174.841298869362,-36.8641896099066 174.841140762313,-36.8642474810359 174.841262937759,-36.8644629197008 174.841013028657,-36.8645502392485 174.841059541111,-36.8646322356017 174.840801857693,-36.864722227745 174.840971169839,-36.86495260968 174.840569499416,-36.8650929200453 174.840449411189,-36.8648453564179 174.839389549495,-36.8652156171157 174.838379468051,-36.8657454452549 174.837827995431,-36.8667309981398 174.835158992518,-36.8657690064109 174.83228230432,-36.8653361656091 174.832455123806,-36.8653168654482 174.83268843059,-36.8652115885951 174.83294589571,-36.8651678466774 174.833102908329,-36.8651958335998 174.833091588415,-36.8651192119599 174.833172816519,-36.8650844526162 174.833571756377,-36.8650856085738 174.833779874784,-36.8648864136274 174.834047221374,-36.8650669676667 174.833925671785,-36.8648960060031 174.833772744603,-36.864842149244 174.833676166011,-36.8648792622213 174.833606739747,-36.8650186512891 174.83348693709,-36.865053743889 174.833579004854,-36.8646000017914 174.834938992208,-36.8648389920433 174.835151000551,-36.8640609969362 174.835508998036,-36.8633740027121 174.835757005253,-36.8623850017192 174.835819002723,-36.8618839941811 174.83552999872,-36.8615670021095 174.835216001055,-36.8609489975722 174.836188006521,-36.8606469929487 174.837020000328,-36.8607099983943 174.837123994328,-36.8606400010437 174.83714599388,-36.8603170016778 174.836479002222,-36.8599629978156 174.836430998481,-36.8593770032707 174.836178997787,-36.8593919930647 174.836105008386,-36.8589299961067 174.835382003252,-36.8589739978246 174.835542007654,-36.8584209998418 174.835487001358,-36.8584329963192 174.835518992806,-36.8583210062767 174.835559003056,-36.8583600009412 174.836322007105,-36.8583129915494 174.836328003767,-36.857962993981 174.836019006199,-36.8577779992838 174.836025002877,-36.8574240042709 174.835818004689,-36.8574639958013 174.83604499191,-36.8564990008904 174.83563600496,-36.8564710003396 174.8357629984,-36.8558459941491 174.835591006134,-36.8558349922717 174.83552199171,-36.8555550052692 174.835694994031,-36.8555669966387 174.835762001706,-36.8553359951201 174.835892992525,-36.8553599929301 174.835946996206,-36.8551729952471 174.836128993566,-36.8552069936965 174.836185997782,-36.8550100024234 174.836069993081,-36.8547719976742 174.836213006329,-36.854504000682 174.836304000806,-36.8539689993822 174.836137004477,-36.8539539948288 174.836330000742,-36.853003006397 174.83671100731,-36.8516620040274 174.837478005933,-36.8516829986048 174.837910004968,-36.8502090007468 174.838026992431,-36.8502310064265 174.838066996356,-36.8500949964401 174.838127997065,-36.8500649929898 174.83845499686,-36.850127001978 174.838516999828,-36.849914994405 174.839058999893,-36.8497859940356 174.838910005129,-36.8495000052223 174.838843993984,-36.8489710005817 174.838520005991,-36.8486799980222 174.837612005646,-36.8483159997695 174.837621501295,-36.8476304473419 174.839741857876,-36.8485098781183 174.839768976603,-36.8484693335852 174.84009576089,-36.8486023044246 174.840059985021,-36.8486727775829 174.840593583085,-36.8489552324024 174.841868826609,-36.8494908464157 174.842338657536,-36.8496405470207 174.845662788778,-36.8504512644373 174.846280261592,-36.8504887051718 174.846973234876,-36.8506353915736 174.847709762623,-36.8507216572488</coordinates></LinearRing></outerBoundaryIs></Polygon></Placemark></Folder></Document></kml>