<?xml version="1.0" encoding="utf-8" ?>
<kml xmlns="http://www.opengis.net/kml/2.2">
<Document id="root_doc">
<Folder><name>Mangere.final</name>
  <Placemark id="Mangere.final.1">
	<name>Joined Boundary</name>
	<description></description>
	<Style><LineStyle><color>ff0000ff</color></LineStyle><PolyStyle><fill>0</fill></PolyStyle></Style>
      <Polygon><outerBoundaryIs><LinearRing><coordinates>174.832460503002,-36.9902550484781 174.83213367351,-36.9903367402933 174.832085664167,-36.990402336597 174.832191591895,-36.9905068614135 174.831270542642,-36.9912184995728 174.830872922784,-36.9913684087574 174.830704720478,-36.9915144896626 174.830654312634,-36.9917695897938 174.830186545414,-36.9927291870172 174.829756449345,-36.9930931195414 174.829489300798,-36.9932793250446 174.828870146,-36.9934364969999 174.82843726666,-36.9936493707939 174.82834141384,-36.9936336984238 174.828001218702,-36.9937532642352 174.827837182,-36.993635253 174.82744217193,-36.9930050646995 174.827110433756,-36.9926801092452 174.827277396994,-36.9924654205778 174.826824108619,-36.9925303432388 174.826510661,-36.992419323 174.826143863,-36.992357924 174.825468828,-36.9923243339999 174.824789675,-36.992133918 174.824242506,-36.991670046 174.824034644,-36.991245383 174.823919830589,-36.9911350010214 174.824246809099,-36.9909763928248 174.824258102412,-36.99085899842 174.823921000768,-36.9909427298549 174.823805714162,-36.9908809552588 174.823666584409,-36.9908740189689 174.823643747078,-36.9909362138017 174.823713105223,-36.9910140366142 174.823678501623,-36.9910953859039 174.823506662757,-36.9911294104177 174.823031547612,-36.9910217057438 174.822626724639,-36.9911961016484 174.822242593442,-36.9912834521003 174.822243575121,-36.9913454501433 174.821247699,-36.992037932 174.82071776,-36.992183036 174.820432283,-36.9920075489999 174.820282418,-36.991694631 174.820212018,-36.99115503 174.819931064,-36.990123305 174.819814061,-36.9899450529999 174.819151651586,-36.9892894913987 174.819228414017,-36.9892692361937 174.819169310723,-36.9891203548833 174.819204033916,-36.9889906546987 174.81945479623,-36.9886378109556 174.819365923695,-36.9884809921626 174.819389558741,-36.9884009442758 174.81964228386,-36.9881677948388 174.819541924344,-36.9880038606325 174.819802592717,-36.9877035337035 174.819930412983,-36.9873321385685 174.819968302099,-36.9868782791623 174.819864217855,-36.9866765353319 174.81994059,-36.986382729 174.819791311,-36.986047183 174.819793894556,-36.9858200341829 174.820184880118,-36.9851223404127 174.820408715266,-36.9836667658094 174.820585856239,-36.9832890693042 174.820963745298,-36.9830885364094 174.821107871932,-36.9828047502478 174.821206709554,-36.9824795754352 174.820937094763,-36.9830793850352 174.820629287827,-36.9832519564124 174.820547628559,-36.9833115667855 174.820499264475,-36.9833671458175 174.82017761784,-36.984036795572 174.820126735182,-36.9842679439813 174.819908207648,-36.9844742046349 174.819753000052,-36.9847690992083 174.819532614,-36.9847897409999 174.819417952,-36.984701566 174.819296793,-36.984410644 174.819581197265,-36.9831796362174 174.819629241341,-36.9826584240094 174.819563468,-36.98181489 174.819717699,-36.9813165409999 174.819704367313,-36.9810535899369 174.819912927232,-36.9809967639456 174.81997818889,-36.9809210762725 174.819949108805,-36.9808727229933 174.819733074512,-36.9808829568534 174.819519401327,-36.9807860851207 174.819217379,-36.9804462339999 174.819210978,-36.980243577 174.819290589755,-36.9800675516766 174.819633697539,-36.9797853569238 174.819699385501,-36.9796059633744 174.81992147157,-36.9793716418488 174.819983484519,-36.9791828478541 174.819957804586,-36.9791202980117 174.819821660219,-36.9790647877321 174.819519464467,-36.9785271935651 174.819575636235,-36.9777712204242 174.819483096149,-36.9774597514376 174.819549281625,-36.9777567671148 174.819462429875,-36.9787948557917 174.819664689949,-36.979377346616 174.819646782872,-36.9795508367163 174.819504757019,-36.9797129217365 174.819012507659,-36.9799436772328 174.8188255341,-36.9804636603219 174.818977341647,-36.9808560529941 174.818988720182,-36.9814140953185 174.81888309896,-36.9817415968503 174.819163939786,-36.9822828671155 174.819133753,-36.9825206689999 174.819092133069,-36.9826034541462 174.818890922755,-36.9827068617575 174.81900165166,-36.982783427771 174.818829862136,-36.9831251262984 174.818371334,-36.9834357409999 174.818116916,-36.9833725039999 174.817997413599,-36.983403369421 174.817850608359,-36.9832973046365 174.817766158612,-36.9832750674204 174.817693118392,-36.9832932120495 174.817853807496,-36.9834482932712 174.818121376697,-36.9839356017007 174.818384585921,-36.9840491006944 174.818562144,-36.984243749 174.818496109886,-36.9846770072383 174.818219444665,-36.9848481114058 174.818711138752,-36.9849278627725 174.818893078623,-36.9850160670487 174.819169275091,-36.9853826018406 174.819315554189,-36.9857703329534 174.81926432295,-36.9862751374226 174.819127552818,-36.9867335021221 174.819136508888,-36.9869843126062 174.818604822515,-36.9880308758355 174.818648127988,-36.9885235038997 174.818566715,-36.988524882 174.818464354565,-36.9884363609454 174.818401903141,-36.9881327373368 174.818221555719,-36.9880229959011 174.817995947256,-36.9876839353158 174.817909730978,-36.9874385716232 174.817961849726,-36.9871044178803 174.817910358627,-36.9869532849116 174.817940300217,-36.9867013367395 174.817814837959,-36.986720289905 174.817377609692,-36.9869879462138 174.817133738349,-36.9869485100106 174.816948979011,-36.9869805893806 174.816879349078,-36.9871269371739 174.816989439,-36.9873356639999 174.816879526,-36.987427641 174.816236927407,-36.9873103095399 174.815860568,-36.987130271 174.815824764,-36.986883007 174.816031071,-36.9861810199999 174.816029041629,-36.9857326445824 174.816166587386,-36.9854880813122 174.815852365779,-36.985398186204 174.8157018804,-36.9852105014206 174.815624744935,-36.9853967142323 174.81567224129,-36.985663755047 174.815368540769,-36.9861880854258 174.815443868559,-36.9863865166871 174.815424082676,-36.9864858881444 174.815255633328,-36.9867693786366 174.815043176196,-36.9868249659907 174.814875495,-36.98705766 174.814282323,-36.986977517 174.813288491,-36.9865671009999 174.812288376,-36.9859539249999 174.812119296,-36.985934248 174.812064872,-36.986002755 174.812156598,-36.986249077 174.812623544,-36.9869171669999 174.813715829,-36.9878217099999 174.81407107469,-36.9882393294383 174.813882393936,-36.9884441258647 174.813532526257,-36.9886338485835 174.813540352672,-36.9886901812893 174.814194189722,-36.9885533486359 174.814385870876,-36.9885693206386 174.814491723504,-36.9886281356369 174.81472174265,-36.9881869068893 174.814850561,-36.98820726 174.815081143,-36.9884286559999 174.815108007671,-36.9886064074015 174.815059541642,-36.9887853229831 174.815388232174,-36.9886996678443 174.815490097088,-36.9885349825671 174.815605165682,-36.9884791790917 174.815832753634,-36.98848568536 174.816094369102,-36.988428420957 174.817216106,-36.988435903 174.817673608,-36.988743663 174.817929822494,-36.9890837579102 174.818185385778,-36.9896185358237 174.818077621046,-36.9897006853849 174.81795052584,-36.9896846655759 174.817665981948,-36.9895247535713 174.817373225194,-36.9894442718334 174.817753876856,-36.9898251523782 174.817930053,-36.98991103 174.818654617412,-36.9901093617792 174.81883126253,-36.9902729044311 174.819109009054,-36.9905903356306 174.819215336054,-36.9908621123403 174.819438034136,-36.9909826512666 174.819446784045,-36.9911693089402 174.819365273216,-36.9914790334256 174.819214763841,-36.9916241474366 174.818061702675,-36.9920443434052 174.817775416979,-36.9924107929862 174.817050817,-36.9926758399999 174.816607842491,-36.9930948192815 174.81641384578,-36.9931566573589 174.815237036,-36.993135422 174.813871119,-36.993497388 174.812914591834,-36.993494788094 174.812659181325,-36.9934051305716 174.812248165256,-36.993126834584 174.812392453619,-36.9930603042084 174.81238502603,-36.9930185378856 174.811975390963,-36.993035145092 174.811847485981,-36.9928454020098 174.811885488321,-36.9926340655485 174.811805040826,-36.9924184212511 174.811821394481,-36.9922873136174 174.811676612267,-36.9923541603193 174.811427579677,-36.9927802712272 174.811058352612,-36.9928630173915 174.810856052309,-36.9928288673586 174.810739831833,-36.9926140107654 174.810742779,-36.993147134 174.81080248,-36.9932813029999 174.811317252,-36.9936322789999 174.811352418,-36.9938570259999 174.811159368,-36.993995503 174.810015206,-36.9942860049999 174.809241640991,-36.994566882142 174.808973793894,-36.9948098695857 174.808635036605,-36.9949908980606 174.808440013902,-36.9951878900374 174.80788840351,-36.9955694541621 174.807693086247,-36.9954569839927 174.807724846945,-36.995363236112 174.807534379064,-36.9952459946783 174.807212695,-36.9945376909999 174.807145286239,-36.9941093524634 174.807151387028,-36.9937199889123 174.807187961785,-36.9934786051623 174.807277873653,-36.9933687358532 174.807293146735,-36.9931594557894 174.807360150082,-36.9930660609197 174.807294473908,-36.9929284653262 174.807343091432,-36.9926624855634 174.807269431629,-36.9924431149632 174.807435828367,-36.9922924227387 174.80776446371,-36.9922900725405 174.807881236623,-36.9923218956097 174.807966596393,-36.99246926922 174.808242208581,-36.9924757729892 174.808427931264,-36.9925667647535 174.808647318,-36.99255235 174.808701658,-36.992483847 174.808694072,-36.992191003 174.808612284247,-36.9919121103946 174.808365353,-36.991475555 174.808324884,-36.991002985 174.808485766,-36.9907073939999 174.808759478,-36.990477488 174.809367722,-36.990105779 174.809419206,-36.989924677 174.809167091,-36.9899514089999 174.808891043,-36.9901372859999 174.808106633,-36.9902179969999 174.807494754086,-36.9904877463013 174.80717043786,-36.9909054646765 174.807135087448,-36.9911350472213 174.807066723,-36.9912278799999 174.806845608,-36.9913667779999 174.805663423,-36.991274833 174.805292569,-36.991056633 174.805143391,-36.990766213 174.805134208442,-36.9905844000756 174.805194245586,-36.9904366846846 174.805112403225,-36.9901526559252 174.805087529528,-36.9896601472611 174.805199147343,-36.9894854886984 174.805545850523,-36.9891521702844 174.805661423602,-36.9890958616417 174.805916081261,-36.9891386354205 174.805657442,-36.988976576 174.804992544694,-36.9889393333696 174.804699692629,-36.9887512907148 174.80459152612,-36.9883709010565 174.804599039919,-36.9879307217062 174.804543542611,-36.987871239339 174.804403124279,-36.9879234617113 174.804233135758,-36.988468856433 174.803982988216,-36.9888167472684 174.803901333275,-36.9891648778065 174.803997509753,-36.9895295401742 174.803973653566,-36.9897771249629 174.803743638,-36.989911772 174.803377494,-36.989872911 174.803091973,-36.9896973829999 174.802892097057,-36.9885355159591 174.803068355273,-36.9882142866245 174.803115968034,-36.9877118756273 174.803228078948,-36.9874253053319 174.80340529182,-36.9872009525489 174.803732716491,-36.986961552944 174.803835100628,-36.9868125894089 174.803954753124,-36.9863506294052 174.80410324368,-36.9860251027172 174.804057032044,-36.9855354453331 174.803703157549,-36.9857823213673 174.803528867803,-36.9857645269192 174.803291267649,-36.9856091935937 174.803307698,-36.9862462639999 174.803281419,-36.9863143389999 174.803060311,-36.9864532289999 174.802666124,-36.9864147919999 174.802209226,-36.986129492 174.802029188,-36.9857277959999 174.802075328,-36.98534312 174.802029222794,-36.9846904546488 174.802355358517,-36.9844051198226 174.802383222806,-36.9841871114341 174.802261156494,-36.9839462178016 174.801767671,-36.983321223 174.801620259,-36.9830532999999 174.801568272815,-36.9828651572246 174.80158782201,-36.9823400250411 174.801500347334,-36.9822691051418 174.801422665274,-36.9819973313457 174.801480550264,-36.9818175214283 174.801447595244,-36.9815220150385 174.801344092765,-36.9819368265442 174.801279725,-36.98188726 174.801172111,-36.982069391 174.801262325,-36.983329705 174.801643063,-36.983886597 174.801676992,-36.984111366 174.801455181988,-36.9842677459665 174.80127192474,-36.9843191057998 174.800699059,-36.984308058 174.800245758,-36.9841587669999 174.799993448781,-36.9839871592087 174.799517359808,-36.9832863810725 174.799430448,-36.983090848 174.799411441183,-36.9823968892753 174.799493091292,-36.9822356511832 174.799402638795,-36.9818936091204 174.799344488327,-36.9810092881367 174.799255349467,-36.9808761704165 174.798885362617,-36.9805906681411 174.798735058459,-36.9803366462707 174.798543241519,-36.9802618944347 174.798715343157,-36.9806055606836 174.799087985443,-36.9809313285583 174.799129633765,-36.9810322287283 174.799039213527,-36.9816559233733 174.798945815372,-36.9818115685587 174.798931439976,-36.9820128056407 174.798453694,-36.9833333709999 174.798358331708,-36.9837802280773 174.798086368124,-36.9839545789665 174.797851304,-36.9839302199999 174.79736638,-36.9836454159999 174.797157009,-36.9831532309999 174.79695282,-36.9829087809999 174.796845418494,-36.9829322403492 174.796644679648,-36.9827065111844 174.796812605157,-36.9831487614217 174.796774485055,-36.9833556178044 174.796942633382,-36.9837230465871 174.796983461521,-36.9842051745723 174.797080297,-36.984483933 174.797802623,-36.9852154399999 174.798064667,-36.9855715649999 174.798272878,-36.9860178079999 174.79865759174,-36.9864918035572 174.798086381964,-36.9866906965673 174.797818911771,-36.9865990284491 174.797717534369,-36.9866105877669 174.797571580757,-36.9867656636128 174.797435355803,-36.9867955371971 174.797270800217,-36.9869873952323 174.797047032812,-36.9869658289657 174.79696349942,-36.987065409986 174.797142701977,-36.9873216775707 174.797783137,-36.9876267299999 174.798204237,-36.9876197199999 174.798847682,-36.987517871 174.799271183,-36.9876009339999 174.799474719,-36.9878679189999 174.799448433353,-36.9884908801034 174.79924433,-36.9886829769999 174.79879747,-36.988780585 174.798386234,-36.9891714239999 174.79819322,-36.989264733 174.797911308,-36.9892694549999 174.79728542,-36.9889645279999 174.795901526,-36.9886730549999 174.7953411,-36.988728394 174.794733923,-36.9891440809999 174.794173585,-36.9891994129999 174.793216102,-36.989102685 174.792705421,-36.988909356 174.792215831,-36.9884894319999 174.792179005,-36.9881519699999 174.792250977,-36.987677606 174.792241198,-36.987339826 174.792181005,-36.987183036 174.791979174,-36.986983688 174.791897289,-36.987075128 174.791936503,-36.9875025769999 174.791889447,-36.987818866 174.791619822,-36.98825233 174.791742069,-36.988633378 174.791553119,-36.988884404 174.791288817,-36.989047445 174.79155843,-36.9890870799999 174.792006431,-36.989033637 174.792573256,-36.989227022 174.792745168,-36.989359325 174.792833519,-36.9895155999999 174.792932897,-36.990054691 174.793621256,-36.990605608 174.793904328,-36.990646026 174.794344336,-36.990323164 174.795148561,-36.989925855 174.795562763,-36.989648526 174.79600846,-36.989504989 174.796569442,-36.9894730679999 174.797192405,-36.9896654899999 174.797764462,-36.990060625 174.797991356,-36.990146942 174.798611395,-36.9902266679999 174.79869743,-36.9902919569999 174.798647676,-36.990496459 174.798537736,-36.9905884189999 174.797649131,-36.990986308 174.797517201,-36.991096714 174.797625151,-36.991144461 174.797821681,-36.991141214 174.798212432,-36.9910445479999 174.798934232,-36.990716138 174.799321515,-36.9904842619999 174.799741477,-36.9904322049999 174.800055034,-36.990606326 174.800229365,-36.9908286949999 174.800560941,-36.991656856 174.800661046,-36.992263604 174.800890746,-36.9924174569999 174.801172183,-36.9924352639999 174.801399089,-36.9925216629999 174.801827845,-36.992806491 174.802202904,-36.993183238 174.802496045,-36.993606465 174.802529357,-36.993808714 174.802475012,-36.9938772149999 174.801492262,-36.9938945709999 174.801241909,-36.993988846 174.800882677,-36.9942202129999 174.800350995,-36.994297668 174.800072578,-36.994392456 174.799510936,-36.994401786 174.799321374,-36.9946303049999 174.799324305,-36.994742902 174.799408793204,-36.9948078921073 174.799323993893,-36.9947429978981 174.795895991762,-36.9949429975927 174.791513995756,-36.9932440008682 174.78610499265,-36.9924639922824 174.786084998304,-36.9933340041602 174.786132002307,-36.9933739985914 174.785993004304,-36.9938729939724 174.785829991769,-36.9941189961794 174.785880992543,-36.99416699378 174.785637008777,-36.9951209930622 174.785864995021,-36.9957940006065 174.786710996333,-36.9974679951058 174.786727993423,-36.9977929927149 174.786905004219,-36.9979460008186 174.786925995676,-36.9988330021275 174.78425000336,-36.9994850019523 174.781923006802,-36.9988169956916 174.779756999102,-37.0017049967047 174.774888996317,-37.0003339975673 174.771051855594,-37.005452734448 174.770948726584,-37.0052923358154 174.770992430837,-37.0048117346954 174.77087925946,-37.0050383407034 174.770872652657,-37.0052257431344 174.770825157274,-37.0052516448367 174.770464557533,-37.0052058632602 174.77031326225,-37.0054782857781 174.770234010499,-37.0055153813733 174.769809223492,-37.0054392633026 174.76933759174,-37.0054381418721 174.768518582469,-37.0053565709764 174.767037921718,-37.0050354950875 174.765864302057,-37.0050153503111 174.765392684787,-37.0048432427332 174.765260816734,-37.0048644740196 174.764701744528,-37.0047986436468 174.764177940352,-37.0048143715942 174.763961942815,-37.0048627382591 174.763613976014,-37.0053753855566 174.763347875066,-37.0055891333604 174.763189212052,-37.0053236052094 174.763050042789,-37.0052154557037 174.76262067719,-37.0050565346419 174.762035819187,-37.0047404824015 174.760764065553,-37.0038744465993 174.758756312678,-37.0027333835599 174.758069940586,-37.0024217355431 174.757809761815,-37.0022324728927 174.757266104632,-37.0019597518811 174.757058710874,-37.0018174799298 174.756819995095,-37.0014917731313 174.756706047225,-37.0014143472382 174.756470074803,-37.0013522979138 174.756389736497,-37.0012419237949 174.755941071953,-37.0009630891176 174.755515863045,-37.0007659316823 174.754815798,-37.0006729799999 174.754591894894,-37.0005868033833 174.753730656245,-37.0001233880767 174.753162752992,-36.9996907901236 174.75264610055,-36.9993996733066 174.752107391,-36.999266497 174.751505783635,-36.9992473954148 174.750890261834,-36.9993205616093 174.750138094783,-36.9989865380091 174.749818257325,-36.998932781254 174.749449073868,-36.9987438879326 174.748893214671,-36.9986767397567 174.748533009048,-36.9985079225612 174.747978976837,-36.9985429364451 174.747590997181,-36.9984981027529 174.74729186037,-36.9983860212856 174.747049952097,-36.9981646173425 174.746861782391,-36.9981112015425 174.745745271556,-36.9982385055834 174.745390703331,-36.9983587342408 174.745196325126,-36.9983363127071 174.744731817301,-36.9980453205571 174.744476083883,-36.9981696535605 174.744389673606,-36.9981538067379 174.743998720452,-36.997723881405 174.743593459775,-36.9974530599073 174.743539328983,-36.9973685635646 174.74355618565,-36.9970703316936 174.743457498953,-36.9966977316718 174.743618103007,-36.9963989047124 174.743513822379,-36.9959317340392 174.743323697718,-36.9956538701362 174.743286004211,-36.99511259804 174.743215123817,-36.9949151065563 174.742896135096,-36.9944670037382 174.742847911228,-36.9943071467683 174.742107983262,-36.9932441793384 174.742001169843,-36.9930306688385 174.74193151735,-36.9926877910872 174.742036684,-36.9923920749999 174.74236326,-36.992025381 174.743166624076,-36.9914831524178 174.74367601385,-36.9913690400398 174.743818663562,-36.9912909457998 174.743881820665,-36.9910621764218 174.743953090519,-36.9910168495561 174.743954675034,-36.990932284403 174.744223922665,-36.9904326519248 174.744342436749,-36.9898330283964 174.744336413608,-36.9892411885563 174.744432155689,-36.9889472650883 174.744403053586,-36.9878653795782 174.7442178842,-36.9876775053825 174.744196071489,-36.9875820769398 174.744232958621,-36.9869335877463 174.744080713634,-36.9866472738837 174.743841903467,-36.9865233938853 174.74374789412,-36.9865240268288 174.743715916435,-36.9864570848904 174.743857882388,-36.986315971565 174.743862601269,-36.9861122497036 174.743640161543,-36.9860410042699 174.743635189656,-36.9859955710295 174.743761201822,-36.9859292691699 174.743573574933,-36.9858623850573 174.743691276584,-36.9856829898373 174.744313978413,-36.9855563664222 174.744391953699,-36.9854376338901 174.744360199504,-36.9852068773389 174.744161612393,-36.9850336394061 174.744169942503,-36.9849626536077 174.744338282938,-36.9848305891307 174.744324359785,-36.9845760791308 174.744021512618,-36.9841781556663 174.744427081923,-36.9842189499927 174.744515468536,-36.984182531687 174.744910179,-36.984186027 174.74529922,-36.9840210739999 174.74540722464,-36.983906048627 174.745988819937,-36.9836192116612 174.746159379084,-36.9834834219599 174.746283426977,-36.9832651345597 174.746285137522,-36.9831377317991 174.746165131,-36.98276764 174.746275219,-36.982675725 174.746500378,-36.982693679 174.746679522986,-36.9825577555696 174.74659391135,-36.9823221462825 174.74661449665,-36.98209905465 174.74651362713,-36.9820607097514 174.746813862,-36.9818098179999 174.74689195194,-36.981566461821 174.747200618764,-36.9812913552346 174.747457466538,-36.9812003534638 174.747609555,-36.981340142 174.747880424,-36.981384185 174.748330608465,-36.9808909915054 174.748563764928,-36.9808083805995 174.749150172,-36.9808591239999 174.749536897,-36.9806347159999 174.749677137797,-36.9804813137673 174.750147983286,-36.9803879068033 174.750427998,-36.9803962899999 174.750543389562,-36.9803094639635 174.750958850753,-36.9802270409387 174.751143335726,-36.9802418531535 174.751303826,-36.980417343 174.752155132,-36.9803910809999 174.752433397714,-36.9803032729774 174.752816583642,-36.9800740859328 174.75302916168,-36.9796916600717 174.753231547,-36.978455386 174.753558755,-36.978326915 174.75368012391,-36.9779958814146 174.754416023459,-36.9774517512843 174.754727689,-36.977461842 174.755054172891,-36.9769798885825 174.755480688857,-36.9766645075667 174.755814535728,-36.976681347214 174.756406654127,-36.9770062954472 174.756295252,-36.977204979 174.75605812,-36.9774407529999 174.756156739,-36.9776464499999 174.75670451,-36.9779898799999 174.757043293,-36.9780915819999 174.757370213,-36.9780176899999 174.75765513105,-36.9776543841809 174.758174065779,-36.9776904212261 174.759639208469,-36.9773989121574 174.760224708408,-36.9774784666335 174.761345558847,-36.9778425205544 174.761645726,-36.9785067219999 174.761995517,-36.979085331 174.762204672,-36.9793333229999 174.762444396,-36.979210493 174.762470189,-36.9782936029999 174.7625978,-36.9780594439999 174.762927465,-36.9777726629999 174.763055334,-36.977727004 174.76359082,-36.9770832 174.763727056008,-36.9767447770755 174.76402836777,-36.9762791631805 174.764598504092,-36.9757570811535 174.768041952694,-36.9735158405603 174.76775797345,-36.9732753032312 174.767946081511,-36.9730270078693 174.765826336608,-36.9672660702658 174.763045368264,-36.9660634502495 174.759926815679,-36.9668725459211 174.756681797095,-36.9670817619634 174.756329297072,-36.9674219167979 174.75640127506,-36.9680671898109 174.756935113752,-36.9683036623215 174.75717030406,-36.9688125064335 174.757090646166,-36.9693144255789 174.756970868168,-36.9694691493432 174.756580908339,-36.9696692504165 174.756030593695,-36.969878869996 174.754366214663,-36.970076863807 174.753977881635,-36.9700016175648 174.753819967275,-36.9699193575973 174.752864073,-36.969152698 174.752494763,-36.9690794809999 174.751950458,-36.969174747 174.751546175,-36.969511345 174.751463063863,-36.9698932971642 174.751178735395,-36.9702702599895 174.750800887733,-36.9705585989153 174.749963894954,-36.9709755154669 174.748983642491,-36.9713537784364 174.748443924153,-36.9718613684256 174.747628180259,-36.9724132674012 174.747488997391,-36.9724774311196 174.746731109,-36.972578793 174.746158192025,-36.9727819006427 174.745931175132,-36.9727499008018 174.745925882487,-36.9726972706595 174.745791817055,-36.9726069842377 174.74562406341,-36.9726761977045 174.745419878881,-36.9726513673629 174.74516867061,-36.9729129786517 174.745107599387,-36.9729133682202 174.745039324492,-36.9728628636871 174.745045161212,-36.9727555709312 174.745209276344,-36.9726382239466 174.745235766224,-36.9725635197595 174.745165542468,-36.9722894076373 174.745036604945,-36.9721737806094 174.745019126012,-36.9720392819948 174.745139301124,-36.9718714075544 174.745119933939,-36.9714624629864 174.744717376971,-36.970683139764 174.744529834514,-36.9704442621224 174.743441484532,-36.9698727059308 174.742654441782,-36.9696192883195 174.742154059127,-36.9695586605851 174.741350118135,-36.9699671189384 174.740859077165,-36.9699428048606 174.740373145277,-36.9699838955649 174.7401807073,-36.9698048697463 174.739772657407,-36.9697244893049 174.73958593587,-36.9696204776528 174.739313924704,-36.9690169887972 174.738884080476,-36.9688185346541 174.738435855387,-36.9687784786885 174.738223939117,-36.9686473999827 174.738282895792,-36.96811035227 174.738241504247,-36.968052485403 174.738087257664,-36.9680155109048 174.737951777277,-36.9680311651237 174.737772161966,-36.968136288 174.737386444016,-36.9685831741908 174.73637785,-36.9683535529999 174.735798095744,-36.968324888034 174.735566533157,-36.9682503394429 174.73531850198,-36.9683086955595 174.735205795363,-36.968153179683 174.734988406661,-36.9681276309918 174.73496271609,-36.968062368766 174.735042063804,-36.9678943885598 174.735412098879,-36.9674585280656 174.735332816,-36.9670870419999 174.735092682987,-36.9668590343112 174.734791860927,-36.9666686522397 174.734345166706,-36.9667522454424 174.733799812245,-36.9667220282656 174.733734797869,-36.9665824943395 174.733899932743,-36.9664029379645 174.733568226924,-36.9662764378444 174.733542707959,-36.966222075288 174.733771164022,-36.9660438170092 174.734153910089,-36.9659079879208 174.73417310479,-36.9657764213447 174.734231592,-36.965775473 174.734374696,-36.9658858449999 174.73468408,-36.965903402 174.734940096,-36.966034383 174.735276929,-36.9660289189999 174.735452713,-36.966273083 174.735595911,-36.9663834529999 174.735792383,-36.96638022 174.735940134,-36.966185303 174.735759261,-36.966177946 174.735644722,-36.966089686 174.735680895,-36.9653455279999 174.735314558121,-36.9648528530233 174.735294090837,-36.9646602093173 174.73533800145,-36.9643670226905 174.735458028403,-36.9641987088559 174.735439390807,-36.9641054873524 174.73550274715,-36.9639728128717 174.735498206,-36.9637487489999 174.735294186497,-36.9634539961039 174.735368595303,-36.9631753927233 174.735299346095,-36.9630143810848 174.73541397041,-36.9629127250976 174.735570730823,-36.962879117615 174.735604077965,-36.9627441250444 174.735830273,-36.962481564 174.735880707,-36.962255359 174.73573761,-36.9621450779999 174.735570516044,-36.9621541691491 174.735670855003,-36.9620088956627 174.735611047303,-36.9619256955649 174.735346627007,-36.9619369162125 174.734560614138,-36.9623761047489 174.734279707087,-36.9627021022147 174.734259919288,-36.962747735582 174.734373569315,-36.9627959323902 174.734515469103,-36.9627280479976 174.734741857,-36.962747904 174.734885651,-36.9628807949999 174.734785188,-36.963310489 174.734851005,-36.963692516 174.734604611,-36.9639443839999 174.734553637196,-36.9641066838983 174.733895012,-36.96364034 174.733610972,-36.963510667 174.733222078844,-36.9631951821404 174.733144687456,-36.9630767600106 174.732878642141,-36.9629552045783 174.732588113425,-36.9629157879782 174.732439823,-36.9627634999999 174.73257597599,-36.9626206963279 174.732987214118,-36.9624050311136 174.733137332486,-36.9621073553119 174.73311569174,-36.9620020259672 174.732958793498,-36.96193052258 174.732962787568,-36.9619964923385 174.732662977,-36.9616332639999 174.732629868,-36.961431079 174.732684256,-36.9613626089999 174.732795956,-36.9613382689999 174.733450026,-36.9616656599999 174.733844039,-36.9617034309999 174.73398105,-36.961565987 174.734029774,-36.961272312 174.734140358,-36.96120293 174.734589473,-36.9611956479999 174.734839784,-36.961100522 174.735008192,-36.9610978809999 174.735145613584,-36.961156563294 174.735235301851,-36.9613412237171 174.735344124856,-36.9613639761403 174.735420804217,-36.9611985595043 174.735541974,-36.9611117059999 174.735737922,-36.961086042 174.735880016,-36.9609809629999 174.735869771,-36.9607459119999 174.735780879,-36.96061213 174.73568790582,-36.9601749051418 174.735846913015,-36.960141298736 174.736023307,-36.9602026169999 174.736058961527,-36.9604706510396 174.736309624453,-36.9606287012794 174.736929555511,-36.960532617756 174.737287365167,-36.9607063637538 174.73794363828,-36.9607564017234 174.738173953,-36.960819433 174.738651115,-36.960811634 174.738849276,-36.960875146 174.739466187,-36.9608425879999 174.739777787,-36.960950215 174.740170681,-36.9609429239999 174.740841973,-36.960841886 174.741315689,-36.9606990449999 174.741709794,-36.960736788 174.74457254,-36.960688443 174.745222589,-36.9608581259999 174.745963450613,-36.9609111708988 174.74603951061,-36.9608450598408 174.746034036149,-36.9607637516123 174.746117846,-36.9607299749999 174.746087430182,-36.9604496057592 174.746158743473,-36.9604330377482 174.746713976016,-36.9604251608579 174.746871111,-36.9605364999999 174.747011978,-36.9605567749999 174.747238387528,-36.9603529649232 174.747529327676,-36.9605149953969 174.748299070419,-36.9606259369522 174.748557375,-36.960598273 174.748683698484,-36.9604453042235 174.7489909903,-36.9603013637159 174.749132843214,-36.9606861801417 174.749331949778,-36.9608649131702 174.750227502098,-36.9612001402313 174.75074829907,-36.9612838311099 174.750798070635,-36.9611915894238 174.751180008,-36.9608796109999 174.752272399,-36.960895482 174.752429838,-36.96059623 174.752537732,-36.9605274109999 174.7524690376,-36.9605985147212 174.752632437313,-36.9607557495899 174.75263680669,-36.9609898776648 174.75252623034,-36.9611385068781 174.752769740164,-36.9613090289197 174.75338934,-36.961525383 174.754301419447,-36.9616853365974 174.754440375068,-36.961612442038 174.754701882,-36.9615974539999 174.754933530392,-36.9617447945871 174.7553265389,-36.9618081627199 174.755935140201,-36.9617982027113 174.756534507748,-36.9616796240084 174.756643233,-36.961751675 174.757344852208,-36.9618415400824 174.757526720072,-36.9619640798437 174.757799541161,-36.9624307554153 174.758181468667,-36.9629130802083 174.758493319739,-36.9632046135678 174.759062006049,-36.9633348870435 174.763028648991,-36.9636885774244 174.764272289058,-36.9646361228448 174.768491420375,-36.9648900985508 174.773881114407,-36.9660962336138 174.773920504188,-36.9660291918909 174.77414151123,-36.9659809549821 174.774276350356,-36.9658226854363 174.774615273831,-36.9622504083705 174.774884938055,-36.961933865551 174.775486382644,-36.9615561019784 174.775878697413,-36.9611483737662 174.776100986332,-36.960609698967 174.776105746,-36.9603708729999 174.775998801716,-36.959875762208 174.775765513921,-36.9594449274387 174.77395762201,-36.9582710576703 174.773614136372,-36.957875475613 174.773247185221,-36.9576474728412 174.772715350871,-36.9574890784098 174.772354115349,-36.9574838923959 174.771859761853,-36.957703815317 174.771052562208,-36.9576391296576 174.770973828566,-36.9578187556861 174.770066125047,-36.9581680955514 174.769784478784,-36.9580166974359 174.769592976062,-36.9581313116837 174.769453846683,-36.9581224695768 174.769319865743,-36.9583141557983 174.768494310386,-36.9586175444087 174.768098743977,-36.9583565621488 174.768032389808,-36.9579341140082 174.768168651608,-36.9578315637432 174.768152486779,-36.9577426594318 174.768315950736,-36.957617358976 174.768526106789,-36.9571457695784 174.768881355148,-36.956917002876 174.768767150412,-36.9567962778665 174.768999168236,-36.9566364120658 174.768770205016,-36.9563726868232 174.768277198488,-36.9561021595978 174.767871462747,-36.9559862525956 174.766663913428,-36.9554711232551 174.766351807963,-36.95521433675 174.765895334352,-36.9547425719639 174.765436960024,-36.9536522434086 174.765117043707,-36.9530890739993 174.764605919251,-36.9526516540228 174.763904158006,-36.9523622426137 174.762825886357,-36.9520121587849 174.760783238855,-36.9514215315606 174.760454322689,-36.9510479755651 174.760044653948,-36.9507760475584 174.757206026287,-36.9494627947218 174.756847662663,-36.9495689862547 174.756333202899,-36.9495439762496 174.756240159701,-36.9492943406819 174.756404499511,-36.9492170511618 174.756495516967,-36.9490610359899 174.756708927746,-36.9489890751862 174.756871279744,-36.9486064404049 174.756436655534,-36.9485174183566 174.756363560206,-36.9483835423599 174.75616062772,-36.9483150695863 174.756038888455,-36.9479156070565 174.755930822765,-36.9478472854509 174.755760830783,-36.9478231534389 174.755980838434,-36.9476556101491 174.756010961847,-36.9475606499852 174.755740547608,-36.9475606627115 174.755678174945,-36.947303431747 174.755386721274,-36.9471472519039 174.755369918329,-36.9468010785643 174.755433256357,-36.946653771971 174.755715572957,-36.9464708396834 174.755847871749,-36.946322729375 174.755699681665,-36.9462041594432 174.755356774794,-36.946046699709 174.75512516698,-36.9460488952898 174.755188978785,-36.9459338855743 174.755493407092,-36.9457989248429 174.755728216109,-36.9453515643453 174.755471779616,-36.9449244479576 174.755561154265,-36.9446705089811 174.755478818738,-36.9445526576275 174.755491972173,-36.9444902946055 174.755573362626,-36.94442596359 174.755861819381,-36.9444121645485 174.756048123491,-36.9441003619298 174.756412309792,-36.9439125396756 174.756141850223,-36.9438040721127 174.756163037445,-36.9436971472618 174.755996826983,-36.9435996099574 174.755992396253,-36.9435511477201 174.756198284975,-36.9433233776036 174.756568249152,-36.9433337491601 174.756686460108,-36.94329586936 174.756721999815,-36.9432405415725 174.756610343573,-36.9431538809941 174.756788339566,-36.942989767277 174.756760639714,-36.9428955515977 174.756345298142,-36.9424437218811 174.755994713846,-36.9421741288652 174.755931942264,-36.942046727211 174.755951532788,-36.9419328136128 174.756103656113,-36.9418069566674 174.756492958741,-36.9416829151262 174.756759364012,-36.9417444311601 174.756921021637,-36.9419073021618 174.757334577294,-36.9418698019084 174.757459781378,-36.9415928185809 174.757689902608,-36.9415000773637 174.757792998855,-36.941395758556 174.757649121661,-36.9409119492328 174.757685519201,-36.9408047439469 174.757786524416,-36.9407297755654 174.758202096877,-36.9409812783822 174.758199795624,-36.9411471297965 174.75842962877,-36.9411682333922 174.758604714203,-36.9410518153809 174.75847644743,-36.9409240800325 174.758486765888,-36.9407864829373 174.758889093137,-36.940825292752 174.759362237635,-36.9405612927959 174.759620306934,-36.9405481549829 174.759985712367,-36.9403277026721 174.760151314587,-36.9404333590774 174.760712631918,-36.940292434175 174.761221670554,-36.9404709221756 174.761336955586,-36.9404562220192 174.761402636753,-36.9403839360087 174.76133614825,-36.9401340381955 174.7611489658,-36.9400890108254 174.760922091406,-36.9401622381286 174.760830051878,-36.9400030928865 174.760983228127,-36.9399210549957 174.761213242968,-36.9399385253804 174.761240377031,-36.9397503527318 174.761535148756,-36.9398730902727 174.76163165859,-36.9398628794166 174.761737385463,-36.939644192265 174.761827732577,-36.939588288596 174.762077886199,-36.9396589949402 174.762164282085,-36.9398395890483 174.762274427615,-36.93987167944 174.762319053452,-36.9399348440465 174.761984662275,-36.9402086716986 174.761757708637,-36.9405902548756 174.761775751483,-36.9407050539764 174.761870461567,-36.9407931500241 174.762274548873,-36.9408690093477 174.761956349477,-36.9410060095713 174.761809241634,-36.9411517856335 174.761868982743,-36.9412671548108 174.762142921374,-36.9415175473375 174.7624601968,-36.9416623844252 174.762570196394,-36.9416309507634 174.762712141194,-36.9414821786859 174.762745098725,-36.9406929550189 174.764089377723,-36.940210521382 174.764235926737,-36.9400641018863 174.764395024459,-36.9392254464103 174.764815796005,-36.939522154171 174.765395231398,-36.9396646052561 174.765551272363,-36.9399293506681 174.767427558693,-36.9410647502037 174.767738806876,-36.9411994975918 174.767946433978,-36.9411745353102 174.768282882362,-36.9410109203562 174.768756293204,-36.9408680291197 174.768904859456,-36.9407466904152 174.769040799269,-36.9404732019918 174.768836016569,-36.9404598523461 174.769856007027,-36.9400828641866 174.769976510182,-36.9402059149065 174.770215032094,-36.9402812714112 174.770340689752,-36.9402657724388 174.770507377328,-36.9401416540566 174.770587824974,-36.940355311099 174.770814658757,-36.9403990354015 174.771012868957,-36.940337425801 174.771442385645,-36.940502284777 174.771896012615,-36.9404692123567 174.772242515627,-36.9401813571756 174.772435706988,-36.9401865285541 174.772636971393,-36.9401247589008 174.773018349119,-36.9401591267744 174.773346348544,-36.9403033706648 174.773452675637,-36.9404412869557 174.7736199289,-36.9404817460645 174.773713050684,-36.9405781601946 174.77415567898,-36.9407616385805 174.774446981088,-36.9408209382813 174.774812384426,-36.9408278132351 174.776500980743,-36.9403326816671 174.776660646751,-36.940092506233 174.777329654965,-36.939823688167 174.777771135565,-36.9395867436785 174.777921711072,-36.9393625129348 174.777906497522,-36.9391406871343 174.777764617655,-36.9389750540997 174.777478509956,-36.9389622447557 174.777363784669,-36.9388962046463 174.777305942012,-36.9387391068821 174.777336758755,-36.9385767152041 174.777229357356,-36.9383823401969 174.777540445588,-36.9381955316138 174.777594080435,-36.9378737773608 174.777757793787,-36.9376696012113 174.777972570103,-36.937621148374 174.77865578307,-36.9375951343308 174.778920258399,-36.9377024261161 174.778793610523,-36.9382516655875 174.778919277991,-36.9388051493945 174.779292860314,-36.9391223027165 174.77969360258,-36.9391793573102 174.779964133371,-36.9389288205867 174.780135103626,-36.9388696944045 174.780348891265,-36.9388774995938 174.780656028043,-36.9390017660131 174.780846679566,-36.9393222885825 174.781154442117,-36.9393867500456 174.781256842232,-36.9395147052463 174.781589835146,-36.9396911171077 174.781968751582,-36.9397533883798 174.782285221688,-36.9396259933944 174.782528809345,-36.9396672634384 174.782730542274,-36.9395494529793 174.783130853007,-36.9395203974394 174.783475926377,-36.9393781827099 174.783908658989,-36.9393703451708 174.784024676072,-36.9394097513063 174.784055424506,-36.9395303766278 174.783992846833,-36.9397262222388 174.783845931112,-36.939802611757 174.78393328741,-36.9401069897359 174.784044738872,-36.9400860122532 174.784093633518,-36.9401362585639 174.784068111315,-36.9402324840511 174.784535899449,-36.9403081375542 174.785002454074,-36.9401555217158 174.785281245511,-36.9394131051115 174.785369596052,-36.9393917355573 174.785213049952,-36.9389693396552 174.785610236938,-36.938900434418 174.785679087323,-36.9388325879067 174.785720403316,-36.9388793368058 174.785870434171,-36.9388554546699 174.786101134483,-36.938682225347 174.786102143935,-36.9385128782767 174.785990535446,-36.9383487485567 174.786111547529,-36.9383096140818 174.786106732957,-36.9365494382161 174.786429437778,-36.9365336944436 174.786437920334,-36.9373635590244 174.78680601277,-36.9374342493112 174.787609424929,-36.9374121613783 174.787693258107,-36.9372930206155 174.787674957805,-36.9361639166251 174.787727119825,-36.9360801954158 174.787975542524,-36.9360237297388 174.788578150663,-36.9360093288264 174.788755198347,-36.9359235276042 174.788933731568,-36.9356850798007 174.788887944124,-36.9353930051708 174.789456361695,-36.9355193852776 174.789800667275,-36.9358101707733 174.789942046651,-36.9360258512288 174.790079707126,-36.9363485600364 174.790394968495,-36.9376205971728 174.790731645852,-36.9385366267877 174.79101820112,-36.9392070979762 174.7914151803,-36.9398428487969 174.791493628185,-36.9401560278483 174.791976733692,-36.9401028111395 174.792354441424,-36.940128644668 174.793060211054,-36.9403636940347 174.793352863672,-36.9405673529079 174.793634679527,-36.9408800939512 174.793652308416,-36.9408208420101 174.793806941445,-36.9411527877626 174.793901913342,-36.9415645405941 174.794131134333,-36.9416222726948 174.794193573187,-36.9416942646206 174.794435966024,-36.9416475359583 174.794720242245,-36.9414890048059 174.795890125179,-36.9415783602844 174.796757747931,-36.9419134524179 174.797159657774,-36.9419543530088 174.797268679717,-36.9421856499298 174.796846951064,-36.9423508993679 174.796593447887,-36.9423114349703 174.796479632592,-36.9423519917709 174.796361543998,-36.9425525212582 174.796143026746,-36.9426122512524 174.795481613809,-36.942452069429 174.795245777428,-36.9425049473084 174.795357112871,-36.9429090388308 174.795642873868,-36.9429343854049 174.796283902582,-36.9428440388126 174.796782636917,-36.9429412886265 174.797251414145,-36.9428859209781 174.797714508431,-36.9430753668428 174.798315727262,-36.9434875359723 174.798479478053,-36.9439198017209 174.798360164915,-36.9441663166457 174.798299332277,-36.9445620130323 174.799008110672,-36.9458260669336 174.7996310397,-36.9465094245628 174.799647738662,-36.9466860811171 174.79953690799,-36.9472390926301 174.799582743685,-36.9474186667725 174.799668398884,-36.9475190109707 174.799461489075,-36.9476284965906 174.799282704846,-36.9476034751711 174.798879741366,-36.9476857175421 174.798340670298,-36.9475405380582 174.798130865888,-36.9475805819522 174.798139000297,-36.9476759975748 174.79837164912,-36.9478808351635 174.798382064971,-36.947975500549 174.798213724238,-36.948116845727 174.798056224247,-36.9483539645891 174.797760672281,-36.9485752725692 174.797582613692,-36.9489100985756 174.797473731975,-36.9490071020844 174.797255466483,-36.949088556941 174.797098144242,-36.9492593729833 174.796892901684,-36.9497799970137 174.796777225238,-36.9498859086979 174.796892602773,-36.9501597655541 174.797077862943,-36.9500622004069 174.797303027364,-36.9498346057912 174.797470901173,-36.9497983014236 174.797967416373,-36.9494818424376 174.798301983324,-36.9494278952307 174.798715146936,-36.9492211883545 174.799741260745,-36.949040023154 174.800717491289,-36.9491000687514 174.800947113091,-36.9488421629489 174.801349491808,-36.948665422863 174.801729687713,-36.9484094219778 174.802232804977,-36.9483882268505 174.802695162121,-36.9481973285549 174.803655144852,-36.9480289763934 174.804031826543,-36.9478077938703 174.804304981013,-36.9477162520836 174.804524091387,-36.9475348334267 174.805196623586,-36.9473624968349 174.805329411472,-36.9471086535842 174.805431085442,-36.9470202989654 174.805559029663,-36.9469450222628 174.805799994023,-36.9469114108215 174.805963621335,-36.9467683835815 174.80607286494,-36.946753447031 174.806144800877,-36.9466888831265 174.806283608084,-36.9466839646204 174.80632596574,-36.9465424943413 174.806449685103,-36.9465573270122 174.806481770891,-36.9466023809828 174.806771492367,-36.9464008162609 174.806952414125,-36.9461251476883 174.807317908599,-36.9458617853831 174.807632937427,-36.9457028923686 174.807752304231,-36.9456006545907 174.807784734459,-36.9455024823255 174.80807081535,-36.9453055585688 174.808570243408,-36.9451186599539 174.808673380026,-36.9451230114012 174.809138812002,-36.9448027986016 174.809751762159,-36.944571766803 174.810354274923,-36.9442644658389 174.810483462122,-36.944270235568 174.81072235112,-36.9441443321384 174.811071448899,-36.9441187699508 174.811276299906,-36.9440367401916 174.811259934292,-36.943999600185 174.812091368448,-36.9437526567863 174.812227223198,-36.9437587302583 174.812256710793,-36.9438201029561 174.812510516735,-36.9438454206498 174.812886008831,-36.9438013813297 174.813218869775,-36.9436908161501 174.813738740154,-36.9434372661003 174.814095477821,-36.9431981896417 174.814328381438,-36.9431162704308 174.814372573358,-36.9431135734274 174.81440702323,-36.9431998878243 174.8148041048,-36.943165993147 174.814804935852,-36.943123731737 174.815120392371,-36.9431242145697 174.815105691099,-36.9430898969489 174.815191995029,-36.9430579008966 174.815873490499,-36.9429038877825 174.816879452764,-36.9429114310479 174.817077359119,-36.9429765550735 174.81715595129,-36.9430964415772 174.817158319903,-36.9433919821191 174.817095992878,-36.9435909868082 174.816890846149,-36.9438297272446 174.81639365394,-36.9441952797403 174.816405141649,-36.944436926671 174.816289883315,-36.9448782173034 174.816355687397,-36.9450526786408 174.816465083698,-36.9451229071974 174.816231390261,-36.9450976139337 174.816067176239,-36.9451355570232 174.816046206691,-36.9452693603393 174.81613866561,-36.9454609349089 174.815794458591,-36.9456350719771 174.815870631721,-36.9457748236088 174.816116413184,-36.9458804596747 174.816336488058,-36.9463113483369 174.816334762663,-36.9463603617108 174.816202771917,-36.946439234186 174.816173960179,-36.9465457265643 174.816259499622,-36.9466943343477 174.816540943943,-36.9469415203541 174.816529862865,-36.947098835778 174.816671641164,-36.9471148560008 174.816447589775,-36.9471957016531 174.816150434476,-36.9470625768125 174.81587403074,-36.9470763795599 174.815553931941,-36.9471846317751 174.815343181405,-36.9471961034206 174.815260853908,-36.9472757468165 174.814813520525,-36.9473995848585 174.814830498147,-36.9475088831127 174.815142282168,-36.9476946818151 174.815490584276,-36.9477636197697 174.815581254428,-36.9478690256977 174.815536472317,-36.9479714826595 174.81516641078,-36.9482401044065 174.815023327573,-36.9484550279354 174.815655855216,-36.9481058443147 174.815874312694,-36.9478450606072 174.815909537905,-36.947936380273 174.816033997377,-36.947942347782 174.816100628275,-36.9480406319159 174.816201809603,-36.9480764791091 174.816156108102,-36.9482276272672 174.816224375451,-36.94834680602 174.816336974718,-36.9484077190926 174.816378401517,-36.9485330200785 174.816570068799,-36.9485601998048 174.816476419915,-36.9488243587455 174.818924724331,-36.9493171126883 174.819343500429,-36.9493229789987 174.819595608635,-36.9488334532789 174.819922918267,-36.9486486266667 174.820316479164,-36.9485395851334 174.820721354984,-36.9482805327695 174.821001476689,-36.947979406277 174.821117351434,-36.9476401120747 174.821060115846,-36.9475493677898 174.821198012746,-36.9474373099699 174.821330131189,-36.9474780194311 174.821597181425,-36.9472984661105 174.821028175795,-36.946405947399 174.822214817991,-36.945926813137 174.822514061584,-36.9464043134161 174.823167630211,-36.9460737482002 174.823227504356,-36.9461075630244 174.823802680474,-36.9457567971877 174.82389912449,-36.9456710535735 174.823858624988,-36.945607686294 174.824533287474,-36.9451181873502 174.824711446236,-36.9452684858737 174.825008746331,-36.9454081215758 174.825245778351,-36.9454168005817 174.825703925595,-36.9455207495943 174.826085865674,-36.945521780601 174.82646335655,-36.9456093328273 174.826818960634,-36.9458844596438 174.826978454345,-36.9460817637473 174.827021463752,-36.9462251693267 174.827205088774,-36.9463962013275 174.827851608393,-36.9455508861608 174.828503044088,-36.9451274073367 174.82896984977,-36.9448951801159 174.829179641203,-36.9448869835502 174.829266118392,-36.9449410031911 174.829090285818,-36.9450287214042 174.829266608505,-36.9450782697898 174.829353822538,-36.9449136811205 174.829011139642,-36.9447338643177 174.828671775322,-36.9440435762416 174.828733299363,-36.9435679531797 174.828583247725,-36.9432183481801 174.828634121306,-36.9430006531244 174.828540935672,-36.9426540469411 174.828605709693,-36.9424814139616 174.828542135218,-36.9422410088519 174.828538782003,-36.9419124515778 174.82833552818,-36.9415876929659 174.828305346318,-36.9413325334401 174.82835410773,-36.9410852949486 174.828627079873,-36.9413685869949 174.829078141587,-36.941577768148 174.82920227981,-36.9417692444479 174.82958194579,-36.941725420777 174.830002757689,-36.9418565168946 174.83020582504,-36.9418350060595 174.829561261322,-36.9408259576213 174.829830242421,-36.9381953155661 174.831166252178,-36.9380152920579 174.831304999733,-36.9376910074157 174.831706474056,-36.9375346711103 174.832334949883,-36.9415308994361 174.832045883923,-36.9412978662243 174.832636450781,-36.945099516281 174.832406733758,-36.9465812663796 174.832631417251,-36.9465582999898 174.832933900394,-36.9485518833878 174.833247716876,-36.9485211329962 174.833477733753,-36.949046516043 174.833015966953,-36.9490917833494 174.833040583225,-36.9492537664417 174.833525250233,-36.9492245331807 174.833669017329,-36.9501692833675 174.833802283778,-36.9505214829382 174.834527817021,-36.9553389666811 174.834727717502,-36.9562333995944 174.834934767541,-36.9559850501121 174.835060633754,-36.9561597001983 174.835332996438,-36.956023995085 174.835614994391,-36.9572669926576 174.835980996498,-36.957895001075 174.837549002945,-36.9602479941484 174.837348998184,-36.9603339979155 174.840759996354,-36.9654049975487 174.841459004973,-36.9656689961452 174.841483003557,-36.9658900019903 174.841215001932,-36.9660709935755 174.841431006009,-36.9663950033066 174.841277005449,-36.9666299999739 174.840948005572,-36.9665702992138 174.840512005342,-36.966696301381 174.840755001875,-36.9668945618958 174.839749204441,-36.9676858543009 174.839782303517,-36.9677895309419 174.839960502758,-36.967753623659 174.840315105933,-36.9677771153613 174.840273405954,-36.968183460446 174.840417706656,-36.9681539384022 174.840815503551,-36.9681802217043 174.840797204683,-36.9683611259954 174.84031870447,-36.9683614813626 174.840266906361,-36.968865936406 174.839844994062,-36.9689521562757 174.835264997628,-36.9725627713166 174.835573194654,-36.9728144141464 174.835314706707,-36.9732432666145 174.835732991957,-36.9734052542029 174.835706801764,-36.9733447752499 174.835959800438,-36.9729400522267 174.836500203203,-36.97318521085 174.836751104352,-36.9733901438662 174.836551004697,-36.9737222320912 174.837243195193,-36.9739904456458 174.837488794184,-36.9735822828225 174.837618005643,-36.9736320062791 174.837525994935,-36.974074005663 174.837074993625,-36.9741980043219 174.836862004838,-36.9745569967764 174.836500999519,-36.9744170033509 174.836255994171,-36.9748249981578 174.836454003822,-36.9749019985699 174.836280996053,-36.9750359982666 174.835804996774,-36.9748519975868 174.834047002434,-36.9766009980216 174.833803999624,-36.9769519936431 174.833437997067,-36.9773149936007 174.833417002329,-36.9775039952612 174.833141000875,-36.977780006732 174.833064999096,-36.9777309988285 174.832930007077,-36.977866002805 174.832794996459,-36.9778910037968 174.831623000653,-36.9790630042439 174.831382992924,-36.9789089963328 174.831121002292,-36.9792580010317 174.830765001235,-36.9796139930748 174.830989994023,-36.9797799960511 174.830338007374,-36.9804930023087 174.830201005166,-36.9805069917776 174.829672999189,-36.9810350032056 174.829910993073,-36.9811879964074 174.829770003572,-36.9813289965639 174.830221994335,-36.9811880065678 174.829584994346,-36.9818249921533 174.82973399237,-36.9819709942788 174.829944998004,-36.9817590038975 174.830590002726,-36.9821830041239 174.830745995397,-36.9826789966527 174.831842005679,-36.983350995431 174.831954000898,-36.983252994307 174.83394500827,-36.9850129969156 174.834074003191,-36.9853299991884 174.836176005103,-36.9870109989185 174.836286004284,-36.9871520049662 174.836339992901,-36.9873339996982 174.836566000919,-36.9873220010408 174.836587993051,-36.9875910036167 174.836296992627,-36.9878160002067 174.836022134893,-36.9884290683621 174.835952213467,-36.9884683415798 174.835847723329,-36.9883890487625 174.83543631137,-36.9886186198384 174.835362906443,-36.9887322736039 174.834693656164,-36.9886555515454 174.834538803784,-36.9887686568459 174.83434078337,-36.9888266656977 174.833943348784,-36.988854695854 174.833510477321,-36.9887345135777 174.833258423626,-36.9887317270542 174.832828832225,-36.9888736943973 174.832513858027,-36.9891168215591 174.832222012139,-36.9892534698389 174.832079724938,-36.9893575603974 174.832059788762,-36.9895115750414 174.832125509345,-36.9895994752617 174.832382863679,-36.9897080410439 174.832512513,-36.9900144859999 174.832460503002,-36.9902550484781</coordinates></LinearRing></outerBoundaryIs></Polygon>
  </Placemark>
</Folder>
</Document></kml>
