<?xml version="1.0" encoding="utf-8" ?>
<kml xmlns="http://www.opengis.net/kml/2.2">
<Document id="root_doc">
<Folder><name>Manurewa.final</name>
  <Placemark id="Manurewa.final.1">
	<name>Joined Boundary</name>
	<description></description>
	<Style><LineStyle><color>ff0000ff</color></LineStyle><PolyStyle><fill>0</fill></PolyStyle></Style>
      <Polygon><outerBoundaryIs><LinearRing><coordinates>174.899906007228,-37.0410110057898 174.899728000273,-37.0413160069161 174.899779004885,-37.0415319921588 174.899578996834,-37.0418279935753 174.899574000641,-37.0426609932541 174.899910998728,-37.0434389975794 174.90018100375,-37.0437689919018 174.900235999429,-37.0440889958129 174.90035389629,-37.0441775702333 174.900269436157,-37.044237533161 174.900672794315,-37.0445744755964 174.900720440507,-37.0447922382739 174.900649080139,-37.0452501448357 174.900815153536,-37.0457600492687 174.900626726094,-37.0458077779473 174.900468917207,-37.0461055181877 174.899993380825,-37.0464714242447 174.899591778144,-37.0466552788373 174.898758417211,-37.0468901556557 174.897609809104,-37.0477340432454 174.89733313826,-37.0478210566216 174.896508083916,-37.0479122665583 174.896133630697,-37.0480100060507 174.895747737848,-37.0482592535587 174.895428151814,-37.0483758666844 174.895327381884,-37.048491013791 174.895326830248,-37.048662589416 174.895666943668,-37.0491611798612 174.895730348809,-37.0494706611952 174.89591748653,-37.0497929187932 174.895897245817,-37.0498827422497 174.895605966109,-37.0499698374069 174.895379274454,-37.049943766335 174.895005790024,-37.0497872178045 174.894312217665,-37.0495906044217 174.893753120741,-37.049655920417 174.893077905197,-37.0500310685476 174.893026484656,-37.0502061825866 174.892837880849,-37.0503574016605 174.892729049178,-37.0505876323912 174.892563811577,-37.05071146258 174.892330488185,-37.0506956924267 174.892040911314,-37.0507673845705 174.891645022786,-37.0507357811933 174.891275351948,-37.0509698301115 174.891202054886,-37.0510496932293 174.891248692012,-37.0511523619117 174.890961979564,-37.05229533259 174.891048229152,-37.0526651267971 174.891008839247,-37.0530246810829 174.890650398175,-37.0532110478925 174.890405293732,-37.0532234643249 174.88998274131,-37.0533353897848 174.889480838156,-37.053718126923 174.889193496391,-37.0537763157292 174.889052951368,-37.0539162190042 174.889042056324,-37.0542736018184 174.888987421701,-37.0543717222706 174.888518949676,-37.0547586880753 174.88808559525,-37.0549993519557 174.887724254225,-37.0555799358985 174.887660960017,-37.0558159184404 174.887673632994,-37.0560909933521 174.887969058371,-37.0567389843588 174.887919938148,-37.0569853108812 174.88793282964,-37.0583275779351 174.887784859191,-37.0588173524051 174.887416205918,-37.0590015018432 174.887254908224,-37.0590176208585 174.886882942767,-37.0589345519717 174.886629904231,-37.0586766333449 174.88604410525,-37.0584943668264 174.885844181197,-37.0583333052399 174.885514905236,-37.0578284417345 174.88499381779,-37.0577156469333 174.884885524975,-37.0576312878157 174.88479434545,-37.0576291606597 174.884678832577,-37.0574619172302 174.884276490288,-37.0574502685717 174.883970955306,-37.0572459321215 174.883779424413,-37.0571972635599 174.883280907715,-37.0572943199471 174.882892825726,-37.0571888464356 174.882644924361,-37.057237922011 174.882530567538,-37.0572064307741 174.882257614372,-37.0569620758445 174.882223987503,-37.0567274604081 174.881917475806,-37.0560616846263 174.881389269715,-37.0559112095993 174.88136653414,-37.0556443149421 174.881247609793,-37.0555457813628 174.880348787895,-37.0552259899506 174.880462795994,-37.0548590563979 174.880407499243,-37.0546319095826 174.880227155872,-37.0544433498665 174.88006865903,-37.0543802569786 174.88000667235,-37.0542527006596 174.880039179357,-37.0541871826321 174.879915232149,-37.0542113609424 174.87974035793,-37.0541358062565 174.879542466207,-37.0539836351106 174.879464138001,-37.0538058907707 174.879193431352,-37.0536315995715 174.878951377431,-37.0536301090395 174.878713364145,-37.0538323264144 174.87808533268,-37.0537234661034 174.877713251083,-37.0537096590856 174.877198330934,-37.0539266116032 174.876718288983,-37.054053610818 174.876523382331,-37.0541859091587 174.876556963087,-37.0545329618638 174.876375724405,-37.0547146891594 174.875972770668,-37.05494966914 174.875738175454,-37.0549832751514 174.875363059842,-37.0548503423733 174.874405058283,-37.0546971193779 174.87404811143,-37.0547923147409 174.873638115487,-37.0547493250268 174.87298339778,-37.0548295008144 174.872849416294,-37.0549210592291 174.872681533583,-37.0551422904163 174.872520768844,-37.0551548315778 174.872129504986,-37.054873183554 174.871911154362,-37.0545688546808 174.871823187997,-37.0545206345903 174.871723091552,-37.0544825364222 174.871352259768,-37.0545183550691 174.870838899917,-37.0543081989184 174.870635706827,-37.0541128653718 174.869887023615,-37.0539065320291 174.869464636675,-37.0538637267563 174.869363525557,-37.0537859356931 174.869348644533,-37.0536868449518 174.869458367933,-37.053615549267 174.870037494089,-37.0534869728294 174.870134568771,-37.0534059526397 174.870154325609,-37.0532070058116 174.869969125612,-37.0527432192338 174.870024788688,-37.052494030967 174.870217433849,-37.0522724228541 174.87046138438,-37.0521194776503 174.870639895512,-37.0518285626196 174.870577795533,-37.0513330020482 174.870636708722,-37.0512128719774 174.871145871174,-37.0507676009441 174.871337507775,-37.0505062847582 174.871401271473,-37.0500881162206 174.871603281668,-37.0497471716907 174.871599759907,-37.0496081905505 174.871458257818,-37.0494019089762 174.871392732983,-37.0491565853964 174.871603773627,-37.0487793371944 174.872045255306,-37.048646786429 174.872734963173,-37.0485467877194 174.872829462485,-37.0484958545588 174.873094380494,-37.0485191218689 174.873429601299,-37.0484151534418 174.874655357773,-37.0483886564063 174.87504092227,-37.0477874035754 174.875124605562,-37.0475271958976 174.875208491927,-37.047455383253 174.875538508228,-37.0473206324373 174.87575669888,-37.0472935830121 174.875790215468,-37.0472262835539 174.87598038227,-37.047127504269 174.876052991885,-37.0469973766987 174.87624873477,-37.0468806440774 174.876450140513,-37.046817738339 174.876880976253,-37.0468040144355 174.876998357878,-37.0466738663685 174.877110249173,-37.0466379127367 174.877300220468,-37.0463462449986 174.877736630683,-37.0463011365744 174.877898107898,-37.0462433364182 174.878109042161,-37.0460858061496 174.87830220351,-37.0460473548932 174.878369665298,-37.0459153633594 174.87859109202,-37.0458064661672 174.879072387087,-37.0450679634161 174.879222123047,-37.0449674347173 174.879468235784,-37.0449067970579 174.879659727711,-37.0449296856517 174.879948389496,-37.0450178797233 174.880156198796,-37.0451456718648 174.880260245755,-37.0454828560164 174.880627759934,-37.0457228122776 174.881097100017,-37.0462125497394 174.881164143103,-37.0467033888074 174.88105119782,-37.0470878529783 174.881218971751,-37.0472490791547 174.881703065467,-37.0475144605444 174.881825192918,-37.0477584536879 174.881774297314,-37.0481692343203 174.88143353405,-37.0485739260297 174.881655600355,-37.0488611384268 174.881961335355,-37.0489848975926 174.882142305462,-37.0491431675771 174.882147837747,-37.0490501186922 174.882369068374,-37.0488322349433 174.882460856441,-37.04863416827 174.882612584302,-37.0484971595863 174.88283266786,-37.0484255085579 174.883766424907,-37.0476430492816 174.88394328211,-37.0475501261999 174.884157603999,-37.0471998675902 174.884336364048,-37.0470755971003 174.88495643809,-37.0467231565452 174.885568167244,-37.0466383966321 174.885759851782,-37.0467057658407 174.885953671116,-37.0467069065535 174.886174714328,-37.046641565776 174.886230674509,-37.04654068279 174.886203852133,-37.0464510315643 174.886336082574,-37.0463305426811 174.886310427807,-37.0461225348131 174.886531532066,-37.0455621195842 174.886613388511,-37.0455429113778 174.886655079333,-37.0453796940767 174.886853151839,-37.0450975787717 174.887462617736,-37.044629233583 174.8874584737,-37.0442389560293 174.887518748849,-37.0442179104078 174.887698547284,-37.044281456731 174.887788604123,-37.0442428546096 174.888196470261,-37.0438313949351 174.888158509103,-37.043695199826 174.888205559024,-37.0436030967382 174.888118489647,-37.0432029307618 174.888049732174,-37.0431425556868 174.88783233862,-37.0431110113903 174.887722590908,-37.0429456993305 174.887453862719,-37.0427166463577 174.887328976259,-37.0425340517207 174.88735716633,-37.0423527642703 174.887244217068,-37.0422709361224 174.887500764505,-37.0421875653446 174.88751700498,-37.0420770759544 174.887491650895,-37.0418445318285 174.887365768303,-37.0416500756939 174.887351944434,-37.0412534617141 174.887262776367,-37.0410683697747 174.887321457485,-37.0407937035977 174.887616090122,-37.0406225382966 174.887652624675,-37.0404398813552 174.887713654288,-37.0404136024132 174.888404684037,-37.0407466443515 174.888666395663,-37.0410241681322 174.88875533656,-37.0416428704477 174.888970303218,-37.0422272791519 174.889444533477,-37.0426746192023 174.889659915285,-37.0430480100239 174.889774579652,-37.0430564281856 174.889921685159,-37.0429891211682 174.890223177027,-37.0429903851168 174.890354447173,-37.0428516179465 174.890419619172,-37.0428960705572 174.890509090976,-37.0428602499247 174.890859387444,-37.0425839358936 174.891259039864,-37.0425180635567 174.891453445383,-37.0422745974079 174.891540560268,-37.0420205879845 174.892040512661,-37.0422066970368 174.89238948215,-37.0419875475878 174.892948809047,-37.041794761324 174.89288256716,-37.0414994060217 174.892970413506,-37.0412762489492 174.892708406086,-37.0409014036473 174.892635763682,-37.0405019788528 174.892430513165,-37.0402872202032 174.892223413666,-37.0399103899212 174.891843044172,-37.039583518767 174.891506142276,-37.0395725180022 174.891199473771,-37.0394671510984 174.890552557701,-37.0399781261802 174.890466807067,-37.0401123492418 174.89038670568,-37.0404879632815 174.89031149044,-37.0412073664228 174.889827160484,-37.0415492724299 174.889611837942,-37.0416351630992 174.889377188744,-37.0415339221896 174.889243679873,-37.041412034353 174.88894762553,-37.040866536005 174.888540285574,-37.0404684663097 174.888292477297,-37.0401205896939 174.888248154548,-37.0398943088744 174.888137293242,-37.0398236271163 174.888216302178,-37.0396960898109 174.888226346667,-37.0395163573117 174.887751140893,-37.0393610067174 174.88749092462,-37.0395237977429 174.886858709493,-37.0397952054166 174.886332686811,-37.0403393087087 174.886149693478,-37.0404071143795 174.885932948845,-37.0406199251753 174.885222218696,-37.0410275849425 174.884991325061,-37.041352255968 174.885032084504,-37.0416032867541 174.884909250659,-37.0419082772282 174.884491203386,-37.0421969202778 174.883970923715,-37.0426864924391 174.883661764584,-37.0428533171353 174.883509528435,-37.0428868053747 174.883387183261,-37.0428825274168 174.883187383969,-37.0427319901348 174.883033875634,-37.0427012901267 174.882590382689,-37.04245359 174.882207999266,-37.0425050240201 174.881873744719,-37.0426240866782 174.881605700848,-37.0425870479592 174.881479824423,-37.042482425311 174.88139453392,-37.0421529228979 174.881044179587,-37.0421245494329 174.880881119279,-37.0420173820055 174.880739619707,-37.0415801382565 174.880413922699,-37.0416006596171 174.880277055507,-37.0415032274237 174.880210263844,-37.0413526790819 174.879291857345,-37.0410291513214 174.878962358404,-37.0410915331252 174.878469588473,-37.0410170143563 174.878075884609,-37.0411427680638 174.877871982828,-37.0410609018323 174.87744921622,-37.0413603034357 174.87676694178,-37.0415276457937 174.876474674024,-37.0419725222522 174.876163720982,-37.0421509899632 174.875945798966,-37.0421476960746 174.875560557552,-37.0420004292099 174.874834452482,-37.0421811602077 174.874345343777,-37.0421698397405 174.873954188383,-37.0419695968526 174.873360176975,-37.0414044510593 174.873241505332,-37.0411632393428 174.873217459316,-37.0407014640751 174.873149920073,-37.0404597375921 174.873023157292,-37.0405887430145 174.872677814068,-37.0407842448777 174.872614956477,-37.0410562790867 174.872368031832,-37.0411886374054 174.872255906017,-37.0414018847284 174.872276252824,-37.0416008336307 174.872504151605,-37.0420819496816 174.872340315093,-37.0425857464008 174.872309141849,-37.0429114197124 174.872515594666,-37.044457481637 174.872477985896,-37.04484123372 174.87237468987,-37.045080888674 174.872132970855,-37.0453078733196 174.871562006754,-37.0456198097288 174.871137804253,-37.0456891533671 174.870997016432,-37.0456311304159 174.870922013382,-37.0455313469072 174.869980406757,-37.0460378602335 174.869460847004,-37.0464087073274 174.869550558713,-37.0469355992675 174.869391508328,-37.0470928348195 174.869188781482,-37.0470741040106 174.8690672376,-37.0469518316469 174.868795406736,-37.0468432954349 174.868651355898,-37.0467020217771 174.86886687944,-37.0472417142271 174.868753075123,-37.0474261349015 174.868524098711,-37.04748434712 174.868616694347,-37.0477358011434 174.86838257396,-37.0478777161486 174.868160089336,-37.0479249124318 174.86801343123,-37.0480323892095 174.868170862184,-37.0482832802293 174.867973653786,-37.0485025315637 174.867867577716,-37.0484722933989 174.867630133593,-37.048620830693 174.867458211542,-37.0486546688883 174.86727510379,-37.048586935731 174.86740290754,-37.0489824450417 174.867321191255,-37.0492459604087 174.867209105118,-37.0493284133888 174.866745166428,-37.0492408788414 174.866575783451,-37.0492706614051 174.86623002689,-37.0496544705903 174.866107324373,-37.0498980938968 174.865907034526,-37.0501164971531 174.865646936147,-37.0502732255946 174.865834977169,-37.0502943394106 174.865725432541,-37.0503896027096 174.865675384737,-37.0505459855982 174.866072400799,-37.0507836816197 174.865361029416,-37.051361769692 174.86524414481,-37.0515436379496 174.865226336476,-37.0519005933971 174.865037704761,-37.0520638774359 174.864947299196,-37.0522243340385 174.864490246825,-37.0526205444453 174.864321155984,-37.0528433008802 174.863338826852,-37.0530665552319 174.863036906921,-37.0530604432511 174.862802547044,-37.0528782867208 174.862531416233,-37.0525226456974 174.862330000616,-37.0524325932363 174.862088235665,-37.0524597142966 174.861947538121,-37.0524220595746 174.861794599707,-37.0523045340623 174.861528218095,-37.0519397489623 174.861233063878,-37.051683944344 174.860895037121,-37.0515442560607 174.860845567429,-37.0511297493682 174.860523732361,-37.0511900260567 174.860426938898,-37.051170693725 174.860243574173,-37.0512690667572 174.859921568085,-37.0515698403122 174.859586454104,-37.0516265949375 174.859215311118,-37.0518243275806 174.859027228712,-37.0518088415913 174.85864908125,-37.0515131264124 174.858373568194,-37.0514378479593 174.858054437457,-37.0512170300458 174.857834558397,-37.0512172209582 174.857629032514,-37.0510541497249 174.857651554583,-37.0506040857862 174.857324616267,-37.0485899111504 174.857122980921,-37.0482982311744 174.857102678634,-37.0479998864436 174.856939685154,-37.0475035312005 174.856814919176,-37.0464228353361 174.856612669472,-37.0456807286 174.856626014712,-37.0453393693948 174.856449064077,-37.0450149735641 174.856496469395,-37.0448634711241 174.856457135195,-37.044676462093 174.856537179187,-37.0443945255973 174.8568052147,-37.0439643358902 174.856671912278,-37.043788761895 174.856701383007,-37.0433794630263 174.856821680881,-37.0430472288223 174.857087773396,-37.0428714443158 174.857464258854,-37.0427809037178 174.857666326639,-37.0422419823846 174.857781455562,-37.0421457322578 174.857910651589,-37.0421583142177 174.857599738977,-37.0418903678863 174.856959038587,-37.0403656969205 174.856564725658,-37.039557961563 174.856254931686,-37.0390853036979 174.855897061287,-37.0386326130411 174.855758692437,-37.0385895846902 174.855694747726,-37.0385098731548 174.855491607838,-37.0384565752629 174.85539719302,-37.0382438450328 174.855247632709,-37.0381669992659 174.855386386799,-37.0379369245868 174.855316125932,-37.0377116686307 174.855381703737,-37.0375183635679 174.855860165522,-37.0371563558429 174.855969230645,-37.0368557229631 174.85599578803,-37.0365161656376 174.856170104344,-37.0362742672597 174.856401171051,-37.0361087188217 174.856435496233,-37.0359909540849 174.856377547577,-37.0358776267338 174.856433706455,-37.0357325090326 174.856243894262,-37.0353188046865 174.856263533314,-37.0350042532026 174.856115396009,-37.0346088661868 174.856303373732,-37.0343476524331 174.856398808233,-37.0340568709844 174.856353008913,-37.0340163241236 174.856465415602,-37.0339106902184 174.856480525519,-37.0337278706204 174.856580141871,-37.0337422483957 174.856009516195,-37.0331706375673 174.855696541913,-37.032976797842 174.855574855049,-37.0329594693849 174.855415578778,-37.0328233218186 174.85526713404,-37.0328266170812 174.855196683119,-37.0327326607997 174.855260505418,-37.0326040140902 174.85483305054,-37.0323331557947 174.854602888856,-37.0322543651737 174.85449527481,-37.0320968389415 174.854645337193,-37.0320089740467 174.854654792069,-37.032135896117 174.854979159094,-37.0322780967938 174.855148681558,-37.0322496601774 174.855247986911,-37.0321689695827 174.855049467795,-37.0318409637952 174.855062464265,-37.0315601953247 174.854912908091,-37.0313528260175 174.854805371539,-37.0310764524399 174.854488321063,-37.0307102322177 174.854427197344,-37.0301474830443 174.854504655981,-37.0300282963562 174.854535689992,-37.0298080967313 174.854938195453,-37.0294650982514 174.855326540949,-37.0290304883771 174.855233291193,-37.0287339682123 174.855381338192,-37.0286156895815 174.855314426388,-37.0285218122054 174.855409671825,-37.0282448026718 174.855759284395,-37.0279323827213 174.855854519008,-37.0277884673025 174.855996508616,-37.0277131425681 174.855986197477,-37.0276008855943 174.856078035651,-37.027530652764 174.856127168368,-37.0272389490902 174.85634285865,-37.0270000244492 174.856370486141,-37.0268372314436 174.856455221646,-37.0267831482476 174.856394501527,-37.0267064327944 174.856490223969,-37.0263827668417 174.856630817009,-37.0261751782874 174.856336325972,-37.0257876829541 174.856229575515,-37.0253800595583 174.856259729649,-37.0253136453251 174.856204865054,-37.0252337790762 174.856172594212,-37.0248436922953 174.856028593834,-37.0248002824076 174.856035387587,-37.0247416091178 174.856172508209,-37.0246935636657 174.85618979393,-37.0246425937179 174.855889509293,-37.0243191887279 174.855632887292,-37.0238852917743 174.855147699937,-37.0235510653437 174.85497599454,-37.0232245024192 174.854492708569,-37.0229422913203 174.854339666612,-37.0229815174251 174.854431264572,-37.0228260204309 174.854322844187,-37.0227933158627 174.854462458586,-37.0226592161417 174.85445365076,-37.0225538700816 174.854235290972,-37.0224205331583 174.853980515793,-37.0223791323902 174.854609460978,-37.0221168783242 174.855313694181,-37.0214106639866 174.855885952147,-37.0210719421877 174.856574458818,-37.0208769345531 174.857297222078,-37.0207489334016 174.857602661013,-37.020820210722 174.8579375148,-37.0208111625508 174.858313091604,-37.0210936192826 174.85850484329,-37.0211824172886 174.858549891139,-37.0212791321541 174.858735375252,-37.0211765729943 174.858638244741,-37.0209059556083 174.858811627002,-37.0207078030136 174.85885280812,-37.0205063679197 174.858934799782,-37.0204710389584 174.85913709244,-37.0205338537152 174.859462593154,-37.0207805885505 174.859825389862,-37.0209749233719 174.859991593247,-37.0209819400196 174.85951289926,-37.0207465958475 174.859312244383,-37.0205653097656 174.859089339705,-37.0200957154271 174.858880995055,-37.020154700858 174.858791670333,-37.0202569045804 174.858389009659,-37.0204209698183 174.858167701861,-37.0203890384097 174.858328306145,-37.0202826947251 174.85821050741,-37.0199358967178 174.857881474279,-37.0198673194017 174.857723304197,-37.0197767479532 174.857659356127,-37.0195637885914 174.85749504828,-37.0193001967939 174.857324725787,-37.0191404692752 174.856972084493,-37.0190804717023 174.856699121058,-37.0189310438572 174.856349568679,-37.0188660505882 174.85560355414,-37.0192162035709 174.854827242565,-37.019084223341 174.854753274142,-37.0185518012433 174.855242915175,-37.0181655178729 174.85561506447,-37.0175968976904 174.856028494317,-37.0172824017826 174.856423667677,-37.0166415539261 174.85682082451,-37.016596621994 174.856601162955,-37.01643422789 174.856476109445,-37.0164033303015 174.856362764639,-37.0164503162615 174.855925976905,-37.0170137642727 174.855105231937,-37.0175632773423 174.854900305015,-37.0178069093981 174.854524745297,-37.0184314943186 174.854324301225,-37.0186000763161 174.854192092519,-37.0186514263019 174.854169221825,-37.0185672445606 174.854328574099,-37.0183291372916 174.854515393181,-37.0182118184247 174.854476477357,-37.0180818712158 174.853574038352,-37.0185128001503 174.853419352806,-37.0188479306646 174.853487894695,-37.018987017914 174.853376407476,-37.0191866538214 174.852959587907,-37.0196116967952 174.852800045244,-37.0196905547182 174.85258347237,-37.0197145155867 174.852243576057,-37.0195792970526 174.851892153433,-37.0193086266185 174.851725375537,-37.01899388517 174.851649811769,-37.018708333711 174.851193603595,-37.0185237861862 174.851134090689,-37.0183004797983 174.851156643256,-37.0179945677107 174.851086072984,-37.017968723286 174.851016287787,-37.0180060357593 174.850757987361,-37.0183692221726 174.850856637263,-37.0187654175773 174.8508591042,-37.0190038890363 174.850988775455,-37.0191525991353 174.851006725474,-37.0192530016523 174.850903819123,-37.0193072842408 174.85075488045,-37.0192787722369 174.850662942449,-37.019443705823 174.850317413497,-37.0196339116801 174.84982247155,-37.0197636314103 174.849709943143,-37.0200746640456 174.850087561448,-37.020323348794 174.850248443313,-37.0203529110369 174.850254536095,-37.0205131715803 174.850606213742,-37.0204740754345 174.850619471621,-37.0205524132258 174.85053062432,-37.0206450305992 174.850579449944,-37.0208818550185 174.850661044699,-37.0208911878867 174.850783980321,-37.0207840926553 174.850728327436,-37.0205490575762 174.850839613259,-37.0205147976755 174.850923379329,-37.0205478027307 174.850962275074,-37.0209775935951 174.851148620551,-37.0208907200395 174.851191460432,-37.0209472855978 174.85109998915,-37.0211200013256 174.851166958175,-37.0213605405643 174.851082748642,-37.0214258375954 174.850967055858,-37.0214364494436 174.850874509202,-37.0213378678738 174.85096801319,-37.0212179436319 174.85062555612,-37.0212224724417 174.850569783497,-37.0210147434342 174.850483587161,-37.02102178156 174.850376210853,-37.0211980986114 174.850317269551,-37.0211961211258 174.85030241235,-37.0209630191846 174.84983492271,-37.0210382043651 174.849322537696,-37.021007638419 174.849378591026,-37.0211552733763 174.849149298398,-37.0212056030468 174.849212202061,-37.0213387022398 174.849119024388,-37.0213839726911 174.848655149501,-37.0211550680787 174.848579007157,-37.0209436455597 174.848504387416,-37.0208906269572 174.848402090699,-37.0209504247391 174.848187664122,-37.0212266063366 174.847945085988,-37.0212131693092 174.847447487926,-37.0204142867493 174.847440246126,-37.0200045973593 174.847066066257,-37.0195010240327 174.847054928254,-37.0194572937307 174.847202925995,-37.0193211539044 174.846943156622,-37.0191001141804 174.846666629894,-37.0190683781999 174.846382567442,-37.0192023088013 174.845774483875,-37.0192752540429 174.845546180783,-37.0191089295957 174.845379332431,-37.0188972304036 174.845060178526,-37.0187652448061 174.84481940834,-37.0188519709381 174.843928059095,-37.0193792877855 174.843501011641,-37.0195401108348 174.841928175236,-37.0193244184103 174.841719982579,-37.0192291526696 174.841604913478,-37.0190995422695 174.841348474514,-37.018647262038 174.841355895079,-37.0185107271424 174.841239006861,-37.018286444742 174.8409193661,-37.0182655131685 174.840778484782,-37.0183270162644 174.840723638978,-37.0184179001085 174.840601141188,-37.0184302901373 174.840520255277,-37.0183000797883 174.840572470179,-37.0182516444403 174.840185856653,-37.018002989017 174.839595307732,-37.0177244697512 174.839428863043,-37.017432626362 174.839098111059,-37.0173588217251 174.838782808932,-37.0173779056086 174.838545391625,-37.0172333437234 174.838484677353,-37.0171238955709 174.838608941637,-37.0167491945857 174.838560978691,-37.0165199096437 174.83841180498,-37.0171892540846 174.838526458615,-37.0174007997704 174.838943092896,-37.0175276860893 174.839328622081,-37.0175288515578 174.839472033046,-37.0178916167897 174.840228278451,-37.0181433186029 174.840392501433,-37.0184224065453 174.8406524296,-37.0186052518639 174.840786200198,-37.0186111141724 174.840988629985,-37.0184842437848 174.841210906335,-37.0184794567681 174.841101620308,-37.0185701870161 174.841101328084,-37.0186302648293 174.841351324443,-37.0189951706857 174.841318379088,-37.0192463257669 174.841722745875,-37.0195789373286 174.841778570428,-37.0197648177589 174.841714774011,-37.0198283654399 174.841508093535,-37.019887833633 174.841467076737,-37.0199296052305 174.841500832022,-37.0199879720131 174.842480489862,-37.0199981529949 174.842916100848,-37.0199593804045 174.843981838335,-37.019995302439 174.844507625038,-37.0200678654429 174.844924267316,-37.0202038353054 174.845319119302,-37.0201539959399 174.845814915916,-37.0198550092523 174.846336724548,-37.0198074065866 174.846454463176,-37.019849621159 174.846734563194,-37.0200889601931 174.846659769197,-37.020565795299 174.84674770456,-37.0206734876626 174.846876842085,-37.0207048203899 174.846989713083,-37.0208125813315 174.847241802774,-37.0212248135713 174.847357425239,-37.0217185991947 174.847285318509,-37.0221025758383 174.847303846913,-37.0225050248986 174.847553479912,-37.0229573334095 174.847450302011,-37.0231973807746 174.847574972052,-37.0232123126202 174.848377430232,-37.0228104322091 174.848606678078,-37.0227692124096 174.848820327675,-37.0226696862086 174.849048369729,-37.0224027018599 174.849767489384,-37.0218767353721 174.849820404931,-37.021711202307 174.85003140809,-37.0216917875455 174.850160123877,-37.0218123294149 174.850193378694,-37.0219763060234 174.849865835365,-37.0226745424009 174.849865345063,-37.0227801564437 174.850147074177,-37.0231615205795 174.850156485897,-37.0235767024165 174.850245511696,-37.0239411137945 174.850494575929,-37.0240292363395 174.850482592746,-37.02416941186 174.851039992677,-37.0242839147473 174.851216188158,-37.0244373702582 174.851064998546,-37.024762865805 174.85112766349,-37.024945140259 174.851044948836,-37.0251743088234 174.851376522676,-37.0250805755794 174.851451982159,-37.024944235846 174.851540674268,-37.024891701414 174.851839828244,-37.0249399026353 174.852019193306,-37.0248967121928 174.852362278776,-37.0242731443079 174.852626533862,-37.0240190046489 174.852792448552,-37.0239429955612 174.852882923859,-37.0239942522254 174.85324733315,-37.0246489729946 174.853267162203,-37.0247728527051 174.853191566153,-37.0249383115577 174.853288875564,-37.0249841235772 174.853468087227,-37.0249773444028 174.853475839871,-37.0252668767384 174.853570263402,-37.0254437721175 174.853569074793,-37.0257077974031 174.853519369943,-37.0261592110294 174.853377270626,-37.0264792721445 174.853281504153,-37.0265937085508 174.853031380783,-37.0267295503214 174.852902274685,-37.026692771075 174.852880343664,-37.0265251773719 174.852739627408,-37.0265502819483 174.852539491197,-37.0266716979624 174.852441187845,-37.026837112561 174.852662543726,-37.0270362211235 174.852712436392,-37.0270363711535 174.852735551044,-37.0269435638633 174.852837481647,-37.0269729885563 174.852957820434,-37.0269460354128 174.853061937956,-37.026991852994 174.853174561556,-37.027159685581 174.853626062119,-37.0271263771642 174.853714350522,-37.0271630507771 174.853727683819,-37.0272213625503 174.853513279822,-37.0274847599829 174.853532205982,-37.0278107287435 174.853426752122,-37.0280526173651 174.852937070731,-37.0284991357745 174.852918209673,-37.0286520362453 174.852658606399,-37.0288825256887 174.852315965746,-37.0289106634042 174.85210019118,-37.0289810691266 174.851837101177,-37.0289766645704 174.851366777152,-37.0291537438266 174.850799423914,-37.0292231335632 174.850164373521,-37.0292176565865 174.849840769398,-37.029056458867 174.849713233788,-37.029170816428 174.849703812789,-37.029245454661 174.849970527132,-37.0294428604412 174.849684391731,-37.029518511412 174.849416845213,-37.0294977149063 174.848750978027,-37.029291847038 174.847858862488,-37.029447660174 174.84711923016,-37.0290103259909 174.846677610932,-37.0288669986146 174.845976921876,-37.0288376268182 174.845708774965,-37.0289424619893 174.845545958434,-37.0288382027 174.845228672331,-37.0287844705857 174.844985805518,-37.02882745243 174.844908263966,-37.028912793821 174.844887190985,-37.0290547658776 174.844967597039,-37.0293171932883 174.84489886778,-37.0294663004197 174.844530889883,-37.029581743703 174.844315493445,-37.0295592703072 174.844195688845,-37.0294769777018 174.844180659787,-37.0292966737365 174.843774460789,-37.0288584803492 174.843382941518,-37.0286752261438 174.843322436708,-37.0285221199743 174.842939150885,-37.0285136948911 174.842788673848,-37.0282037108537 174.842984275939,-37.0280822968223 174.842964402909,-37.0279711622662 174.84248151482,-37.0279242180398 174.841921265817,-37.0274545943554 174.841797478417,-37.0272521119369 174.841709258852,-37.0272008865799 174.841527733502,-37.0272185438431 174.841330791099,-37.0271414835457 174.841128471966,-37.0272355668545 174.841065056173,-37.027217182831 174.841234116572,-37.0269609321367 174.841067037243,-37.0268020403201 174.841042554446,-37.0267036367243 174.841091918488,-37.0263396120688 174.840902163031,-37.0261770034022 174.840722054924,-37.0258997044415 174.840763977848,-37.0256649368376 174.840614459124,-37.0256299029463 174.840483599843,-37.0254856461274 174.840374426669,-37.0255490696978 174.840475258676,-37.0258061029521 174.840187620796,-37.0257251372402 174.840145135352,-37.0255975542643 174.840216088274,-37.0254648289985 174.839923848618,-37.0253911273653 174.839933454856,-37.0252800775571 174.840149544753,-37.0251478186078 174.840003156613,-37.0249325102683 174.839892519544,-37.0248265791681 174.839770212213,-37.02478979361 174.839407224853,-37.0248160264319 174.839396171963,-37.0247577370189 174.839534939244,-37.0246689215957 174.839533002563,-37.0245979022313 174.839343090811,-37.0244735152297 174.839111330144,-37.0240867977363 174.838485790813,-37.0235241281742 174.838474919432,-37.0234275833135 174.83862138747,-37.0231512644187 174.838556421804,-37.0229835504196 174.838395598515,-37.0229411782162 174.837914381797,-37.0230271422953 174.837769325759,-37.0230066791821 174.837722308879,-37.0228790788917 174.837766332909,-37.0226880274309 174.837698888554,-37.0225658395818 174.837357189557,-37.0224064032716 174.837063208569,-37.021755484782 174.836541741871,-37.0212513696706 174.836340191281,-37.0211942955927 174.835689127954,-37.0212287539604 174.835286651075,-37.0209799198258 174.834939660598,-37.0205109090317 174.834832804446,-37.0200972481671 174.834733827768,-37.0199276171297 174.834546136464,-37.0198196322157 174.834271981498,-37.019764163067 174.834227172455,-37.0196529724332 174.834259778733,-37.0194764403032 174.833975599525,-37.0191532961036 174.83353648613,-37.0189771703257 174.833410005226,-37.0188711622777 174.833042466208,-37.0184348625514 174.832820455414,-37.0179225563571 174.832707358754,-37.0178603022428 174.832432930584,-37.017864937857 174.83230215364,-37.0177115651652 174.832087406167,-37.0175707086158 174.831796662788,-37.0171983774092 174.831401417862,-37.0168694182629 174.831171435791,-37.0165974144229 174.83035529524,-37.0160814454186 174.829844925336,-37.0156428853172 174.828748708536,-37.0149039122564 174.828465019709,-37.0144915129626 174.828065308804,-37.0141516231374 174.82759065861,-37.0133734121279 174.827336636714,-37.0131533168547 174.827155776668,-37.0129113686061 174.82702145814,-37.0128672005931 174.826537684366,-37.0128626889194 174.826175425615,-37.0127778455903 174.825627764523,-37.0127732202436 174.825372860189,-37.012675743578 174.824937368997,-37.0126237151216 174.82482878885,-37.0121677348644 174.824233687009,-37.0117767840123 174.82367416278,-37.0111955159841 174.823255963828,-37.0109568199849 174.823593567296,-37.0106572288275 174.823615295331,-37.0104888609975 174.823539663749,-37.0102141517855 174.823593738044,-37.0099927671983 174.824099000664,-37.0098600546616 174.824009193614,-37.0099715471294 174.823640689596,-37.0101283017812 174.823674088722,-37.0102455127221 174.823885732797,-37.0103264259881 174.824358527426,-37.0102650520505 174.824852638199,-37.010099352925 174.825368754356,-37.0100435304393 174.826245838316,-37.0096076108172 174.82682622603,-37.0091766535897 174.827066381925,-37.0087761980247 174.827254825924,-37.0085898398164 174.827889113443,-37.008279767166 174.828140590483,-37.0082143121895 174.828263703231,-37.0082309930965 174.828210057178,-37.0080716462672 174.827377658772,-37.0083227931133 174.826882853212,-37.0085928341327 174.826281747067,-37.0090493851852 174.825972492008,-37.0092172387047 174.825007055471,-37.0095632960142 174.824801430702,-37.0095958794112 174.824199445532,-37.0095325589699 174.823721894105,-37.0092992529182 174.823452866316,-37.0092658183016 174.823320313517,-37.009293026394 174.822553127119,-37.0096760507836 174.821745338683,-37.0096727420983 174.82107826847,-37.0094555465598 174.820819200102,-37.0093049822286 174.820819708294,-37.0092354226485 174.820986046041,-37.0089483517163 174.82119729774,-37.0087656745831 174.821264368444,-37.0086413289333 174.821307921554,-37.008295454887 174.821372634071,-37.0081802540641 174.821838045275,-37.0078754088027 174.821948052018,-37.0074912113909 174.822498994065,-37.0070291037239 174.822549760727,-37.0069504863497 174.822515705242,-37.0069266396987 174.821957363285,-37.0073311687877 174.821573013312,-37.0077441500412 174.821167612817,-37.0079044332722 174.820739998656,-37.0085850734402 174.819992658892,-37.009045037548 174.819792745007,-37.0090814967624 174.819457670048,-37.0090610472249 174.81965845375,-37.0094083210193 174.81985794791,-37.0095028106306 174.819902306148,-37.0095787672688 174.819756105698,-37.0097092965963 174.81947969439,-37.0098119521369 174.819317743912,-37.0101153937215 174.819111856074,-37.0102119313562 174.81835705791,-37.0103082441774 174.817730293315,-37.0102796441173 174.817281379694,-37.0104239678377 174.816406694979,-37.0104195528163 174.816173323636,-37.0103435617151 174.815690368982,-37.010337241777 174.815293845133,-37.0100009273273 174.815020465142,-37.0098343770492 174.814592233742,-37.0098311875517 174.814667887229,-37.0097049656998 174.814613450398,-37.0095599978104 174.814773211871,-37.0094220757028 174.814869531193,-37.0088246478205 174.815386058647,-37.0084669162706 174.815399813075,-37.0083140156874 174.815511190115,-37.0081347378415 174.815484940316,-37.0080513198156 174.815265734295,-37.0080115601789 174.815100990604,-37.0076348508958 174.815079742794,-37.0066166012359 174.815543571781,-37.0063994161783 174.815695702207,-37.0062051872292 174.815844926088,-37.0061292020794 174.816264877021,-37.0055486918975 174.817068284095,-37.0055101258456 174.81733889376,-37.0056421368832 174.817328452847,-37.0055476739354 174.817196226768,-37.0053779713277 174.816975942494,-37.0052618528386 174.81723406677,-37.0049938655511 174.817394201149,-37.0048832360396 174.817589375293,-37.0048340864253 174.818156047134,-37.0044849422901 174.818287363197,-37.0042691009014 174.818832423458,-37.0043221058915 174.818924326308,-37.0038974868391 174.819315941323,-37.0035682051648 174.819463632626,-37.0035449732308 174.819694615901,-37.0036137031153 174.819810401868,-37.0035871375656 174.819362185492,-37.0031367373094 174.819171441584,-37.0030148890616 174.819066582488,-37.0030086227679 174.818771763195,-37.0030969059955 174.818419338609,-37.0031366350291 174.818313298578,-37.0032067528932 174.817950979935,-37.0031920096895 174.81749660382,-37.0035909988856 174.817028485083,-37.0038246033773 174.816973479362,-37.0039615345545 174.816812930569,-37.0040430879695 174.816708060497,-37.0041968439862 174.816123001813,-37.0042133110105 174.815802940574,-37.0042872854309 174.815078091354,-37.0048888841497 174.814738527665,-37.0050339732095 174.814184525764,-37.0051538072423 174.814024967551,-37.0053044556414 174.813644694391,-37.0054717387992 174.813516939772,-37.0056166159759 174.813453151068,-37.0056154142411 174.813342005524,-37.0054855098605 174.813101131923,-37.0053623115753 174.812821576505,-37.0051336197083 174.810788608906,-37.0056538704104 174.810401729882,-37.0050735547103 174.812309547533,-37.004556750073 174.812252472315,-37.0041300154291 174.812358188676,-37.0037125574151 174.812232129379,-37.0034955114283 174.812394257587,-37.0033630336545 174.81247349538,-37.0031694939714 174.812350710696,-37.0031833777003 174.812126223733,-37.0034128449235 174.811302361101,-37.0037771118941 174.811206304966,-37.0035852384335 174.811055497647,-37.0035502969992 174.810763215139,-37.0033348381839 174.810699362723,-37.0031663027521 174.810411720126,-37.0031162712193 174.81011419364,-37.0028517446233 174.810073784407,-37.0027302803182 174.810109291827,-37.002502602144 174.810285568524,-37.0022444939511 174.810262099236,-37.0021956256502 174.809871374711,-37.0022647936054 174.809730001681,-37.0022515752072 174.809520814879,-37.0021135128022 174.809334483111,-37.0021425699425 174.809141676244,-37.0020370785689 174.809062985703,-37.0021087424382 174.808937017194,-37.0018953462131 174.808977743772,-37.0017149232525 174.808888264136,-37.0016684652504 174.806143893165,-37.0016407309634 174.805804945479,-37.0011956173047 174.808875591717,-37.0012502739196 174.808901069053,-37.0011209348867 174.808835572588,-37.0008342002235 174.808716132024,-37.0007625833383 174.808544944713,-37.000735105732 174.808592803039,-37.000574603257 174.808828710693,-37.0003468711861 174.808900603415,-37.0006008067549 174.809460555723,-37.0007428226386 174.809325889129,-37.0003985555578 174.809314094474,-37.0000458288793 174.809360625147,-36.999954464814 174.809472900341,-36.9998406396153 174.809877604098,-36.9996312996186 174.809907104396,-36.9994619057236 174.810048024496,-36.9992805093042 174.809888396555,-36.9991037801781 174.80992807753,-36.9990106420208 174.810861813293,-36.9983671211645 174.811761459565,-36.9982149090976 174.812019359712,-36.9982561298424 174.812311857895,-36.9981642323602 174.812409186297,-36.9982851709188 174.812597361127,-36.9990326742387 174.812717940888,-36.9991861148638 174.812851080756,-36.9992612282495 174.812867659349,-36.9991446905791 174.812662421342,-36.998962956728 174.812595246544,-36.9987217050827 174.812686512349,-36.9982498059646 174.812848065068,-36.9979172645895 174.812792209027,-36.9975085987719 174.812619070985,-36.9973429108341 174.812940863259,-36.9969088504226 174.813058181584,-36.996831346366 174.813489961297,-36.9967672524348 174.813727620204,-36.9969868603198 174.814383818637,-36.9973352791193 174.814190828517,-36.9970534062485 174.814245595352,-36.9969001101391 174.814584633812,-36.9967204796457 174.81493080538,-36.9968845016381 174.814818304774,-36.9966582330683 174.814791496234,-36.9963729704365 174.815177369971,-36.996283812802 174.815293857334,-36.9961463086445 174.815432016278,-36.9960940808754 174.815557857289,-36.9959746634127 174.815759900807,-36.9959309117361 174.815835613685,-36.9958101699615 174.816035504971,-36.9957193289697 174.816511261064,-36.995601873601 174.816669840797,-36.9957040123129 174.817197353503,-36.995648076219 174.817490178059,-36.9960653937246 174.817476130704,-36.9961983062252 174.817386511364,-36.9963028210696 174.817552488805,-36.996283045745 174.817724083537,-36.9963414292982 174.817819063701,-36.996455093269 174.817849808412,-36.9966966935591 174.818130478776,-36.9960938729147 174.818406780811,-36.9959875677019 174.818532966717,-36.9960536545672 174.818794791633,-36.9960493254245 174.819110569471,-36.9963173163767 174.819523427963,-36.9963660921578 174.819928044274,-36.9966368691976 174.820049384029,-36.9968412096337 174.820051374232,-36.9973031301378 174.820209863026,-36.9970779377625 174.820278081464,-36.9967499205992 174.820508139537,-36.9965931476106 174.820262264852,-36.9964390764004 174.820156017259,-36.9961727500408 174.819890573339,-36.9959206688391 174.819279720937,-36.9957209760084 174.819152093353,-36.9953930171999 174.819255093191,-36.9952702019676 174.819466880038,-36.9952700004115 174.819790970734,-36.9954815063791 174.820295107382,-36.995543976745 174.820572314786,-36.9956613721441 174.821048057319,-36.9956477359799 174.821557125129,-36.9957462167076 174.822116732482,-36.9960163455913 174.822199834708,-36.9962013851824 174.822272510714,-36.9962472655983 174.823019894563,-36.9960778599391 174.823046294598,-36.9959260151404 174.822451401857,-36.9957774064208 174.82209239651,-36.9954667312817 174.821712562531,-36.9952544849102 174.821692928145,-36.9950435780392 174.821882357531,-36.9947822559808 174.821861021359,-36.9946659414282 174.82163112558,-36.9946613120621 174.821559463792,-36.9947586502412 174.821122856707,-36.9950513313145 174.820863821586,-36.9950220441835 174.820488187066,-36.9947091991623 174.819808024787,-36.9945992807521 174.819600164857,-36.9940720321859 174.819176192579,-36.9937214377808 174.819470941193,-36.993149380008 174.819898862115,-36.9928161211835 174.820173719697,-36.9927680348914 174.820593707454,-36.9929986395617 174.820722854828,-36.9929877990634 174.821164790052,-36.9927546986191 174.821518665754,-36.9926897397385 174.821695553333,-36.9925776892355 174.821911214016,-36.9925421382645 174.82242965934,-36.9921002319492 174.822702541311,-36.9919759160405 174.82316012105,-36.9919247448937 174.823351159703,-36.9920059900336 174.823670741671,-36.992359979125 174.823601566288,-36.9925930339667 174.823634790044,-36.9926551928726 174.823880814525,-36.9925363154409 174.824342591616,-36.9925392894031 174.824647301669,-36.9926292761529 174.82521164141,-36.9929369127511 174.825917263669,-36.9931074637083 174.826456630047,-36.9931456144459 174.826599091404,-36.9932078405623 174.826849898503,-36.9931023959316 174.826949243067,-36.9931402639453 174.826952129547,-36.9932904833757 174.82685212498,-36.993389126296 174.826843405283,-36.993515351996 174.827008267664,-36.9938068349737 174.826978223674,-36.9942324718738 174.82706109192,-36.9947805374329 174.826918528213,-36.9952976876589 174.827098183369,-36.9959026195544 174.827041837151,-36.9961276534312 174.826884990829,-36.9963689963302 174.827144274458,-36.9964829477295 174.827184629364,-36.996583700956 174.827110432859,-36.9967501267365 174.827360448595,-36.9968860402955 174.827384988296,-36.9969666185805 174.827288553126,-36.9973728160754 174.827804594843,-36.9976391369313 174.828246232241,-36.9980389294303 174.828185656475,-36.9976343112526 174.827899115618,-36.9968558697491 174.827903465407,-36.995916848833 174.827827811512,-36.9956439699737 174.827904068292,-36.9955104812483 174.828139839846,-36.9954010617265 174.828342567072,-36.9954471925477 174.828716395638,-36.9958194376699 174.828871594793,-36.9961345288811 174.828978231948,-36.9965410893966 174.82925275013,-36.9967612340797 174.829542595825,-36.9973987338815 174.830044062753,-36.997864730701 174.830539919,-36.9976663766497 174.830089387977,-36.9972586136085 174.829685970493,-36.9965744621699 174.829659282278,-36.9962460385914 174.829757083285,-36.9958756995808 174.82979023991,-36.9957967107546 174.829913062333,-36.9957277525761 174.830152345961,-36.9956780790177 174.830556189389,-36.9958159260408 174.831259441371,-36.9959300057107 174.831836011991,-36.9961869322828 174.832568044084,-36.9966384674037 174.833186650195,-36.9967126868553 174.831870167906,-36.9960482396697 174.831350374662,-36.9957337595872 174.830860641012,-36.9955610896437 174.83045941694,-36.995509259953 174.830182642754,-36.9953452335686 174.829880569505,-36.995308644315 174.829500624187,-36.9955140251891 174.82920237702,-36.9955463466127 174.82903678949,-36.9954462643917 174.82931253076,-36.9953816951542 174.829600827304,-36.995209789589 174.829736811419,-36.9950847470863 174.829882171708,-36.9948303391009 174.829750736831,-36.9949572088897 174.82957550631,-36.9950131658783 174.829473850216,-36.9950190117203 174.829074971372,-36.9948552139269 174.828739329756,-36.9949717824089 174.827841100771,-36.9944269191968 174.827674850157,-36.9942818262799 174.827668668569,-36.9942193800591 174.828128360159,-36.9941356313124 174.828479988247,-36.9942367537755 174.829050162629,-36.9941747440498 174.829395947463,-36.9940701590755 174.829613622513,-36.9941016804321 174.829760103557,-36.9940648572979 174.830195235711,-36.9933860204 174.830601624864,-36.9930531646339 174.830675635589,-36.992745083349 174.830894653263,-36.9925378951948 174.831206204664,-36.9917785016767 174.831673029728,-36.9915579942984 174.832140442684,-36.9914698550076 174.832406096077,-36.9913640839129 174.832607995599,-36.9911460635822 174.832949361449,-36.990894017384 174.83301914182,-36.990768765252 174.832990676961,-36.9906603773407 174.832770075872,-36.9905041056411 174.832952083361,-36.9903318155734 174.832945586198,-36.990196045245 174.83308438625,-36.9901198113176 174.83346927658,-36.9900569364141 174.833680704676,-36.9901150384315 174.833835764192,-36.9902177547217 174.834130666633,-36.9902515598602 174.834323646908,-36.9902233402077 174.834609151494,-36.9903873312558 174.835105610612,-36.9905488905959 174.835232091485,-36.9907651467442 174.83525253466,-36.9910862883935 174.835343607229,-36.9912032893187 174.835306636864,-36.9912470800819 174.835483197881,-36.9914700711373 174.835506125203,-36.9916666728655 174.835629248793,-36.9914624266696 174.835496500082,-36.9912808442075 174.835541851971,-36.9912012280441 174.835500414722,-36.9911266370747 174.835408242016,-36.9911041102531 174.835408366806,-36.9907636147397 174.835303916724,-36.9906061128248 174.835308152094,-36.9905281105601 174.835362484949,-36.9904595850533 174.835557242669,-36.9903808315838 174.835977171004,-36.9903712142215 174.836061746351,-36.9903192535673 174.836041897733,-36.9902677431315 174.835874614626,-36.9902245047046 174.835323835672,-36.9902588072556 174.834879831236,-36.9900773992684 174.834717769536,-36.989959998416 174.834435699602,-36.9898897670673 174.833860670146,-36.9899324197234 174.833055213734,-36.9898228844357 174.832750875996,-36.9896913601165 174.832712011088,-36.989632087714 174.832767923766,-36.9894242171274 174.832706477394,-36.9892884986274 174.832841179326,-36.9891384789412 174.833013175076,-36.9890825717354 174.833216512399,-36.9889244774173 174.833427308861,-36.9888671653498 174.834218534169,-36.9889866965768 174.834599560938,-36.9888958216253 174.834897282281,-36.9887426826707 174.83514369718,-36.9888044899535 174.835365015656,-36.9887746866508 174.835794614494,-36.9884403169887 174.835981330276,-36.9885136554254 174.836079053654,-36.988403412366 174.836296992627,-36.9878160002067 174.836731003619,-36.9875270059923 174.83702800098,-36.987995003023 174.83812900649,-36.9888700009292 174.838048001744,-36.9889560026916 174.83816800339,-36.9891299942217 174.838855995124,-36.9895469915805 174.838911993208,-36.9894839961893 174.840716001008,-36.9907749984122 174.844247994881,-36.9928739934103 174.844652992472,-36.9928269978292 174.844360000103,-36.9931259986667 174.84424399504,-36.9933699964007 174.846420992701,-36.9948400014395 174.846279007363,-36.9944009960567 174.84622999515,-36.994411003392 174.845812993916,-36.9931159953444 174.847403991986,-36.9925640002697 174.847449005795,-36.9926469972718 174.847729008489,-36.9925489993714 174.847665998933,-36.9924480049375 174.848714992749,-36.9921089942998 174.848553006989,-36.9917309966965 174.848468003096,-36.9917010001735 174.848906004581,-36.9915489975925 174.849153005476,-36.992006005848 174.850202999919,-36.9916420001997 174.850538997609,-36.9916080010131 174.850757996639,-36.9915319956998 174.851607007217,-36.9930300055604 174.851911999595,-36.993338006299 174.852385993709,-36.9941029998326 174.853193008338,-36.9939049948507 174.855301998094,-36.9929209957687 174.855350007045,-36.9927460043256 174.853967003847,-36.990778997232 174.855129994733,-36.9903760056016 174.855175002678,-36.9904520001086 174.855092008007,-36.9906410049654 174.855453005426,-36.9904999965409 174.855337998651,-36.9903040060914 174.856039991757,-36.9900599942335 174.857521005171,-36.9925180053746 174.859021004352,-36.9943920027426 174.859453993413,-36.9950300025594 174.860142993686,-36.9963740020505 174.860293997457,-36.9971360017335 174.860601991565,-36.9977199984263 174.860884999152,-36.9976210021505 174.86081500237,-36.9974499954065 174.861260004151,-36.9972539976646 174.861391005664,-36.9973489950242 174.861121997376,-36.9974400072254 174.861442992682,-36.998047007354 174.864808003183,-36.9976819930084 174.865456997778,-36.9992630029297 174.866205997673,-36.9990109946224 174.866824000607,-37.0000160014048 174.867646000187,-36.9997349994206 174.867907995102,-37.0002299972658 174.868801001886,-36.999924000998 174.869040002429,-37.0003129993516 174.869049008654,-37.0004630048367 174.868919006762,-37.0005710005595 174.869764000434,-37.00028000028 174.869537001436,-36.9999279951537 174.869431000436,-36.999898005841 174.869113995013,-37.0000220033196 174.869082997512,-36.9999720056429 174.869468005565,-36.9998220048467 174.869491997705,-36.9998579991885 174.870614002049,-36.999422005012 174.870522003357,-36.9992750015429 174.871206005238,-36.9990049922592 174.870133003632,-36.9972610025665 174.872353006311,-36.9970360038601 174.872509008134,-36.9971910009492 174.872802002979,-36.9972819987113 174.872847008334,-36.9974109994241 174.872983000591,-36.9973759920958 174.873110994601,-36.9974679935929 174.873248993899,-36.9974399989112 174.873362003477,-36.9975470037371 174.873231992168,-36.9976690051908 174.873276004386,-36.9977650037378 174.873577002697,-36.9978759940142 174.873685007986,-36.9979789973007 174.87397700168,-36.9980250037356 174.874203002807,-36.9980039975656 174.874385994708,-36.9977599978964 174.874506003749,-36.9977850007959 174.874600007911,-36.997898994159 174.874749999657,-36.9978759925988 174.874816002818,-36.9975899946013 174.874875001999,-36.9975730028761 174.874915996673,-36.9974680015706 174.87492400755,-36.997280005226 174.875215999454,-36.9973009973394 174.87540199939,-36.9972660027243 174.87544899743,-36.9973770024059 174.876074994033,-36.9978670041529 174.876549995545,-36.9975250039076 174.876770001198,-36.9977869976942 174.876710998177,-36.9979159915526 174.877028008813,-36.998201001296 174.877123003298,-36.9981829947033 174.877090001737,-36.9980269964053 174.877274996046,-36.998030994549 174.877341004307,-36.9979549992034 174.877131007309,-36.997698996008 174.877302007765,-36.9976309927271 174.877428993119,-36.9975099991655 174.877571006281,-36.9975389987173 174.877638999769,-36.9977830066718 174.877711000077,-36.9978479918374 174.877861000489,-36.9977210067487 174.878205998722,-36.9977669949112 174.878426002403,-36.9975459932587 174.878504995172,-36.997521992815 174.878569008767,-36.9975720015684 174.878622999128,-36.9978300044065 174.878796998709,-36.9980080042024 174.878870994348,-36.998276003811 174.878999007864,-36.9982749997247 174.879079999469,-36.9982180072955 174.879024995039,-36.9979360017931 174.879152998456,-36.997789993408 174.879219996878,-36.9978230063271 174.879433003138,-36.998180996983 174.879649992645,-36.9983170057972 174.879756004048,-36.9982590036848 174.879770992795,-36.99814700401 174.879562000791,-36.998082003588 174.879490997937,-36.997996992924 174.879510992323,-36.997807006695 174.879616996899,-36.9977199989122 174.880000004026,-36.9978399981672 174.88042800294,-36.9978219986108 174.880665007993,-36.9977509976713 174.880819994196,-36.997855002763 174.885317008484,-36.9963280034355 174.885355993172,-36.9960129979707 174.885450003776,-36.9960149959009 174.885678002028,-36.9961840048958 174.88641400637,-36.9961529995907 174.888090992546,-36.9962350010713 174.889678004286,-36.9966249939778 174.88921000236,-36.9969699927842 174.890090991635,-36.9973969977577 174.890710007039,-36.9980970042921 174.89372499703,-37.0019899917292 174.893678997707,-37.0020069980502 174.894309003962,-37.0029119993525 174.895370007678,-37.0041720058796 174.896503994123,-37.0056260006495 174.897017995476,-37.0060980069394 174.898244001235,-37.0070059985642 174.90244000852,-37.0096939917732 174.903221999449,-37.0102930050855 174.903979996843,-37.0111229928637 174.904842994456,-37.0127650056414 174.904984007761,-37.0132179975702 174.904869991656,-37.0135349993549 174.904663996964,-37.0136689991027 174.904549993696,-37.0136730050303 174.904726996261,-37.0140069964101 174.904770993092,-37.0139299920768 174.905282006714,-37.0135580010373 174.906802991904,-37.0164340020991 174.906967003651,-37.0163769984368 174.908009994236,-37.0180879995617 174.907002996957,-37.0184849981531 174.907245002117,-37.0194470027983 174.904829995576,-37.0202930000424 174.90510099629,-37.0208170021592 174.904012993409,-37.0211790055795 174.904077000311,-37.0213020072745 174.903870007791,-37.02137700184 174.903835993754,-37.0213110064198 174.903638005446,-37.0213809935562 174.90358099624,-37.0212769950386 174.902836999448,-37.0215390000098 174.90253200341,-37.0209509946856 174.902071991387,-37.0211129985675 174.902355003234,-37.0216569919571 174.901895004611,-37.021818995878 174.901548008905,-37.0211500006397 174.901073007666,-37.021317995757 174.901234994945,-37.0216289933893 174.90057199097,-37.02186199279 174.900500001656,-37.0217850023199 174.900298007043,-37.0222209992842 174.900155996787,-37.0220700031042 174.900011991693,-37.0221900025581 174.89969500185,-37.021854998022 174.899546008966,-37.0219230022528 174.899614996806,-37.0220409947422 174.899271714236,-37.0221646916052 174.899238000043,-37.0221286502154 174.898832999835,-37.0224169923554 174.898997002271,-37.0225440014411 174.898818434145,-37.0226058491292 174.899011001258,-37.0227490056566 174.899578998426,-37.0225529952552 174.8998699996,-37.0230279972943 174.900064995082,-37.0231580073397 174.900709991839,-37.0242880062313 174.901121001258,-37.0241430062869 174.901472998203,-37.024758995058 174.901166997331,-37.0248839989174 174.901273001754,-37.0250250030601 174.900759996171,-37.0252339926582 174.90099500051,-37.0256179983742 174.901019992972,-37.0255459930637 174.901572008386,-37.0253209999067 174.901799006283,-37.0255849960506 174.902033994179,-37.0255149945644 174.902198994057,-37.0257349991178 174.901909996653,-37.0258739998523 174.902673003185,-37.0268920009306 174.903076004164,-37.0267519986261 174.903448993158,-37.0272520009512 174.902752997165,-37.0275749999927 174.902991998783,-37.0278950008012 174.903193994469,-37.0278239994311 174.903434997181,-37.0283529941705 174.903384995155,-37.0283710032365 174.90346200606,-37.0285089995496 174.90347699926,-37.0288700038947 174.908489004292,-37.0328250036412 174.90868899927,-37.0328600070443 174.908680006922,-37.0327979999377 174.908830006114,-37.0327630006019 174.908790005428,-37.0328950059856 174.908880999041,-37.0329809956495 174.908933001079,-37.0329309992041 174.9088689973,-37.0328749967991 174.908906000859,-37.0327839919632 174.909285997056,-37.032396998658 174.909420000902,-37.0320110007521 174.909743360161,-37.0316252385613 174.909686447718,-37.0337159379929 174.909763237554,-37.0341724904054 174.909248964872,-37.0337622231427 174.90919553081,-37.0338086060321 174.908725422237,-37.033434818568 174.908565420848,-37.0334537490264 174.908282649294,-37.0333268025953 174.908059149606,-37.0334491667569 174.907931882839,-37.0334469327342 174.907696982581,-37.0332125172392 174.907415416459,-37.0331545996795 174.906615632629,-37.0334345166417 174.906899954971,-37.0337150235912 174.906623466008,-37.0338951485991 174.906501749447,-37.0345326167171 174.905436216868,-37.0351101501781 174.905271449356,-37.0358046668934 174.905309499777,-37.036124133267 174.905186166532,-37.0364648506078 174.904879917317,-37.0366338832833 174.904574349915,-37.0366228155836 174.904292966694,-37.0367183674143 174.903941516923,-37.0366886333337 174.903790399853,-37.0365108170451 174.90366638315,-37.036606698597 174.903456866019,-37.0370524837989 174.903450483165,-37.0372763329478 174.90329996648,-37.0374532993904 174.903076416476,-37.0376105660686 174.90293801716,-37.0379944833171 174.9028408001,-37.0380974833463 174.90173430004,-37.0384395666746 174.901625465935,-37.038531849867 174.901590299429,-37.0387127168627 174.901644217423,-37.0388485498307 174.902132316471,-37.0393548001498 174.901937166819,-37.0396477496549 174.901564816661,-37.0399210831252 174.900414433703,-37.0406057830809 174.900272959392,-37.0407721683302 174.900060050051,-37.0408642662426 174.899906007228,-37.0410110057898</coordinates></LinearRing></outerBoundaryIs></Polygon>
  </Placemark>
</Folder>
</Document></kml>
