<?xml version="1.0" encoding="utf-8" ?>
<kml xmlns="http://www.opengis.net/kml/2.2">
<Document id="root_doc">
<Folder><name>Manukau_Clover_Goodwood_Totara.final</name>
  <Placemark id="Manukau_Clover_Goodwood_Totara.final.1">
	<name>Joined Boundary</name>
	<description></description>
	<Style><LineStyle><color>ff0000ff</color></LineStyle><PolyStyle><fill>0</fill></PolyStyle></Style>
      <Polygon><outerBoundaryIs><LinearRing><coordinates>174.906029686532,-36.9986896207165 174.90531167953,-36.999974610613 174.90629766971,-37.0018216144315 174.906773672853,-37.0018876042642 174.907137663568,-37.0021116002981 174.907838664283,-37.0033515998171 174.907227670079,-37.0035606008418 174.907272661004,-37.0036426010806 174.903300688053,-37.0050025967375 174.903694685231,-37.0057305996139 174.903534688025,-37.0057955981458 174.90298968212,-37.0059745933849 174.902499685758,-37.0060445935855 174.902150700277,-37.0061705905748 174.901954687995,-37.0061885989644 174.90148268943,-37.0061236029799 174.901046707563,-37.0062285944301 174.900814692871,-37.0062076006185 174.900491701264,-37.0062535938663 174.900014697679,-37.0065496066917 174.899289710007,-37.0064146027953 174.899061701631,-37.0064515980416 174.897992189926,-37.0068177337314 174.897017995476,-37.0060980069394 174.896503994123,-37.0056260006495 174.896084001933,-37.0051349963109 174.895370007678,-37.0041720058796 174.894309003962,-37.0029119993525 174.893678997707,-37.0020069980502 174.89372499703,-37.0019899917292 174.890710007039,-36.9980970042921 174.890090994593,-36.9973970011027 174.8638626,-37.0027465 174.8566528,-36.9975369 174.8623176,-36.9904074 174.8702141,-36.9873908 174.8676391,-36.9799861 174.8746773,-36.9761464 174.881185,-36.979247 174.881578007279,-36.9800479299478 174.882068008378,-36.9798340053188 174.881682003742,-36.9791149974197 174.882247007312,-36.9789799959876 174.88315800649,-36.9791499983681 174.883834001788,-36.9765869950795 174.883412999225,-36.9765119964109 174.883475001519,-36.9762839993436 174.88372599426,-36.9762560013889 174.883817995879,-36.9759550004311 174.884223996788,-36.9760409921079 174.884307000535,-36.9757420065604 174.884470001335,-36.9757710022806 174.884503000957,-36.9755909931089 174.884626000693,-36.9755290046284 174.884850005769,-36.9755549986584 174.884926997104,-36.975653993551 174.885283001641,-36.9756639929871 174.885383994605,-36.9753029920105 174.88583199902,-36.9753139988017 174.885914999373,-36.9743639992084 174.886152000632,-36.9739449920267 174.886557000842,-36.9740179984486 174.886436007027,-36.9743239985696 174.886584002611,-36.9740240000958 174.886883995408,-36.9742160007842 174.887001999424,-36.9745190019687 174.886988081064,-36.9748891066348 174.886860873404,-36.9750860329164 174.88684845541,-36.9754158449476 174.88672878399,-36.9754129650658 174.886718001086,-36.9756985165735 174.887925768354,-36.9757277218367 174.887940051408,-36.9753488758612 174.888128992245,-36.9753530058727 174.888139996849,-36.9750650019001 174.888610991831,-36.9750770060455 174.888597997298,-36.9754209986408 174.889858007857,-36.9754510041226 174.889867003995,-36.9752090006648 174.89016099559,-36.9751199924066 174.89014800021,-36.9754579922883 174.89108199926,-36.9754800000425 174.89134000458,-36.9751960005807 174.891589004517,-36.9753499958421 174.891481007032,-36.9754899995842 174.892233007443,-36.9755080018194 174.892269992542,-36.9754769983568 174.892915003788,-36.9756629990198 174.892908003166,-36.9758470003292 174.892992197268,-36.9758491176042 174.893230335155,-36.9755868659363 174.893390969403,-36.9756807200914 174.89340602325,-36.9757575355749 174.894084443002,-36.9758611570433 174.894374991545,-36.9748100024067 174.895159004103,-36.9753169996545 174.895371008093,-36.9751070061857 174.895423000299,-36.9751410015548 174.89521200059,-36.9753509925977 174.895761994632,-36.9757070045822 174.896240995727,-36.9758880036237 174.896419993566,-36.9756480011116 174.896272005429,-36.9759000039173 174.896726007043,-36.9760710001889 174.897954001194,-36.9767990043161 174.897917992162,-36.9769309981575 174.897583004144,-36.9767320045636 174.897526007902,-36.976749995643 174.89739100138,-36.9772449968346 174.897813008305,-36.9773180070902 174.897684002186,-36.977782996381 174.89758399637,-36.9778489938918 174.898018000438,-36.9779169922504 174.898033995267,-36.9778549950239 174.898396004134,-36.9779190068108 174.898353007143,-36.9780790008187 174.898663993148,-36.9782009933653 174.898726008764,-36.9779769977278 174.8990769932,-36.9780390017269 174.898952991318,-36.978514003239 174.899290002813,-36.9785749980552 174.899724995462,-36.9788690069991 174.899806001145,-36.9790209975598 174.900011004481,-36.9791420006903 174.899955992629,-36.9793410023945 174.901993005045,-36.980547997403 174.901932004559,-36.9807500008215 174.901814002378,-36.980680001779 174.90159700401,-36.9809180018863 174.901368996014,-36.9817250057292 174.901476993712,-36.9817430059257 174.901408999391,-36.9819950003748 174.901592005517,-36.9820269974139 174.901673995864,-36.9819849932079 174.90156300642,-36.9823759994063 174.901211998728,-36.9823120034495 174.901183005193,-36.9824149934385 174.900699002806,-36.9823030029453 174.900606007329,-36.9826439931749 174.901094995876,-36.9827299996699 174.900965007114,-36.9831890005477 174.901316000727,-36.9832529974057 174.901267006583,-36.9834290027661 174.900915993884,-36.9833649925602 174.900822999915,-36.9836939945985 174.900608002368,-36.9841189956448 174.90128160536,-36.9843326969914 174.901592713428,-36.9843308921088 174.901681000176,-36.9841070059849 174.901913996209,-36.9841480030971 174.902543991892,-36.9840600022158 174.903392003522,-36.9837349999323 174.907191998557,-36.9838959988504 174.907604991533,-36.9842299997352 174.907462994027,-36.9842800054322 174.907429999618,-36.9843340021356 174.907475005607,-36.9843519943713 174.90694899227,-36.9851730043269 174.906336996376,-36.9849359916713 174.90629099806,-36.9849860058834 174.906130996602,-36.9848609978476 174.905149003502,-36.985798001742 174.904836993927,-36.9856969977559 174.904698997869,-36.985856004843 174.904549998086,-36.9858109920077 174.904301999796,-36.9866009930014 174.903890993435,-36.9888280032876 174.903331728964,-36.9889336740258 174.903510695308,-36.9892626580216 174.903426702801,-36.9901746551328 174.903398310953,-36.9904735455485 174.903186716904,-36.9904886707055 174.903121725533,-36.9911926667342 174.90471470262,-36.992589647902 174.905114695413,-36.9949216316418 174.906527994152,-36.9977109977351 174.906117002392,-36.9984460015458 174.905812005212,-36.9982440071132 174.905604003395,-36.9981440032703 174.906148678397,-36.9984756115851 174.906029686532,-36.9986896207165</coordinates></LinearRing></outerBoundaryIs></Polygon>
  </Placemark>
</Folder>
</Document></kml>
