<?xml version="1.0" encoding="utf-8" ?>
<kml xmlns="http://www.opengis.net/kml/2.2">
<Document id="root_doc">
<Folder><name>Manurewa_East.final</name>
  <Placemark id="Manurewa_East.final.1">
	<name>Joined Boundary</name>
	<description></description>
	<Style><LineStyle><color>ff0000ff</color></LineStyle><PolyStyle><fill>0</fill></PolyStyle></Style>
      <Polygon><outerBoundaryIs><LinearRing><coordinates>174.90972,-37.031648 174.909743,-37.031625 174.910368,-37.032126 174.910754,-37.032119 174.912951,-37.031768 174.913842,-37.031428 174.914347,-37.031092 174.914756,-37.030683 174.917861,-37.026876 174.918268,-37.026544 174.918832,-37.026284 174.919196,-37.02626 174.919547,-37.026338 174.920501,-37.026915 174.922113,-37.027778 174.922656,-37.028011 174.923245,-37.028157 174.923857,-37.02821 174.92447,-37.028167 174.925385,-37.027939 174.925355,-37.02787 174.925875,-37.027645 174.9262,-37.027725 174.926195,-37.026938 174.926412,-37.02654 174.926364,-37.026352 174.926462,-37.025985 174.926475,-37.02552 174.926858,-37.025177 174.927128,-37.025093 174.927363,-37.024867 174.927324,-37.024617 174.926987,-37.024259 174.926881,-37.023986 174.927541,-37.023594 174.928081,-37.023829 174.928223,-37.023167 174.929435,-37.023554 174.931501,-37.022601 174.932043,-37.022881 174.931988,-37.023159 174.932443,-37.023497 174.932672,-37.023415 174.932432,-37.022883 174.932597,-37.022644 174.931561,-37.020537 174.939944,-37.017878 174.939437,-37.0168 174.939627,-37.01669 174.939852,-37.017168 174.94047,-37.016946 174.9406,-37.017223 174.941424,-37.016924 174.941624,-37.01735 174.945748,-37.016068 174.944773,-37.014713 174.944875,-37.014676 174.945886,-37.01608 174.945864,-37.016273 174.947016,-37.01833 174.949777,-37.017534 174.951922,-37.021995 174.956558,-37.020619 174.954353,-37.015985 174.958393,-37.014834 174.95694,-37.011765 174.954361,-37.006542 174.957096,-37.003161 174.957727,-37.002701 174.959581,-37.002046 174.95954,-37.001868 174.941852,-36.996566 174.941854,-36.996535 174.938911,-36.995767 174.938699,-36.995795 174.936393,-36.995161 174.937465,-36.991929 174.93895,-36.987164 174.93477,-36.985935 174.934898,-36.985535 174.934405,-36.985188 174.934135,-36.985063 174.933853,-36.985041 174.933518,-36.985101 174.933266,-36.9852 174.932812,-36.985174 174.932571,-36.985256 174.93249,-36.985253 174.932202,-36.984995 174.93211,-36.984981 174.931851,-36.985099 174.931772,-36.985078 174.931656,-36.984939 174.931596,-36.984625 174.931441,-36.984595 174.93121,-36.984734 174.931049,-36.984739 174.930999,-36.984643 174.931164,-36.984541 174.931202,-36.984464 174.931039,-36.98423 174.930606,-36.98402 174.930444,-36.984104 174.930373,-36.984231 174.930265,-36.984213 174.930154,-36.984134 174.930127,-36.983995 174.929998,-36.98381 174.929692,-36.984116 174.928689,-36.987887 174.9196,-36.986246 174.919415,-36.986079 174.918557,-36.989183 174.918421,-36.989259 174.915784,-36.988968 174.915505,-36.989447 174.915537,-36.989477 174.914048,-36.989365 174.913975,-36.989519 174.913783,-36.989461 174.913856,-36.989307 174.912289,-36.988829 174.910408,-36.988804 174.910378,-36.990254 174.909813,-36.990247 174.909806,-36.99056 174.908747,-36.990546 174.907979,-36.99146 174.906506,-36.988753 174.906073,-36.988748 174.904503,-36.98908 174.904615,-36.98946 174.904628,-36.990386 174.903187,-36.990489 174.903122,-36.991193 174.904715,-36.99259 174.905115,-36.994922 174.906528,-36.997711 174.905312,-36.999975 174.906298,-37.001822 174.906774,-37.001888 174.907138,-37.002112 174.907839,-37.003352 174.907228,-37.003561 174.907273,-37.003643 174.903301,-37.005003 174.903695,-37.005731 174.903535,-37.005796 174.90299,-37.005975 174.9025,-37.006045 174.902151,-37.006171 174.901955,-37.006189 174.901483,-37.006124 174.901047,-37.006229 174.900815,-37.006208 174.900492,-37.006254 174.900015,-37.00655 174.89929,-37.006415 174.899062,-37.006452 174.897992,-37.006818 174.90244,-37.009694 174.903222,-37.010293 174.90398,-37.011123 174.904843,-37.012765 174.904984,-37.013218 174.90487,-37.013535 174.904664,-37.013669 174.90455,-37.013673 174.904666,-37.013857 174.903588,-37.014308 174.907196,-37.019201 174.907245,-37.019447 174.90483,-37.020293 174.905101,-37.020817 174.904013,-37.021179 174.904077,-37.021302 174.90387,-37.021377 174.903836,-37.021311 174.903638,-37.021381 174.903581,-37.021277 174.902837,-37.021539 174.902532,-37.020951 174.902072,-37.021113 174.902355,-37.021657 174.901895,-37.021819 174.901548,-37.02115 174.901073,-37.021318 174.901235,-37.021629 174.900572,-37.021862 174.9005,-37.021785 174.900298,-37.022221 174.900156,-37.02207 174.900012,-37.02219 174.899695,-37.021855 174.899546,-37.021923 174.899615,-37.022041 174.899272,-37.022165 174.899238,-37.022129 174.898833,-37.022417 174.898997,-37.022544 174.898818,-37.022606 174.899011,-37.022749 174.899579,-37.022553 174.89987,-37.023028 174.900065,-37.023158 174.90071,-37.024288 174.901121,-37.024143 174.901473,-37.024759 174.901167,-37.024884 174.901273,-37.025025 174.90076,-37.025234 174.900995,-37.025618 174.90102,-37.025546 174.901572,-37.025321 174.901799,-37.025585 174.902034,-37.025515 174.902199,-37.025735 174.90191,-37.025874 174.902673,-37.026892 174.903076,-37.026752 174.903383,-37.027162 174.903449,-37.027252 174.902753,-37.027575 174.902992,-37.027895 174.903194,-37.027824 174.903435,-37.028353 174.903385,-37.028371 174.903462,-37.028509 174.903477,-37.02887 174.908489,-37.032825 174.908689,-37.03286 174.90868,-37.032798 174.90883,-37.032763 174.90879,-37.032895 174.908881,-37.032981 174.908933,-37.032931 174.908869,-37.032875 174.908906,-37.032784 174.909286,-37.032397 174.90942,-37.032011 174.90972,-37.031648</coordinates></LinearRing></outerBoundaryIs></Polygon>
  </Placemark>
</Folder>
</Document></kml>
