<?xml version="1.0" encoding="utf-8" ?>
<kml xmlns="http://www.opengis.net/kml/2.2">
<Document id="root_doc">
<Folder><name>Meadowbank.final</name>
  <Placemark id="Meadowbank.final.1">
	<name>Meadowbank (polygon: official_shp)</name>
	<description></description>
	<Style><LineStyle><color>ff0000ff</color></LineStyle><PolyStyle><fill>0</fill></PolyStyle></Style>
      <Polygon><outerBoundaryIs><LinearRing><coordinates>174.83228230432,-36.8653361656091 174.835158992518,-36.8657690064109 174.837827995431,-36.8667309981398 174.840797993945,-36.8681509942779 174.840934005719,-36.8679640004277 174.843934992345,-36.8691250049704 174.843509004363,-36.8698450008268 174.842954997631,-36.8696290046252 174.842914992621,-36.8701830072428 174.84327300004,-36.8710339982131 174.844179090973,-36.8716291025579 174.844091468856,-36.8718630329351 174.844009005398,-36.8718799960046 174.843876993315,-36.8720230039402 174.84363300671,-36.871862993249 174.843370995621,-36.8721000049254 174.842935997424,-36.8717900067278 174.842399993758,-36.8720790068399 174.842102001389,-36.870824000401 174.841930998209,-36.8706640064032 174.841676008075,-36.8706249936868 174.841695002459,-36.8704459959448 174.841123995085,-36.8704639951511 174.84104700632,-36.8709779924113 174.840467998903,-36.8713110060465 174.840274996681,-36.871483999322 174.839771997952,-36.87200599694 174.839800993156,-36.8721199953709 174.839560993136,-36.872235994025 174.839409006248,-36.872189004707 174.839566994477,-36.8719010015848 174.838317007846,-36.8715299993748 174.837884000245,-36.8725329922908 174.837793007117,-36.8724080043425 174.837399003329,-36.8724929918417 174.83706299422,-36.8724650016572 174.837005999098,-36.8729030007412 174.836573001606,-36.8728670024282 174.836271993287,-36.8730639947384 174.836296990965,-36.8731309982329 174.835867000025,-36.8730949923494 174.835810746146,-36.8729916171804 174.836042001409,-36.8726140009472 174.836072007048,-36.8723829964431 174.83304200512,-36.8721320028665 174.833005992188,-36.8724139976265 174.832661464274,-36.8723853043713 174.832628004358,-36.8727110066979 174.832210780994,-36.8726420001135 174.832090463536,-36.872679685276 174.831987995605,-36.8723199978593 174.831504996328,-36.872471992046 174.831711003906,-36.8705329921472 174.831024996586,-36.8705759926072 174.831137996505,-36.8717620063567 174.831034007262,-36.8725920010885 174.829318550467,-36.8729894996765 174.829396565016,-36.8732067544094 174.829196776464,-36.8732519371971 174.829257991414,-36.873375998708 174.829080005085,-36.8734170014375 174.829039993482,-36.8734830045828 174.828875994414,-36.8735209975465 174.828328007449,-36.8730790006424 174.828043001552,-36.8735699967716 174.827646008234,-36.8734220026807 174.827592006401,-36.8740020063237 174.827859995654,-36.8741020010475 174.827507317341,-36.8746306662767 174.8272953838,-36.874548066033 174.82711899476,-36.874654006644 174.827428001483,-36.8749990053505 174.827022737468,-36.8752426266932 174.827372433286,-36.8756179830617 174.826963003369,-36.8757830036027 174.826847000171,-36.8756589830246 174.826669483274,-36.875765700154 174.826544007313,-36.8756300057449 174.826146001353,-36.8758640071044 174.82621800699,-36.8759969924419 174.825812007944,-36.8762170043059 174.825794992282,-36.8763859925562 174.825564002233,-36.8764509959364 174.82511400801,-36.8764250002518 174.824771996033,-36.8766369997172 174.824560003198,-36.87558199359 174.824262999355,-36.8751659943024 174.824005996574,-36.8750269942659 174.823470994433,-36.8752109955721 174.823204992799,-36.8746750027215 174.822446007072,-36.8749360068575 174.822089006254,-36.8742650057469 174.822530005406,-36.8741130043313 174.822635008012,-36.874309006353 174.823121994675,-36.874188001642 174.823054999224,-36.874080993168 174.823233993587,-36.8740189982089 174.822793996969,-36.8731530029182 174.822394999263,-36.8732899991701 174.822249999469,-36.8732829953598 174.822100996667,-36.8728480031579 174.821978998309,-36.8728639943915 174.821824004216,-36.8724599985922 174.822392000072,-36.8721379975944 174.822008008874,-36.8720059954449 174.820909992678,-36.8718680040599 174.82000099639,-36.8714330009291 174.819636007578,-36.8713939915993 174.819378993903,-36.8712630041544 174.819337995006,-36.8707909939442 174.819058007686,-36.8697589988565 174.819037000424,-36.8689930032074 174.818550998133,-36.8676270052917 174.818607996787,-36.8666350061609 174.818547997989,-36.8664779943799 174.818225999534,-36.8660340006381 174.818190997055,-36.8657640068515 174.818370250616,-36.8655852897717 174.818650722048,-36.865502659438 174.819107456306,-36.8655062467013 174.821361623827,-36.8660100812713 174.822937189581,-36.8659078489548 174.825978255734,-36.8650191827712 174.828101867093,-36.8648064070065 174.83040459431,-36.8648481829883 174.831057446433,-36.8649218542704 174.831781271599,-36.8652268185547 174.83228230432,-36.8653361656091</coordinates></LinearRing></outerBoundaryIs></Polygon>
  </Placemark>
</Folder>
</Document></kml>
