<?xml version="1.0" encoding="utf-8" ?><kml xmlns="http://www.opengis.net/kml/2.2"><Document id="root_doc"><Folder><name>Mellons_Bay.final</name><Placemark id="Mellons_Bay.final.1"><name>Mellons Bay (polygon: official_shp)</name><description></description><Style><LineStyle><color>ff0000ff</color></LineStyle><PolyStyle><fill>0</fill></PolyStyle></Style><Polygon><outerBoundaryIs><LinearRing><coordinates>174.922020911,-36.8787328499999 174.92222876,-36.878610517 174.922500882,-36.878187918 174.92264602,-36.878070204 174.923137779,-36.8781549949999 174.923700742,-36.878375298 174.924029146,-36.8784433939999 174.924331066,-36.878093459 174.924671939,-36.8780826879999 174.924913184,-36.878166619 174.925487373,-36.879126324 174.926147808,-36.879677836 174.926889633,-36.880091862 174.928008437,-36.880949792 174.928485359,-36.8815199479999 174.929191437,-36.882100438 174.929458772,-36.8826355139999 174.929975658,-36.883031907 174.931662877,-36.8841500929999 174.932945006,-36.884824822 174.934540884,-36.885407288 174.936343747,-36.8859563499999 174.936486386,-36.8860430559999 174.936604280669,-36.8863237111947 174.936951164,-36.8865755269999 174.938165272716,-36.8872232110658 174.939090701,-36.887820677 174.939379896,-36.8881300899999 174.939563729,-36.8886450589999 174.939988149205,-36.8892234856253 174.940071040327,-36.8893020351235 174.940312013,-36.889237712 174.940397655601,-36.8892871531982 174.94049522469,-36.8897176873941 174.940473965453,-36.8900512180338 174.940559500443,-36.8901626003006 174.940658725151,-36.8905080752238 174.940602533493,-36.8906876850501 174.940684561261,-36.8909183358789 174.940668700473,-36.8912110686459 174.940773592766,-36.8921797777225 174.940617996163,-36.892234795309 174.940054253149,-36.8922385837757 174.939953670911,-36.8923704222202 174.939748900432,-36.892466635064 174.939633772054,-36.892761614238 174.939338504694,-36.8925315224352 174.939131201403,-36.8925696859017 174.939005203066,-36.8925329655689 174.938892094229,-36.8925737450852 174.938566007762,-36.8924293844309 174.938251698559,-36.8921701754261 174.937715308403,-36.8920448077886 174.937472301129,-36.891933382842 174.937194403051,-36.8919230328733 174.936928294915,-36.8928768529381 174.936808098737,-36.8930321156125 174.936861405384,-36.8937274547406 174.936590596764,-36.8937186354409 174.935016703398,-36.894303187276 174.934983995189,-36.8942066053107 174.934772609004,-36.8942896861622 174.934840303399,-36.894364471435 174.934413391382,-36.8945154972149 174.934086503683,-36.8945459130072 174.934079602633,-36.8946548041036 174.93375529333,-36.8946859467302 174.933742999766,-36.8946360040503 174.933359302404,-36.8946512966095 174.933327604116,-36.8945349346074 174.933052902637,-36.8944812004424 174.932997492886,-36.8940802492992 174.932075206528,-36.8940934810985 174.931715201919,-36.8938620968564 174.931888305502,-36.8932703444222 174.931730606007,-36.8931993357724 174.931607205988,-36.8933766266825 174.931424303684,-36.8932500828558 174.931106394617,-36.893541955561 174.930896205902,-36.8933907637263 174.930975699291,-36.8933868026573 174.931454891864,-36.8929466967881 174.930993403472,-36.8926134218057 174.931568593617,-36.8917983850838 174.930948398275,-36.8913517155446 174.93063909844,-36.8916272035465 174.930201699565,-36.8913163550357 174.929625398563,-36.8917864249216 174.929444994141,-36.8916580833859 174.929243791056,-36.891837984958 174.929048302301,-36.8916992099258 174.928854994147,-36.8918720938806 174.928538995941,-36.891118999407 174.929375991649,-36.8903839977743 174.928844586093,-36.8897383152177 174.928482997284,-36.8897339932279 174.92816299838,-36.8895329975885 174.927916995118,-36.8897859925995 174.925774007529,-36.8882590069809 174.925944996007,-36.88824799675 174.925999007746,-36.8877070071443 174.926226997371,-36.8873769941151 174.926421007939,-36.8872910016277 174.926802362714,-36.8869954677375 174.926454094841,-36.8867979000839 174.926216201089,-36.8867933161694 174.925247806173,-36.8857546170556 174.924461889349,-36.8862327505853 174.924173504013,-36.8859312890654 174.923202597467,-36.8866716267991 174.922666598488,-36.8862180260399 174.92219599157,-36.8865373446727 174.922025407968,-36.8867834073398 174.921549455426,-36.8865432316425 174.921299991377,-36.8864499938883 174.921192996674,-36.8864579993519 174.920968996363,-36.8863410004324 174.921143993634,-36.8861219930039 174.920904006211,-36.8859530067279 174.92113600449,-36.8856649974382 174.920464992394,-36.8853169960419 174.920725993919,-36.8849919990491 174.919861002433,-36.8845440070132 174.919719001157,-36.8850439987751 174.919498995647,-36.8850040050043 174.919614993792,-36.8845940075566 174.919266001396,-36.8845290022183 174.91915999221,-36.8842540058089 174.919260004168,-36.8839030049116 174.918419998499,-36.8833410061225 174.918873000384,-36.8817510072289 174.919605993854,-36.8818860005747 174.920325007276,-36.8820900030423 174.920585006491,-36.8811730070519 174.919928996486,-36.8810530037556 174.919764007883,-36.8808710053296 174.918779997344,-36.8806900019546 174.918880007133,-36.8803390012619 174.918804995909,-36.8801400065875 174.918911996904,-36.8797630025509 174.919567992906,-36.8798829956547 174.920025992654,-36.8796089959442 174.920177002311,-36.8794300022345 174.920707006028,-36.8797180059453 174.92101599541,-36.8796579924372 174.921242927728,-36.8788592697032 174.921428425973,-36.8788938194373 174.921651775822,-36.8788670618297 174.921769355163,-36.8787713510414 174.922020911,-36.8787328499999</coordinates></LinearRing></outerBoundaryIs></Polygon></Placemark></Folder></Document></kml>