<?xml version="1.0" encoding="utf-8" ?><kml xmlns="http://www.opengis.net/kml/2.2"><Document id="root_doc"><Folder><name>Mount_Wellington.final</name><Placemark id="Mount_Wellington.final.1"><name>Mount Wellington (polygon: official_shp)</name><description></description><Style><LineStyle><color>ff0000ff</color></LineStyle><PolyStyle><fill>0</fill></PolyStyle></Style><Polygon><outerBoundaryIs><LinearRing><coordinates>174.855055893761,-36.9057747568683 174.855310505511,-36.905837598583 174.855493913251,-36.9060113929567 174.855642096737,-36.9064476315588 174.855926783304,-36.9069093165489 174.856316595222,-36.9073058170908 174.856435492393,-36.9075710570232 174.856557754663,-36.907663976879 174.856610943668,-36.907835693061 174.856742535393,-36.9079076228566 174.856668738055,-36.9080613021788 174.856738351876,-36.9083797989748 174.856972763068,-36.9087485438881 174.856932030956,-36.9088986490669 174.856623665063,-36.9091415195805 174.856577222226,-36.9093858842124 174.85660918324,-36.9097251944119 174.856518872299,-36.9099584203125 174.856183123434,-36.9100191708808 174.856275787974,-36.9102091006163 174.856469627229,-36.9103250706966 174.856559004286,-36.9105620447837 174.856434234784,-36.9110890016906 174.85648659394,-36.9111060492612 174.856521713681,-36.9112375008875 174.856561960824,-36.9119864365833 174.856490744425,-36.9121113132768 174.856084307379,-36.9123151730435 174.85585678769,-36.9123314211051 174.855171019673,-36.9121369960707 174.854826271565,-36.9119932379713 174.85482692677,-36.9117581805727 174.854643723951,-36.9116112678509 174.854614917118,-36.911460379156 174.854371996861,-36.9113704942232 174.854133097722,-36.9115464815797 174.854108136157,-36.9116023549676 174.854192890889,-36.9116748934249 174.854029046746,-36.911630663645 174.853866555517,-36.9116922026896 174.853465826107,-36.9117298270512 174.853360972427,-36.9117736012014 174.853326845953,-36.9118651115868 174.853072632254,-36.9119714525911 174.852935482944,-36.9121099438624 174.8528762401,-36.9124071504278 174.852792597381,-36.9125467328598 174.852646658366,-36.9126500804149 174.852416026235,-36.9127052472523 174.852389447561,-36.9130343674004 174.852639570013,-36.9129793454208 174.852896626782,-36.9129865376587 174.85326928868,-36.9127702772537 174.853369512577,-36.9125199406595 174.853235869564,-36.912257893278 174.853410455398,-36.9121843301482 174.853531021616,-36.9120464198285 174.853779052526,-36.9120886881702 174.854094165776,-36.912044050434 174.854219458448,-36.9120709465804 174.854311908625,-36.9121693697799 174.85405862101,-36.912225534359 174.853700763689,-36.912465082559 174.853291143819,-36.9129717894398 174.853204499923,-36.913155715435 174.852844891787,-36.9134796180701 174.852689487149,-36.9137985351226 174.852593983426,-36.914373752604 174.8517904249,-36.9144381382604 174.85152813276,-36.9145207331553 174.851511732247,-36.9144801606882 174.851254288518,-36.9146227309879 174.851235862382,-36.914709200992 174.85132468907,-36.9148442686016 174.851665905315,-36.9150219842785 174.85184536086,-36.9152415849734 174.851393907102,-36.9157860317226 174.851232011128,-36.916059046333 174.851175312216,-36.9162652228235 174.851093307351,-36.9163342021992 174.850834951688,-36.9163967492198 174.851054046044,-36.9163798659252 174.851196533484,-36.9163198826733 174.851588514135,-36.9157645349772 174.851928244629,-36.9154150365991 174.852022447525,-36.9152212872953 174.852203969056,-36.9150748646835 174.852332206071,-36.9150492886511 174.852472991796,-36.9151622304225 174.852524750922,-36.9150510253289 174.852631823493,-36.9151731716448 174.852998326396,-36.9151300225428 174.853090908351,-36.9151931649666 174.853096800176,-36.9153219613721 174.853335266942,-36.9152451932422 174.85346975288,-36.9153766389443 174.853869577146,-36.9152733048975 174.854198896767,-36.9149436178187 174.854257755143,-36.9149371683138 174.854323785499,-36.9151338930389 174.854065702252,-36.9166377350974 174.853797820687,-36.9167663654497 174.853722339504,-36.9169255231002 174.85373144027,-36.9170332486797 174.85394328601,-36.9172046514014 174.854034825213,-36.9171456962682 174.854288677625,-36.9171145957667 174.854995825388,-36.9172598125465 174.855125884846,-36.9173573392181 174.855207426451,-36.917600581642 174.855144494871,-36.9176598037232 174.855183357149,-36.9178232653037 174.855340252918,-36.9178055403598 174.855480106739,-36.9177162649911 174.856013461609,-36.9178852376817 174.856432223699,-36.9178418280165 174.856584968753,-36.9179224068651 174.856666418811,-36.9180494511393 174.856902200335,-36.9181766852615 174.85703622424,-36.9181513921808 174.857097064712,-36.9180611692836 174.857342930375,-36.9182964828223 174.857385693966,-36.9183857695555 174.857312470557,-36.9185754633147 174.857605269944,-36.9187668805875 174.85773246535,-36.9187454835877 174.859516124981,-36.9212133300995 174.858768726387,-36.9213414514165 174.85875979179,-36.9213856037089 174.858906679202,-36.9214007396013 174.858963118734,-36.9214626737028 174.85911398504,-36.9213906424208 174.859318856899,-36.9214097488557 174.859473983182,-36.9214820124013 174.859564883356,-36.9217466492028 174.859700934524,-36.9218239502915 174.859888341357,-36.9222434627984 174.85987661013,-36.9224150129796 174.859980668579,-36.922554210106 174.859976744941,-36.9228003187798 174.860140146443,-36.9228437266698 174.86018535262,-36.9229278148367 174.860425101196,-36.9230176809889 174.860810393773,-36.9233809945992 174.860940524084,-36.9237289852096 174.861129065221,-36.9237773164191 174.861275011333,-36.9239223705645 174.861794746528,-36.9239558720871 174.862109320811,-36.9241803707946 174.862098439152,-36.9242453869632 174.861931711137,-36.924323194049 174.861930119197,-36.9244663523695 174.861815883788,-36.9245580737046 174.861958553973,-36.9247342964224 174.8624184939,-36.9247961319722 174.86258179957,-36.9248854259602 174.862869470409,-36.9256264452188 174.862729756046,-36.9258610722268 174.862782768485,-36.9261503495558 174.862587253316,-36.92628719681 174.862497375025,-36.9265263064323 174.86228757759,-36.926592994002 174.862204853796,-36.9266706971924 174.861900054844,-36.9266229064041 174.861810113667,-36.9266720199387 174.861754875288,-36.9268164150131 174.861860894004,-36.9270903440914 174.861824929522,-36.9272602688258 174.861730584354,-36.9273573763706 174.861629378889,-36.9274120896286 174.861473841877,-36.9273728230062 174.861092572747,-36.9274045437807 174.860983015208,-36.9274631801545 174.860937318693,-36.9276598019521 174.861019422838,-36.9279022881405 174.86086229666,-36.9281238625587 174.860650541849,-36.9282384227605 174.860488969604,-36.9282695542417 174.860022248485,-36.9281211620325 174.859928835296,-36.9281356745765 174.859879958525,-36.9282407770307 174.859975547312,-36.9285057813408 174.859927471323,-36.9285923779715 174.859667377763,-36.9287715296273 174.859517542155,-36.92895881275 174.858925346271,-36.9291681784046 174.858848566431,-36.9291658165699 174.858820209246,-36.9291046065497 174.858017168064,-36.9290227165514 174.857918707609,-36.9290716197893 174.857582329426,-36.9289897942325 174.857513560584,-36.9290573884112 174.857219671874,-36.9291047648579 174.857051267398,-36.9290201977424 174.856699422104,-36.9290137637083 174.856404280945,-36.9291094027334 174.856440284336,-36.9292645809075 174.856388488973,-36.9293156816921 174.855905223466,-36.92943861056 174.855695598378,-36.929331662436 174.855502016947,-36.9293753389757 174.855306752848,-36.9293585997992 174.8550106713,-36.9291660544351 174.854307060561,-36.9289832341566 174.854170588596,-36.9288593181847 174.854001983264,-36.9285229016929 174.853958578339,-36.928512668901 174.853813748262,-36.9286877476683 174.853625341577,-36.9286401924174 174.853733408887,-36.9287573653412 174.853760597217,-36.9289181169888 174.853660935596,-36.9291812354124 174.853595170512,-36.9292611024349 174.853473342403,-36.929290533218 174.85347850056,-36.9294559073701 174.852825769279,-36.9296094459251 174.852545431363,-36.9298446817598 174.852669398637,-36.9301040469941 174.853227304408,-36.9300986928433 174.853237248424,-36.9303416825877 174.853108353275,-36.9304848465807 174.852286406953,-36.930890616912 174.852033167175,-36.9310761058331 174.852033238682,-36.9311494353229 174.851878730315,-36.9312797814317 174.851751736426,-36.9315190375466 174.851784131466,-36.9317934209188 174.852056874447,-36.932007004664 174.851899908128,-36.9321360146278 174.851882638467,-36.9322594783639 174.851909223356,-36.9324320876616 174.852102014176,-36.9328485311346 174.852028525563,-36.9330332368688 174.852136029519,-36.9331129114351 174.852112029749,-36.933246046787 174.851736229945,-36.9334762631604 174.850965837382,-36.9337523785629 174.850636726442,-36.9336134017565 174.850329174741,-36.9335480648981 174.850059388188,-36.9334155627127 174.849927918057,-36.9336793016468 174.849717099199,-36.933803519044 174.849582542479,-36.9339482321266 174.849567307416,-36.9342884622661 174.849506403935,-36.9343855422818 174.849173507064,-36.9345576186221 174.848641469534,-36.9345945347363 174.848498810825,-36.9346409971335 174.848340754514,-36.9349269809572 174.84803442313,-36.9348978099645 174.847765986112,-36.9349953988785 174.847512223308,-36.9349879973648 174.847202220913,-36.9348650844162 174.847086512141,-36.9348616946773 174.846931596685,-36.9349324778596 174.846626283946,-36.9351957869689 174.846338771042,-36.9351016626188 174.846231886483,-36.9351237981633 174.845658195655,-36.9350540138293 174.8453152493,-36.9351243160136 174.845155302488,-36.9352902113644 174.845181270913,-36.9354700955934 174.845057592396,-36.9357310159592 174.844741578323,-36.9358529682641 174.844594831246,-36.9360874448649 174.844433491738,-36.9360116885917 174.844232273495,-36.936075364992 174.843988005078,-36.9359710624226 174.843835205693,-36.935979796 174.843973969426,-36.9360358366781 174.843640390073,-36.9359661115623 174.843506388531,-36.9352637216569 174.843173266573,-36.9353270196031 174.842719234996,-36.9355421758627 174.84268993003,-36.9354429101895 174.842493306078,-36.9354803307387 174.842570611867,-36.9357426722715 174.841411274525,-36.9354836165543 174.841511316359,-36.9351338391277 174.841298860282,-36.9350542925809 174.841364373679,-36.9348984735864 174.84092631412,-36.9349888351052 174.840894710478,-36.9341450464192 174.840511004741,-36.9344190030871 174.836555998887,-36.9345569974404 174.836613995138,-36.9356280068678 174.83597199746,-36.9358740021402 174.835630008397,-36.9359109938291 174.835007993875,-36.9362300048411 174.831822007278,-36.9374539949638 174.831304999733,-36.9376910074157 174.831166252178,-36.9380152920579 174.829830242421,-36.9381953155661 174.828252511598,-36.9302104470296 174.829182003593,-36.9286230002154 174.829846006028,-36.9289590028092 174.830057000394,-36.92886500217 174.830189999524,-36.9284209940098 174.830404006581,-36.9279700009676 174.830667994465,-36.9275709987551 174.83100699456,-36.9271829999959 174.831415991891,-36.9268250002166 174.831844004029,-36.92653500271 174.832648006482,-36.9260900042766 174.832441994825,-36.9258760003191 174.832027003418,-36.9252319993743 174.832234993475,-36.9250089941069 174.833692992129,-36.9228249987193 174.833140997437,-36.9175600015409 174.833702006979,-36.9175499946704 174.834422994812,-36.9172999976127 174.834563000748,-36.9171769986258 174.834782992158,-36.9167779927714 174.829398001461,-36.9155000029969 174.828315997762,-36.9151700072098 174.826599005968,-36.9147499981579 174.825242002563,-36.9138739943235 174.823966991286,-36.9129159923369 174.823526992007,-36.9124590041871 174.819834006195,-36.9078840003299 174.819871007782,-36.9078650065916 174.819806993191,-36.9077749973896 174.819368005443,-36.9073360047982 174.819290003591,-36.9073249965546 174.818498007784,-36.9068150053644 174.818513994647,-36.9067699933555 174.817194000992,-36.9062000070936 174.817270997171,-36.906142999757 174.818689996374,-36.9061030041792 174.818523005037,-36.9058360032269 174.818396992118,-36.9054900067302 174.818577001524,-36.9052040032872 174.818756992457,-36.9052120000636 174.818776993354,-36.9048309955826 174.819584006679,-36.9046529939212 174.819970994793,-36.9020270055585 174.819515992837,-36.9017749947765 174.822319003743,-36.8984959933169 174.822184005167,-36.8983280041498 174.822605992994,-36.8982279923872 174.822576005954,-36.8981939955729 174.822917996367,-36.8978009953341 174.823007003046,-36.8978889997889 174.823248993764,-36.8978500047577 174.823206001693,-36.8977310050014 174.82518000527,-36.8966900005701 174.824749004348,-36.896401006119 174.824917994029,-36.89623800385 174.825144998338,-36.8964409926788 174.825360002426,-36.8959870004289 174.825686008089,-36.8960829976791 174.825803003526,-36.895826996422 174.826096005557,-36.8955229993234 174.82599299378,-36.8954289932822 174.825746000376,-36.8954280002829 174.825387005206,-36.8952159942897 174.825331006176,-36.8951269967379 174.825381000246,-36.8950219986621 174.825282003026,-36.8949319979876 174.825577000681,-36.8941029953483 174.825051991621,-36.8940070007995 174.825336004663,-36.893004995729 174.825446001176,-36.8930249959127 174.825551998185,-36.8926540053754 174.825331997994,-36.8926129993127 174.82546199621,-36.8921569960731 174.825117005867,-36.8920909938901 174.825599992451,-36.8919969955776 174.825612000495,-36.8918739975425 174.825930004471,-36.8912150052357 174.829234003254,-36.8919210018743 174.829281999259,-36.8917530047605 174.829825995468,-36.8918699984098 174.830093002118,-36.8909330050013 174.829926994555,-36.8910449974474 174.829764003352,-36.8908900053096 174.829937001004,-36.8907730012708 174.829791993812,-36.8906339957116 174.830123006495,-36.8900870032444 174.83023099423,-36.8897079976366 174.830361006372,-36.8896200030188 174.830518993252,-36.8890639986555 174.831127001302,-36.8891759937606 174.831346993948,-36.8890289925846 174.831489991353,-36.8890500053119 174.831702992112,-36.8889060045552 174.831085004987,-36.8883150028719 174.831301996217,-36.8881689989572 174.83143974887,-36.8878544985556 174.831622006921,-36.8878130033995 174.833176847869,-36.8868284593844 174.833197083273,-36.8870755640213 174.833869503657,-36.8877750259116 174.833696783422,-36.8892807875984 174.833831999465,-36.8896593209446 174.833799207036,-36.8896814690058 174.834466967688,-36.8902081896394 174.834574452923,-36.8903993231403 174.83498224077,-36.890753551749 174.83535306771,-36.8909205237809 174.836900815449,-36.8918203133047 174.837981429223,-36.8925597846914 174.838389276639,-36.8921217215953 174.838470244943,-36.8921818534471 174.839050408009,-36.8912911958193 174.839214138553,-36.8912626881549 174.840642500126,-36.892228338558 174.840769820718,-36.8921558348539 174.841022397236,-36.8923604932803 174.84133315067,-36.8921706798854 174.841608066433,-36.8918745255867 174.841781993258,-36.8919364235568 174.841969476985,-36.8918969144299 174.842121166264,-36.8916064336751 174.84181283151,-36.8912887854413 174.841874435538,-36.8908871889243 174.842344621164,-36.8909323619666 174.842307769704,-36.8911284847821 174.842539433239,-36.8913719663825 174.843092216357,-36.891108399567 174.843838416215,-36.8913593670422 174.844289672646,-36.8907943324089 174.845317316569,-36.8903588145665 174.846657032454,-36.8899091063941 174.850063996824,-36.8915459981174 174.85035600211,-36.8922940019652 174.85040999914,-36.8927830040276 174.8511900011,-36.8926320058244 174.851309000785,-36.8930289963952 174.85203800303,-36.892869995918 174.852107004305,-36.8930980012143 174.852325999127,-36.8930539978633 174.852989990945,-36.8932299936228 174.852715003365,-36.8933490047487 174.853090991618,-36.8934469932507 174.85272299863,-36.894212994238 174.852237993711,-36.8949999935961 174.851049007304,-36.8965430000316 174.850207007852,-36.8974859962147 174.849645993927,-36.8980120039781 174.849280005702,-36.8983330019174 174.84889599659,-36.898548006591 174.848163997574,-36.899231997175 174.848258002757,-36.899303993412 174.848518003802,-36.8990819994243 174.849274996281,-36.8999819965507 174.849383992768,-36.8999209958426 174.849549004566,-36.9000749966726 174.849638002549,-36.9000789962072 174.849934154592,-36.9002873790324 174.849711654602,-36.9004206424068 174.849884967655,-36.9006175535706 174.849603000711,-36.9007729943726 174.850232999884,-36.9014890008214 174.850466334238,-36.9019127707649 174.85037875573,-36.9019692548499 174.849930751112,-36.9018209233596 174.849774367033,-36.9018254996248 174.849550011837,-36.902041835258 174.848999146005,-36.9021051775545 174.848740545184,-36.9023093225841 174.848155841773,-36.902394629322 174.847874018234,-36.9025337705966 174.847643897465,-36.9025584109787 174.847525259584,-36.9027861377412 174.847351752271,-36.9028879229026 174.847185843649,-36.902932925081 174.847050144933,-36.9028696974115 174.846431126643,-36.9031281855532 174.846058225572,-36.9035593106031 174.845564697624,-36.90377834859 174.845410198128,-36.9040822499833 174.845397400562,-36.9044957689733 174.845465946171,-36.9046888306036 174.845156692088,-36.9048449437019 174.84513021752,-36.9050177669255 174.845003145418,-36.9050814286073 174.844940337936,-36.9052818830038 174.844826907357,-36.9054171700738 174.844648160032,-36.9055166550511 174.844419230658,-36.9055110222867 174.844362358906,-36.9055516593383 174.844184041966,-36.9058444280933 174.844242552037,-36.9061322566155 174.84410266102,-36.9063180964422 174.84373512383,-36.9064022296363 174.843898675606,-36.9064204282922 174.844117758846,-36.9067139613809 174.844213432398,-36.9069989072374 174.844512274842,-36.90727498166 174.844793700506,-36.9074017201941 174.845369312316,-36.9074840317221 174.845981284379,-36.9078635299597 174.846221642229,-36.9079404038901 174.846558242045,-36.9082120788465 174.847074093933,-36.9084529709189 174.847378618448,-36.9085066268477 174.848135206937,-36.9083355502771 174.848895012978,-36.9083081783533 174.849289989448,-36.9081901825844 174.84983937916,-36.9079121091017 174.850043393431,-36.9079122112389 174.850336433425,-36.9078060461189 174.85054539722,-36.9077972345981 174.851249700903,-36.9076155620334 174.852333678874,-36.9071737232648 174.852695391724,-36.9067820142697 174.852808595126,-36.9065712563864 174.853031715522,-36.9063907724245 174.853303091847,-36.9063263999014 174.853903569412,-36.9060694020288 174.854468368955,-36.9059798420699 174.854779848203,-36.9057910494199 174.855055893761,-36.9057747568683</coordinates></LinearRing></outerBoundaryIs></Polygon></Placemark></Folder></Document></kml>