<?xml version="1.0" encoding="utf-8" ?><kml xmlns="http://www.opengis.net/kml/2.2"><Document id="root_doc"><Folder><name>Northpark.final</name><Placemark id="Northpark.final.1"><name>Northpark (polygon: official_shp)</name><description></description><Style><LineStyle><color>ff0000ff</color></LineStyle><PolyStyle><fill>0</fill></PolyStyle></Style><Polygon><outerBoundaryIs><LinearRing><coordinates>174.927983,-36.918743 174.928065,-36.918686 174.928132,-36.918463 174.927479,-36.918159 174.927719,-36.917818 174.927782,-36.916947 174.927899,-36.916951 174.92791,-36.916573 174.927865,-36.916571 174.927945,-36.915183 174.927856,-36.914917 174.927505,-36.914512 174.927546,-36.914488 174.927467,-36.914495 174.927311,-36.914363 174.926868,-36.913888 174.926784,-36.913715 174.926801,-36.913639 174.926555,-36.913414 174.926498,-36.913391 174.926419,-36.913535 174.926256,-36.913628 174.925415,-36.913356 174.925129,-36.91309 174.92426,-36.912722 174.923717,-36.913256 174.923528,-36.913156 174.923061,-36.913036 174.921338,-36.914335 174.92108,-36.914376 174.920334,-36.914323 174.92008,-36.914124 174.919856,-36.914098 174.919307,-36.914189 174.918529,-36.914081 174.918307,-36.913902 174.918149,-36.913604 174.917997,-36.913595 174.917562,-36.913733 174.917105,-36.913742 174.916738,-36.913608 174.91664,-36.913618 174.916772,-36.913836 174.916679,-36.914135 174.916708,-36.914609 174.916572,-36.914813 174.915755,-36.915486 174.915475,-36.915879 174.915323,-36.91639 174.915492,-36.916465 174.915431,-36.916735 174.915432,-36.917167 174.915208,-36.917834 174.915215,-36.918125 174.915384,-36.918643 174.916259,-36.919737 174.915899,-36.919802 174.915846,-36.919999 174.915585,-36.92001 174.915493,-36.920949 174.915275,-36.921264 174.915105,-36.92188 174.915547,-36.923184 174.916372,-36.923338 174.916074,-36.924611 174.913194,-36.924073 174.913271,-36.926041 174.913345,-36.926094 174.913337,-36.926329 174.913251,-36.926392 174.912822,-36.928661 174.912326,-36.929832 174.912019,-36.930448 174.911693,-36.930934 174.912418,-36.931133 174.914245,-36.931182 174.915331,-36.931604 174.915547,-36.929794 174.915489,-36.92965 174.915758,-36.929268 174.915949,-36.929213 174.917386,-36.92822 174.917785,-36.927882 174.91872,-36.926877 174.918983,-36.926593 174.918673,-36.926407 174.918976,-36.925994 174.919005,-36.925856 174.919321,-36.925882 174.919325,-36.925705 174.919466,-36.925784 174.919606,-36.925637 174.919777,-36.925739 174.920078,-36.925414 174.919808,-36.925254 174.919862,-36.925136 174.921089,-36.923837 174.921245,-36.923611 174.921352,-36.923675 174.921982,-36.923014 174.922189,-36.923138 174.923297,-36.921948 174.923587,-36.921761 174.923352,-36.92163 174.923504,-36.921445 174.923533,-36.921426 174.923634,-36.921526 174.923875,-36.921386 174.923752,-36.921286 174.923959,-36.921152 174.924072,-36.921264 174.925292,-36.920467 174.925172,-36.920348 174.925251,-36.920297 174.925097,-36.920173 174.925306,-36.92005 174.925184,-36.919937 174.925285,-36.919707 174.926014,-36.919912 174.926171,-36.920097 174.926869,-36.919648 174.926527,-36.919495 174.927076,-36.919142 174.927218,-36.918995 174.927323,-36.919071 174.927563,-36.918768 174.927825,-36.918959 174.927983,-36.918743</coordinates></LinearRing></outerBoundaryIs></Polygon></Placemark></Folder></Document></kml>