<?xml version="1.0" encoding="utf-8" ?>
<kml xmlns="http://www.opengis.net/kml/2.2">
<Document id="root_doc">
<Folder><name>Orakei_Mission_Bay.final</name>
  <Placemark id="Orakei_Mission_Bay.final.1">
	<name>Joined Boundary</name>
	<description></description>
	<Style><LineStyle><color>ff0000ff</color></LineStyle><PolyStyle><fill>0</fill></PolyStyle></Style>
      <Polygon><outerBoundaryIs><LinearRing><coordinates>174.826951382479,-36.8638723233375 174.826216692308,-36.8638717198764 174.826119037622,-36.8638194381347 174.825606552747,-36.8640411052686 174.824665927936,-36.8642753531505 174.824472636436,-36.8643677003132 174.823955442893,-36.8647844976956 174.823155354013,-36.864613100255 174.822956738208,-36.8650539582671 174.822391835224,-36.8651791664022 174.822228958565,-36.8652652316596 174.821971562413,-36.8652229971812 174.821541428812,-36.8652637571794 174.821468710931,-36.8652365096543 174.820890773648,-36.8653642692938 174.820740867148,-36.8653363005896 174.820339051671,-36.865142615947 174.820163648243,-36.865165612826 174.819826917891,-36.8650809508257 174.81966021739,-36.8651096371924 174.819432049062,-36.8650590655912 174.818928581829,-36.8646287088441 174.818531932873,-36.8644024403306 174.818103820127,-36.8639618997415 174.81805819675,-36.8638430050476 174.817856477211,-36.8638164374261 174.81738271339,-36.863643271561 174.817304816968,-36.8633926027891 174.817078425105,-36.8633726141647 174.816389345378,-36.8634763535717 174.8162030341,-36.8634095289438 174.815531885779,-36.862773437872 174.815400048,-36.8624295929999 174.814964744365,-36.862177177676 174.814905453644,-36.8620144835971 174.814743795909,-36.8620177728691 174.814335902925,-36.8618645923755 174.813846258227,-36.8618279970221 174.81317572282,-36.8613769774365 174.813157673057,-36.8613005437275 174.813081316631,-36.861260777352 174.812752783509,-36.8612533919564 174.81272222854,-36.8613060049141 174.812524490203,-36.861225155599 174.812625643576,-36.8610674506193 174.812314729846,-36.8607960875739 174.811993128781,-36.8606022916419 174.811814663409,-36.8605467938388 174.811702246337,-36.8604712245823 174.811632533859,-36.8603437991991 174.811381381593,-36.8602750929772 174.811265041395,-36.8601716677953 174.811160316199,-36.8601589851071 174.810985432051,-36.8600447147587 174.809774019175,-36.8591016420767 174.809678616567,-36.8589065665895 174.809347987777,-36.8586556162571 174.809257211942,-36.8584590386242 174.809229684124,-36.8581907438516 174.809319697054,-36.8575829030262 174.809510281278,-36.8571300010411 174.809424097283,-36.8564407919291 174.809455963115,-36.8563158450721 174.809595928263,-36.8561418610706 174.809272018201,-36.8555484844022 174.808336962188,-36.8547915508136 174.808075179718,-36.8547739453809 174.807559638483,-36.8549361335621 174.807120237254,-36.8549762110974 174.80663918429,-36.8547954605686 174.806056672308,-36.8544545518213 174.80601451788,-36.8545016335354 174.805847546957,-36.8544060339026 174.805515973,-36.8540448969999 174.805397300746,-36.8535997317736 174.805594348223,-36.853576047599 174.805665419635,-36.8530885513341 174.805455156504,-36.8528540558587 174.805164008459,-36.8528823373627 174.805033425568,-36.8525227227709 174.805321008461,-36.8525530025442 174.805827000951,-36.8523369998096 174.808189767,-36.8517456669999 174.808449169,-36.851607574 174.810409045373,-36.8492904114736 174.810849391813,-36.8496000691678 174.810805692247,-36.8496942791193 174.813366477526,-36.8513072997201 174.814041403,-36.851696126 174.814173439632,-36.8517058801708 174.81441875666,-36.8518359765589 174.815121111656,-36.8516382817351 174.815978519735,-36.8513081486754 174.816800181247,-36.8508422828166 174.817550690753,-36.850327670986 174.817937444385,-36.8499493162845 174.818336705,-36.849383938 174.818333666,-36.8492556159999 174.817096708352,-36.8472505766678 174.816811181,-36.845819922 174.816848693953,-36.8456548692204 174.81698090213,-36.8454071295689 174.817065395078,-36.8453530960656 174.817062981387,-36.8452795330278 174.817094653102,-36.8453100280465 174.817349128558,-36.8452428755615 174.817544366923,-36.8452935897247 174.817665708776,-36.8452614759839 174.819297476492,-36.8454669073331 174.820708405057,-36.8455766345878 174.821917911703,-36.8455738113604 174.823432293963,-36.8451276608864 174.823553589312,-36.8450570259344 174.823660840442,-36.8449620827904 174.823609393123,-36.8448857617245 174.823665819,-36.844772658 174.823428244975,-36.8445241884599 174.823956516827,-36.8441171465633 174.824163904,-36.8438939589999 174.824342671837,-36.8438975637553 174.824542318,-36.844343025 174.824769682,-36.8443747849999 174.825676648,-36.844704554 174.826157863,-36.8448058509999 174.82740068,-36.8452714479999 174.828127186,-36.8456295029999 174.828283167,-36.845752724 174.828419852,-36.8460228019999 174.828963402,-36.846396409 174.831455087,-36.847366155 174.833292467,-36.847852202 174.834275124,-36.847902103 174.834896643,-36.847776412 174.835166112,-36.84761323 174.835807224,-36.8470344639999 174.836113738987,-36.8469960203163 174.836361275726,-36.8470509202241 174.837621501295,-36.8476304473419 174.837612005646,-36.8483159997695 174.838520005991,-36.8486799980222 174.838843993984,-36.8489710005817 174.838910005129,-36.8495000052223 174.839058999893,-36.8497859940356 174.838516999828,-36.849914994405 174.83845499686,-36.850127001978 174.838127997065,-36.8500649929898 174.838066996356,-36.8500949964401 174.838026992431,-36.8502310064265 174.837910004968,-36.8502090007468 174.837478005933,-36.8516829986048 174.83671100731,-36.8516620040274 174.836330000742,-36.853003006397 174.836137004477,-36.8539539948288 174.836304000806,-36.8539689993822 174.836213006329,-36.854504000682 174.836069993081,-36.8547719976742 174.836185997782,-36.8550100024234 174.836128993566,-36.8552069936965 174.835946996206,-36.8551729952471 174.835892992525,-36.8553599929301 174.835762001706,-36.8553359951201 174.835694994031,-36.8555669966387 174.83552199171,-36.8555550052692 174.835591006134,-36.8558349922717 174.8357629984,-36.8558459941491 174.83563600496,-36.8564710003396 174.83604499191,-36.8564990008904 174.835818004689,-36.8574639958013 174.836025002877,-36.8574240042709 174.836019006199,-36.8577779992838 174.836328003767,-36.857962993981 174.836322007105,-36.8583129915494 174.835559003056,-36.8583600009412 174.835518992806,-36.8583210062767 174.835487001358,-36.8584329963192 174.835542007654,-36.8584209998418 174.835382003252,-36.8589739978246 174.836105008386,-36.8589299961067 174.836178997787,-36.8593919930647 174.836430998481,-36.8593770032707 174.836479002222,-36.8599629978156 174.83714599388,-36.8603170016778 174.837123994328,-36.8606400010437 174.837020000328,-36.8607099983943 174.836188006521,-36.8606469929487 174.835216001055,-36.8609489975722 174.83552999872,-36.8615670021095 174.835819002723,-36.8618839941811 174.835757005253,-36.8623850017192 174.835508998036,-36.8633740027121 174.835151000551,-36.8640609969362 174.834938992208,-36.8648389920433 174.833579004854,-36.8646000017914 174.83348693709,-36.865053743889 174.833140750776,-36.8650107396808 174.833018610089,-36.8650979847631 174.832627485225,-36.8651611490255 174.832486283392,-36.8652562145946 174.832277091009,-36.8652958031844 174.832036086713,-36.8652784300355 174.831553674353,-36.8650345548329 174.831330858488,-36.8647327319978 174.831395165566,-36.8646015621522 174.83117536796,-36.8646523716115 174.830534736694,-36.8644261782973 174.830124675043,-36.8644998011969 174.830063614888,-36.8644429508606 174.829700174878,-36.8643293006904 174.829360895916,-36.8641285736111 174.828958624462,-36.8639910054049 174.828813595177,-36.8638039431803 174.828523405145,-36.8635735405809 174.827833766229,-36.8635963924242 174.826951382479,-36.8638723233375</coordinates></LinearRing></outerBoundaryIs></Polygon>
  </Placemark>
</Folder>
</Document></kml>
