<?xml version="1.0" encoding="utf-8" ?>
<kml xmlns="http://www.opengis.net/kml/2.2">
<Document id="root_doc">
<Folder><name>Otahuhu.final</name>
  <Placemark id="Otahuhu.final.1">
	<name>Otahuhu (polygon: official_shp)</name>
	<description></description>
	<Style><LineStyle><color>ff0000ff</color></LineStyle><PolyStyle><fill>0</fill></PolyStyle></Style>
      <Polygon><outerBoundaryIs><LinearRing><coordinates>174.857299069211,-36.9442421886832 174.856915213735,-36.9440607773358 174.856479206278,-36.9440526629404 174.85642357909,-36.9440928501069 174.856174669787,-36.9446577336725 174.856124211517,-36.9449798950244 174.856123430923,-36.945254196589 174.8562925599,-36.945507530421 174.856353433368,-36.9458104131656 174.856202921586,-36.946127359198 174.855981811095,-36.9461852475976 174.857458217609,-36.9488280382187 174.857408582257,-36.9499581700026 174.856514923511,-36.9483101790103 174.855816496705,-36.9468719670331 174.855771989432,-36.9469354089581 174.855430902045,-36.9468323007169 174.855397049238,-36.946436139563 174.855358593782,-36.9464056261222 174.85512245688,-36.946575139056 174.854975758382,-36.9468880365534 174.854827990294,-36.9469149422965 174.854766643509,-36.9468647986611 174.854704923381,-36.9466187050916 174.854463940765,-36.9463555935605 174.853912027049,-36.9461558329284 174.853608205548,-36.9458518940572 174.853454398214,-36.9458215991124 174.853370134131,-36.9458654370319 174.853141737548,-36.9455759032363 174.85271080439,-36.9455021627595 174.852591924114,-36.9454168612052 174.852440710042,-36.94507597667 174.852573522078,-36.9455116012161 174.853203050873,-36.9458264034182 174.85348220847,-36.9460786682142 174.85354856613,-36.9462459319258 174.854233173025,-36.9467981087989 174.854277940092,-36.9469703429488 174.854085411147,-36.9472443052738 174.853725562002,-36.9474115761607 174.853545710053,-36.9473421291579 174.853177644268,-36.947359083928 174.853431903886,-36.9474236897887 174.853680527891,-36.9475551104348 174.853882440277,-36.9475735649261 174.854201210102,-36.9474945018899 174.854415127746,-36.9475401311091 174.854525091263,-36.9479811330661 174.854368670043,-36.948217119841 174.854306456676,-36.9485270311901 174.854236417248,-36.9485763375805 174.853986859069,-36.948437921402 174.853642255532,-36.9483633482817 174.85295366188,-36.9483640715581 174.852693716474,-36.9482492310066 174.8527033671,-36.9483937123453 174.852803521962,-36.9484966662391 174.852773161183,-36.9487059053491 174.852826804691,-36.949174562422 174.852674009371,-36.9496802659446 174.852521055564,-36.9498883761169 174.851808176458,-36.9504791281493 174.85129115322,-36.9501322633335 174.851304364332,-36.9499738055474 174.851401896745,-36.9498506506695 174.851204686068,-36.9497032129771 174.851177706296,-36.9496145644402 174.851079238865,-36.9496001807252 174.850979208194,-36.9495187036802 174.850957514258,-36.9494498963296 174.85096039555,-36.9495566450912 174.851158523282,-36.9498312621327 174.850973980311,-36.949951249755 174.850778864852,-36.9499414055855 174.850746991903,-36.9500468313282 174.850848487595,-36.9501637643343 174.850867965498,-36.9502941699335 174.850800923615,-36.9503703716221 174.850157507965,-36.9507025105893 174.85020572136,-36.9512444685448 174.850167774853,-36.9513018484424 174.849823569332,-36.9515780983577 174.849660245216,-36.9515980773872 174.849581633229,-36.9515466155938 174.849507755313,-36.9512995063963 174.849308525075,-36.951050923085 174.849302781193,-36.9509418547127 174.849388775171,-36.9508659021087 174.849301755214,-36.9508819221618 174.84921449346,-36.9509979148206 174.849273972873,-36.9510708279647 174.849237792263,-36.9512607460683 174.84932317702,-36.9513606106805 174.849373351497,-36.9517926550421 174.849311559635,-36.9518673401203 174.849129091351,-36.9518161591813 174.848933153932,-36.951842504681 174.849101782356,-36.9518436836063 174.849148186565,-36.9518965649452 174.849204445073,-36.9522167357185 174.849422938256,-36.9524506006381 174.849500968309,-36.9527106800194 174.849477518945,-36.9528629157588 174.849594988634,-36.9529774377352 174.84965138825,-36.9530113462921 174.850193649172,-36.9529948500925 174.850456007489,-36.9530394843182 174.851175052911,-36.9536004119505 174.85120587598,-36.9537630365815 174.851007399154,-36.9537961814345 174.850417175506,-36.9540649654029 174.85025640804,-36.9541856115731 174.850303803714,-36.9542165316593 174.849573081402,-36.9544664293639 174.849237391431,-36.95469543575 174.849186774748,-36.9548130594468 174.849028711196,-36.9549398692426 174.848932255494,-36.9551908169034 174.848966642141,-36.955415328836 174.848920498067,-36.955945043966 174.848836103062,-36.9561052482211 174.848605049025,-36.9560658653656 174.848490735891,-36.9559231794229 174.848524610652,-36.9556913465694 174.848180251218,-36.9555463512932 174.847987597816,-36.955239019312 174.847781469019,-36.9550810884173 174.847766101679,-36.9553349974515 174.847564329015,-36.9551912229868 174.847340741021,-36.9552501895951 174.84708355841,-36.9552410178461 174.847460075774,-36.9552852820417 174.84759988199,-36.9553901305768 174.847594860974,-36.9555251541563 174.847460376527,-36.9556819729563 174.847296722648,-36.9556983613072 174.847177834828,-36.9557808540981 174.847629430101,-36.9558215997132 174.84773548551,-36.9558764472489 174.847659123584,-36.9560635985669 174.84746915012,-36.9562903328428 174.847385603363,-36.95634281082 174.847128081082,-36.9563827681669 174.846644199145,-36.9562723561798 174.846529172833,-36.9564714143961 174.845881069878,-36.9566936841819 174.845514205493,-36.9566567918982 174.845235259981,-36.9564734204441 174.845252836355,-36.9563725789733 174.845066275788,-36.9564254406895 174.844823898251,-36.9564155598799 174.844392181528,-36.9565336992384 174.844271969957,-36.9562658057346 174.844016793559,-36.9560080286216 174.84399090241,-36.955709466855 174.84341019272,-36.9556371707018 174.843128115572,-36.9554026793968 174.842816673651,-36.9553339190786 174.842635007849,-36.9551319962303 174.842413993777,-36.9551459981893 174.842204995367,-36.9553780037898 174.841482005402,-36.9555380029906 174.841510003119,-36.9557389928578 174.839680991974,-36.9583640028076 174.837441996904,-36.9600879979998 174.835980996498,-36.957895001075 174.835614994391,-36.9572669926576 174.835332996438,-36.956023995085 174.835060633754,-36.9561597001983 174.834934767541,-36.9559850501121 174.834727717502,-36.9562333995944 174.834677433159,-36.9560579325627 174.834527817021,-36.9553389666811 174.833802283778,-36.9505214829382 174.833669017329,-36.9501692833675 174.833525250233,-36.9492245331807 174.833040583225,-36.9492537664417 174.833015966953,-36.9490917833494 174.833477733753,-36.949046516043 174.833247716876,-36.9485211329962 174.832933900394,-36.9485518833878 174.832631417251,-36.9465582999898 174.832406733758,-36.9465812663796 174.832636450781,-36.945099516281 174.832045883923,-36.9412978662243 174.832334949883,-36.9415308994361 174.831706474056,-36.9375346711103 174.831822007278,-36.9374539949638 174.835007993875,-36.9362300048411 174.835630008397,-36.9359109938291 174.83597199746,-36.9358740021402 174.836613995138,-36.9356280068678 174.836555998887,-36.9345569974404 174.840511004741,-36.9344190030871 174.840894710478,-36.9341450464192 174.84092631412,-36.9349888351052 174.841364373679,-36.9348984735864 174.841298860282,-36.9350542925809 174.841511316359,-36.9351338391277 174.841411274525,-36.9354836165543 174.842570611867,-36.9357426722715 174.842493306078,-36.9354803307387 174.84268993003,-36.9354429101895 174.842719234996,-36.9355421758627 174.843173266573,-36.9353270196031 174.843506388531,-36.9352637216569 174.843640390073,-36.9359661115623 174.843973969426,-36.9360358366781 174.843835205693,-36.935979796 174.843988005078,-36.9359710624226 174.844232273495,-36.936075364992 174.844433491738,-36.9360116885917 174.844594831246,-36.9360874448649 174.844741578323,-36.9358529682641 174.845057592396,-36.9357310159592 174.845181270913,-36.9354700955934 174.845155302488,-36.9352902113644 174.8453152493,-36.9351243160136 174.845658195655,-36.9350540138293 174.846231886483,-36.9351237981633 174.846338771042,-36.9351016626188 174.846626283946,-36.9351957869689 174.846931596685,-36.9349324778596 174.847086512141,-36.9348616946773 174.847202220913,-36.9348650844162 174.847512223308,-36.9349879973648 174.847765986112,-36.9349953988785 174.84803442313,-36.9348978099645 174.848334975318,-36.9349288293998 174.848498810825,-36.9346409971335 174.848641469534,-36.9345945347363 174.849130930486,-36.9345668667859 174.849328641432,-36.9344958261215 174.849556966729,-36.9343235783871 174.849582542479,-36.9339482321266 174.849717099199,-36.933803519044 174.849927918057,-36.9336793016468 174.850059388188,-36.9334155627127 174.850955824297,-36.9337530619287 174.851736229945,-36.9334762631604 174.852021258117,-36.9342655939667 174.852280987034,-36.9342211722891 174.852430874118,-36.9339660485787 174.852716733402,-36.9337964917009 174.853056610353,-36.9336796358977 174.853457587085,-36.9336560116082 174.853715224902,-36.93386376485 174.853578998957,-36.933426079445 174.853746846892,-36.9330095500052 174.853773756125,-36.9325975065523 174.854014657811,-36.9319317592759 174.854169315675,-36.9316930927444 174.85422433214,-36.9314037018368 174.854351255209,-36.9312890347787 174.854656624194,-36.9312897093897 174.854839390264,-36.9313750866137 174.855687214394,-36.9321787380892 174.856368862086,-36.931994811331 174.856514411417,-36.9321519423534 174.857306908435,-36.9326732493302 174.857528917527,-36.9329556671123 174.857781878673,-36.9330625646704 174.856897325107,-36.9335836473268 174.856756655184,-36.9338316633623 174.856791531877,-36.9339471665591 174.856840882066,-36.9339015135628 174.856867263076,-36.9339974963049 174.858961771108,-36.9338095151005 174.85879010106,-36.9335529929683 174.858776957198,-36.933190500315 174.859152388716,-36.9324769816133 174.859239932074,-36.9319342022329 174.859338105925,-36.9317879066106 174.86181917095,-36.9308967383546 174.863054358981,-36.9305170390775 174.86330675481,-36.9304823364214 174.864480370158,-36.9311307352317 174.866184714624,-36.932212026328 174.866336271036,-36.9327645025928 174.866305253662,-36.9330365422473 174.865811175294,-36.9336703048526 174.864848831525,-36.9343122150181 174.864701819619,-36.9343450047113 174.86349994213,-36.933939543556 174.862760739445,-36.9343983630251 174.862763706495,-36.9347211825931 174.862450714014,-36.9351914653861 174.862172106693,-36.9353348106154 174.862136554495,-36.9354182949854 174.861637942928,-36.9356589660973 174.861255162263,-36.9359282209377 174.860866215982,-36.9361114275934 174.860232097114,-36.9365030289257 174.860084246384,-36.9366286710214 174.860150449799,-36.9366569231213 174.860065107169,-36.9367548482341 174.859582891799,-36.937058088564 174.859444491273,-36.9372518955745 174.859238610912,-36.9372503372761 174.859106818587,-36.9373505501554 174.85909244242,-36.9374234324262 174.858750006895,-36.9375671111878 174.858515532344,-36.9378646181691 174.858220529714,-36.9380830537757 174.858060862835,-36.9381241371653 174.857953886224,-36.9382062188586 174.857717132347,-36.9385913727287 174.85767643215,-36.9389048494358 174.857552512275,-36.938695619007 174.857632313992,-36.9389658073437 174.857365002144,-36.9392756006977 174.857381399744,-36.939495495966 174.857317493514,-36.9395971685697 174.857299567456,-36.9397954481449 174.857317851398,-36.9399209475576 174.857438380711,-36.9400816230666 174.857622403554,-36.940082446602 174.857629195075,-36.9403363312275 174.857497387168,-36.9403373325849 174.857504420739,-36.9404127567092 174.857312441655,-36.9404630378886 174.857302975315,-36.9410021776236 174.857059474201,-36.9412667562751 174.85678584762,-36.9413601961899 174.856638288307,-36.9416124964293 174.856398577239,-36.9416379521574 174.856438216866,-36.9415737262434 174.855976455228,-36.9415521619464 174.855927721068,-36.9417679614457 174.855847307927,-36.94184560255 174.855636678415,-36.9418732349158 174.855433185888,-36.9419666562436 174.855527936269,-36.9421659218172 174.855734121408,-36.9421784308594 174.856189889193,-36.9420403354276 174.856346261982,-36.9418400906278 174.856577647304,-36.9419541145568 174.856745139305,-36.9421018236064 174.857027259226,-36.9425586892157 174.857372844796,-36.9434598028667 174.857299069211,-36.9442421886832</coordinates></LinearRing></outerBoundaryIs></Polygon>
  </Placemark>
</Folder>
</Document></kml>
