<?xml version="1.0" encoding="utf-8" ?><kml xmlns="http://www.opengis.net/kml/2.2"><Document id="root_doc"><Folder><name>Otara.final</name><Placemark id="Otara.final.1"><name>Ōtara (polygon: official_shp)</name><description></description><Style><LineStyle><color>ff0000ff</color></LineStyle><PolyStyle><fill>0</fill></PolyStyle></Style><Polygon><outerBoundaryIs><LinearRing><coordinates>174.891645504348,-36.9515236797607 174.891477000981,-36.9522979975507 174.89199800044,-36.9523880004329 174.892151004698,-36.9525859993152 174.892016005319,-36.9530719963684 174.891859000522,-36.9530430004319 174.891791992526,-36.9530790040769 174.891282992457,-36.9529869948403 174.890862002503,-36.9543889963936 174.895268005059,-36.9550830047746 174.893549002175,-36.9613249916065 174.895918996747,-36.9617449947545 174.895755999858,-36.9622820069223 174.895669007832,-36.9623430044314 174.895599995828,-36.9626840025819 174.894934994402,-36.962566993184 174.893286998679,-36.9683579939497 174.894482003172,-36.9686119926015 174.895459007085,-36.9688880024166 174.896009996407,-36.968915993569 174.894084443002,-36.9758611570433 174.89340602325,-36.9757575355749 174.893390969403,-36.9756807200914 174.893230335155,-36.9755868659363 174.892992197268,-36.9758491176042 174.892908003166,-36.9758470003292 174.892915003788,-36.9756629990198 174.892269992542,-36.9754769983568 174.892233007443,-36.9755080018194 174.891481007032,-36.9754899995842 174.891589004517,-36.9753499958421 174.89134000458,-36.9751960005807 174.89108199926,-36.9754800000425 174.89014800021,-36.9754579922883 174.89016099559,-36.9751199924066 174.889867003995,-36.9752090006648 174.889858007857,-36.9754510041226 174.888597997298,-36.9754209986408 174.888610991831,-36.9750770060455 174.888139996849,-36.9750650019001 174.888128992245,-36.9753530058727 174.887940051408,-36.9753488758612 174.887925768354,-36.9757277218367 174.886718001086,-36.9756985165735 174.88672878399,-36.9754129650658 174.88684845541,-36.9754158449476 174.886860873404,-36.9750860329164 174.886988081064,-36.9748891066348 174.887001999424,-36.9745190019687 174.886883995408,-36.9742160007842 174.886584002611,-36.9740240000958 174.886436007027,-36.9743239985696 174.886557000842,-36.9740179984486 174.886152000632,-36.9739449920267 174.885914999373,-36.9743639992084 174.88583199902,-36.9753139988017 174.885383994605,-36.9753029920105 174.885283001641,-36.9756639929871 174.884926997104,-36.975653993551 174.884850005769,-36.9755549986584 174.884626000693,-36.9755290046284 174.884503000957,-36.9755909931089 174.884470001335,-36.9757710022806 174.884307000535,-36.9757420065604 174.884223996788,-36.9760409921079 174.883817995879,-36.9759550004311 174.88372599426,-36.9762560013889 174.883475001519,-36.9762839993436 174.883412999225,-36.9765119964109 174.883834001788,-36.9765869950795 174.88315800649,-36.9791499983681 174.882247007312,-36.9789799959876 174.881682003742,-36.9791149974197 174.882068008378,-36.9798340053188 174.881515992917,-36.9800750041716 174.881184998102,-36.9792469985864 174.880061993194,-36.9758969946596 174.879869003168,-36.9752359942726 174.879874000176,-36.9750579926508 174.879285997605,-36.9736589926581 174.878796004179,-36.9728619985978 174.8781009916,-36.9721259963936 174.877559997452,-36.9716430007563 174.875427001409,-36.9700669999567 174.869860003274,-36.9658110028712 174.868307007091,-36.9648769942668 174.868409002115,-36.9647110025892 174.867451002088,-36.9640199966409 174.867376999137,-36.9639150058352 174.866842992488,-36.9643940018792 174.866860997592,-36.9643029986704 174.866718003252,-36.9641790067061 174.865726996905,-36.9635170069555 174.865782007579,-36.9627199935781 174.864532996362,-36.9617900025678 174.863486995465,-36.9608510066032 174.86273599372,-36.9598820028001 174.86200631652,-36.9585138684231 174.861851230297,-36.9584853714149 174.861688361489,-36.9590539217711 174.859562847308,-36.9586636469176 174.85959691159,-36.9585441034493 174.859524759205,-36.9585308676498 174.859178513091,-36.9597395089835 174.858049366325,-36.9595339828956 174.857729811136,-36.95914256093 174.857503215026,-36.9590051941554 174.857392854982,-36.9590350033432 174.857346938223,-36.9591222887683 174.857204337858,-36.9590851774255 174.857135418171,-36.9586973789232 174.857144718297,-36.9582061752381 174.857259625582,-36.9577843601681 174.857367924802,-36.9577810685643 174.857358301889,-36.9577285488699 174.857249200258,-36.9575899776093 174.856912675959,-36.9574232673583 174.856555111663,-36.9570681322501 174.856773456146,-36.9569424886887 174.856968022523,-36.9566607282073 174.856651805184,-36.9568559992528 174.85647074914,-36.9562274680812 174.856256943731,-36.9559391605806 174.857078386714,-36.9557411957888 174.85723745393,-36.9552306554173 174.857430767522,-36.9549449966519 174.857739677257,-36.9548144759242 174.857574502644,-36.9547836236081 174.857387215456,-36.9548457165878 174.85692817854,-36.9554064321188 174.856711156354,-36.9555270042739 174.856481524708,-36.9551786167866 174.856372432057,-36.9551016206704 174.855716972276,-36.9551359222951 174.855560339814,-36.9549754025827 174.855371571293,-36.9548948063299 174.855139440431,-36.9544124364372 174.855132653428,-36.9542322230652 174.855180028333,-36.9539884640067 174.855524323196,-36.9536226514287 174.855418958641,-36.9531982967065 174.855504048405,-36.9530342806913 174.855702404759,-36.952983196718 174.85562539319,-36.9528740242376 174.85540125358,-36.9528342255782 174.85509604957,-36.9526558664231 174.854819950483,-36.952567744144 174.854616797834,-36.9526510443745 174.854427675249,-36.9526203517151 174.854009446749,-36.9527590002644 174.853690268334,-36.9530172838674 174.853485363425,-36.9531108647428 174.853315656634,-36.9532469400211 174.853350072518,-36.9533859006351 174.852957975088,-36.9536864460453 174.852778356606,-36.9536762155821 174.852525493996,-36.9535195135617 174.852436386637,-36.9535319343958 174.852322026657,-36.953381137393 174.852473124384,-36.9528555778972 174.852472684341,-36.9527664425766 174.852336885888,-36.9525370309114 174.852402300492,-36.9522396882527 174.852857269474,-36.9520212442394 174.853405237774,-36.951540399616 174.853636916804,-36.951409235891 174.854159234142,-36.9512637633281 174.854198822489,-36.951181822661 174.854320189512,-36.9511150149355 174.854685475721,-36.9511137151782 174.856165532831,-36.9502630900727 174.856503338369,-36.9501516037699 174.856613800776,-36.9500394188506 174.856769171361,-36.9500494721513 174.8568919113,-36.9499597784247 174.85706294852,-36.9499366674524 174.857408582257,-36.9499581700026 174.857458217609,-36.9488280382187 174.858157752715,-36.9486820025679 174.858004674824,-36.9482726429467 174.858257177764,-36.9482118393293 174.858400251478,-36.9485944094133 174.858615100579,-36.9483612026721 174.858842350616,-36.9482113508628 174.85895700455,-36.9480168393806 174.858989402673,-36.9478158482821 174.85928340728,-36.9470768663983 174.859471917184,-36.9468221686018 174.859502034517,-36.9464139549517 174.859882936898,-36.94619957922 174.860009335787,-36.9460104700043 174.860353501015,-36.9460526796591 174.860883746048,-36.9459060018957 174.861027672995,-36.9459999236834 174.861081676629,-36.9459502383086 174.861191273054,-36.9459643122062 174.861263078046,-36.9463090510559 174.861535815872,-36.9467008382709 174.862348560349,-36.9474245195686 174.86247053805,-36.9474125626572 174.862549093202,-36.9474591226229 174.862793126024,-36.9477580319675 174.863166030325,-36.9484269434189 174.863608639617,-36.9489366953388 174.864767611081,-36.9494574433517 174.86500840566,-36.9496112921039 174.865175095564,-36.9496164462831 174.865293162925,-36.9495631107257 174.865354417322,-36.9493582730764 174.865621455846,-36.9492345884024 174.865574884932,-36.9491326845822 174.865991890522,-36.9488843516547 174.866025630843,-36.9489702936686 174.866404784147,-36.9491204433208 174.866745242639,-36.9494450254475 174.866961655777,-36.9495527537367 174.867209015399,-36.9494937857834 174.867442016344,-36.9494958991848 174.86804373965,-36.9497000326954 174.86842878466,-36.9498933291252 174.868589549117,-36.9501257440522 174.868598177517,-36.9504073029617 174.868474427613,-36.9505805468198 174.868208919677,-36.950745732045 174.867861650504,-36.9511004998603 174.867944658806,-36.9511065584295 174.868151266778,-36.9509028545646 174.868222092053,-36.9508862337568 174.868406775197,-36.9509338000553 174.868495170952,-36.9510443477731 174.868275354053,-36.9514888854144 174.867732358756,-36.9520392676386 174.867639808131,-36.9524330937207 174.867717361478,-36.9526190346102 174.86786774528,-36.9527252104149 174.867868132404,-36.9523619558741 174.867939508677,-36.952127718172 174.867875935436,-36.9519804699751 174.867901003725,-36.9518801601253 174.868103633104,-36.9517915332058 174.868492644259,-36.9517453321791 174.868756027849,-36.9518020504434 174.868819840552,-36.9517787671724 174.8686652009,-36.951715642412 174.868595349325,-36.9515851831032 174.868622086973,-36.9514865476156 174.868979500691,-36.9510478793192 174.869007010394,-36.9508036843382 174.868919181427,-36.9506428715855 174.869057906009,-36.9505510606855 174.86961061158,-36.9503924641747 174.869031918721,-36.9502075608712 174.868569841863,-36.9494348860238 174.868054675197,-36.9491790627736 174.867688866371,-36.9491078251793 174.867632808938,-36.9489247023724 174.868208299884,-36.9487607616158 174.868330506455,-36.948633787961 174.869306483481,-36.9480177428674 174.869806331547,-36.9480200877508 174.869904672783,-36.9480766602332 174.870363037496,-36.9480975941541 174.871591025987,-36.9483458555507 174.872224327953,-36.9481335784168 174.872337776932,-36.9480548240413 174.872678838634,-36.9480576672662 174.873004508014,-36.9481844570813 174.873191041566,-36.9480351123396 174.873584370217,-36.947922752158 174.874216805335,-36.9478557008869 174.874290530905,-36.9477645946348 174.874187154064,-36.9475997049503 174.874196499402,-36.9473330572125 174.874283659535,-36.947209737649 174.875455567983,-36.9465388956874 174.875563150332,-36.946516040435 174.875742174836,-36.9465835939776 174.875790924608,-36.9464933708363 174.875923283858,-36.9464425155711 174.876068941705,-36.9464678284151 174.876290331584,-36.9466168503495 174.876287391428,-36.9467674345772 174.876386175847,-36.9469613641833 174.876384941497,-36.9472058637748 174.876273388235,-36.9474462114267 174.876562616524,-36.9471214809593 174.876728417196,-36.9471233197783 174.876789452423,-36.9471658542021 174.876873441696,-36.9470751258151 174.877105707955,-36.9470227654312 174.877232197834,-36.9470569261703 174.877457620951,-36.9472385223292 174.877582034019,-36.9472303320705 174.87800469123,-36.9473888399225 174.878315760076,-36.9478821063628 174.878438957161,-36.9479844365896 174.878224636173,-36.9482445248413 174.878535041499,-36.9481505347343 174.878838070407,-36.9482354535593 174.878901835034,-36.9484230058378 174.878824867481,-36.9485424350444 174.878971521464,-36.9485071258629 174.879009359312,-36.9481835929761 174.879170924934,-36.9479564026973 174.878992969398,-36.9477136299326 174.879023258524,-36.9475952774252 174.879184596773,-36.9474889516898 174.879325507953,-36.9474716448316 174.879490839531,-36.9475386261551 174.879667955215,-36.9476863218133 174.879801252798,-36.9479094129249 174.879454779703,-36.9487959034005 174.879518074962,-36.9495110753904 174.87942935818,-36.9497084393116 174.879703169929,-36.9499453275858 174.879714813146,-36.9501519697448 174.879809419896,-36.9503143758132 174.879745751682,-36.9505577952702 174.879788510421,-36.9506810697201 174.879697773291,-36.9508171872217 174.879849882671,-36.9509194915942 174.879913481562,-36.9510732384082 174.880090237652,-36.9508504751927 174.880170553746,-36.9505318854473 174.880805658015,-36.9504387807125 174.880706760432,-36.9501785723916 174.880272653462,-36.9495285751097 174.880299996257,-36.9490819947997 174.880361007179,-36.9493159940261 174.880643996057,-36.949400993918 174.880952003257,-36.9493959961362 174.881287007729,-36.9493000056331 174.881647007759,-36.9491120020848 174.881898992355,-36.9491079943532 174.882689004403,-36.9492510028285 174.88313500044,-36.9491080018147 174.883782995131,-36.9492090029101 174.884120002004,-36.9492029950528 174.884344993044,-36.9492439940388 174.884477005867,-36.9493240019809 174.884738006527,-36.9492620023506 174.88527400799,-36.9492850069124 174.885377999259,-36.9496539974098 174.88589299284,-36.9499909936338 174.88621400651,-36.9500630037202 174.886428006448,-36.9502049961054 174.886585008853,-36.9501799971628 174.886743999008,-36.9502129921023 174.88685799987,-36.9501479981258 174.886948000696,-36.9501579926677 174.886989004596,-36.9500900001554 174.887103000426,-36.950057993209 174.88730399551,-36.9503460061502 174.887704003334,-36.9505290058985 174.887867998657,-36.9505080013453 174.887942002233,-36.9504269951284 174.88823299148,-36.950579996024 174.888606998765,-36.9504890013503 174.888687004195,-36.9505289978704 174.889144997229,-36.9499349978526 174.889817994671,-36.950119003376 174.890302993438,-36.9505710028256 174.891018000923,-36.9506220061948 174.891024327362,-36.951255394208 174.891395591078,-36.9512460861974 174.891645504348,-36.9515236797607</coordinates></LinearRing></outerBoundaryIs></Polygon></Placemark></Folder></Document></kml>