<?xml version="1.0" encoding="utf-8" ?><kml xmlns="http://www.opengis.net/kml/2.2"><Document id="root_doc"><Folder><name>Pakuranga_Heights.final</name><Placemark id="Pakuranga_Heights.final.1"><name>Pakuranga Heights (polygon: official_shp)</name><description></description><Style><LineStyle><color>ff0000ff</color></LineStyle><PolyStyle><fill>0</fill></PolyStyle></Style><Polygon><outerBoundaryIs><LinearRing><coordinates>174.880392915516,-36.9219854560342 174.880358117398,-36.9218196849459 174.880268217073,-36.921766088372 174.880701205514,-36.9212950724144 174.881472577134,-36.9207331733366 174.881581558495,-36.9205640744369 174.881847222436,-36.9204651992402 174.881764911555,-36.9201629962926 174.881886459229,-36.9201016993858 174.882233334173,-36.9193343794183 174.882946698485,-36.9194699663094 174.883048442636,-36.9191167729716 174.88294975141,-36.919098022159 174.883136047244,-36.9184446071883 174.884446541597,-36.9186816524422 174.884761383678,-36.9184613128968 174.88447116059,-36.9181799818084 174.884156692047,-36.9182947062744 174.884209463221,-36.9177547110616 174.882740476034,-36.9174889460339 174.882788972173,-36.9173143965827 174.882416767037,-36.9172470523652 174.882570529935,-36.9169458862849 174.882713052444,-36.9169716767853 174.882803977318,-36.9166443661013 174.883013189789,-36.916682217585 174.883402715765,-36.9152804644253 174.882984042113,-36.9152054774387 174.883064747066,-36.914915220445 174.883145771098,-36.9148756133753 174.883134259413,-36.9146663203418 174.883221616688,-36.9143561846062 174.883763789,-36.914385680001 174.883899385264,-36.9134890257131 174.883486741335,-36.9134141529188 174.883563077631,-36.9131447069009 174.883642562212,-36.9131095881583 174.883683389765,-36.9129648764142 174.883630725006,-36.9129189936561 174.883658782224,-36.9128032491703 174.884099137985,-36.9128831662974 174.884223513268,-36.912441145544 174.884309437528,-36.9124567567962 174.884361466987,-36.9122718295846 174.88425823973,-36.9122531291764 174.88443089072,-36.9116395809746 174.884613335669,-36.9116727251458 174.884658597466,-36.9115118135904 174.884542876814,-36.9114908528784 174.884616371441,-36.9112296640892 174.884578024654,-36.9112221255814 174.885035838833,-36.9095817708412 174.884888226295,-36.9095552200915 174.884951027748,-36.9093302102871 174.884713958858,-36.9092877070507 174.884738621881,-36.9089485889185 174.885179627152,-36.9090277159977 174.88523330522,-36.9088348765488 174.885497668806,-36.9088823227084 174.88559126495,-36.9085459334197 174.885478730378,-36.9081346587772 174.885129469668,-36.9082157228169 174.884975878043,-36.9080992188914 174.885212946588,-36.9076890175963 174.885113035116,-36.9076279031819 174.885192128596,-36.9073464211006 174.885333522347,-36.90737205807 174.885617554016,-36.9071757958181 174.886231009081,-36.906911977027 174.885973646009,-36.9065256619995 174.886249082241,-36.9064072772001 174.886286153589,-36.9064628794079 174.886656579085,-36.9063325477042 174.886308292203,-36.9058097721474 174.88698307365,-36.9055197719509 174.886736899249,-36.9053030479276 174.886946583233,-36.9050483800738 174.887378469378,-36.9051674599591 174.888295561494,-36.905153326091 174.889600938971,-36.9052638986648 174.890396423119,-36.9049704481949 174.890748553339,-36.9036598739061 174.891261274069,-36.9044363442477 174.891809748544,-36.9042028588656 174.891964096498,-36.9044366855854 174.892072161036,-36.9043906831768 174.892241296477,-36.9046469394111 174.892364708534,-36.9045943793762 174.89240691054,-36.9044831853982 174.892678805194,-36.9043674335722 174.892614172692,-36.9042705342995 174.892943080528,-36.9041305048439 174.892566029915,-36.9035659101135 174.892945516336,-36.9036411623818 174.893366071646,-36.9038317224508 174.894284279132,-36.9033796693556 174.894017591691,-36.9028399034149 174.895371147975,-36.9030821817627 174.895742198849,-36.9028236390872 174.895191798042,-36.9027241105672 174.89604415621,-36.9021302393466 174.896128785476,-36.9019819183417 174.896617788783,-36.9016709051553 174.896428503225,-36.901480612734 174.89633472394,-36.9015436980942 174.895199310196,-36.9007929352118 174.89597202526,-36.9000082363255 174.896167149571,-36.899939079959 174.897105052261,-36.9005688526693 174.897172820569,-36.9007781461816 174.897355369556,-36.9010384188958 174.897872901893,-36.9013397236148 174.89838968051,-36.9010111469707 174.898120598366,-36.9006664154072 174.89849534939,-36.9004727046181 174.89877100465,-36.9008149976348 174.898816003499,-36.9011210060145 174.902188338691,-36.8993406838066 174.903397013081,-36.9008181233868 174.903997678965,-36.9004997953525 174.904257998212,-36.900814005353 174.904086006598,-36.9012110028007 174.904005007282,-36.9021930018115 174.904184007598,-36.9026309945744 174.904184999594,-36.902811992101 174.904363992006,-36.9033640013196 174.904424005054,-36.9037919985894 174.904179003996,-36.9044369961245 174.904092007244,-36.9050260056774 174.903940002817,-36.9054500003793 174.904119005198,-36.9062310035956 174.90424500742,-36.9064749952144 174.904208001189,-36.9068760068008 174.904384005802,-36.9070600016137 174.904455994551,-36.9072399930569 174.904262997281,-36.907544004118 174.903993991449,-36.9076759940027 174.903860004332,-36.9078309990281 174.90349299149,-36.9085190013293 174.903409996335,-36.908899994165 174.903499999428,-36.9090179977788 174.903674999635,-36.9091190001609 174.903904996007,-36.9091389935692 174.903983994905,-36.9092080045732 174.903757002431,-36.9094780024216 174.90372600175,-36.9096549943151 174.903784993967,-36.909776999095 174.903885993231,-36.9098450022194 174.904275999004,-36.9099430001397 174.90454199329,-36.910197994896 174.904765994813,-36.9103090030348 174.904672007439,-36.9105029955902 174.904685000184,-36.9106960006362 174.905132007382,-36.9109510056178 174.904900000175,-36.9111969947554 174.904447997934,-36.9114350026106 174.904357004116,-36.9115899929104 174.904386993526,-36.9118809941409 174.904909000882,-36.9127199983468 174.90489800861,-36.9129159973265 174.90458799501,-36.9130280035929 174.904426998332,-36.9131579946388 174.904377996967,-36.9132609977972 174.904407008116,-36.9135559957412 174.904526003119,-36.9137330050276 174.904455992985,-36.9138840013203 174.904563006257,-36.913842992269 174.904644005247,-36.9138800027612 174.904668992632,-36.91404499531 174.90480357904,-36.9140524393037 174.904715938252,-36.9142112255874 174.90448500753,-36.9141759959713 174.904493992688,-36.9142629992267 174.904277000207,-36.9145589929499 174.90419999767,-36.9148089981154 174.903573997832,-36.9154740015741 174.903469998335,-36.9157909993996 174.90336199267,-36.9159279991342 174.903169004131,-36.9160669925685 174.902522005708,-36.916012006129 174.902188005982,-36.9161079983051 174.901666006508,-36.9164769948977 174.901560997339,-36.9167269953308 174.901075007164,-36.9174580023432 174.900442993212,-36.917896997054 174.900260007766,-36.9183970002649 174.900196000859,-36.9190970014187 174.899656004936,-36.9198049919149 174.899217001851,-36.9201740022316 174.899076003977,-36.9201760039193 174.898759000409,-36.9198660000195 174.898749004379,-36.9195509984283 174.898851004388,-36.9191439968976 174.898882000146,-36.9182869984259 174.898792992028,-36.9181079997552 174.898474994839,-36.9177529918118 174.89824400206,-36.9175770015665 174.897474996448,-36.9171630047638 174.896507995908,-36.9167299953124 174.895579001502,-36.9166119997815 174.895232000302,-36.9162350056727 174.894956001062,-36.9154059962753 174.894716993946,-36.9148919948718 174.894920997225,-36.9141900052698 174.894886996018,-36.9139650012059 174.894709995199,-36.9136750007372 174.89439700339,-36.9135239992801 174.894253991767,-36.9124449984331 174.894412000524,-36.9120580046901 174.894630998658,-36.9118509989493 174.895461007926,-36.911348001892 174.895010999378,-36.9114159970638 174.893963006263,-36.9120440039987 174.893823995364,-36.9121139999525 174.893712008927,-36.912115996623 174.893341005321,-36.9118749932078 174.893044001315,-36.9113389928731 174.893090008385,-36.911039005661 174.893283007117,-36.9108080046018 174.893255002635,-36.9107719927238 174.892779992727,-36.9111780063808 174.892758996588,-36.9114180069236 174.89324200646,-36.9120079989565 174.893835009024,-36.9133710040643 174.894050005036,-36.9136569938482 174.894150008055,-36.9139940031789 174.894037008557,-36.9147019976818 174.894070999111,-36.9148810052249 174.894244997164,-36.9150810020573 174.894278996011,-36.9153060063224 174.894633004355,-36.9157869991467 174.894664996878,-36.9160429964178 174.895024994201,-36.9167829994382 174.895053002082,-36.9178830056131 174.894760000571,-36.9184070008727 174.894567005807,-36.9185459950534 174.893396997207,-36.9188599991821 174.893064996016,-36.9190239943196 174.892517004108,-36.919484995341 174.892019996381,-36.9197639933954 174.891710003585,-36.9197240058653 174.891514003453,-36.9197279995803 174.891431007225,-36.919773996243 174.891506008942,-36.9204260041927 174.891341997191,-36.9206100012074 174.890700005372,-36.9207340005451 174.89028600814,-36.9209890034332 174.889698007778,-36.9210229985552 174.889558993999,-36.921093004134 174.889563007434,-36.9212279963616 174.889804001424,-36.9218099923227 174.889808996592,-36.921990005013 174.888891008735,-36.9233610011926 174.887575992679,-36.9250729928259 174.88772494933,-36.9251052165468 174.887385843827,-36.9254740585534 174.887169835252,-36.9256098970024 174.88701290423,-36.9257981307853 174.886763079918,-36.9258865486057 174.886555628762,-36.9258878699125 174.886437602504,-36.9258522069578 174.886337767563,-36.9257214768961 174.885952737883,-36.9257255603007 174.885457894093,-36.9255523160597 174.885191265113,-36.9252027093097 174.885145496406,-36.9255601917684 174.884843112281,-36.9257505470593 174.884466211775,-36.9255230608178 174.884211278646,-36.9254855754204 174.884052009558,-36.9254046189329 174.883726556424,-36.9250786481052 174.883023523211,-36.9251809814251 174.883138494826,-36.925465980897 174.882900066293,-36.9257595345763 174.882244012298,-36.9255367287348 174.881915908671,-36.9255227391783 174.881502673975,-36.925358740231 174.881177197997,-36.9251593383243 174.881131483148,-36.9246905218142 174.881314634877,-36.9245786851285 174.881670708497,-36.924632066933 174.88179090701,-36.9246011793918 174.881723316181,-36.9242142529287 174.881789282058,-36.9241584488959 174.882215086495,-36.9241296612941 174.881759694326,-36.9238319403121 174.881728703143,-36.9237091725672 174.881870870016,-36.9236223651641 174.881841933073,-36.9235972236097 174.881392017343,-36.9236391446066 174.881294752473,-36.9236042462168 174.881253812532,-36.9238072055983 174.881098064331,-36.9238120127805 174.88038346288,-36.9232356893421 174.879960754139,-36.9230033805623 174.879984388507,-36.9227147863733 174.880222080788,-36.9222903858196 174.880472728554,-36.9220829640513 174.880392915516,-36.9219854560342</coordinates></LinearRing></outerBoundaryIs></Polygon></Placemark></Folder></Document></kml>