<?xml version="1.0" encoding="utf-8" ?><kml xmlns="http://www.opengis.net/kml/2.2"><Document id="root_doc"><Folder><name>Pakuranga.final</name><Placemark id="Pakuranga.final.1"><name>Pakuranga (polygon: official_shp)</name><description></description><Style><LineStyle><color>ff0000ff</color></LineStyle><PolyStyle><fill>0</fill></PolyStyle></Style><Polygon><outerBoundaryIs><LinearRing><coordinates>174.885113035116,-36.9076279031819 174.885212946588,-36.9076890175963 174.884975878043,-36.9080992188914 174.885129469668,-36.9082157228169 174.885478730378,-36.9081346587772 174.88559126495,-36.9085459334197 174.885497668806,-36.9088823227084 174.88523330522,-36.9088348765488 174.885179627152,-36.9090277159977 174.884738621881,-36.9089485889185 174.884713958858,-36.9092877070507 174.884951027748,-36.9093302102871 174.884888226295,-36.9095552200915 174.885035838833,-36.9095817708412 174.884578024654,-36.9112221255814 174.884616371441,-36.9112296640892 174.884542876814,-36.9114908528784 174.884658597466,-36.9115118135904 174.884613335669,-36.9116727251458 174.88443089072,-36.9116395809746 174.88425823973,-36.9122531291764 174.884361466987,-36.9122718295846 174.884309437528,-36.9124567567962 174.884223513268,-36.912441145544 174.884099137985,-36.9128831662974 174.883658782224,-36.9128032491703 174.883630725006,-36.9129189936561 174.883683389765,-36.9129648764142 174.883642562212,-36.9131095881583 174.883563077631,-36.9131447069009 174.883486741335,-36.9134141529188 174.883899385264,-36.9134890257131 174.883763789,-36.914385680001 174.883221616688,-36.9143561846062 174.883134259413,-36.9146663203418 174.883145771098,-36.9148756133753 174.883064747066,-36.914915220445 174.882984042113,-36.9152054774387 174.883402715765,-36.9152804644253 174.883013189789,-36.916682217585 174.882803977318,-36.9166443661013 174.882713052444,-36.9169716767853 174.882570529935,-36.9169458862849 174.882416767037,-36.9172470523652 174.882788972173,-36.9173143965827 174.882740476034,-36.9174889460339 174.884209463221,-36.9177547110616 174.884156692047,-36.9182947062744 174.88447116059,-36.9181799818084 174.884761383678,-36.9184613128968 174.884446541597,-36.9186816524422 174.883136047244,-36.9184446071883 174.88294975141,-36.919098022159 174.883048442636,-36.9191167729716 174.882946698485,-36.9194699663094 174.882233334173,-36.9193343794183 174.881886459229,-36.9201016993858 174.881764911555,-36.9201629962926 174.881847222436,-36.9204651992402 174.881581558495,-36.9205640744369 174.881472577134,-36.9207331733366 174.880701205514,-36.9212950724144 174.880268217073,-36.921766088372 174.880358117398,-36.9218196849459 174.880392915516,-36.9219854560342 174.880472728554,-36.9220829640513 174.880222080788,-36.9222903858196 174.879984388507,-36.9227147863733 174.879960754139,-36.9230033805623 174.879802577339,-36.9230167942098 174.87996739677,-36.9233564480135 174.879912698313,-36.9234312437133 174.879721151818,-36.9235196993397 174.879726372719,-36.924063916558 174.880260839467,-36.9239562864047 174.880393083827,-36.9239794878321 174.880405143532,-36.9240603064446 174.8803293073,-36.9242243511993 174.880146248172,-36.9243562545642 174.879575814912,-36.9249675306443 174.879601197288,-36.9250920993493 174.879739314366,-36.9251648819697 174.879813255018,-36.9252797922277 174.879817342055,-36.9259656107899 174.879697809622,-36.9261050180341 174.87936432834,-36.9262062770021 174.878435304059,-36.926712365894 174.878309137762,-36.9266825667945 174.877956632206,-36.9262814440611 174.877747317254,-36.9261740471142 174.877594319267,-36.9259972320725 174.877050656002,-36.9256676553141 174.876784325445,-36.9256421692958 174.87627932973,-36.9256858501406 174.875296703987,-36.9261106722102 174.874633468434,-36.9259420760881 174.874170383819,-36.9256873590584 174.873831342241,-36.9252349135996 174.873771921517,-36.9249622441419 174.87298800998,-36.9246754960938 174.872987507986,-36.9245291829436 174.872910971874,-36.9245466039621 174.872818288022,-36.924406972354 174.872700832359,-36.9245474512794 174.872570864499,-36.9245682474297 174.872472949651,-36.9247510837341 174.872401403082,-36.9250198496666 174.872437352809,-36.9253637958567 174.872390214332,-36.9254107335674 174.872167669486,-36.925339564583 174.871785460641,-36.9251015541736 174.871429307086,-36.9250315100524 174.871279925376,-36.9250692437113 174.871313092982,-36.925010173118 174.871240108611,-36.9248929800159 174.87110976977,-36.924774784339 174.870951208067,-36.9247259183409 174.870980086934,-36.9246481832856 174.870663045446,-36.9239771822015 174.871041888066,-36.9237584354025 174.871347362963,-36.9234532732326 174.871470957347,-36.9234855088803 174.871663041048,-36.9228753462438 174.871846866149,-36.9227220554146 174.871788715061,-36.9226085377959 174.871828126526,-36.9225014112159 174.872208616959,-36.9219885945694 174.872654427685,-36.9215096124061 174.872912737917,-36.9214312356307 174.873010692796,-36.9214669349804 174.873303003007,-36.9218724326007 174.873660013789,-36.9221896590562 174.873721550527,-36.9219436932293 174.874004739004,-36.9217233620883 174.874076770364,-36.9212086841073 174.874623724815,-36.9209316821714 174.875039521568,-36.9210139506901 174.875229244838,-36.9209899450853 174.87503993499,-36.9202151533654 174.875102892171,-36.9201214621634 174.875247927381,-36.9200415809433 174.875610491331,-36.9200237214235 174.875365956734,-36.9199926654491 174.875074224626,-36.9200318261339 174.874921052112,-36.9199875950254 174.874653827646,-36.9201647518412 174.874466380139,-36.9201396860909 174.874305581411,-36.9198921647387 174.874301715546,-36.9197340324291 174.874487916269,-36.9195352862013 174.874424603049,-36.9193529283023 174.874445511119,-36.9195594556659 174.87428097704,-36.9197216313144 174.874117713743,-36.9202266523045 174.874023930969,-36.9203315344395 174.873882981071,-36.9203327149806 174.873450430773,-36.9201528404465 174.873327924464,-36.919972206244 174.873246857814,-36.9195794857005 174.873374931854,-36.9189575780481 174.873371125309,-36.9183107823625 174.873276840164,-36.9181191735964 174.8730658242,-36.9179482552706 174.873326597267,-36.918295294387 174.873255561677,-36.9188572676469 174.873160798452,-36.9191291629495 174.872836156953,-36.9194575227896 174.872769882579,-36.9196136680267 174.87256213432,-36.9197662928549 174.872131528201,-36.9195896473431 174.872076774633,-36.9195014555965 174.872066755988,-36.9192899682568 174.871847612245,-36.9191466472677 174.87150513825,-36.919259934896 174.870676587733,-36.9193493829711 174.869868362436,-36.919313182949 174.869780369244,-36.919364143783 174.869643982014,-36.9196152007054 174.869516242689,-36.9197005199275 174.86917293188,-36.9197494814113 174.868638191795,-36.9199158544401 174.868400286195,-36.9199176716931 174.86829880151,-36.9199698252525 174.868073008241,-36.9203006225724 174.867649029353,-36.9206450153498 174.867476603854,-36.9206872310242 174.867185620645,-36.9210569154296 174.866899159859,-36.9211367877213 174.866385808297,-36.9214130775451 174.865775972679,-36.9214173348389 174.865442500155,-36.9209932350788 174.86525437704,-36.9209146115952 174.865104549569,-36.9207816171399 174.865092501712,-36.9206799985614 174.865176061885,-36.9204798394226 174.865135055686,-36.9204667031885 174.86499564427,-36.9205960781404 174.864951364926,-36.9207405946231 174.865024215395,-36.9212262755441 174.864993717956,-36.9213096120412 174.86486882759,-36.9214543318134 174.864459329552,-36.9214769199205 174.864424448151,-36.9215451090089 174.864433014239,-36.921585288798 174.86489066871,-36.9217681072325 174.865009831993,-36.9219962429278 174.864966667393,-36.9220979345604 174.864619826972,-36.9221324785605 174.864465159674,-36.9222915115649 174.864327597572,-36.9222959823228 174.864030913736,-36.9221704359063 174.863511736607,-36.9220502849857 174.863038697135,-36.9218295361533 174.862915192522,-36.9216617964312 174.862491841282,-36.9213018400384 174.862000597307,-36.9209726064207 174.861764416697,-36.9206253187143 174.861775175329,-36.9202079445744 174.861666084249,-36.9200984155508 174.861834997553,-36.919793439817 174.862280169869,-36.9198131583542 174.86240639744,-36.919640201701 174.863462244407,-36.9188493786226 174.863550803898,-36.9187336770319 174.863498257753,-36.918633223726 174.863250174017,-36.9185016775714 174.8628342183,-36.9184962940608 174.862774176237,-36.9184038373552 174.862773719475,-36.9182843013388 174.862907172814,-36.9180449196831 174.862933501037,-36.9178828266964 174.862562381146,-36.9174864268785 174.862557865284,-36.9172638333823 174.862945281052,-36.9166552184142 174.863145442207,-36.9165455780942 174.863421679894,-36.916500209435 174.863731984065,-36.916601300258 174.864034400584,-36.9169136756897 174.864230148102,-36.9170345878795 174.864542374752,-36.9170454619305 174.864215276448,-36.9169404673906 174.8640482094,-36.9167091329393 174.864047141861,-36.9164804862023 174.864317333869,-36.9161692465743 174.864695581107,-36.9155986182606 174.86490566635,-36.9154350021765 174.865153075363,-36.9153767634191 174.865469145303,-36.9155864369369 174.865642120951,-36.9155863379925 174.86573189437,-36.915746003706 174.865863049806,-36.9158259687699 174.866664710276,-36.9158928194029 174.866853143749,-36.9160303922916 174.866895248148,-36.9162202769296 174.867046892847,-36.9161089925736 174.867328387915,-36.9160721966083 174.86828086477,-36.9163396890991 174.868594296936,-36.9163375995932 174.868278550143,-36.9162111556693 174.867938478167,-36.9162198698587 174.86782908527,-36.9159892127575 174.867221763859,-36.9159515890679 174.867026814372,-36.9158109069013 174.867130105043,-36.9157135464284 174.866727548701,-36.9155074045835 174.866425013083,-36.9155654710894 174.866176846686,-36.9155105003935 174.865965041392,-36.9155868022631 174.865479519967,-36.9153533328155 174.865322124759,-36.9152323790529 174.864753029004,-36.9149907202105 174.864496748519,-36.9149219019776 174.864155760418,-36.9150103478691 174.864093396229,-36.9149009265854 174.86391081031,-36.9152336798305 174.863251098714,-36.9156328841589 174.863032250057,-36.9156439644288 174.862739710831,-36.9155835725589 174.862122212705,-36.9156156508579 174.861541906714,-36.9157064598685 174.861364165313,-36.9157894265911 174.861240965369,-36.9156983870563 174.861241320706,-36.9158122869742 174.86136554305,-36.9160279813523 174.861353979945,-36.9161714349447 174.86120696127,-36.9163433869289 174.860958875519,-36.9164398054279 174.860972776076,-36.9166592010313 174.860849821189,-36.916805198669 174.860508243265,-36.9169385401036 174.860491405646,-36.9172647237547 174.86037142146,-36.9175836894381 174.860000013041,-36.9177190317095 174.859544185392,-36.9176373089195 174.859448254607,-36.9175566519147 174.859422535554,-36.9173587394048 174.85954225027,-36.9169830487243 174.859389533237,-36.916552840423 174.85922401851,-36.9164344491184 174.858869998146,-36.9163141700722 174.858529878632,-36.9162636204385 174.858432963043,-36.9161376477622 174.858619778595,-36.9156401738686 174.858771237235,-36.9147552219789 174.858924661833,-36.9146623160079 174.859571372688,-36.914484855323 174.859840537328,-36.9143680056454 174.859901301001,-36.9142034757053 174.860136681096,-36.9139433809065 174.860280624997,-36.9136205474082 174.860337715513,-36.913296983232 174.860325931403,-36.912925995054 174.856518263764,-36.911220989394 174.85648659394,-36.9111060492612 174.856434234784,-36.9110890016906 174.856558986514,-36.910604092705 174.860237222593,-36.912191493361 174.859597943903,-36.91126491973 174.859082491758,-36.9107071957903 174.858611614565,-36.9100749976848 174.858563300916,-36.9097057551353 174.858432269838,-36.9097790083388 174.858254344851,-36.9095877780288 174.858324454193,-36.9095270684075 174.858322412591,-36.909312437561 174.858919322539,-36.9086440349513 174.858837884505,-36.9085417547398 174.858939092602,-36.9084925095711 174.859078832127,-36.9086497690786 174.85920439378,-36.9085912292795 174.859167796203,-36.9085293711204 174.859213297944,-36.9085104656088 174.859283741853,-36.9086212206632 174.859417612441,-36.9085675853555 174.859554286224,-36.9083642052079 174.859615125786,-36.9084054651851 174.859646129534,-36.9083681642739 174.860050689577,-36.9077983044452 174.860227457834,-36.9076279915681 174.860332635028,-36.9074055181069 174.860588814268,-36.9072896021982 174.860574654416,-36.9071204500345 174.860638042104,-36.9071619751306 174.860729426697,-36.9071308015686 174.860797947897,-36.9070090047687 174.86077177095,-36.9069482528926 174.860945589495,-36.906871299193 174.861084961972,-36.9070154451545 174.861391394233,-36.9070374996854 174.861552167052,-36.9071595310046 174.861657190557,-36.9073296067268 174.861720891824,-36.9079267361745 174.86162166391,-36.9082775588028 174.861844489272,-36.9087169453591 174.861782461477,-36.9091488339476 174.861858888789,-36.90959039359 174.861768433824,-36.9101099352635 174.861798933043,-36.9102938272342 174.861692984149,-36.9104532691661 174.86197526453,-36.9105780782484 174.862071230304,-36.9107518872264 174.862465844686,-36.9107612337344 174.862520270946,-36.9105696170588 174.862398699723,-36.9102114135928 174.862436194283,-36.9099757200816 174.862550774241,-36.9098113272761 174.862718823692,-36.9097292058169 174.862835759322,-36.9097287940015 174.86299561522,-36.9098679365931 174.863067790088,-36.9101016115669 174.862952695062,-36.9105782617369 174.863112132177,-36.9108422528849 174.863402417816,-36.9107141723613 174.86363113908,-36.9107565229772 174.864110732189,-36.9107162141992 174.864334534391,-36.9107807473982 174.864559957602,-36.9106737339793 174.864781806292,-36.9106345223549 174.864896244942,-36.9104166991807 174.864348826487,-36.9101341658074 174.864113264062,-36.9100855714115 174.864015298815,-36.9099991453668 174.864069283581,-36.909725470425 174.864190247621,-36.9095555598281 174.864117594138,-36.909327330745 174.864237236598,-36.9091146370315 174.86421619662,-36.9088588771962 174.86417397019,-36.9088186758378 174.864045243174,-36.9088422442331 174.863494676573,-36.9091477258755 174.863314834135,-36.9091039573143 174.863135987851,-36.9089632689335 174.862731829776,-36.9084866616971 174.862606893048,-36.9077100430377 174.862360083609,-36.9081967297064 174.862349055751,-36.9085354656861 174.862271458496,-36.908544380657 174.862288580408,-36.9083613995893 174.862227838251,-36.9081722395752 174.862410102988,-36.9079000950748 174.862337362481,-36.907594833646 174.862405073357,-36.907466066109 174.862611911062,-36.9072980804287 174.863016323965,-36.9072047623847 174.863170916703,-36.907083970141 174.863313462942,-36.9071728774302 174.863751407334,-36.9072810362236 174.864288187743,-36.9070286955637 174.86482593105,-36.9070075879864 174.865438301606,-36.9072617983098 174.865805810652,-36.9073073475791 174.866116188838,-36.9074543169913 174.866287386793,-36.9074125104233 174.866384656105,-36.9074698616959 174.866355268804,-36.9075523907255 174.866462187255,-36.9076458450945 174.867400097856,-36.9081415791296 174.868146359882,-36.9084209285897 174.868968113773,-36.9086045258136 174.869487192682,-36.9085267442887 174.869345818268,-36.9086244727617 174.868757738287,-36.9088026137358 174.868717272142,-36.9089835995865 174.868553849633,-36.9091153167937 174.868728437953,-36.9092014635952 174.868846597154,-36.9093417085452 174.868862279471,-36.9095667733183 174.868705242754,-36.9098665832199 174.868337542844,-36.910093603165 174.868242941303,-36.9102218649924 174.86873779019,-36.9100192940042 174.869267408065,-36.9100424451641 174.869611764072,-36.9104620240019 174.869737636611,-36.9106973333401 174.869785983159,-36.9107058639097 174.869975679852,-36.9104376047227 174.870518785931,-36.9103938608129 174.870577850589,-36.9103573697869 174.87004251633,-36.9101803363391 174.869854022883,-36.9099348395661 174.869835020005,-36.9097927659764 174.870019440923,-36.9095315678076 174.86993484687,-36.9093935752582 174.869959128083,-36.9091868668763 174.869650672803,-36.9090746567666 174.869578253351,-36.9089772147319 174.869570171417,-36.9087615898343 174.869692856746,-36.9084929609388 174.869549352752,-36.9079799495591 174.869993827743,-36.9078830334395 174.870790873433,-36.9075334398923 174.871380202421,-36.9067754786923 174.87199731453,-36.9064268960581 174.872385106071,-36.9060867703532 174.872778624051,-36.9058528306707 174.873896802417,-36.9054966129511 174.874260402231,-36.9054280643046 174.875587237065,-36.9054433289673 174.875932301291,-36.9053055598235 174.875980291325,-36.905083120905 174.880687702669,-36.9060156680801 174.880548323828,-36.9064952865888 174.881760496506,-36.9066866804376 174.881698377309,-36.9070016720586 174.88208020699,-36.9070585358031 174.882059927629,-36.907149272213 174.882403733475,-36.9072174063804 174.88250968322,-36.9068049016823 174.882830341454,-36.9068597952006 174.882734347273,-36.9072733807551 174.883535067245,-36.907432650207 174.883517520491,-36.9074895313835 174.883736648305,-36.9075331094171 174.883711049874,-36.9076080194438 174.884230426356,-36.9075777108744 174.884239439099,-36.9076589228247 174.884428219806,-36.9075772279761 174.884642332765,-36.9078963605908 174.884848139255,-36.9077296690322 174.884868512676,-36.9076572049593 174.885113035116,-36.9076279031819</coordinates></LinearRing></outerBoundaryIs></Polygon></Placemark></Folder></Document></kml>