<?xml version="1.0" encoding="utf-8" ?><kml xmlns="http://www.opengis.net/kml/2.2"><Document id="root_doc"><Folder><name>Panmure.final</name><Placemark id="Panmure.final.1"><name>Panmure (polygon: official_shp)</name><description></description><Style><LineStyle><color>ff0000ff</color></LineStyle><PolyStyle><fill>0</fill></PolyStyle></Style><Polygon><outerBoundaryIs><LinearRing><coordinates>174.867641948,-36.891067795 174.867903345163,-36.8916796922802 174.86795069,-36.892076453 174.867743169,-36.892665909 174.867653974,-36.8934786089999 174.867820768,-36.8944221839999 174.8680565277,-36.894994795034 174.868089319057,-36.8952227672239 174.868211149578,-36.8954393167042 174.868256136576,-36.8958479057049 174.868398918206,-36.896196226135 174.868533493116,-36.8969308111758 174.868429159597,-36.8975233635584 174.868089418978,-36.8982166116175 174.868042812625,-36.8985458995759 174.867903107552,-36.8989514948274 174.86786399864,-36.899862096789 174.867964441284,-36.9003568696163 174.868555475513,-36.9014710467752 174.868567665389,-36.9017867482077 174.868874826302,-36.902089632144 174.86857866407,-36.9022980777505 174.868268914305,-36.9024382174067 174.868300877678,-36.9024756501804 174.867480167519,-36.9027635007989 174.866991138124,-36.9026503609752 174.866415947025,-36.9026959785721 174.866220494696,-36.9029556583157 174.865966437423,-36.9031459029904 174.865204696915,-36.9035855710873 174.86457643,-36.903877458 174.863997382542,-36.9040235101536 174.863812564236,-36.903743399766 174.863505142044,-36.9035344395803 174.863334425128,-36.903801184256 174.863184862063,-36.9039433997878 174.86293830055,-36.9040291119337 174.862886840024,-36.9042079935719 174.862595262266,-36.9044262604337 174.86222505596,-36.9045430831812 174.862000580404,-36.9045464062932 174.861391050132,-36.9048377044058 174.861225953645,-36.9048683715643 174.860865619648,-36.9048274094216 174.860615789939,-36.9047269402495 174.860650146315,-36.9047858317081 174.860217493364,-36.9053052737047 174.859965095544,-36.9053768610388 174.859611730263,-36.9056731730988 174.859575018625,-36.9058711882754 174.859338569747,-36.9061757330878 174.859048544174,-36.9063189300803 174.85893652001,-36.9066244040407 174.858867472335,-36.9066747090752 174.858693731941,-36.9065601452602 174.858495172823,-36.9066720738342 174.858398346318,-36.9070355984295 174.858048085747,-36.9073011095863 174.857587067,-36.907834217 174.857498854707,-36.9078093874489 174.857060999334,-36.9073500988282 174.856976355435,-36.9071794983751 174.856698911073,-36.9069256652827 174.856578942306,-36.9069333866891 174.856356674965,-36.9066189603736 174.856207114215,-36.9065151533825 174.855996091017,-36.9059354027707 174.855815062534,-36.905786656762 174.855678941412,-36.9055579220324 174.855422257003,-36.9053132523548 174.855308350915,-36.9054567395373 174.855246887,-36.905397706 174.854632014,-36.90448445 174.854194434,-36.9028470599999 174.85372959,-36.9022926339999 174.853301787,-36.9020295979999 174.852739659,-36.901994212 174.852433637,-36.9020905419999 174.852095833,-36.9020512939999 174.851675759,-36.9020810019999 174.851277245,-36.9019076169999 174.850454557257,-36.9019243042371 174.850232999884,-36.9014890008214 174.849603000711,-36.9007729943726 174.849884967655,-36.9006175535706 174.849711654602,-36.9004206424068 174.849934154592,-36.9002873790324 174.849638002549,-36.9000789962072 174.849549004566,-36.9000749966726 174.849383992768,-36.8999209958426 174.849274996281,-36.8999819965507 174.848518003802,-36.8990819994243 174.848258002757,-36.899303993412 174.848163997574,-36.899231997175 174.84889599659,-36.898548006591 174.849280005702,-36.8983330019174 174.850207007852,-36.8974859962147 174.8516740024,-36.8957819995872 174.852237993711,-36.8949999935961 174.85272299863,-36.894212994238 174.853090991618,-36.8934469932507 174.852715003365,-36.8933490047487 174.852989990945,-36.8932299936228 174.853223992237,-36.8932909951883 174.853826005714,-36.8918800036155 174.853868006122,-36.8918869931795 174.854363995803,-36.8904770027267 174.854759994162,-36.8890140005973 174.855283994167,-36.8875189945653 174.856074999305,-36.8876339962985 174.855915992905,-36.888694003599 174.856907004478,-36.8888740022713 174.856975000801,-36.8888390061973 174.857240994389,-36.8888790064233 174.857275992059,-36.8887559924163 174.858648002778,-36.8887500015562 174.858834003614,-36.8883959957313 174.858959001071,-36.8884409960776 174.858770007062,-36.8888019927433 174.859148996544,-36.8889610054136 174.860435992269,-36.8899749974183 174.860837998037,-36.890194006754 174.861216995077,-36.8903269948663 174.861175006578,-36.890545003819 174.862099007808,-36.8906959962191 174.862152002846,-36.8904270004079 174.863065004254,-36.8902870026008 174.863705994472,-36.8899450011427 174.863620992998,-36.8894689919342 174.864012999626,-36.8893150040524 174.864011999158,-36.8899130058242 174.864350994285,-36.889999998653 174.864411000688,-36.8897999982725 174.864663000989,-36.8898580016677 174.864567003551,-36.8901390031718 174.86611099521,-36.8904330000358 174.866256995048,-36.8900329958124 174.866655003173,-36.8901269973297 174.866712000571,-36.8899690016213 174.866797007469,-36.8899309944249 174.866946000057,-36.8901090070382 174.866747996674,-36.8906520069909 174.867678541757,-36.890820884855 174.867641948,-36.891067795</coordinates></LinearRing></outerBoundaryIs></Polygon></Placemark></Folder></Document></kml>