<?xml version="1.0" encoding="utf-8" ?><kml xmlns="http://www.opengis.net/kml/2.2"><Document id="root_doc"><Folder><name>Papatoetoe.final</name><Placemark id="Papatoetoe.final.1"><name>Papatoetoe (polygon: official_shp)</name><description></description><Style><LineStyle><color>ff0000ff</color></LineStyle><PolyStyle><fill>0</fill></PolyStyle></Style><Polygon><outerBoundaryIs><LinearRing><coordinates>174.841585645,-36.96556119 174.841587458,-36.965628747 174.841700938,-36.9656718629999 174.842202508,-36.965527197 174.842339867,-36.9654121529999 174.842605134,-36.964866813 174.842851708,-36.964637251 174.84296283,-36.9645902899999 174.843159287,-36.964586969 174.843471558,-36.964715938 174.843675205,-36.964937789 174.843902072,-36.965024017 174.844604376,-36.9650344619999 174.845175298,-36.9653843299999 174.845320464,-36.96556212 174.84538202,-36.9657639179999 174.845631184,-36.9659678459999 174.845543158,-36.9654907119999 174.845530626,-36.965017722 174.846330519984,-36.964592619341 174.846606176,-36.9643224399999 174.846848557,-36.9639352369999 174.847150672,-36.9636821829999 174.8476559061,-36.9633795165279 174.848128220496,-36.9634141456477 174.848493410075,-36.9635973789641 174.848507270208,-36.9636389869562 174.848391290411,-36.9637621923843 174.848353337054,-36.9642009669552 174.848507953479,-36.9641401304226 174.848644304761,-36.9639950796524 174.848727386342,-36.9636728590341 174.848805899395,-36.9635708013058 174.849293154259,-36.9633552555889 174.849554682872,-36.9633031460258 174.849843082057,-36.9633510374063 174.849997058756,-36.9633111321079 174.850436966266,-36.9634997050759 174.850528159309,-36.9635942818126 174.85067593152,-36.9635844348452 174.850432365738,-36.9631116984462 174.850321378439,-36.9630566591086 174.849443314574,-36.9630507007634 174.84914315075,-36.962989784659 174.848935310739,-36.9631925901403 174.848781443605,-36.9632262660571 174.848472761657,-36.9631962978764 174.848208960634,-36.9630948928857 174.848015979445,-36.9629591919295 174.847839521669,-36.9629261044146 174.847766179,-36.9625890799999 174.847502429,-36.962210563 174.84755017,-36.961894333 174.847860510145,-36.9612792131938 174.849029771,-36.960561135 174.84919762,-36.960535722 174.849451439,-36.960576374 174.84956623283,-36.9604885155647 174.849299703,-36.9601959359999 174.849216331358,-36.9597470191096 174.849267317757,-36.9595593775141 174.849447697,-36.9594264049999 174.849472745,-36.959313282 174.849792204694,-36.9590952050626 174.849861225535,-36.9590906546111 174.849888252421,-36.9587091201777 174.850057722538,-36.9584491897711 174.850225790096,-36.9583087191319 174.85002989298,-36.957493818398 174.850107415,-36.9569138539999 174.8502688436,-36.9568171068784 174.850371374792,-36.9568407869433 174.850652103992,-36.9566389274432 174.850770852934,-36.9566973165993 174.850830778966,-36.9566012283354 174.851114511974,-36.9565036196469 174.851092155876,-36.9564431401075 174.850927142884,-36.9563534560123 174.850674379468,-36.9563752042049 174.850509351873,-36.9563382062999 174.850199284612,-36.9561897152701 174.849988438594,-36.9559998109647 174.849901424171,-36.9558305780718 174.849889489625,-36.9554720761308 174.850122030068,-36.9553137011629 174.851646153429,-36.9547489261519 174.851963043711,-36.9546786211026 174.852874067044,-36.9547077323535 174.853520586563,-36.9542663661575 174.853990035,-36.954140504 174.85432741,-36.954156321 174.854440879,-36.9541994249999 174.85460174855,-36.9544331104932 174.854690596213,-36.9546314122919 174.854683088252,-36.9548720899457 174.854064164383,-36.9553849647583 174.854045647767,-36.9554838734434 174.854417194843,-36.955437709829 174.85454532508,-36.9553384603229 174.854845013578,-36.9553219831366 174.855196115902,-36.9555855539477 174.855379526199,-36.955558205883 174.855702508431,-36.9556672344335 174.8557339758,-36.9560283267565 174.855947433062,-36.9561516283739 174.856041023725,-36.9562932086757 174.855834054447,-36.9564359693399 174.856122387378,-36.9564265437476 174.856203056913,-36.9566995667529 174.856346330954,-36.9568668983652 174.856251543829,-36.9571205799781 174.855983376685,-36.9572049407034 174.855936392184,-36.9573338570251 174.856036605421,-36.9574040683977 174.856019021823,-36.9572478755526 174.856083183175,-36.9572120959361 174.856327365609,-36.9573099489986 174.85653173467,-36.9573299690673 174.856924990667,-36.9576546915774 174.857142907359,-36.9577031758575 174.857259625582,-36.9577843601681 174.857144718297,-36.9582061752381 174.857135418171,-36.9586973789232 174.857204337858,-36.9590851774255 174.857346938223,-36.9591222887683 174.857392854982,-36.9590350033432 174.857503215026,-36.9590051941554 174.857729811136,-36.95914256093 174.858049366325,-36.9595339828956 174.859178513091,-36.9597395089835 174.859524759205,-36.9585308676498 174.85959691159,-36.9585441034493 174.859562847308,-36.9586636469176 174.861688361489,-36.9590539217711 174.861851230297,-36.9584853714149 174.86200631652,-36.9585138684231 174.86273599372,-36.9598820028001 174.863486995465,-36.9608510066032 174.864532996362,-36.9617900025678 174.865782007579,-36.9627199935781 174.865726996905,-36.9635170069555 174.866718003252,-36.9641790067061 174.866860997592,-36.9643029986704 174.866842992488,-36.9643940018792 174.867376999137,-36.9639150058352 174.867451002088,-36.9640199966409 174.868409002115,-36.9647110025892 174.868307007091,-36.9648769942668 174.869860003274,-36.9658110028712 174.875427001409,-36.9700669999567 174.877559997452,-36.9716430007563 174.878302004247,-36.9723119963478 174.878796004179,-36.9728619985978 174.879268999513,-36.9736300034235 174.879874000176,-36.9750579926508 174.879869003168,-36.9752359942726 174.880061993194,-36.9758969946596 174.881344999508,-36.9796449984461 174.880772007347,-36.9797919979131 174.880284000315,-36.9800309933597 174.880266000527,-36.9799900030127 174.879922992023,-36.9801079952474 174.879961006235,-36.9801889959527 174.879483004347,-36.9803560006035 174.879410993032,-36.980234999871 174.878764007158,-36.9804580018083 174.878456005577,-36.9798789918214 174.878230003672,-36.9800810040681 174.877844005151,-36.9798039987498 174.877508993578,-36.9801040025582 174.877114002816,-36.9803280010856 174.876969008707,-36.9802240036003 174.876922992074,-36.9802649929312 174.876753007985,-36.9801430000375 174.876479005063,-36.9803890048605 174.876481999432,-36.9804390073244 174.876211998708,-36.9802450029463 174.876308993455,-36.9802409936116 174.876493004106,-36.9800749956325 174.876046994855,-36.9797549978997 174.876148994295,-36.9796640042535 174.875518002483,-36.9792109982052 174.875762994254,-36.9789180000508 174.875300993317,-36.9786699991889 174.875166004372,-36.9785049928635 174.874978007308,-36.9787309926177 174.874555999046,-36.9785040055817 174.874433997093,-36.9786489932155 174.87352599388,-36.9782310028025 174.873048004389,-36.9788760020635 174.873152006851,-36.9789240030904 174.872885996982,-36.9792960022649 174.873142000292,-36.9794610021651 174.872896000112,-36.9795719928255 174.872629004359,-36.9793509969882 174.872620994373,-36.9792669949254 174.872391998519,-36.9794219985932 174.872503997476,-36.9794450041238 174.872645007657,-36.9795619921434 174.872289998889,-36.9798379994182 174.871673008672,-36.9799859944397 174.871563007483,-36.9801109944069 174.872072998552,-36.9803990002338 174.871912004397,-36.980522994142 174.871417002168,-36.9802460005526 174.871034997706,-36.980680995819 174.871295993809,-36.9808290006218 174.871064991986,-36.981091004705 174.870778991641,-36.9809289987052 174.870648996309,-36.9810770008372 174.870230995098,-36.9808420001771 174.869890002477,-36.9812309960173 174.870232004938,-36.981437998428 174.870116991297,-36.9815659936171 174.870681007926,-36.9819069956383 174.870499991948,-36.9821000039516 174.870382993288,-36.982028995796 174.870210994928,-36.9822240003703 174.870350997123,-36.9823080063046 174.870180997314,-36.982503997821 174.869928006652,-36.9823609938734 174.869672993958,-36.9825800006915 174.869690002937,-36.9826480025914 174.869586994715,-36.9827649960002 174.869857997185,-36.9829200008461 174.869808994634,-36.982974992225 174.87013300706,-36.9831570018302 174.869830996401,-36.9835009972049 174.870208996175,-36.9837160028912 174.869943007595,-36.9840069979656 174.870457003419,-36.9841749961892 174.870421005955,-36.9842469996921 174.870616996554,-36.9846129966964 174.872138004513,-36.9840879992125 174.871928999483,-36.9836670038264 174.872164001947,-36.9835860030362 174.872469001252,-36.9842000044265 174.873034994843,-36.9839899965683 174.872993997243,-36.9839149920653 174.873808999967,-36.9836340026817 174.873970005305,-36.9839349985431 174.873720998539,-36.9840210018582 174.874168850558,-36.9848558004395 174.872759650213,-36.9853422833875 174.872947733531,-36.9857283660298 174.874106398074,-36.9853455711935 174.874481275763,-36.9860814328394 174.874251002527,-36.9861610025862 174.874610994382,-36.9868319971036 174.873646998356,-36.9871649970176 174.873834991681,-36.9875500068985 174.874815005125,-36.9872120033736 174.874971991529,-36.9875060074094 174.873970002261,-36.987851996989 174.874551006161,-36.9889830026789 174.873886005917,-36.9890739996477 174.873964997743,-36.9893370056497 174.87375699729,-36.9894360020554 174.873686999017,-36.98963599223 174.873313002159,-36.9896280039581 174.873230002023,-36.9895160032351 174.873071995498,-36.9894869974188 174.869737005852,-36.9901699938656 174.868058995467,-36.9903159985398 174.867284991157,-36.9904759962056 174.867935997208,-36.991673995773 174.868075003296,-36.991704993857 174.868070004329,-36.9917720002884 174.867775993742,-36.9917240007495 174.867290993286,-36.9914780064149 174.866834997459,-36.9913919997484 174.866025004978,-36.9914770039694 174.86529900068,-36.9914290054472 174.865094004659,-36.9914999944444 174.865018006901,-36.9915889946255 174.86499899708,-36.991737006591 174.864800996169,-36.9918699927119 174.864688998817,-36.9921460009454 174.864281995127,-36.9923549997545 174.864420992703,-36.9926190038314 174.864165997898,-36.9927690034132 174.863829992047,-36.9928530019188 174.862964997289,-36.9933710046904 174.862700994362,-36.9934479957662 174.862192006295,-36.9934690019832 174.861990992734,-36.9936119938628 174.86192999741,-36.9938140046756 174.862044991774,-36.9942809948526 174.862053003426,-36.9947719927638 174.862152004143,-36.9950860008948 174.862227004788,-36.9956879975555 174.8622090082,-36.9961559991514 174.862000004072,-36.9964349954242 174.861486003845,-36.9966210048068 174.861395006494,-36.9970359979742 174.861260004151,-36.9972539976646 174.86081500237,-36.9974499954065 174.860884999152,-36.9976210021505 174.860601991565,-36.9977199984263 174.860293997457,-36.9971360017335 174.860142993686,-36.9963740020505 174.859453993413,-36.9950300025594 174.859021004352,-36.9943920027426 174.857521005171,-36.9925180053746 174.856039991757,-36.9900599942335 174.855337998651,-36.9903040060914 174.855453005426,-36.9904999965409 174.855092008007,-36.9906410049654 174.855175002678,-36.9904520001086 174.855129994733,-36.9903760056016 174.853967003847,-36.990778997232 174.855350007045,-36.9927460043256 174.855301998094,-36.9929209957687 174.853193008338,-36.9939049948506 174.852385993709,-36.9941029998326 174.851911999595,-36.993338006299 174.851607007217,-36.9930300055604 174.850757996639,-36.9915319956998 174.850538997609,-36.9916080010131 174.850202999919,-36.9916420001997 174.849153005476,-36.992006005848 174.848906004581,-36.9915489975925 174.848468003096,-36.9917010001735 174.848553006989,-36.9917309966965 174.848714992749,-36.9921089942998 174.847665998933,-36.9924480049375 174.847729008489,-36.9925489993714 174.847449005795,-36.9926469972718 174.847403991986,-36.9925640002697 174.845812993916,-36.9931159953444 174.84622999515,-36.994411003392 174.846279007363,-36.9944009960567 174.846420992701,-36.9948400014395 174.84424399504,-36.9933699964007 174.844360000103,-36.9931259986667 174.844652992472,-36.9928269978292 174.844247994881,-36.9928739934103 174.840716001008,-36.9907749984122 174.838911993208,-36.9894839961893 174.838855995124,-36.9895469915805 174.83816800339,-36.9891299942217 174.838048001744,-36.9889560026916 174.83812900649,-36.9888700009292 174.83702800098,-36.987995003023 174.836731003619,-36.9875270059923 174.836588992531,-36.9876000004058 174.836566000919,-36.9873220010408 174.836339992901,-36.9873339996982 174.836286004284,-36.9871520049662 174.836176005103,-36.9870109989185 174.834074003191,-36.9853299991884 174.83394500827,-36.9850129969156 174.831954000898,-36.983252994307 174.831842005679,-36.983350995431 174.830745995397,-36.9826789966527 174.830590002726,-36.9821830041239 174.829944998004,-36.9817590038975 174.82973399237,-36.9819709942788 174.829584994346,-36.9818249921533 174.830221994335,-36.9811880065678 174.829770003572,-36.9813289965639 174.829910993073,-36.9811879964074 174.829672999189,-36.9810350032056 174.830201005166,-36.9805069917776 174.830338007374,-36.9804930023087 174.830989994023,-36.9797799960511 174.830765001235,-36.9796139930748 174.831121002292,-36.9792580010317 174.831382992924,-36.9789089963327 174.831623000653,-36.9790630042439 174.832794996459,-36.9778910037968 174.832930007077,-36.977866002805 174.833064999096,-36.9777309988285 174.833141000875,-36.977780006732 174.833417002329,-36.9775039952612 174.833437997067,-36.9773149936007 174.833803999624,-36.9769519936431 174.834047002434,-36.9766009980216 174.835804996774,-36.9748519975868 174.836280996053,-36.9750359982666 174.836454003822,-36.9749019985699 174.836255994171,-36.9748249981578 174.836500999519,-36.9744170033509 174.836862004838,-36.9745569967764 174.837074993625,-36.9741980043219 174.837525994935,-36.974074005663 174.837618005643,-36.9736320062791 174.837488794184,-36.9735822828225 174.837243195193,-36.9739904456458 174.836551004697,-36.9737222320912 174.836751104352,-36.9733901438662 174.836500203203,-36.97318521085 174.835959800438,-36.9729400522267 174.835706801764,-36.9733447752499 174.835732991957,-36.9734052542029 174.835314706707,-36.9732432666145 174.835573194654,-36.9728144141464 174.835264997628,-36.9725627713166 174.839844994062,-36.9689521562757 174.840266906361,-36.968865936406 174.84031870447,-36.9683614813626 174.840797204683,-36.9683611259954 174.840815503551,-36.9681802217043 174.840417706656,-36.9681539384022 174.840273405954,-36.968183460446 174.840315105933,-36.9677771153613 174.839960502758,-36.967753623659 174.839782303517,-36.9677895309419 174.839749204441,-36.9676858543009 174.840755001875,-36.9668945618958 174.840512005342,-36.966696301381 174.840948005572,-36.9665702992138 174.841277005449,-36.9666299999739 174.841431006009,-36.9663950033066 174.841215001932,-36.9660709935755 174.841483003557,-36.9658900019903 174.84143899494,-36.9654939965848 174.841516994438,-36.9654810017745 174.841585645,-36.96556119</coordinates></LinearRing></outerBoundaryIs></Polygon></Placemark></Folder></Document></kml>