<?xml version="1.0" encoding="utf-8" ?>
<kml xmlns="http://www.opengis.net/kml/2.2">
<Document id="root_doc">
<Folder><name>Papakura.final</name>
  <Placemark id="Papakura.final.1">
	<name>Joined Boundary</name>
	<description></description>
	<Style><LineStyle><color>ff0000ff</color></LineStyle><PolyStyle><fill>0</fill></PolyStyle></Style>
      <Polygon><outerBoundaryIs><LinearRing><coordinates>174.987435995705,-37.0663309934055 174.98731899728,-37.0665529945751 174.987344000489,-37.0666740054028 174.987025003991,-37.0667850044311 174.986988999415,-37.0668469941852 174.987132007143,-37.0669600060642 174.987388999671,-37.0669610011701 174.987456007995,-37.066999003636 174.987330991734,-37.0670850021793 174.987317000096,-37.0671569959486 174.987413000263,-37.0673070007669 174.987394995133,-37.0674090060437 174.9873309997,-37.067512006565 174.987245001529,-37.0675330030448 174.987137005285,-37.0675390066574 174.986884002564,-37.0674300055981 174.986709005855,-37.0675399940583 174.986635998626,-37.0677359917994 174.986776992427,-37.0681510001153 174.986622002521,-37.0682280060453 174.986160006376,-37.0681949996019 174.985967003011,-37.0684119942346 174.985365001797,-37.0685990048132 174.985127003519,-37.0687759963685 174.984993997222,-37.0688109982641 174.984732997737,-37.0687930038187 174.984593996209,-37.0688670050095 174.984551002975,-37.0689799965701 174.984404992103,-37.068517996355 174.984353998666,-37.0681290014132 174.984407991467,-37.0679940003442 174.982904997986,-37.0678270063829 174.982234992394,-37.0681889968834 174.981849005217,-37.0688139946942 174.981286008596,-37.069377003583 174.981622992527,-37.0699590037335 174.981093006787,-37.0703779945974 174.981039995081,-37.0707129960847 174.981399003936,-37.0713650000249 174.981623996641,-37.0713759930565 174.982171999517,-37.0711839941922 174.982248003864,-37.0711940049261 174.982157996762,-37.0713210043462 174.981934007341,-37.0714690035808 174.980888006753,-37.0715990033136 174.98037200093,-37.0716049957404 174.979897999196,-37.0717050031307 174.979357004852,-37.0721270065576 174.978880998775,-37.072631995572 174.978452997729,-37.0731679979058 174.978365991451,-37.0733759995881 174.97833699886,-37.0735119967554 174.978382003362,-37.0736080040288 174.97877399538,-37.073736993139 174.979094999694,-37.0737520016775 174.980048997217,-37.0736759986768 174.9802100016,-37.073720994889 174.980334999914,-37.0738160069356 174.980464007418,-37.0740709918471 174.980424003132,-37.0744450004171 174.980233007289,-37.07477099503 174.979936004638,-37.0749740013013 174.979769993182,-37.0749949947017 174.979613991736,-37.0749169959286 174.979265997369,-37.074877994821 174.979065993456,-37.074804003328 174.978931002959,-37.074732992075 174.978705007885,-37.0744960040413 174.978413003173,-37.0743349920578 174.978330003814,-37.0743350034272 174.978039998896,-37.0745349960185 174.977938002971,-37.0748919970915 174.97780899243,-37.0750970002126 174.977370006444,-37.0750749999203 174.976866998033,-37.0754159966638 174.976777991412,-37.07543400301 174.97631399547,-37.0759409925413 174.976201999275,-37.0758510059161 174.975757000419,-37.0761610039535 174.97530800214,-37.076750001668 174.975075007228,-37.0768539960452 174.975085995956,-37.0769250071895 174.973962004568,-37.077301001277 174.973800992459,-37.0772730012944 174.973062006781,-37.077434002567 174.971864995109,-37.0780280040912 174.970716998882,-37.0781739960302 174.970110000692,-37.0782979991141 174.970114008388,-37.0783759981541 174.969252998961,-37.0782840048864 174.969040005048,-37.0781819984402 174.968851004767,-37.0779920063366 174.968682007627,-37.0779310016758 174.968518007914,-37.0779640069995 174.968201992428,-37.0781469931327 174.967885006502,-37.0781189957114 174.967671992128,-37.0778830057418 174.96741100653,-37.0777479964159 174.966561005194,-37.0771309942925 174.966270003448,-37.0770270049655 174.966021006846,-37.0771490050858 174.965378005788,-37.0773290027524 174.964845008485,-37.0775860058 174.964142001917,-37.0776650063154 174.963282005306,-37.0778769985608 174.962197999386,-37.0780140063708 174.962131998789,-37.0779999922203 174.962126004632,-37.0779489921393 174.961967996195,-37.077950007203 174.961457004589,-37.0780899920542 174.960719997348,-37.0781869945549 174.959249996058,-37.0781659953131 174.959062998608,-37.0782200007782 174.958768997046,-37.078441002973 174.95761199075,-37.078444995164 174.957255993239,-37.0772859980814 174.956967996133,-37.0765640033862 174.956977008257,-37.0763840020247 174.956501004841,-37.0755489962741 174.955917004625,-37.0747490013414 174.955263007814,-37.0740340061394 174.954394996116,-37.0732770073656 174.95255800527,-37.0720409936922 174.951654992128,-37.0713440002298 174.951362005479,-37.0716220046009 174.951182005962,-37.0717039971512 174.95160659664,-37.072081973679 174.951439833736,-37.0722171437493 174.951293993646,-37.072100996648 174.951110527405,-37.0722497396513 174.950828921649,-37.0722273328507 174.950446991895,-37.0725369960194 174.95100200411,-37.073315003576 174.949159997304,-37.0733100055646 174.949064001194,-37.0731749943279 174.948351007568,-37.0735009954437 174.948220058583,-37.0733020436613 174.947812532925,-37.0734883226183 174.94772700417,-37.0733359931118 174.947542001672,-37.0734500040483 174.947330991695,-37.0730759976727 174.946712997376,-37.072643000358 174.94665450918,-37.0729692058919 174.946426010845,-37.0729951306658 174.946382899889,-37.0727509267457 174.945244004616,-37.0725100071563 174.945365001986,-37.0723829934339 174.945072001698,-37.0722020005701 174.944839008823,-37.0724440042723 174.944670007286,-37.0724300014351 174.944728000348,-37.0720740073651 174.944779002445,-37.072020993423 174.943773993482,-37.0714010074036 174.94373899981,-37.0713329947701 174.943979998376,-37.0710240070157 174.944074999354,-37.0710140016393 174.943610006298,-37.0707269987128 174.943120999048,-37.0705099940191 174.943206008029,-37.069681000964 174.942720992842,-37.0696390054451 174.942716993465,-37.0696000027776 174.942266006889,-37.0696300007529 174.941703990863,-37.0695549998178 174.940613000524,-37.0695899976608 174.940597008156,-37.0694390040451 174.939788005486,-37.0693080010655 174.939758005778,-37.0690230001355 174.939611998757,-37.0691349998873 174.939578003983,-37.0692729945789 174.938598992374,-37.0691149973554 174.938518997042,-37.0689949933542 174.937537000953,-37.0688360013857 174.937418994158,-37.0689120012535 174.93715200382,-37.0686260019091 174.9369099964,-37.0686149957524 174.936675992995,-37.0687539953378 174.936195996828,-37.0688309956425 174.935909999792,-37.0682159974345 174.935619004846,-37.0673899968035 174.935726002524,-37.0665770036422 174.935530002327,-37.0665610065442 174.935446997621,-37.0663450015771 174.93618300146,-37.065981003921 174.935728003144,-37.0655639947411 174.933823998444,-37.0664860033475 174.933698006763,-37.0663040008555 174.933684573685,-37.0661411141405 174.933866167569,-37.0660820103307 174.933983000262,-37.0659488245704 174.934104220712,-37.0659087020585 174.933898171996,-37.0655872103204 174.934016771961,-37.0653636881177 174.933960102234,-37.0651973444416 174.934188132371,-37.0650873872182 174.934139387334,-37.0648084503212 174.934046446821,-37.0646230546345 174.933494405675,-37.0644227620905 174.933502153054,-37.0642632766071 174.933352854994,-37.064082819926 174.933116403396,-37.0634082347895 174.933195480615,-37.0631926662259 174.933336292669,-37.0630783660777 174.933697759305,-37.0625316277332 174.933693270866,-37.0622205074119 174.933901154124,-37.0617899058883 174.934155967697,-37.0616435089908 174.934639355912,-37.0614913421022 174.934859726942,-37.061320081994 174.93531162678,-37.0611147182043 174.935575672512,-37.0610556560096 174.935753530423,-37.0608123025746 174.935789455899,-37.060860693209 174.93595788988,-37.0607332272745 174.936475105951,-37.0604871530464 174.936640448285,-37.0604889521179 174.936762271309,-37.0602828379822 174.936898716191,-37.0601788490893 174.936989374254,-37.0599379816248 174.937288720326,-37.0598813502691 174.937527646463,-37.0596899609501 174.937518586625,-37.0596134766614 174.93714614061,-37.0594331914061 174.936217818811,-37.0591527089387 174.936059200918,-37.0591284726533 174.935742163434,-37.0591886379301 174.935573077666,-37.0591617373041 174.935202631624,-37.0594761485822 174.934141976314,-37.0596019540528 174.933726567486,-37.0602131091042 174.933533270543,-37.0603293371208 174.93346911815,-37.0603181237509 174.933285398117,-37.0600750934039 174.933158321837,-37.0602165607237 174.932911212369,-37.0607343100621 174.932698148554,-37.0609554286522 174.932612136538,-37.0609849021169 174.932428187126,-37.0609481646419 174.932284644688,-37.061036401378 174.930837013706,-37.0607243311661 174.930024949477,-37.0600679923526 174.929448914237,-37.0585280628864 174.928386170393,-37.0580120633998 174.927686832466,-37.057061349868 174.928204678345,-37.0567661123711 174.928180413866,-37.0566306603654 174.928241667549,-37.0565799796982 174.928516806071,-37.056570882889 174.928719816241,-37.0566232388592 174.929144858601,-37.0563662929239 174.929574972784,-37.0562054462717 174.929827316924,-37.0561790204354 174.930003947056,-37.0560829026603 174.930512600223,-37.0559894466335 174.93085843768,-37.0558413109644 174.931583387747,-37.0556736805839 174.931943366394,-37.0554303998951 174.932795370617,-37.0550897972106 174.932904278226,-37.0549069776592 174.93182153843,-37.0550705902078 174.931503826092,-37.0549436862177 174.93128714634,-37.0547575839701 174.930968194794,-37.0547220294356 174.930782896379,-37.0546554377756 174.932542472487,-37.0540682175656 174.932874050388,-37.0543513545775 174.933372907926,-37.0539744758989 174.93370407381,-37.0538742775829 174.933856960386,-37.0541901203044 174.934141979833,-37.0541092831589 174.934371748783,-37.0545841066679 174.937011997561,-37.0538899931317 174.937310992783,-37.053769994221 174.935625995418,-37.0521018794338 174.935519456839,-37.0519378831222 174.935442793113,-37.051963614319 174.934431423843,-37.0510151542238 174.933160021906,-37.0499761421612 174.934483839156,-37.0495363792521 174.934274576586,-37.0491070778806 174.9344819967,-37.0490419975918 174.93469099905,-37.0494700022676 174.935122996953,-37.0493320052639 174.934708045051,-37.0484849565731 174.935182087073,-37.0483367468474 174.93548299327,-37.0483309982969 174.935538003149,-37.0482249962043 174.937110001105,-37.0477319972366 174.937586009029,-37.048710005362 174.938428007018,-37.0484459985501 174.937950996038,-37.0474690025971 174.947918001955,-37.0443510008733 174.948692994374,-37.0459470027982 174.953168995478,-37.0445500032325 174.952406005278,-37.043010000365 174.952591004934,-37.0428919986653 174.952862001226,-37.0434349957627 174.959483992162,-37.0418030060836 174.961106992349,-37.0450989957197 174.963184003748,-37.0445950043405 174.963231007316,-37.0446950067053 174.967509003076,-37.0433170051576 174.969151003662,-37.0464730074163 174.973389000257,-37.0451369921698 174.974177998643,-37.0467420003758 174.975041997834,-37.0464689950172 174.97494400878,-37.046268993415 174.975232000955,-37.0455260074051 174.97557700374,-37.045305996902 174.976025004327,-37.0454670057387 174.976290001198,-37.0453649951695 174.97642400873,-37.04553399859 174.976661992238,-37.0455160038546 174.977202006706,-37.0448329995751 174.977829993614,-37.043791993562 174.979276006811,-37.0453229940859 174.982690002222,-37.0442479972698 174.982558996395,-37.0494140034292 174.985805991982,-37.0504999956494 174.991462995965,-37.0484759915995 174.996712995155,-37.0468579986892 174.999204998804,-37.0518419955944 175.000161004206,-37.0515839933875 175.002390008633,-37.0508769966337 175.004496004022,-37.0553330073972 174.998559996492,-37.0572739935926 175.001495005115,-37.0609109943571 175.004689006758,-37.0651449929068 175.005434994825,-37.0662580058276 175.009329004172,-37.0713979957756 174.992634006801,-37.0720259966232 174.991966992582,-37.0694440027111 174.99181800062,-37.0686670019928 174.991420996679,-37.0673280025706 174.990916005166,-37.0646670040046 174.987314996205,-37.0659160066669 174.987435995705,-37.0663309934055</coordinates></LinearRing></outerBoundaryIs></Polygon>
  </Placemark>
</Folder>
</Document></kml>
