<?xml version="1.0" encoding="utf-8" ?><kml xmlns="http://www.opengis.net/kml/2.2"><Document id="root_doc"><Folder><name>Remuera.final</name><Placemark id="Remuera.final.1"><name>Remuera (polygon: official_shp)</name><description></description><Style><LineStyle><color>ff0000ff</color></LineStyle><PolyStyle><fill>0</fill></PolyStyle></Style><Polygon><outerBoundaryIs><LinearRing><coordinates>174.808449220634,-36.8617685227106 174.809160259518,-36.8620630735745 174.809314163451,-36.8620221673902 174.80945513808,-36.8620513069954 174.809727588306,-36.8616642221238 174.810181714105,-36.8615662021333 174.810349149534,-36.8614679031689 174.810664183452,-36.8615895371341 174.811293771069,-36.8615233205841 174.811566071847,-36.8615634385897 174.81188121468,-36.8618074754443 174.811904718441,-36.8618770796851 174.812081327603,-36.8619275599298 174.812524490203,-36.861225155599 174.81272222854,-36.8613060049141 174.812260172348,-36.8620139781493 174.81264210381,-36.862137885358 174.812953633874,-36.8624530330364 174.812955810107,-36.8625197293617 174.813029377477,-36.8625459921698 174.812827078608,-36.8627382692209 174.812232391277,-36.8627842350655 174.812043635577,-36.8628706928675 174.81806024819,-36.8651155707432 174.818149007691,-36.8653098690237 174.818155244903,-36.8654851364463 174.817964998453,-36.865699999096 174.817797000596,-36.8657029966396 174.814314997126,-36.8644789986649 174.812216992615,-36.86365999643 174.811736998809,-36.8635560011251 174.811205002784,-36.8635659971867 174.810257003089,-36.8637620009785 174.810091994325,-36.8639229958918 174.809891000157,-36.8647599921339 174.809185007294,-36.8656509971484 174.80908099576,-36.8659010035499 174.80903000633,-36.866105002385 174.809065995581,-36.866420002361 174.809000992982,-36.8671200008308 174.8087389911,-36.8678229928794 174.808748994403,-36.8681600033971 174.80886799273,-36.8684060051446 174.809043003791,-36.8686510007084 174.809620006576,-36.8692489960475 174.809849001852,-36.8694250009901 174.810361996733,-36.8697320068668 174.810986008169,-36.8699689962379 174.811525998924,-36.8702520020378 174.811925992112,-36.8705159950757 174.812826994529,-36.8706350006926 174.813302999913,-36.8706269969203 174.813859005167,-36.8704370017943 174.814307000366,-36.8704060040416 174.814943000652,-36.8700790034104 174.815163999931,-36.8699180009552 174.815955004548,-36.8691380026183 174.816618993188,-36.8687659952699 174.816946001013,-36.8683999932881 174.817091993369,-36.8675859976791 174.817258006346,-36.8675150013828 174.817514007423,-36.8676680008491 174.818388000085,-36.8688699970212 174.818565003398,-36.8702190031061 174.818777006821,-36.8707550055824 174.81875399818,-36.8709819992094 174.818453991265,-36.8713029938799 174.818296993474,-36.8716659988995 174.817720002208,-36.8721489936647 174.817346992029,-36.8728320012127 174.817006994046,-36.8737389926254 174.817095000474,-36.8738950051822 174.81745900304,-36.8738669969433 174.817701002767,-36.8740519971302 174.817930996097,-36.8726629942545 174.818118002979,-36.8723449974155 174.818612995927,-36.8719759938792 174.819395082266,-36.8716680850472 174.81957120456,-36.8716515361946 174.819955997965,-36.871839998087 174.820378995895,-36.8719439970201 174.821203992684,-36.8723129920779 174.821683994634,-36.8724620011913 174.821824004216,-36.8724599985922 174.821978998309,-36.8728639943915 174.822100996667,-36.8728480031579 174.822249999469,-36.8732829953598 174.822394999263,-36.8732899991701 174.822793996969,-36.8731530029182 174.823233993587,-36.8740189982089 174.823054999224,-36.874080993168 174.823121994675,-36.874188001642 174.822635008012,-36.874309006353 174.822530005406,-36.8741130043313 174.822089006254,-36.8742650057469 174.822446007072,-36.8749360068575 174.823204992799,-36.8746750027215 174.823470994433,-36.8752109955721 174.824005996574,-36.8750269942659 174.824262999355,-36.8751659943024 174.824560003198,-36.87558199359 174.824771996033,-36.8766369997172 174.82511400801,-36.8764250002518 174.825564002233,-36.8764509959364 174.825794992282,-36.8763859925562 174.825828002902,-36.8764359959217 174.825898995608,-36.8764340008301 174.825974997736,-36.8766190011688 174.825800997804,-36.8767119969673 174.825959006258,-36.8768650015613 174.82562599922,-36.8770580037838 174.826235193275,-36.8776200811655 174.826545288957,-36.8775919704063 174.827380773223,-36.8772277812434 174.827512083303,-36.8771326898669 174.827442654181,-36.8769684237672 174.82833946233,-36.87682135026 174.828539571109,-36.8769308928718 174.828553407995,-36.8769936109117 174.829713021083,-36.8767993594316 174.8297718356,-36.8770662041749 174.830057593066,-36.8770255502486 174.830090407896,-36.8770660472531 174.830056355483,-36.8774202697367 174.830243795831,-36.8773298106592 174.830495521369,-36.8776695966865 174.83078499621,-36.8775319923596 174.831379993599,-36.876982991796 174.831485998031,-36.8770680062979 174.831960995776,-36.877016999743 174.832511996431,-36.8766229926155 174.83315200727,-36.875908993389 174.8337050073,-36.875445999014 174.835695003619,-36.8761919972508 174.835381002742,-36.8766890042391 174.83483300075,-36.8768730022789 174.833922003841,-36.8776030003266 174.833270007317,-36.8783319983342 174.833122995707,-36.8782439993888 174.832871004343,-36.8787779936103 174.834298999634,-36.8796280034319 174.834769991431,-36.8798269971944 174.835343000378,-36.8797820019417 174.835569006678,-36.87955400221 174.836045005371,-36.8784030048935 174.837219007801,-36.877685997748 174.838499993552,-36.8779860029979 174.83742200289,-36.8803219966013 174.836241004307,-36.8817329996716 174.835566000533,-36.8821690033097 174.835033004985,-36.8821030030383 174.834721008421,-36.8815310064347 174.835131007744,-36.880787003135 174.834599006079,-36.8806359917424 174.832650999575,-36.8805139993583 174.832348993281,-36.8808750035652 174.832119005454,-36.882126995882 174.831866998704,-36.8829229950898 174.83114299248,-36.8842940066682 174.831607001815,-36.8849950009297 174.831828002448,-36.8849809999419 174.832177006204,-36.8848379954005 174.833244004523,-36.8837579977032 174.833876003257,-36.8834829995909 174.834717005214,-36.8833079944156 174.836270994849,-36.88309900595 174.836761008792,-36.8829609982913 174.836914999157,-36.8828269915512 174.837339974069,-36.8831042438781 174.837350225987,-36.8831813950969 174.836875867284,-36.8836509760512 174.835401901696,-36.8847301628756 174.834144516587,-36.8862168142088 174.831622006921,-36.8878130033995 174.83143974887,-36.8878544985556 174.831301996217,-36.8881689989572 174.831085004987,-36.8883150028719 174.831702992112,-36.8889060045552 174.831489991353,-36.8890500053119 174.831346993948,-36.8890289925846 174.831127001302,-36.8891759937606 174.830518993252,-36.8890639986555 174.830361006372,-36.8896200030188 174.83023099423,-36.8897079976366 174.830123006495,-36.8900870032444 174.829791993812,-36.8906339957116 174.829937001004,-36.8907730012708 174.829764003352,-36.8908900053096 174.829926994555,-36.8910449974474 174.830093002118,-36.8909330050013 174.829825995468,-36.8918699984098 174.829281999259,-36.8917530047605 174.829234003254,-36.8919210018743 174.825930004471,-36.8912150052357 174.826028993453,-36.8910119947644 174.827218998642,-36.8902419961547 174.826654992213,-36.8903740039846 174.827044993742,-36.8901220033105 174.824578000835,-36.8873079992728 174.820089996664,-36.8878479953064 174.819746001985,-36.8878440023973 174.819754999995,-36.8880149950259 174.817556997492,-36.8883990024311 174.817532999247,-36.8883109930994 174.816872002772,-36.8884270012624 174.817146998262,-36.8895520072165 174.816922007043,-36.889569997128 174.81660300284,-36.8882659947631 174.816162001337,-36.8883430003601 174.816285004194,-36.8888459928843 174.815769998844,-36.8889360026931 174.815706003776,-36.8886769978817 174.815154996623,-36.8887730020483 174.815233003574,-36.8892179993016 174.814789002432,-36.8891489938097 174.814887007975,-36.8887409956129 174.813689994798,-36.8889780066095 174.813678000633,-36.8889450053747 174.812781995735,-36.8891589924174 174.813563004139,-36.8898230040808 174.813122007311,-36.8901570016742 174.812831994296,-36.8903160046063 174.812452003675,-36.8899340055718 174.810937993309,-36.8910660058193 174.810558003797,-36.8912720039995 174.809760997344,-36.8913359965901 174.809469007391,-36.8912350014368 174.809495993959,-36.8920209968859 174.808203992361,-36.8921589952946 174.807836001119,-36.8928419921915 174.802407991537,-36.8909539923377 174.801884999374,-36.8914930042967 174.801546991415,-36.8914160068813 174.801292996123,-36.8914250062262 174.801256995229,-36.8912450041262 174.800697007386,-36.890938992616 174.800489991717,-36.8913129997784 174.800886995721,-36.8915669994168 174.800888002107,-36.8916210011046 174.800996003595,-36.8916890025624 174.801626001713,-36.8917530052764 174.801429001326,-36.8919570030369 174.800424993581,-36.8913620053196 174.799334995167,-36.8906359981682 174.796863997301,-36.8891769936397 174.796936998543,-36.8891340043525 174.796775005434,-36.8890039954116 174.797358006031,-36.8886600009472 174.797298002835,-36.8886370008918 174.797521002656,-36.8884749936053 174.797277998647,-36.8883490043704 174.797221998507,-36.8884189966241 174.796793991955,-36.8883539926531 174.796356997405,-36.8881369957117 174.793985995315,-36.8871919998235 174.791693000839,-36.8859969996859 174.79014200539,-36.8849870062083 174.789624003396,-36.884492993556 174.789682001677,-36.8844440028764 174.789268003491,-36.8841239975621 174.78896399205,-36.8839829957433 174.78668899582,-36.881679002099 174.786460993882,-36.8815930074097 174.784402999657,-36.8795529985761 174.782682995113,-36.8776619919209 174.782536006048,-36.8776530045864 174.782327005789,-36.877909004392 174.782147999999,-36.8777089949198 174.782461000818,-36.8774119943626 174.780931991616,-36.8756630068279 174.78027499751,-36.8750069963255 174.779999995946,-36.8745210054388 174.77973399157,-36.8746219952438 174.779398003713,-36.8738029981209 174.779249998984,-36.872964992318 174.779204792712,-36.8729770784481 174.778928000122,-36.8722030010649 174.778860000985,-36.8713000024392 174.778947997357,-36.8711610052792 174.77876999919,-36.8707390039607 174.779513005724,-36.8678039995908 174.780345995284,-36.8663859955552 174.779895000681,-36.8664879977823 174.780797998921,-36.8654379992369 174.781151007319,-36.8649549922765 174.781253005277,-36.8651369995892 174.781430008279,-36.8649710005876 174.781790993578,-36.8648699926915 174.781417994481,-36.8652280014023 174.781432997067,-36.8652979989953 174.78266299623,-36.8661349964043 174.782827002576,-36.8661360013344 174.783048997016,-36.8660370055914 174.783260007276,-36.8657429981372 174.783402995414,-36.8657290057598 174.783434997774,-36.8656069959537 174.783552004163,-36.8654939954038 174.783789006513,-36.8654859958352 174.784197000499,-36.8649670013998 174.784383997991,-36.8649979926673 174.784495000245,-36.8649249999135 174.784589998639,-36.864940996054 174.784744008394,-36.8648660024115 174.784851991115,-36.8649399974181 174.784955997116,-36.8649179935719 174.785068006025,-36.8647480064074 174.785242003082,-36.8646929974069 174.785540990909,-36.864748991959 174.786056002527,-36.8645919934268 174.786243993794,-36.8646240015682 174.786423992312,-36.8645899991865 174.786478006276,-36.8645190069867 174.786387992806,-36.8643659950646 174.786439997023,-36.8643350084143 174.787023006181,-36.8643210057523 174.787175998245,-36.8642750005623 174.787217007584,-36.8643729993069 174.787250004969,-36.8640970022164 174.787531004038,-36.86407999155 174.78768199324,-36.8640159935611 174.787800999504,-36.8641989992855 174.788088998321,-36.863817995882 174.788614671976,-36.8636447937889 174.788619453549,-36.8636934662531 174.788778712059,-36.8636967887403 174.788994081523,-36.8635713481193 174.789330164416,-36.8639068532442 174.789693616882,-36.8637307135781 174.789775840728,-36.8635546377949 174.789909284947,-36.8635800545523 174.790434583699,-36.863917246985 174.790750451143,-36.8639757961593 174.790790426002,-36.8638591796257 174.791066752438,-36.8635947314088 174.791522744168,-36.8634593820566 174.792252864486,-36.8633227825636 174.792319875558,-36.8632207830541 174.792370212669,-36.8632149393041 174.792605496113,-36.8634813445883 174.793066403805,-36.8635319984034 174.793207987507,-36.8635007025568 174.793397246126,-36.8633834167252 174.79408751498,-36.8632086940667 174.794258284465,-36.863216168144 174.794743802261,-36.8633537465967 174.795142161614,-36.8632676981697 174.795558440294,-36.8632510231654 174.795890340494,-36.8633761308023 174.795967446163,-36.8634957150114 174.796000247976,-36.8639138657007 174.796119665451,-36.8639780106633 174.796030291517,-36.8643069431498 174.796207893763,-36.8641740367196 174.796622575565,-36.8635705756391 174.796819828758,-36.86282902001 174.79693720394,-36.8625672791729 174.797210318819,-36.862177999448 174.797397667359,-36.8620047703053 174.797799592961,-36.861780201808 174.798110479025,-36.8616921698736 174.798249598119,-36.8617192481017 174.798454763601,-36.8616760713036 174.799944871841,-36.8620554485495 174.800693556445,-36.8620904203321 174.801172458338,-36.8621852636766 174.801688934706,-36.862195473871 174.801965169312,-36.8622733654016 174.802209914544,-36.8622359444309 174.802413546207,-36.8622587286445 174.802666015706,-36.8622054269733 174.802957342045,-36.8622623267138 174.803239594927,-36.8620972972635 174.803405831967,-36.8621464786999 174.803505538537,-36.8622351532344 174.803512225767,-36.862312196321 174.803360798363,-36.8626382902349 174.803366289016,-36.8628990729269 174.803416903978,-36.8629803021139 174.803900687837,-36.8634263700236 174.804517419185,-36.8637648297321 174.804517542179,-36.8641418374086 174.804644697472,-36.8640827867063 174.804823141949,-36.8640962490612 174.805159988339,-36.8642207362416 174.805254158551,-36.8643706292258 174.805153477198,-36.8650852723925 174.804805141853,-36.865856129834 174.806388121713,-36.8661771395534 174.806293135801,-36.8661074672136 174.806500411901,-36.8659407945892 174.80731581968,-36.8656271560354 174.807746141836,-36.865553535903 174.808072947597,-36.8647938570846 174.808214670059,-36.86460105961 174.808156771556,-36.8643885492435 174.808360497719,-36.8642569966601 174.808353841326,-36.8641641097638 174.808624303199,-36.8639579315913 174.808946026117,-36.86356955498 174.808589909301,-36.8632549608905 174.808338083655,-36.8628056871328 174.808390465786,-36.8625106791432 174.808071107503,-36.8622616865617 174.808073949577,-36.8620241644493 174.808243748029,-36.8619693309841 174.807999178486,-36.8618814740262 174.807465382629,-36.8615264597694 174.805686324283,-36.8605027055618 174.805319613856,-36.8601544421753 174.803242773925,-36.8587113217483 174.801725008099,-36.8573539952545 174.801256569995,-36.8567804843247 174.801511596984,-36.8566042697047 174.802487555077,-36.8573132076268 174.805436285687,-36.8600566941854 174.807325327744,-36.8611839728328 174.808449220634,-36.8617685227106</coordinates></LinearRing></outerBoundaryIs></Polygon></Placemark></Folder></Document></kml>