<?xml version="1.0" encoding="utf-8" ?><kml xmlns="http://www.opengis.net/kml/2.2"><Document id="root_doc"><Folder><name>Saint_Heliers.final</name><Placemark id="Saint_Heliers.final.1"><name>Saint Heliers (polygon: official_shp)</name><description></description><Style><LineStyle><color>ff0000ff</color></LineStyle><PolyStyle><fill>0</fill></PolyStyle></Style><Polygon><outerBoundaryIs><LinearRing><coordinates>174.850711905,-36.8497950999999 174.851155808,-36.8498338269999 174.851407685,-36.8499166199999 174.852489819,-36.8505159059999 174.853410518,-36.8505827239999 174.854954166,-36.850484933 174.85583804,-36.850328987 174.857417047,-36.8499331589999 174.858047206,-36.8497153539999 174.859360389,-36.849028835 174.859484713,-36.849019385 174.859596857,-36.8491366449999 174.860702568,-36.848753314 174.860752029,-36.8481728319999 174.861122078,-36.847331852 174.861554888,-36.846783573 174.861673534234,-36.8462031227211 174.862071878033,-36.8453972905059 174.862406446322,-36.8451111770697 174.862678036512,-36.8447125789836 174.86269742981,-36.8444162251245 174.862749089,-36.844350956 174.862798174991,-36.8443097656364 174.863070652827,-36.8443011832345 174.863296374736,-36.8442107344114 174.863723793633,-36.8437355462458 174.863879530368,-36.8436435762953 174.86419249,-36.843851796 174.864431907723,-36.8438886115277 174.864663262075,-36.8440635966777 174.864946472168,-36.8441862872939 174.865550328537,-36.8443466447953 174.866404113354,-36.8446509539205 174.86673678595,-36.8447105705858 174.867056946318,-36.844886403107 174.868171311,-36.8452699919999 174.86917196,-36.8454518789999 174.869579667673,-36.8455836690159 174.869538007065,-36.84567699475 174.870090006997,-36.8457749974273 174.870140008357,-36.8461779993676 174.869844996113,-36.8460589952175 174.869683993546,-36.846140000882 174.86970600429,-36.8463899990975 174.869360992507,-36.84647000277 174.869377004508,-36.8465129958277 174.869919005852,-36.846388002436 174.870465991877,-36.8479190005929 174.870296997132,-36.8479580056356 174.870414007415,-36.8482849962628 174.870092994981,-36.8483499967145 174.870148000967,-36.8485259963752 174.870235000955,-36.8485080066877 174.87057599494,-36.8488640008681 174.870696993436,-36.8495689920476 174.870560992797,-36.8498790045988 174.871135993237,-36.8500639967801 174.870941001154,-36.8510490033189 174.871169999997,-36.851656995699 174.871031991588,-36.8520869919486 174.870286996893,-36.8519330003208 174.870198001849,-36.8522360029445 174.868756005903,-36.8519399945758 174.868489004363,-36.8522970060419 174.868150997715,-36.8524149991377 174.8678500042,-36.8527500031245 174.868159999605,-36.8528129992961 174.86263199889,-36.8589539929047 174.862692005226,-36.8591679923408 174.861932003621,-36.859386995041 174.86188099753,-36.8592869949703 174.861133994928,-36.8595559920837 174.860602005929,-36.8594510037228 174.860670996491,-36.8596510028989 174.860592997298,-36.8599070049811 174.86170599991,-36.8604110045595 174.861031995405,-36.8629030024152 174.861088999511,-36.8631449916843 174.861043994215,-36.8633129986446 174.861426998749,-36.8633800013607 174.861385995078,-36.8635289989059 174.861003007765,-36.863461995798 174.860919006157,-36.8637739942377 174.860718003551,-36.8640619964357 174.860330996287,-36.8654940033812 174.860229992164,-36.8653970037037 174.859625998846,-36.8657480000339 174.859110002037,-36.8656719980144 174.858998991735,-36.8657369947241 174.859272003187,-36.8660389990538 174.859188997216,-36.8660870021035 174.85946939621,-36.8663989455683 174.859171724238,-36.8665715799778 174.859292030302,-36.8667060820345 174.859520507978,-36.8665725861849 174.859660653825,-36.8667284426022 174.859799208288,-36.8666479168699 174.860119768391,-36.8670037205694 174.859920351708,-36.8671196491183 174.860061590758,-36.8672749444128 174.859893145132,-36.8673723867184 174.860002044765,-36.8674931779847 174.86012595291,-36.8674206488026 174.860207984643,-36.8675066392802 174.860389194126,-36.8674199397095 174.860625898777,-36.867682705614 174.860794638938,-36.8681789827197 174.861127605356,-36.8681871801781 174.861238365335,-36.8683198783121 174.860760531666,-36.8685772479839 174.860610574547,-36.8687495932963 174.860492000548,-36.8692569999173 174.860374991467,-36.8692930005819 174.860139348668,-36.8692307263356 174.860074182831,-36.8693892582467 174.85984030365,-36.869322735777 174.859807300395,-36.8694028847799 174.859515116763,-36.8693252325611 174.859434251392,-36.8693906394032 174.85919135,-36.8693586876054 174.858919881048,-36.8696495452144 174.858871915519,-36.8699313389828 174.858454508319,-36.8698578443427 174.858284495232,-36.8700804629494 174.857629855445,-36.8700733333226 174.856795864172,-36.8698975433239 174.856898260844,-36.8697847658863 174.856755876935,-36.8696020437927 174.856900206753,-36.8694812949399 174.856752625695,-36.8693233026997 174.856859274529,-36.8692674751197 174.856756775845,-36.8691345842504 174.856411175702,-36.8693204271489 174.856151105078,-36.869010572757 174.856244074256,-36.8689602006662 174.856111943563,-36.8688027936224 174.85583085831,-36.8689546428163 174.855106712849,-36.8678598067403 174.854850804565,-36.8677825075735 174.854922995192,-36.8676282680956 174.854699019372,-36.8675606100141 174.854770429686,-36.8674081935745 174.854547183843,-36.8673387274493 174.854595379118,-36.8672358680384 174.854422653808,-36.8671835855928 174.854302161881,-36.8674406100416 174.853851913986,-36.867304540044 174.853815833617,-36.8673816195862 174.852926573529,-36.8671127501109 174.851682477475,-36.8683242327333 174.85041999596,-36.8675239956498 174.849387992823,-36.8682030019729 174.849296008917,-36.8681750025651 174.848929001946,-36.8684160003094 174.848705000603,-36.8682680002141 174.848316997565,-36.8687849928845 174.8478609994,-36.8685470013617 174.846300991885,-36.8687169939598 174.846373000887,-36.8690810021999 174.845782005307,-36.8691560036649 174.845985000621,-36.8698269929539 174.846277005744,-36.8698790051887 174.846715000775,-36.8700909997442 174.846874002726,-36.8698929954185 174.848128992144,-36.870487004373 174.847585994328,-36.8713850038737 174.849111004331,-36.8717360060676 174.850413002093,-36.8724009971195 174.85105799936,-36.8728969939498 174.848903003543,-36.8725250017658 174.848638994634,-36.8723670031028 174.847769000467,-36.8720559931146 174.845671003395,-36.8707639992415 174.84537199359,-36.8711300061664 174.845079998457,-36.8710050009614 174.84555800445,-36.8702380029991 174.844139001651,-36.8697040028692 174.843509004363,-36.8698450008268 174.843934992345,-36.8691250049704 174.840934005719,-36.8679640004277 174.840797993945,-36.8681509942779 174.837827995431,-36.8667309981398 174.838379468051,-36.8657454452549 174.839389549495,-36.8652156171157 174.840449411189,-36.8648453564179 174.840569499416,-36.8650929200453 174.840971169839,-36.86495260968 174.840801857693,-36.864722227745 174.841059541111,-36.8646322356017 174.841013028657,-36.8645502392485 174.841262937759,-36.8644629197008 174.841140762313,-36.8642474810359 174.841298869362,-36.8641896099066 174.841226912261,-36.8640623158087 174.840958815931,-36.8641511545898 174.840757923136,-36.8639182937539 174.841221377809,-36.8636601064195 174.841577767258,-36.8637549168826 174.841999212633,-36.8635201804393 174.842068097695,-36.8636000440336 174.842531541753,-36.8633417274292 174.842802747235,-36.8632699297802 174.842886327722,-36.863473776628 174.843130734424,-36.863337562874 174.843181703645,-36.8636160120486 174.843364804562,-36.8634798096126 174.844260608594,-36.8632837352234 174.844629688777,-36.8630392477316 174.844971515993,-36.862659420998 174.84551568778,-36.8624257715962 174.846303785872,-36.8595862633753 174.845799783253,-36.8594958591678 174.845829306605,-36.8593890803299 174.845910892051,-36.8593474296691 174.845962956299,-36.8591597639083 174.845911123373,-36.8590941833195 174.845939709567,-36.8589911225833 174.84644358416,-36.8590813732023 174.846625852149,-36.8584244928069 174.846838504366,-36.8584152967644 174.846932308887,-36.8579846506052 174.846756668973,-36.8579530225908 174.846971027197,-36.8571796702769 174.846835987847,-36.8570465395879 174.846970593126,-36.856685162916 174.847101899856,-36.8567084926099 174.847908998086,-36.8537980065974 174.84710298481,-36.8535849361769 174.847051108962,-36.8536436414219 174.847000547524,-36.8534841099752 174.846782008105,-36.8534149961183 174.84679599864,-36.8523370019101 174.846669994089,-36.8522229973079 174.846731003716,-36.8520289981187 174.847245996378,-36.8512819981446 174.847704004015,-36.8510019928233 174.847709762623,-36.8507216572488 174.848083849601,-36.8505998827777 174.848642555647,-36.8502849711306 174.849066981899,-36.8501119646987 174.850711905,-36.8497950999999</coordinates></LinearRing></outerBoundaryIs></Polygon></Placemark></Folder></Document></kml>