<?xml version="1.0" encoding="utf-8" ?><kml xmlns="http://www.opengis.net/kml/2.2"><Document id="root_doc"><Folder><name>Somerville.final</name><Placemark id="Somerville.final.1"><name>Somerville (polygon: official_shp)</name><description></description><Style><LineStyle><color>ff0000ff</color></LineStyle><PolyStyle><fill>0</fill></PolyStyle></Style><Polygon><outerBoundaryIs><LinearRing><coordinates>174.942638993105,-36.9116419927851 174.94246700218,-36.9117429948816 174.941399004434,-36.9120729974083 174.940040995591,-36.9128009992988 174.938648000271,-36.9111250063988 174.937282994418,-36.9118559987912 174.936545993248,-36.9125149968068 174.938739996426,-36.9140919956087 174.939089997604,-36.9139769962822 174.940699005433,-36.9151760004335 174.940764997318,-36.9152819111301 174.940686664027,-36.9155444640907 174.940477222768,-36.9159037204243 174.940077099653,-36.9161633153058 174.93964970347,-36.9166334831696 174.938907872067,-36.9171707588811 174.938290511061,-36.9177409395685 174.937692983197,-36.9185713957258 174.937290312719,-36.9189230521858 174.936989035299,-36.9193013546178 174.936640059731,-36.919935881843 174.936521038349,-36.9202894051893 174.93646991609,-36.9211087630672 174.936343468213,-36.9217122920071 174.935959989044,-36.9223572383763 174.932778003646,-36.9213490044101 174.932764994841,-36.9213849963878 174.932589007952,-36.9212490074217 174.932723994511,-36.9210819931308 174.931412998504,-36.9202919939081 174.931725998088,-36.9197939962253 174.931379004857,-36.9194729988302 174.930963005951,-36.9200019983154 174.92919300042,-36.9190309988023 174.92921699442,-36.9190019968542 174.929034998947,-36.9187760031011 174.928983005581,-36.9187779995727 174.929064992367,-36.9188800067507 174.928794008128,-36.9191110064263 174.928363996197,-36.9185769983786 174.928421994845,-36.9187520070458 174.927982999807,-36.9187430062432 174.928064993778,-36.9186860063576 174.928132000259,-36.9184630018685 174.927479003146,-36.9181589915761 174.927719000996,-36.9178180024174 174.927781997844,-36.9169470043757 174.927898998981,-36.9169510031502 174.927909997546,-36.9165729935878 174.927865002544,-36.9165709939831 174.927945003408,-36.915182991849 174.927855995396,-36.9149170066005 174.927505004918,-36.9145120047287 174.927545994552,-36.9144879963265 174.92746699667,-36.9144949955614 174.927310994405,-36.9143629939338 174.926868007305,-36.9138880035571 174.92678399582,-36.9137150067822 174.926800999977,-36.9136390016865 174.926607007355,-36.9134430012396 174.926498262719,-36.9133909515835 174.926419361907,-36.9135352599544 174.92625566639,-36.9136276337394 174.925414561323,-36.9133561451004 174.925128651951,-36.9130898887649 174.924259995999,-36.9127219949915 174.924509006353,-36.9123650065417 174.9246259911,-36.9123179936661 174.925374006687,-36.9123729931465 174.926106001278,-36.9122850011415 174.926082992106,-36.9120100024185 174.926199999473,-36.9120170060423 174.926585999431,-36.9119029972064 174.926536006094,-36.9116919924264 174.926847992336,-36.911154996595 174.927608005302,-36.9105359946286 174.927644995866,-36.9105699956355 174.927811992704,-36.9104310063712 174.927746999261,-36.9103809965838 174.928512002031,-36.9097360033072 174.928219995978,-36.9095330055565 174.928351994349,-36.9093940051429 174.928664992602,-36.909588993294 174.929018991773,-36.9091139968219 174.929600004159,-36.9086230036783 174.930183996156,-36.9080320000932 174.930052994363,-36.9079390009263 174.930495004034,-36.9075709932885 174.930556994654,-36.9076149998964 174.931311601508,-36.9069367363476 174.932713750387,-36.9079328184271 174.934991371308,-36.9059038556827 174.936874999417,-36.9072420060837 174.936622005672,-36.9073819920137 174.938883004625,-36.9096610020137 174.940827000775,-36.9084200048802 174.941644002747,-36.9092729935819 174.942638993105,-36.9116419927851</coordinates></LinearRing></outerBoundaryIs></Polygon></Placemark></Folder></Document></kml>