<?xml version="1.0" encoding="utf-8" ?><kml xmlns="http://www.opengis.net/kml/2.2"><Document id="root_doc"><Folder><name>St_Johns_Stonefields.final</name><Placemark id="St_Johns_Stonefields.final.1"><name>Joined Boundary</name><description></description><Style><LineStyle><color>ff0000ff</color></LineStyle><PolyStyle><fill>0</fill></PolyStyle></Style><Polygon><outerBoundaryIs><LinearRing><coordinates>174.845984158309,-36.8901345558785 174.845317316569,-36.8903588145664 174.844289672646,-36.8907943324089 174.843838416215,-36.8913593670422 174.843092216357,-36.891108399567 174.842539433239,-36.8913719663825 174.842307769704,-36.8911284847821 174.842344621164,-36.8909323619666 174.841874435538,-36.8908871889243 174.84181283151,-36.8912887854413 174.842121166264,-36.8916064336751 174.841969476985,-36.8918969144299 174.841781993258,-36.8919364235568 174.841608066433,-36.8918745255867 174.84133315067,-36.8921706798854 174.841022397236,-36.8923604932803 174.840769820718,-36.8921558348539 174.840642500126,-36.892228338558 174.839214138553,-36.8912626881549 174.839050408009,-36.8912911958193 174.838470244943,-36.8921818534471 174.838389276639,-36.8921217215953 174.837981429223,-36.8925597846914 174.836900815449,-36.8918203133047 174.83535306771,-36.8909205237809 174.83498224077,-36.890753551749 174.834574452923,-36.8903993231403 174.834466967688,-36.8902081896394 174.833799207036,-36.8896814690058 174.833831999465,-36.8896593209446 174.833696783422,-36.8892807875984 174.833869503657,-36.8877750259116 174.833197083273,-36.8870755640213 174.833176847869,-36.8868284593844 174.834144516587,-36.8862168142088 174.835401901696,-36.8847301628756 174.836875867284,-36.8836509760512 174.837350225987,-36.8831813950969 174.837339974069,-36.8831042438781 174.836914999157,-36.8828269915512 174.836761008792,-36.8829609982913 174.836270994849,-36.88309900595 174.834717005214,-36.8833079944156 174.833876003257,-36.8834829995909 174.833244004523,-36.8837579977032 174.832177006204,-36.8848379954005 174.831828002448,-36.8849809999419 174.831607001815,-36.8849950009297 174.83114299248,-36.8842940066682 174.831866998704,-36.8829229950898 174.832119005454,-36.882126995882 174.832348993281,-36.8808750035652 174.832650999575,-36.8805139993583 174.834599006079,-36.8806359917424 174.835131007744,-36.880787003135 174.834721008421,-36.8815310064347 174.835033004985,-36.8821030030383 174.835566000533,-36.8821690033097 174.836241004307,-36.8817329996716 174.83742200289,-36.8803219966013 174.838499993552,-36.8779860029979 174.837219007801,-36.877685997748 174.836045005371,-36.8784030048935 174.835569006678,-36.87955400221 174.835343000378,-36.8797820019417 174.834769991431,-36.8798269971944 174.834298999634,-36.8796280034319 174.832871004343,-36.8787779936103 174.833122995707,-36.8782439993888 174.833270007317,-36.8783319983342 174.833922003841,-36.8776030003266 174.83483300075,-36.8768730022789 174.835381002742,-36.8766890042391 174.835695003619,-36.8761919972508 174.8337050073,-36.875445999014 174.83315200727,-36.875908993389 174.832511996431,-36.8766229926155 174.831960995776,-36.877016999743 174.831485998031,-36.8770680062979 174.831379993599,-36.876982991796 174.83078499621,-36.8775319923596 174.830495521369,-36.8776695966865 174.830243795831,-36.8773298106592 174.830056355483,-36.8774202697367 174.830090407896,-36.8770660472531 174.830057593066,-36.8770255502486 174.8297718356,-36.877066204175 174.829713021083,-36.8767993594316 174.828553407995,-36.8769936109117 174.828539571109,-36.8769308928718 174.82833946233,-36.87682135026 174.827442654181,-36.8769684237672 174.827512083303,-36.8771326898669 174.827380773223,-36.8772277812434 174.826545288957,-36.8775919704063 174.826235193275,-36.8776200811655 174.82562599922,-36.8770580037838 174.825959006258,-36.8768650015613 174.825800997804,-36.8767119969673 174.825974997736,-36.8766190011688 174.825898995608,-36.8764340008301 174.825798006378,-36.8764059963784 174.825812007944,-36.8762170043059 174.82621800699,-36.8759969924419 174.826146001353,-36.8758640071044 174.826544007313,-36.8756300057449 174.826669483274,-36.875765700154 174.826847000171,-36.8756589830246 174.826963003369,-36.8757830036027 174.827372433286,-36.8756179830617 174.827022737468,-36.8752426266932 174.827428001483,-36.8749990053505 174.82711899476,-36.874654006644 174.8272953838,-36.874548066033 174.827507317341,-36.8746306662767 174.827859995654,-36.8741020010475 174.827592006401,-36.8740020063237 174.827646008234,-36.8734220026807 174.828043001552,-36.8735699967717 174.828328007449,-36.8730790006424 174.828875994414,-36.8735209975465 174.829039993482,-36.8734830045828 174.829080005085,-36.8734170014375 174.829257991414,-36.873375998708 174.829196776464,-36.8732519371971 174.829396565016,-36.8732067544094 174.829318550467,-36.8729894996765 174.831034007262,-36.8725920010885 174.831137996505,-36.8717620063567 174.831024996586,-36.8705759926072 174.831711003906,-36.8705329921472 174.831504996328,-36.872471992046 174.831987995605,-36.8723199978593 174.832090463536,-36.872679685276 174.832210780994,-36.8726420001135 174.832628004358,-36.8727110066979 174.832661464274,-36.8723853043713 174.833005992188,-36.8724139976265 174.83304200512,-36.8721320028665 174.836072007048,-36.8723829964431 174.836042001409,-36.8726140009472 174.835810746146,-36.8729916171804 174.835867000025,-36.8730949923494 174.836296990965,-36.8731309982329 174.836271993287,-36.8730639947384 174.836573001606,-36.8728670024282 174.837005999098,-36.8729030007412 174.83706299422,-36.8724650016572 174.837399003329,-36.8724929918417 174.837793007117,-36.8724080043425 174.837884000245,-36.8725329922908 174.838317007846,-36.8715299993748 174.839566994477,-36.8719010015848 174.839409006248,-36.872189004707 174.839560993136,-36.872235994025 174.839800993156,-36.8721199953709 174.839771997952,-36.87200599694 174.840274996681,-36.871483999322 174.840467998903,-36.8713110060465 174.84104700632,-36.8709779924113 174.841123995085,-36.8704639951511 174.841695002459,-36.8704459959448 174.841676008075,-36.8706249936868 174.841930998209,-36.8706640064032 174.842102001389,-36.870824000401 174.842399993758,-36.8720790068399 174.842935997424,-36.8717900067278 174.843370995621,-36.8721000049254 174.84363300671,-36.871862993249 174.843876993315,-36.8720230039402 174.844009005398,-36.8718799960046 174.844091468856,-36.8718630329351 174.844179090973,-36.8716291025579 174.84327300004,-36.8710339982131 174.842914992621,-36.8701830072428 174.842954997631,-36.8696290046252 174.843509004363,-36.8698450008268 174.844139001651,-36.8697040028692 174.84555800445,-36.8702380029991 174.845079998457,-36.8710050009614 174.84537199359,-36.8711300061664 174.845671003395,-36.8707639992415 174.847769000467,-36.8720559931146 174.848638994634,-36.8723670031028 174.850173006826,-36.8732839943469 174.850903991749,-36.8739209934002 174.852121997612,-36.8753310040639 174.852769996848,-36.8775759940585 174.852935005691,-36.8788339950998 174.852893002489,-36.8799589959644 174.852792001032,-36.8803029984214 174.852621996904,-36.8803920014285 174.852236006668,-36.8804110019798 174.855133991084,-36.8809309986908 174.855063003829,-36.8811650066786 174.855445993884,-36.8823800054052 174.855731995437,-36.8839389976799 174.855765004384,-36.8845799926639 174.855711008262,-36.8857360058162 174.855393001941,-36.8872359969262 174.854759994162,-36.8890140005973 174.854363995803,-36.8904770027267 174.853868006122,-36.8918869931795 174.853826005714,-36.8918800036155 174.853223992237,-36.8932909951883 174.852325999127,-36.8930539978633 174.852107004305,-36.8930980012143 174.85203800303,-36.892869995918 174.851309000785,-36.8930289963952 174.8511900011,-36.8926320058244 174.85040999914,-36.8927830040276 174.85035600211,-36.8922940019652 174.850063996824,-36.8915459981174 174.846657032454,-36.8899091063941 174.845984158309,-36.8901345558785</coordinates></LinearRing></outerBoundaryIs></Polygon></Placemark></Folder></Document></kml>