<?xml version="1.0" encoding="utf-8" ?>
<kml xmlns="http://www.opengis.net/kml/2.2">
<Document id="root_doc">
<Folder><name>Takanini.final</name>
  <Placemark id="Takanini.final.1">
	<name>Joined Boundary</name>
	<description></description>
	<Style><LineStyle><color>ff0000ff</color></LineStyle><PolyStyle><fill>0</fill></PolyStyle></Style>
      <Polygon><outerBoundaryIs><LinearRing><coordinates>174.917761518012,-37.0520016331438 174.917619873351,-37.0520223866118 174.917152446715,-37.0513393512821 174.916856467086,-37.0514689398201 174.916708047881,-37.0520332099767 174.916261727881,-37.0524414558575 174.915989773422,-37.0524781892471 174.915595750601,-37.0526464794019 174.914870982943,-37.0526302655816 174.914168033103,-37.0527194550388 174.913638386572,-37.0528505501001 174.913147710301,-37.0530822711518 174.913034883056,-37.0529404057204 174.912828982826,-37.0528848227352 174.912215091113,-37.052853361445 174.9116810366,-37.052989342618 174.91128786658,-37.0532836042497 174.909811435048,-37.0533317726215 174.909757582716,-37.0533785807293 174.90972666338,-37.0533206313617 174.909288243897,-37.0532234114215 174.908406150535,-37.0531479087838 174.908321645493,-37.0530985075851 174.908129435045,-37.053148995046 174.907821701527,-37.0531218985917 174.907528481965,-37.0531553324145 174.906698569989,-37.0528784787816 174.906634232086,-37.0529415458313 174.906453966941,-37.0529564608275 174.90642766998,-37.0528427072578 174.906169929452,-37.0529463191892 174.905905882302,-37.0529235438887 174.905883964347,-37.0528772359785 174.906144325025,-37.052639863414 174.906015625362,-37.0522098699038 174.905835604278,-37.0518791703915 174.905424795908,-37.0513694470491 174.905195209497,-37.0509802112921 174.905048986804,-37.050868042261 174.905052446399,-37.0507313535927 174.904921940234,-37.0505884293179 174.904978493439,-37.050448654413 174.904941269512,-37.0502489371367 174.904344018326,-37.0496371652542 174.904221617166,-37.0492512751345 174.904737128598,-37.0488676604342 174.905473043256,-37.0485204715576 174.905606207933,-37.0483346195598 174.906166772453,-37.0479817977296 174.906542954226,-37.0479381389473 174.906919625907,-37.0478321193287 174.908001286607,-37.0472835583317 174.908185399722,-37.0467581167358 174.908080561465,-37.0463702166511 174.907974242146,-37.0463328630527 174.907962441208,-37.0462481091962 174.907825936507,-37.046275930799 174.907612074525,-37.0461976510461 174.907111619371,-37.0461868686366 174.907015475134,-37.0461466241256 174.907073118744,-37.0459363455842 174.907033293895,-37.0456678511893 174.907137287123,-37.0453041456571 174.907313466687,-37.0451435655694 174.907725157738,-37.0450038765852 174.90807312259,-37.0446830266803 174.908167905554,-37.0439246864182 174.908236165362,-37.0437542838739 174.908209461763,-37.0433751967417 174.908117281539,-37.0431719282937 174.90795827245,-37.0429841637179 174.907753557841,-37.0428665097183 174.907740047611,-37.042757316639 174.907655639689,-37.0427216823125 174.907436645978,-37.0427123023427 174.907261874392,-37.0427876620372 174.907096785964,-37.0427689991673 174.906995314719,-37.0429018561464 174.906503429796,-37.042972877343 174.906418159876,-37.0429405718647 174.906226433249,-37.0430374930474 174.905802887286,-37.0434836275556 174.905300900681,-37.0437809175729 174.905010493543,-37.0438638565985 174.904447519132,-37.0442895833517 174.903812041485,-37.0444095205916 174.903320174068,-37.0442773216444 174.902638960191,-37.044272271621 174.902474842326,-37.0443454543498 174.902296794518,-37.0445279733091 174.902203546429,-37.0445092013891 174.901713135888,-37.0449220229229 174.90111985501,-37.0452779701252 174.900991618177,-37.0452357456994 174.900911414933,-37.04472501321 174.90073213206,-37.0445047158975 174.900235999429,-37.0440889958129 174.90018100375,-37.0437689919018 174.899910998728,-37.0434389975794 174.89956999993,-37.042634998961 174.899578996834,-37.0418279935753 174.899779004885,-37.0415319921588 174.899728000273,-37.0413160069161 174.89991821681,-37.040967949811 174.900272959392,-37.0407721683302 174.900414433703,-37.0406057830809 174.901564816661,-37.0399210831252 174.901937166819,-37.0396477496549 174.902132316471,-37.0393548001498 174.901644217423,-37.0388485498307 174.901590299429,-37.0387127168627 174.901625465935,-37.038531849867 174.90173430004,-37.0384395666746 174.9028408001,-37.0380974833463 174.90293801716,-37.0379944833171 174.903076416476,-37.0376105660686 174.90329996648,-37.0374532993904 174.903450483165,-37.0372763329478 174.903456866019,-37.0370524837989 174.90366638315,-37.036606698597 174.903790399853,-37.0365108170451 174.903941516923,-37.0366886333337 174.904292966694,-37.0367183674143 174.904574349915,-37.0366228155836 174.904879917317,-37.0366338832833 174.905186166532,-37.0364648506078 174.905309499777,-37.036124133267 174.905271449356,-37.0358046668934 174.905436216868,-37.0351101501781 174.906501749447,-37.0345326167171 174.906623466008,-37.0338951485991 174.906899954971,-37.0337150235912 174.906615632629,-37.0334345166417 174.907415416459,-37.0331545996795 174.907696982581,-37.0332125172392 174.907931882839,-37.0334469327342 174.908059149606,-37.0334491667569 174.908282649294,-37.0333268025953 174.908565420848,-37.0334537490264 174.908725422237,-37.033434818568 174.90919553081,-37.0338086060321 174.909248964872,-37.0337622231427 174.909763237554,-37.0341724904054 174.909686447718,-37.0337159379929 174.909743360161,-37.0316252385613 174.910367996223,-37.0321259961819 174.910754006244,-37.0321189928111 174.912950994424,-37.0317680049427 174.913842000152,-37.0314280065632 174.914346997842,-37.0310919984467 174.914755998012,-37.030682992334 174.917861007179,-37.0268759959432 174.918268003107,-37.0265439993138 174.91883199835,-37.0262840046526 174.919196002724,-37.0262600017354 174.919546994069,-37.0263379946449 174.920501007616,-37.0269149991804 174.922113005397,-37.0277780062819 174.922656005737,-37.0280109994501 174.923245003689,-37.0281569991184 174.923856993499,-37.0282100055734 174.924469999769,-37.0281670023552 174.925385001869,-37.0279390026727 174.925355004488,-37.0278699986169 174.925875000862,-37.0276449935962 174.926199999631,-37.0277249947297 174.926194994657,-37.0269379926394 174.926412001135,-37.0265399959459 174.926364007543,-37.0263519994412 174.926462006899,-37.0259850047383 174.926475003819,-37.0255200016177 174.92685799765,-37.0251770022019 174.927128002878,-37.0250929936676 174.927362992988,-37.0248670005825 174.927324000076,-37.0246170039318 174.926987002556,-37.0242589915831 174.926881001907,-37.023985997829 174.927540998096,-37.0235940030269 174.928080993211,-37.0238290051346 174.928222996168,-37.0231669983886 174.929435006058,-37.0235539994315 174.931501008455,-37.0226010054098 174.93204300359,-37.022881006414 174.931988001974,-37.0231589934407 174.932443007464,-37.0234969953713 174.932672001874,-37.0234150069631 174.932432003783,-37.0228829991382 174.932597002116,-37.0226439955666 174.931561263873,-37.0205374777903 174.939943612296,-37.0178779451773 174.939437475738,-37.0168002389497 174.939627285513,-37.0166899454136 174.939851568926,-37.0171676438387 174.94046995441,-37.0169458276864 174.940599984946,-37.0172228882461 174.941423846612,-37.0169237255567 174.941624331887,-37.0173503837282 174.945748053705,-37.0160679554085 174.944772955491,-37.0147127207529 174.944875333593,-37.0146755556998 174.945886171433,-37.016080448756 174.945863906337,-37.0162732019378 174.947016163514,-37.0183298838404 174.949777062735,-37.0175341322473 174.951921782144,-37.0219949348262 174.956558248062,-37.0206186679441 174.954353184693,-37.0159853731156 174.958392794771,-37.0148341208738 174.960413944295,-37.0190764866111 174.960542611406,-37.0190370818576 174.959544601902,-37.0169426868139 174.961900902569,-37.0162208062278 174.962612841286,-37.0184018740277 174.966226366665,-37.0165722692037 174.968721420815,-37.0197476353102 174.961791602542,-37.0219085604129 174.962724583655,-37.023834669068 174.949245994504,-37.0279160011579 174.950210000228,-37.0301550003621 174.948824994273,-37.0305359915939 174.949712994708,-37.0329859986436 174.947992002562,-37.0335219977966 174.948032994223,-37.0337039951529 174.94844399491,-37.0335760051432 174.948625002893,-37.0339509962334 174.948160004306,-37.0341019969336 174.948419002809,-37.0346139945684 174.950563991621,-37.0339470029409 174.95177100408,-37.0363989963953 174.949650002232,-37.0370569988178 174.951320002749,-37.0403750020311 174.951737996279,-37.0405299982575 174.951612992709,-37.0407559956453 174.95163500262,-37.0410000043877 174.952591004934,-37.0428919986653 174.952406005278,-37.043010000365 174.953168995478,-37.0445500032325 174.948692994374,-37.0459470027982 174.947918001955,-37.0443510008733 174.937950996038,-37.0474690025971 174.938428007018,-37.0484459985501 174.937586009029,-37.048710005362 174.937110001105,-37.0477319972366 174.935538003149,-37.0482249962043 174.93548299327,-37.0483309982969 174.935182087073,-37.0483367468474 174.934708045051,-37.0484849565731 174.935122996953,-37.0493320052639 174.93469099905,-37.0494700022676 174.9344819967,-37.0490419975918 174.934274576586,-37.0491070778806 174.934483839156,-37.0495363792521 174.933160021906,-37.0499761421612 174.934431423843,-37.0510151542238 174.935442793113,-37.051963614319 174.935519456839,-37.0519378831222 174.935625995418,-37.0521018794338 174.937310992783,-37.053769994221 174.937011997561,-37.0538899931317 174.934371748783,-37.0545841066679 174.934141979833,-37.0541092831589 174.933856960386,-37.0541901203044 174.93370407381,-37.0538742775829 174.933372907926,-37.0539744758989 174.932874050388,-37.0543513545775 174.932542472487,-37.0540682175656 174.930731242139,-37.0546705146817 174.930574382725,-37.0546362036648 174.930379806119,-37.054494912704 174.930213674497,-37.0544535489959 174.929979776327,-37.0543154372077 174.929685255121,-37.0540494733081 174.929634409993,-37.053928803572 174.929456115276,-37.053866671698 174.928384101831,-37.0544320002315 174.928182401625,-37.0544472851128 174.927975314552,-37.0545576013056 174.927705641776,-37.0543967203696 174.926881983468,-37.0540844452865 174.926519323305,-37.0528012479935 174.926342455073,-37.0528236142538 174.926215431816,-37.0529394424254 174.92605597432,-37.0533629420456 174.925855098773,-37.0535186762324 174.925274801584,-37.0536118061798 174.924815862558,-37.0539095303626 174.924773776698,-37.0540381710766 174.924873507674,-37.054443958955 174.924850373141,-37.0545776223361 174.924697690243,-37.0547297882748 174.924025554112,-37.0549419684272 174.923916630115,-37.0550297487877 174.923879732225,-37.0552189143519 174.924044562416,-37.0554318766217 174.924032889558,-37.0555497254456 174.923525432388,-37.0562008713451 174.923174084049,-37.0568256551422 174.922842467763,-37.057165556905 174.922320734969,-37.0572758598497 174.92212475151,-37.057174847007 174.921574390934,-37.0566610110588 174.921737907713,-37.0568698194151 174.921591051661,-37.0569423649114 174.923270997183,-37.0592579905862 174.923162074443,-37.0594181126019 174.923215141891,-37.0594947145509 174.922850001303,-37.0596300066611 174.922764222329,-37.0595332475493 174.922562825614,-37.0595782058258 174.920348885603,-37.0562665852036 174.920109843489,-37.0561618570706 174.91991156866,-37.0561772211948 174.91972903987,-37.0560412749098 174.919260727858,-37.0558518852087 174.919069084259,-37.055705088693 174.918871765381,-37.0556257302389 174.918781218067,-37.0555258942957 174.91860662065,-37.054910664266 174.918596826669,-37.0546027357517 174.918383723688,-37.0545162222426 174.918380922164,-37.054344952999 174.918278725682,-37.0541116231722 174.918258318764,-37.0535508231125 174.918317731548,-37.0533704133005 174.91846636532,-37.0532381205864 174.917764549762,-37.0522057933381 174.917829100988,-37.0521018314414 174.917761518012,-37.0520016331438</coordinates></LinearRing></outerBoundaryIs></Polygon>
  </Placemark>
</Folder>
</Document></kml>
