<?xml version="1.0" encoding="utf-8" ?>
<kml xmlns="http://www.opengis.net/kml/2.2">
<Document id="root_doc">
<Folder><name>Whitford.final</name>
  <Placemark id="Whitford.final.1">
	<name>Whitford (polygon: official_shp)</name>
	<description></description>
	<Style><LineStyle><color>ff0000ff</color></LineStyle><PolyStyle><fill>0</fill></PolyStyle></Style>
      <Polygon><outerBoundaryIs><LinearRing><coordinates>175.051339993094,-36.9304899930509 175.035124000775,-36.9405730026162 175.03599600108,-36.9416030008122 175.035730993644,-36.9418690021992 175.03619700646,-36.9420369920818 175.036252006113,-36.9429119930883 175.036100007033,-36.943211992311 175.036912999377,-36.9436820018512 175.037207005824,-36.9435539918634 175.037028003046,-36.943168995973 175.037280997029,-36.9431099939582 175.039393996398,-36.945655999946 175.03861500568,-36.947159994155 175.026578000811,-36.9444789990803 175.023902000356,-36.9530559983896 175.021721995624,-36.9598200029201 175.017148993942,-36.9603910033682 175.016799998524,-36.9608339950108 175.014099997626,-36.9630559978122 175.015553995826,-36.9639440056924 175.016099998712,-36.9648130015809 175.016594995818,-36.9649759948642 175.017119998004,-36.965331992582 175.015305007843,-36.9671629960458 175.015080007171,-36.9677759934221 175.014964004692,-36.9679259928908 175.014027004509,-36.9685059929976 175.012904006602,-36.9694390068447 175.01225299313,-36.9698160015488 175.010174004412,-36.9675559946244 175.009992000162,-36.9676640019415 175.008119998377,-36.965627993584 175.002740008206,-36.9688230019973 175.000952009114,-36.9668310062998 174.999800992029,-36.9676960008807 174.999211008272,-36.9677869962567 174.997443001743,-36.9685069933205 174.996508992771,-36.9698820044218 174.998151996803,-36.9706390038297 174.999013000598,-36.9706669957114 175.000610007578,-36.9715099912466 175.001876992744,-36.9720430032881 174.999171007218,-36.9729390042001 174.998411996294,-36.9735540029185 174.997267001919,-36.9748180040649 174.997145003787,-36.9764660036715 174.996952994903,-36.9772360022605 174.995804995924,-36.977186992962 174.994803003406,-36.9768030022219 174.994439006738,-36.9765239990868 174.994251006005,-36.9766319978099 174.993819000075,-36.9762989997399 174.992536996516,-36.9741890047598 174.989349000686,-36.9736210013471 174.987142999935,-36.9730959980673 174.986652004851,-36.9725290018658 174.986583004469,-36.9728089952758 174.986282994647,-36.9730260059289 174.985845993896,-36.9731539951016 174.985262006905,-36.9727370050491 174.977711005404,-36.9774659983937 174.968426001787,-36.9829470041418 174.96265541255,-36.976555559186 174.962310436093,-36.9768655954244 174.961834598835,-36.9770306541747 174.961223913586,-36.9768240716173 174.96074405215,-36.9776331329516 174.960200830826,-36.9788492786636 174.959714939966,-36.9790131476854 174.958928472242,-36.9796256861489 174.958502068199,-36.9797155279581 174.957760364653,-36.9802834961994 174.95665056316,-36.9808970000552 174.956585716312,-36.9814876361162 174.956399134304,-36.9814702859987 174.956006919021,-36.9813358168006 174.955599230734,-36.9815928832839 174.955446684215,-36.981609267049 174.951310516726,-36.9807600879125 174.951151924789,-36.9803830731956 174.949866095345,-36.9791199100836 174.949429263023,-36.9785087030929 174.949273122893,-36.9782262845748 174.94914079719,-36.9774761700223 174.948653091666,-36.9774543169718 174.948032937847,-36.9773429745975 174.948341909607,-36.9762710514477 174.948149034379,-36.9762366550195 174.948717168751,-36.9757709457726 174.949062187066,-36.9752725622403 174.94911164178,-36.9748919534275 174.949072565346,-36.974512613747 174.948960232807,-36.9742301808114 174.947931058455,-36.9732571169901 174.94766547292,-36.9728937625754 174.947592270807,-36.9725574254021 174.947565196912,-36.9718270508526 174.947404926421,-36.9714710156711 174.946961376572,-36.9709720032532 174.946993672393,-36.9705715395633 174.951974572087,-36.9713968306839 174.953435994368,-36.9674370061742 174.956342995659,-36.9658069968495 174.949097995382,-36.9575600008001 174.949044996973,-36.9576260028235 174.948598004405,-36.9572990000661 174.949545995841,-36.956983994257 174.949843994999,-36.9567500009014 174.949995998256,-36.9562070012133 174.946632004676,-36.9556690052417 174.944440994256,-36.9552020005999 174.946012005625,-36.9502630020629 174.944779993717,-36.9497849943168 174.941913995332,-36.9489290056505 174.940587998448,-36.9535079925895 174.939861000432,-36.9534779949237 174.93875900046,-36.9527679926429 174.937839994623,-36.9516990056574 174.938108990939,-36.9511569932734 174.93777400312,-36.9504770023002 174.937466999257,-36.9500839990543 174.937447003285,-36.9501499927784 174.934375006928,-36.9491179985487 174.934501000407,-36.94883599865 174.934780992476,-36.9486290039852 174.934718994874,-36.9483019999404 174.934777995444,-36.9481380027595 174.935072004364,-36.9479069989012 174.935471001517,-36.9471650018825 174.935559004674,-36.9459989999023 174.935425997453,-36.945671996545 174.935633008279,-36.945391998611 174.935572001265,-36.9451530066966 174.935619003873,-36.945098997436 174.935562003114,-36.9450589921042 174.935586993229,-36.9449429938069 174.93546699139,-36.9446850023951 174.935536992987,-36.9444569993709 174.935717003134,-36.9441890070635 174.935697998672,-36.9441120036799 174.935792000338,-36.9438420030294 174.935794006158,-36.943395003835 174.935720996395,-36.9431279939913 174.935841004805,-36.9429299938109 174.93591899593,-36.9428950050638 174.935828000009,-36.9428229926245 174.935842002097,-36.942451000162 174.936173997461,-36.9420050000753 174.936090002925,-36.9416670067983 174.936103004924,-36.9413169936355 174.936203997001,-36.9412340009133 174.936236992589,-36.9410190038302 174.937054005101,-36.9405699978984 174.937725997518,-36.9399570035738 174.936689005657,-36.9396490034153 174.936840992392,-36.9379769979531 174.936540007574,-36.937179992146 174.936322005413,-36.9370149931632 174.936272005854,-36.9369179932053 174.936205996508,-36.9365480055595 174.936261002233,-36.9364659925724 174.936168004993,-36.9361629922029 174.935870006965,-36.9358060030967 174.935204005275,-36.9356399938105 174.934785004758,-36.9354259937141 174.934601998167,-36.9352590015734 174.934332995917,-36.9348109985805 174.934123001049,-36.9345769949816 174.934019991989,-36.9345309982124 174.933725008033,-36.9341249952182 174.933408994446,-36.933502003892 174.933298993859,-36.9330120019855 174.933308997149,-36.9321340043723 174.933365994222,-36.9320010020194 174.933328997724,-36.9318370028008 174.932858006005,-36.9313419961913 174.932993996968,-36.9302629976608 174.933490006767,-36.9291450038926 174.933569991758,-36.9287050041949 174.933641005053,-36.9286159989043 174.933801002111,-36.9281010022245 174.933772997748,-36.927859003243 174.933878999734,-36.9272910000559 174.934115993808,-36.9268760056268 174.93413300448,-36.9267299984367 174.934048995991,-36.9264940032006 174.934071992138,-36.9262820037402 174.934252005121,-36.9258609979434 174.934513000238,-36.925615003966 174.934714004934,-36.9252799937821 174.935095001453,-36.924890992734 174.935400997599,-36.9243059945778 174.935646005683,-36.9241640031365 174.936112995051,-36.9242089929371 174.936226994644,-36.9236670024279 174.936651002226,-36.9228630025445 174.936830999228,-36.9223190075836 174.936894993598,-36.9215740051782 174.937252000493,-36.9203280036767 174.937549997368,-36.9199840012183 174.937827005924,-36.9198659944036 174.938751005477,-36.9188350057621 174.939851006967,-36.9180039975549 174.940324005868,-36.9179039946818 174.940856997501,-36.9178949998542 174.941144002933,-36.9180699947821 174.941468994831,-36.9186490065785 174.941815002066,-36.9189580054141 174.941925002444,-36.919880004111 174.94242900324,-36.9203169998139 174.942495992053,-36.9201859973593 174.942261004648,-36.9198520067871 174.942298993319,-36.9182289953184 174.942172998654,-36.9178030032095 174.94216299232,-36.9174420029226 174.94226900436,-36.9171929982491 174.9424340022,-36.917077006596 174.943019997311,-36.9169529995407 174.943707998401,-36.9165109990116 174.944016008248,-36.9164830044134 174.945353005113,-36.9161429987756 174.946889001866,-36.9158669959238 174.947386000767,-36.9155870019791 174.947946004513,-36.9155309943356 174.948173003101,-36.9156169950319 174.948315997219,-36.9157269963995 174.948815002729,-36.9164390022683 174.948795998103,-36.9167780072061 174.948527003653,-36.9171880041041 174.948283996967,-36.9174860072906 174.947811998477,-36.9176739931119 174.948161993168,-36.9181409974145 174.948146996112,-36.9185919962064 174.948223995935,-36.9193340018794 174.948136006906,-36.920147001032 174.9482320013,-36.9202530018458 174.948439998432,-36.9199840023055 174.948575992205,-36.9188550013865 174.948694995965,-36.9181540050824 174.948774000434,-36.91797199884 174.94945999579,-36.9173960024391 174.949822997404,-36.9173440020386 174.949928007927,-36.9171170001192 174.949863994867,-36.9168479929146 174.94994700176,-36.9167790020194 174.950422007425,-36.916701996979 174.95061199854,-36.9164729966091 174.950634999322,-36.9162919991927 174.950117000572,-36.9158739992287 174.950028996267,-36.9157629925477 174.950022997562,-36.9155379918049 174.950076006859,-36.9154239944215 174.95070099803,-36.9147360010691 174.950972005085,-36.9134239928118 174.951185995318,-36.9130600047502 174.951960002383,-36.9126840034175 174.95296600311,-36.9125079915967 174.953850001729,-36.9129870021733 174.954140000417,-36.9133190010016 174.954483996408,-36.9135829944364 174.955529993032,-36.913811992353 174.955669999161,-36.9138089963906 174.955948001688,-36.9137140031167 174.956546998512,-36.9140409962366 174.956608008235,-36.9142199958423 174.956722995545,-36.9143069990803 174.956917999678,-36.91428099894 174.957356997603,-36.9139130045614 174.95774599941,-36.9137709922299 174.958503006286,-36.9137560044338 174.95997799755,-36.9143140001657 174.960503005301,-36.9149809929758 174.960724999128,-36.9158549976944 174.96068399342,-36.9173429968497 174.960815003084,-36.9179719983913 174.960818000316,-36.9190310036732 174.960599003188,-36.9192379968718 174.959905008507,-36.9194979975571 174.960021006771,-36.9196309933217 174.960470993042,-36.9196910008823 174.960730997306,-36.9198890036741 174.960995997351,-36.9203570008695 174.961008008734,-36.9207400030114 174.96130300594,-36.9212309965725 174.961412000713,-36.9230539958809 174.961090002455,-36.9235779953461 174.960429005341,-36.9239729928987 174.960045006747,-36.9242960015899 174.959203005016,-36.9252579960514 174.958813995677,-36.9253789961899 174.958848008292,-36.9256029937961 174.959224005629,-36.9260020024349 174.959295003683,-36.9264960041075 174.959113003994,-36.9269959963886 174.959071005458,-36.9274470062398 174.958913996449,-36.9278560064015 174.958562991004,-36.9283350049673 174.958269999766,-36.9288810042084 174.958191000507,-36.9290639923636 174.958219993395,-36.9291079945678 174.958333003884,-36.92912800272 174.959271997049,-36.9285699979996 174.959521992057,-36.9284970010905 174.959692007875,-36.9285029973444 174.959797008744,-36.9283579918229 174.95985500194,-36.9284130057092 174.960002007608,-36.9284389946379 174.959948992136,-36.9285150071224 174.960315007255,-36.9287309925527 174.960552005981,-36.9291769951245 174.960575001773,-36.9299649955854 174.960417993407,-36.9303290070671 174.960514993545,-36.9307779951417 174.960656994834,-36.9308429941041 174.960737006577,-36.9307059984305 174.960985993649,-36.9295959954365 174.961150008171,-36.9294580032688 174.961317995601,-36.9294329978131 174.961433994152,-36.9295659917697 174.961361994416,-36.9300179961224 174.961432997109,-36.9301210024156 174.961750997561,-36.9298530038571 174.961822996783,-36.9294460059864 174.962096003195,-36.9291710023152 174.962955006024,-36.9288160018272 174.96348499144,-36.9286709966953 174.963591994711,-36.9284880071355 174.963646992312,-36.9284420025986 174.963759002775,-36.9284400014238 174.964072001516,-36.9285919994252 174.964274991894,-36.9288139966495 174.964619995228,-36.9290780051647 174.965351991531,-36.9291759928339 174.965670996477,-36.9295090034218 174.965945003433,-36.9302249961066 174.966346994532,-36.9305770019488 174.967061002205,-36.9309700006116 174.9672349964,-36.9311689956981 174.967234993425,-36.9312639959377 174.966319002041,-36.9324710035792 174.966031998086,-36.9331979931397 174.966009991612,-36.9334229923179 174.96624199353,-36.9336899933098 174.966305993117,-36.9339589939108 174.966140990975,-36.9340969950546 174.965393995922,-36.934449999 174.964743004257,-36.9352279960965 174.964747005601,-36.9353400061643 174.964889992799,-36.9354500045915 174.965107004426,-36.9352210013008 174.965693003938,-36.9350969929472 174.966441001081,-36.9347450060906 174.967000001794,-36.9346659926663 174.967116997771,-36.9348000007075 174.965998999813,-36.9359469917753 174.965871007128,-36.9363330017173 174.965825002787,-36.936693996595 174.96582099984,-36.938475000395 174.965691999588,-36.9388609970044 174.965208995437,-36.9396359915974 174.964863999818,-36.9403399939236 174.964661005857,-36.9410659959508 174.964147991449,-36.9417510055541 174.964207002192,-36.9418410023177 174.964654994255,-36.9418099970455 174.964797002207,-36.9418750067498 174.965060994157,-36.9422519951142 174.965069005318,-36.9425449951722 174.964907999594,-36.9427740034298 174.964437998027,-36.9430309980647 174.964306995605,-36.9433710011737 174.964142997489,-36.9435319951126 174.964096001855,-36.9438029950459 174.963961998536,-36.9440310001095 174.963967002112,-36.9442050040456 174.964050994836,-36.9441870007946 174.96456699803,-36.943637003362 174.964735999119,-36.9436339965972 174.965232992544,-36.944299995699 174.965409993558,-36.9444359986734 174.965493994763,-36.9443360054389 174.96525399999,-36.9440509946743 174.965100005643,-36.9436270030164 174.965144999051,-36.9432199976813 174.965449002597,-36.9430559960254 174.965900008951,-36.9430929988681 174.966611003858,-36.943418005869 174.966772992581,-36.9431889926038 174.966769004567,-36.9430769978798 174.966471998386,-36.9425189919668 174.966422998147,-36.9417760059304 174.966582005427,-36.9414800015599 174.966801007156,-36.9412959976692 174.967135006928,-36.9411999938881 174.967696007637,-36.9411889928037 174.968055004937,-36.9409570017484 174.968223005922,-36.939985006765 174.968450995949,-36.9391689950251 174.969261994559,-36.9380949977789 174.969427006203,-36.9379560007454 174.969680007418,-36.9379739946527 174.969972991744,-36.9383740007588 174.969979992833,-36.9386440051094 174.969800003701,-36.9391660014364 174.969808994857,-36.9394819986895 174.970308003113,-36.9402149993078 174.970479995493,-36.9403469968272 174.970592006487,-36.9403450051954 174.970703007474,-36.9402760012442 174.970783002929,-36.9401619979008 174.970769997238,-36.9397340066744 174.970851997234,-36.9396420050586 174.970935996861,-36.9396410026695 174.971136001538,-36.9397500034481 174.97154300724,-36.9402150051224 174.971662991974,-36.9405050066373 174.971866002292,-36.9407269930599 174.972460993947,-36.940573004556 174.972317006227,-36.9398170065642 174.972084006833,-36.9395290019835 174.971137996011,-36.9388929990648 174.971048992134,-36.9387149957947 174.970971998327,-36.938407995983 174.97094000183,-36.9369139928348 174.971111007175,-36.9360310070631 174.971517996671,-36.9355730048997 174.971713008944,-36.935502005624 174.971965006525,-36.9354969975538 174.972333004579,-36.9356020056285 174.972448002098,-36.9356900010907 174.972654999569,-36.9360020036464 174.97304699574,-36.9359720011354 174.973417996171,-36.9361910013451 174.973527001564,-36.9360749953031 174.973543992954,-36.935715004704 174.973679997134,-36.9355769950786 174.974353006047,-36.9355650041151 174.974899993497,-36.9352069945768 174.974260001812,-36.9352280051118 174.973231999829,-36.9346619993861 174.972830004124,-36.9343540005477 174.972644995998,-36.9337489931869 174.972180995522,-36.9332620030464 174.972075001765,-36.9325420015992 174.971840994974,-36.9322089925503 174.971717995745,-36.9318290032273 174.971249998553,-36.9312059938969 174.971147001522,-36.9305770029376 174.97119900421,-36.9304410062124 174.971390993677,-36.9302800021772 174.972084000258,-36.9299510024172 174.972131995066,-36.929679996156 174.971955004783,-36.9294120037858 174.971351997786,-36.9289289982492 174.969609998084,-36.9269559976154 174.968801008563,-36.9261820018964 174.968626996177,-36.9259599943466 174.968390003306,-36.9255370066759 174.968057005109,-36.9247309930943 174.967415001584,-36.9238870000237 174.967130998966,-36.9228099926609 174.966767997675,-36.9219159960639 174.966869995608,-36.9215530055964 174.96630999343,-36.9216089947359 174.965794992664,-36.9212810036752 174.965388001782,-36.9207919934168 174.965298997455,-36.9206140011401 174.964984992062,-36.9194710010651 174.964976005391,-36.9192010012168 174.965071996575,-36.9186350047825 174.964817003928,-36.9185280011518 174.964507997945,-36.9185329927942 174.963839000979,-36.9187029993229 174.963272998266,-36.9185340042396 174.963099995627,-36.9184020000345 174.962980004881,-36.9181339989531 174.962965997927,-36.9176380051862 174.963138003163,-36.9167790022075 174.963409005694,-36.9161710048391 174.963836002591,-36.9157060054448 174.963829004882,-36.9154579922412 174.963036008358,-36.9147929960242 174.963005995923,-36.9146929945739 174.963135004311,-36.9145320020654 174.963249002684,-36.9145349980614 174.965155991945,-36.9149540059436 174.96518800693,-36.9149149993537 174.965580007863,-36.9149080033223 174.965911994684,-36.9147440004376 174.966361999276,-36.9147569951709 174.966680005639,-36.9150670043429 174.966820999623,-36.9150639932568 174.967395996991,-36.9146020036379 174.967675991461,-36.9145749986866 174.967704002664,-36.914735001373 174.968380001453,-36.914675005208 174.968691006695,-36.9147579984299 174.96894300733,-36.9147310030122 174.96902300466,-36.9146209961925 174.968962994432,-36.9144380048164 174.969123998274,-36.9141869955595 174.968920998669,-36.9139649915641 174.968986993585,-36.9133330026269 174.96875100492,-36.912932004959 174.968740000338,-36.9125940054145 174.96882900538,-36.9117590067831 174.968879001864,-36.9116000012564 174.969041996034,-36.9113939946779 174.96950799348,-36.9110019987833 174.97008699762,-36.9106529962231 174.971757005873,-36.9092470006485 174.972410003034,-36.9085919996211 174.972777991744,-36.908384993323 174.973149002265,-36.9082659915501 174.973729997121,-36.908291994657 174.974858995725,-36.9078360004438 174.97530499118,-36.907738003719 174.975615008333,-36.9077769956042 174.975986005603,-36.907994993578 174.97680700252,-36.9091739946544 174.977269007101,-36.9096380027571 174.977900993002,-36.9101219946102 174.978072003058,-36.910209007403 174.978808008078,-36.910420000233 174.979255995561,-36.9104119966794 174.979813008442,-36.9102439939334 174.980145002833,-36.9100790043582 174.980730003469,-36.909910996665 174.980925994207,-36.9099069921682 174.981522003662,-36.9101660011708 174.981916001871,-36.9102039978295 174.98222000873,-36.9100180031987 174.982892001967,-36.9099599936325 174.983196991745,-36.9098409930408 174.984096008907,-36.9098690021061 174.985802998443,-36.9097019937439 174.986553996749,-36.9094619921587 174.987003001612,-36.9094759937234 174.988225994833,-36.9100390066715 174.988731999979,-36.9100969935632 174.990681000202,-36.9104870011315 174.990797004466,-36.9106199979082 174.990661004789,-36.910780997246 174.989711005554,-36.9109340007273 174.989324007075,-36.9111220048582 174.98924499319,-36.9115720064304 174.989310003421,-36.9115950038834 174.989633992405,-36.9111840066838 174.989970002923,-36.911132006436 174.990284003162,-36.9113070060108 174.990425007875,-36.911303997433 174.990698999074,-36.9111410025588 174.991007997448,-36.911134998652 174.991286005139,-36.9110620059637 174.991539995264,-36.9110799936964 174.991629006263,-36.9112139965925 174.99185199254,-36.912156000582 174.991938997459,-36.9122220037789 174.992303998437,-36.9122370037977 174.992848005964,-36.9126100040935 174.99301800256,-36.9126739990522 174.993552998364,-36.9127309990425 174.993755999848,-36.9129529942578 174.993854997448,-36.913447006314 174.994030999604,-36.913690995447 174.994037991098,-36.913938992253 174.993909004056,-36.9143019945861 174.993838998132,-36.914798992783 174.993591998514,-36.9150069989711 174.992730000152,-36.9152710016844 174.992595001095,-36.9154090013712 174.99263099633,-36.9157009917658 174.992980001614,-36.916144995789 174.992988006074,-36.9163709982477 174.992687994148,-36.9166909922548 174.992592005311,-36.9172340018402 174.992322000256,-36.9175780059536 174.992412999027,-36.9178020012547 174.992419992188,-36.9180720069424 174.991991991768,-36.91874000428 174.992146001173,-36.9187219939688 174.992131003641,-36.9187569925785 174.991866995238,-36.9190149919515 174.991778004786,-36.9193149959723 174.991694992847,-36.9193249939683 174.991672999498,-36.9193930019853 174.991715004953,-36.9198199951013 174.991983003267,-36.9203560015637 174.991795000654,-36.9206520026902 174.99194000583,-36.9207849918582 174.991927005374,-36.9213259938578 174.992133996692,-36.9216830016175 174.992139995528,-36.9218629964168 174.991980994926,-36.9221809987262 174.991463005925,-36.9227100051434 174.991114005489,-36.9232350059057 174.991051007085,-36.9234370066207 174.991213992871,-36.9237960011314 174.991146000129,-36.9243160062996 174.991348006352,-36.9245149942787 174.991853992361,-36.9245500016071 174.992896992417,-36.9247110026448 174.993034001806,-36.9245950047723 174.992974993981,-36.9244840066941 174.992462998321,-36.9242450043648 174.992202004565,-36.9239569959097 174.992220003527,-36.9236409977152 174.992380998953,-36.9233679960944 174.993334993259,-36.9224480030235 174.993841998019,-36.9224840052193 174.994122002322,-36.9224559919888 174.994917001093,-36.9218100059048 174.99485900703,-36.9217430058509 174.99466300269,-36.9217470024304 174.994412996863,-36.9218420052173 174.994272006391,-36.921845003221 174.993821001816,-36.9217629974389 174.993399992669,-36.9217709905962 174.993287002504,-36.9217280016335 174.993111006664,-36.9215060035551 174.993105001259,-36.9212810033305 174.993016006104,-36.9211249927729 174.992759995422,-36.9210180065668 174.992559000883,-36.920863993229 174.9926400052,-36.9207489950775 174.992862995678,-36.9206999949156 174.99299999822,-36.9205839972211 174.992993998702,-36.9204040015663 174.992442992577,-36.9197839961168 174.99251500871,-36.9193770061907 174.992733003474,-36.9191700008434 174.993149006403,-36.9189810037458 174.99355899889,-36.9186130020691 174.993810999237,-36.918563992662 174.994185007311,-36.9188939944129 174.994696995918,-36.9191549971008 174.994902997678,-36.9194220036653 174.994909999631,-36.9196919935549 174.994694999626,-36.9200110005542 174.994671998073,-36.9201919933796 174.994701994818,-36.9202589978921 174.995189996597,-36.9205879970072 174.995439997842,-36.9205160074432 174.995578004769,-36.9204219952222 174.996068991747,-36.9199849982618 174.996403994256,-36.9199110045967 174.996604001312,-36.9200199917456 174.996561998382,-36.9204719967279 174.996735002896,-36.9206490063991 174.997045996997,-36.9207320030872 174.997135993853,-36.9209329992576 174.996702996815,-36.9214610059687 174.996714001645,-36.9218430050781 174.997349000929,-36.9225780044027 174.99712899269,-36.9228240061866 174.997247995911,-36.9230560003572 174.997181994979,-36.923495995359 174.99707699571,-36.9235210068129 174.996881994467,-36.9234810031546 174.996865008239,-36.9235250064144 174.997461003228,-36.9238829976384 174.997833991272,-36.9239630068535 174.997582999859,-36.9242710048737 174.997698993229,-36.9244520066698 174.998293006824,-36.9239520031032 174.998600005967,-36.9242459949871 174.998786001789,-36.9246009932715 174.999012007631,-36.9247319997382 174.998985997563,-36.9247609926223 174.999629000016,-36.9249419959631 175.000739992309,-36.9251459986736 175.000694004118,-36.9255999986243 175.001144005287,-36.9261150008749 175.001272997752,-36.9263510034436 175.00152100762,-36.9264999989858 175.001860006451,-36.9265550055642 175.00244500643,-36.9264099985958 175.002474993542,-36.9266959971115 175.002266004461,-36.9270559954102 175.002134999254,-36.9275490008871 175.001966993686,-36.9277049978382 175.008824991818,-36.928213996246 175.009214997164,-36.9245649925715 175.015926998031,-36.9251079959681 175.016903993994,-36.9327280022695 175.035295999269,-36.9360229965789 175.038346996766,-36.9281509932197 175.051339993094,-36.9304899930509</coordinates></LinearRing></outerBoundaryIs></Polygon>
  </Placemark>
</Folder>
</Document></kml>
