<?xml version="1.0" encoding="UTF-8"?>
<kml xmlns="http://www.opengis.net/kml/2.2">
  <Document>
    <name>East Tāmaki — Section 2</name>
    <Placemark>
      <name>East Tāmaki — Section 2</name>
      <Style>
        <LineStyle><color>ff000000</color><width>2</width></LineStyle>
        <PolyStyle><color>6600ff00</color><fill>1</fill><outline>1</outline></PolyStyle>
      </Style>
      <Polygon>
        <tessellate>1</tessellate>
        <outerBoundaryIs>
          <LinearRing>
            <coordinates>
              174.897885383,-36.927236481,0 174.898365000,-36.927335000,0 174.899155000,-36.927478000,0 174.899143000,-36.927520000,0 174.899042000,-36.927881000,0 174.898939000,-36.928251000,0 174.898920000,-36.928317000,0 174.899155000,-36.928436000,0 174.899441000,-36.928487000,0 174.899851000,-36.928562000,0 174.900214000,-36.928627000,0 174.900184000,-36.928734000,0 174.900466000,-36.928876000,0 174.900630000,-36.928906000,0 174.900960000,-36.928966000,0 174.900979000,-36.928900000,0 174.901270000,-36.927862000,0 174.901374000,-36.927889000,0 174.901582000,-36.927947000,0 174.901686000,-36.927977000,0 174.901789000,-36.928007000,0 174.901827000,-36.928077000,0 174.902052000,-36.928146000,0 174.902139000,-36.928116000,0 174.902289000,-36.928167000,0 174.902438000,-36.928219000,0 174.903160000,-36.928492000,0 174.903158000,-36.929071000,0 174.903179000,-36.929157000,0 174.903196000,-36.929225000,0 174.903311000,-36.929346000,0 174.903369000,-36.929455000,0 174.903389000,-36.929490000,0 174.903450000,-36.929714000,0 174.903650000,-36.929810000,0 174.903781000,-36.929873000,0 174.903868000,-36.929915000,0 174.903879000,-36.930004000,0 174.903890000,-36.930088000,0 174.903874000,-36.930256000,0 174.903856000,-36.930386000,0 174.903830000,-36.930570000,0 174.903803000,-36.930769000,0 174.903902000,-36.931014000,0 174.903812000,-36.931249000,0 174.903698000,-36.931336000,0 174.903600000,-36.931410000,0 174.903500000,-36.931514000,0 174.903377000,-36.931641000,0 174.903059000,-36.931972000,0 174.903203000,-36.932241000,0 174.903256000,-36.932339000,0 174.903299000,-36.932395000,0 174.903353000,-36.932464000,0 174.903489000,-36.932640000,0 174.903451000,-36.932749000,0 174.903398000,-36.932905000,0 174.903347000,-36.933056000,0 174.903301000,-36.933191000,0 174.903298000,-36.933232000,0 174.903288000,-36.933389000,0 174.903286000,-36.933426000,0 174.903271000,-36.933654000,0 174.903501000,-36.933695000,0 174.903568000,-36.933708000,0 174.903507000,-36.933927000,0 174.903456000,-36.934109000,0 174.903386000,-36.934357000,0 174.903424000,-36.934382000,0 174.903534000,-36.934453000,0 174.903580000,-36.934483000,0 174.903833000,-36.934647000,0 174.904157000,-36.934856000,0 174.904331000,-36.934997000,0 174.904481000,-36.935118000,0 174.904630000,-36.935238000,0 174.904706000,-36.935281000,0 174.905001000,-36.935446000,0 174.905023000,-36.935419000,0 174.904984000,-36.935398000,0 174.904970000,-36.935335000,0 174.905038000,-36.935257000,0 174.905070000,-36.935220000,0 174.905154000,-36.935124000,0 174.905289000,-36.934968000,0 174.905380000,-36.934985000,0 174.905533000,-36.934799000,0 174.905555000,-36.934719000,0 174.905589000,-36.934598000,0 174.905651000,-36.934609000,0 174.905674000,-36.934582000,0 174.905783000,-36.934458000,0 174.905889000,-36.934336000,0 174.905914000,-36.934307000,0 174.906046000,-36.934156000,0 174.906010000,-36.934149000,0 174.906173000,-36.933962000,0 174.906288000,-36.933829000,0 174.906342000,-36.933768000,0 174.906407000,-36.933692000,0 174.906476000,-36.933612000,0 174.906526000,-36.933556000,0 174.906664000,-36.933397000,0 174.906734000,-36.933442000,0 174.906885000,-36.933282000,0 174.906794000,-36.933224000,0 174.907031000,-36.932950000,0 174.907141000,-36.932825000,0 174.906878000,-36.932640000,0 174.906757000,-36.932556000,0 174.906794000,-36.932518000,0 174.906939000,-36.932370000,0 174.907073000,-36.932465000,0 174.907318000,-36.932640000,0 174.907421000,-36.932713000,0 174.907447000,-36.932685000,0 174.907976000,-36.932178000,0 174.907856000,-36.932087000,0 174.907987000,-36.931975000,0 174.908064000,-36.931910000,0 174.908120000,-36.931863000,0 174.908252000,-36.931751000,0 174.908502000,-36.931945000,0 174.908676000,-36.931800000,0 174.908794000,-36.931703000,0 174.908911000,-36.931606000,0 174.908949000,-36.931574000,0 174.909483000,-36.931257000,0 174.909722000,-36.931115000,0 174.909765000,-36.931090000,0 174.909872000,-36.931129000,0 174.909904000,-36.931141000,0 174.910020000,-36.930939000,0 174.910229000,-36.930574000,0 174.910583000,-36.930705000,0 174.910659000,-36.930733000,0 174.910691000,-36.930679000,0 174.910785000,-36.930514000,0 174.911382000,-36.930735000,0 174.911301000,-36.930877000,0 174.911076000,-36.931250000,0 174.910998000,-36.931396000,0 174.911381000,-36.931521000,0 174.911651000,-36.931007000,0 174.911693000,-36.930934000,0 174.911944000,-36.931003000,0 174.912418000,-36.931133000,0 174.913619000,-36.931165000,0 174.914245000,-36.931182000,0 174.915235000,-36.931567000,0 174.915331000,-36.931604000,0 174.915290000,-36.931834000,0 174.915187000,-36.932879000,0 174.915147000,-36.933021000,0 174.915439000,-36.933075000,0 174.915388000,-36.933513000,0 174.914875000,-36.935309000,0 174.914762000,-36.935705000,0 174.914725000,-36.935855000,0 174.915067000,-36.935917000,0 174.915022000,-36.936084000,0 174.914976000,-36.936251000,0 174.914948000,-36.936247000,0 174.914894000,-36.936445000,0 174.914968000,-36.936469000,0 174.914911000,-36.936675000,0 174.914676000,-36.936632000,0 174.914626000,-36.936589000,0 174.914509000,-36.936928000,0 174.914679000,-36.936918000,0 174.914802000,-36.936941000,0 174.914831000,-36.936946000,0 174.914769000,-36.937165000,0 174.914729000,-36.937309000,0 174.914681000,-36.937317000,0 174.914666000,-36.937320000,0 174.914544000,-36.937298000,0 174.914488000,-36.937475000,0 174.914616000,-36.937498000,0 174.914566000,-36.937678000,0 174.914515000,-36.937859000,0 174.914467000,-36.937850000,0 174.914407000,-36.938061000,0 174.914117000,-36.938008000,0 174.914104000,-36.938052000,0 174.914326000,-36.938093000,0 174.914427000,-36.938111000,0 174.914526000,-36.938129000,0 174.914466000,-36.938345000,0 174.914403000,-36.938568000,0 174.914392000,-36.938608000,0 174.914354000,-36.938744000,0 174.914345000,-36.938775000,0 174.914299000,-36.938942000,0 174.914255000,-36.939096000,0 174.914252000,-36.939109000,0 174.914204000,-36.939280000,0 174.913892000,-36.939224000,0 174.913872000,-36.939294000,0 174.914058000,-36.939328000,0 174.914007000,-36.939513000,0 174.914133000,-36.939535000,0 174.914083000,-36.939711000,0 174.913985000,-36.940063000,0 174.913974000,-36.940061000,0 174.913912000,-36.940281000,0 174.913743000,-36.940250000,0 174.913709000,-36.940244000,0 174.913658000,-36.940430000,0 174.913801000,-36.940455000,0 174.913756000,-36.940614000,0 174.913753000,-36.940626000,0 174.913705000,-36.940797000,0 174.913696000,-36.940828000,0 174.913655000,-36.940974000,0 174.913637000,-36.941042000,0 174.913609000,-36.941141000,0 174.913577000,-36.941256000,0 174.913562000,-36.941308000,0 174.913532000,-36.941414000,0 174.913488000,-36.941572000,0 174.913469000,-36.941642000,0 174.913428000,-36.941786000,0 174.913422000,-36.941809000,0 174.913371000,-36.941992000,0 174.913369000,-36.942000000,0 174.913320000,-36.942174000,0 174.913311000,-36.942214000,0 174.913281000,-36.942355000,0 174.913271000,-36.942405000,0 174.913237000,-36.942560000,0 174.913096000,-36.942541000,0 174.913001000,-36.942528000,0 174.912900000,-36.942514000,0 174.912893000,-36.942565000,0 174.912865000,-36.942665000,0 174.912849000,-36.942721000,0 174.912713000,-36.943121000,0 174.912758000,-36.943096000,0 174.912812000,-36.943092000,0 174.912974000,-36.943112000,0 174.913032000,-36.943117000,0 174.913548000,-36.943154000,0 174.913847000,-36.943154000,0 174.913915000,-36.943208000,0 174.913915000,-36.943334000,0 174.913916000,-36.943742000,0 174.913916000,-36.943785000,0 174.913568000,-36.943785000,0 174.913428000,-36.943824000,0 174.913156000,-36.943899000,0 174.912910000,-36.943967000,0 174.912873000,-36.944026000,0 174.912764000,-36.944203000,0 174.912619000,-36.944434000,0 174.912484000,-36.944651000,0 174.912476000,-36.944687000,0 174.912418000,-36.944891000,0 174.912363000,-36.945088000,0 174.912315000,-36.945256000,0 174.912336000,-36.945256000,0 174.912322000,-36.945309000,0 174.912274000,-36.945487000,0 174.912335000,-36.945497000,0 174.912293000,-36.945656000,0 174.912278000,-36.945709000,0 174.912250000,-36.945814000,0 174.912226000,-36.945902000,0 174.912174000,-36.946096000,0 174.912165000,-36.946131000,0 174.912122000,-36.946290000,0 174.912181000,-36.946300000,0 174.912123000,-36.946516000,0 174.912118000,-36.946532000,0 174.911943000,-36.946501000,0 174.911936000,-36.946500000,0 174.911747000,-36.946467000,0 174.911700000,-36.946641000,0 174.911572000,-36.947116000,0 174.911768000,-36.947150000,0 174.911944000,-36.947181000,0 174.911943000,-36.947183000,0 174.911910000,-36.947304000,0 174.911901000,-36.947339000,0 174.911879000,-36.947419000,0 174.911799000,-36.947488000,0 174.911778000,-36.947567000,0 174.911735000,-36.947725000,0 174.911695000,-36.947875000,0 174.911693000,-36.947884000,0 174.911643000,-36.948069000,0 174.911590000,-36.948263000,0 174.911565000,-36.948360000,0 174.911539000,-36.948457000,0 174.911522000,-36.948518000,0 174.911486000,-36.948650000,0 174.911484000,-36.948660000,0 174.911444000,-36.948809000,0 174.911352000,-36.948817000,0 174.911163000,-36.948785000,0 174.910915000,-36.948570000,0 174.910831000,-36.948556000,0 174.910699000,-36.948533000,0 174.910600000,-36.948516000,0 174.910485000,-36.948496000,0 174.910343000,-36.948471000,0 174.910271000,-36.948459000,0 174.910156000,-36.948439000,0 174.910051000,-36.948420000,0 174.909980000,-36.948408000,0 174.909831000,-36.948382000,0 174.909627000,-36.948352000,0 174.909576000,-36.948345000,0 174.909450000,-36.948330000,0 174.909204000,-36.948302000,0 174.908938000,-36.948382000,0 174.908592000,-36.948329000,0 174.908584000,-36.948356000,0 174.908410000,-36.948324000,0 174.908235000,-36.948293000,0 174.908141000,-36.948276000,0 174.908060000,-36.948262000,0 174.907883000,-36.948230000,0 174.907795000,-36.948232000,0 174.907598000,-36.948197000,0 174.907532000,-36.948185000,0 174.907401000,-36.948162000,0 174.907269000,-36.948138000,0 174.907205000,-36.948127000,0 174.907007000,-36.948092000,0 174.906454000,-36.948341000,0 174.906195000,-36.949273000,0 174.906063000,-36.949750000,0 174.905897000,-36.950346000,0 174.905507000,-36.951753000,0 174.905239000,-36.952721000,0 174.905181000,-36.952929000,0 174.905104000,-36.953208000,0 174.905073000,-36.953202000,0 174.904861000,-36.953967000,0 174.904635000,-36.954358000,0 174.904671000,-36.954521000,0 174.904566000,-36.954975000,0 174.904495000,-36.955285000,0 174.904446000,-36.955463000,0 174.904382000,-36.955747000,0 174.904311000,-36.956066000,0 174.904299000,-36.956111000,0 174.904144000,-36.956611000,0 174.903611000,-36.956517000,0 174.903373000,-36.956378000,0 174.903046000,-36.956186000,0 174.902472000,-36.956073000,0 174.901660000,-36.955914000,0 174.901726000,-36.955700000,0 174.900912000,-36.955228000,0 174.900198000,-36.954814000,0 174.900123000,-36.954831000,0 174.900056000,-36.954847000,0 174.899058000,-36.955078000,0 174.898889000,-36.955684000,0 174.899496000,-36.955791000,0 174.899474000,-36.955865000,0 174.899446000,-36.955968000,0 174.899378000,-36.956204000,0 174.899219000,-36.956758000,0 174.898938000,-36.956792000,0 174.898560000,-36.957103000,0 174.899017000,-36.957461000,0 174.899313000,-36.957382000,0 174.899777000,-36.957418000,0 174.899872000,-36.957425000,0 174.900228000,-36.957646000,0 174.900392000,-36.958080000,0 174.900343000,-36.958188000,0 174.900128000,-36.958670000,0 174.900056000,-36.958829000,0 174.900096000,-36.959085000,0 174.900162000,-36.959509000,0 174.900205000,-36.959786000,0 174.900328000,-36.959904000,0 174.900515000,-36.959896000,0 174.901349000,-36.959920000,0 174.901605000,-36.959927000,0 174.902196000,-36.959935000,0 174.902420000,-36.959939000,0 174.902601000,-36.960139000,0 174.902856000,-36.960236000,0 174.902863000,-36.960238000,0 174.902517000,-36.961409000,0 174.901714000,-36.961381000,0 174.901445000,-36.962228000,0 174.901388000,-36.962331000,0 174.901041000,-36.963422000,0 174.901135000,-36.963435000,0 174.901232000,-36.963447000,0 174.901245000,-36.963449000,0 174.901525000,-36.963499000,0 174.901729000,-36.963508000,0 174.901576000,-36.963830000,0 174.902338000,-36.964018000,0 174.902184000,-36.964088000,0 174.902048000,-36.964548000,0 174.901603000,-36.965648000,0 174.901495000,-36.966022000,0 174.901323000,-36.966622000,0 174.901258000,-36.966849000,0 174.901189000,-36.967087000,0 174.901037000,-36.967619000,0 174.900882000,-36.968158000,0 174.900816000,-36.968388000,0 174.900748000,-36.968624000,0 174.900440000,-36.969695000,0 174.900374000,-36.969925000,0 174.900306000,-36.970161000,0 174.900134000,-36.970761000,0 174.900084000,-36.970936000,0 174.899680000,-36.970863000,0 174.899553000,-36.970839000,0 174.899543000,-36.970434000,0 174.899542000,-36.970366000,0 174.899542000,-36.970299000,0 174.899544000,-36.970164000,0 174.899550000,-36.970029000,0 174.899560000,-36.969895000,0 174.899566000,-36.969827000,0 174.899582000,-36.969693000,0 174.899591000,-36.969626000,0 174.899601000,-36.969559000,0 174.899623000,-36.969426000,0 174.899636000,-36.969359000,0 174.899664000,-36.969226000,0 174.899696000,-36.969094000,0 174.899713000,-36.969028000,0 174.899731000,-36.968962000,0 174.899750000,-36.968896000,0 174.899770000,-36.968831000,0 174.899791000,-36.968766000,0 174.899813000,-36.968700000,0 174.899836000,-36.968636000,0 174.899859000,-36.968571000,0 174.899884000,-36.968506000,0 174.899909000,-36.968442000,0 174.899935000,-36.968378000,0 174.899962000,-36.968314000,0 174.899990000,-36.968251000,0 174.900019000,-36.968187000,0 174.900079000,-36.968061000,0 174.900143000,-36.967937000,0 174.900176000,-36.967875000,0 174.900210000,-36.967813000,0 174.900245000,-36.967752000,0 174.900263000,-36.967720000,0 174.896546000,-36.967034000,0 174.896010000,-36.968916000,0 174.895459000,-36.968888000,0 174.894482000,-36.968612000,0 174.893827000,-36.968453000,0 174.893287000,-36.968358000,0 174.893481000,-36.967700000,0 174.894091000,-36.965554000,0 174.894381000,-36.964518000,0 174.894920000,-36.962618000,0 174.894935000,-36.962567000,0 174.895600000,-36.962684000,0 174.895669000,-36.962343000,0 174.895756000,-36.962282000,0 174.895830000,-36.962071000,0 174.895915000,-36.961759000,0 174.895919000,-36.961745000,0 174.895867000,-36.961736000,0 174.895525000,-36.961675000,0 174.895140000,-36.961607000,0 174.894331000,-36.961463000,0 174.893549000,-36.961325000,0 174.893550000,-36.961320000,0 174.893726000,-36.960681000,0 174.893751000,-36.960587000,0 174.894071000,-36.959423000,0 174.894131000,-36.959204000,0 174.894138000,-36.959181000,0 174.894332000,-36.958496000,0 174.894473000,-36.957965000,0 174.894580000,-36.957576000,0 174.894671000,-36.957244000,0 174.894678000,-36.957222000,0 174.894746000,-36.956975000,0 174.894825000,-36.956684000,0 174.895003000,-36.956038000,0 174.895027000,-36.955949000,0 174.895102000,-36.955677000,0 174.895178000,-36.955407000,0 174.895268000,-36.955083000,0 174.895179000,-36.955069000,0 174.894603000,-36.954978000,0 174.893803000,-36.954852000,0 174.893630000,-36.954825000,0 174.893590000,-36.954819000,0 174.893506000,-36.954805000,0 174.893471000,-36.954800000,0 174.893186000,-36.954755000,0 174.892905000,-36.954711000,0 174.892422000,-36.954635000,0 174.891965000,-36.954563000,0 174.891433000,-36.954479000,0 174.890862000,-36.954389000,0 174.890937000,-36.954121000,0 174.891061000,-36.953776000,0 174.891275000,-36.953015000,0 174.891283000,-36.952987000,0 174.891792000,-36.953079000,0 174.891795000,-36.953066000,0 174.891850000,-36.953076000,0 174.891859000,-36.953043000,0 174.892016000,-36.953072000,0 174.892151000,-36.952586000,0 174.891998000,-36.952388000,0 174.891840000,-36.952357000,0 174.891477000,-36.952298000,0 174.891512000,-36.952175000,0 174.891580000,-36.951934000,0 174.891550423,-36.951928454,0 174.895366600,-36.936822800,0 174.897885383,-36.927236481,0
            </coordinates>
          </LinearRing>
        </outerBoundaryIs>
      </Polygon>
    </Placemark>
  </Document>
</kml>