<?xml version="1.0" encoding="utf-8"?>
<kml xmlns="http://www.opengis.net/kml/2.2">
<Document>
  <name>Pahurehure (polygon: official_shp)</name>
  <open>1</open>

  <Placemark>
    <name>Pahurehure (polygon: official_shp)</name>
    <Style>
      <LineStyle><color>ffff0000</color><width>2</width></LineStyle>
      <PolyStyle><color>66ff0000</color><fill>1</fill><outline>1</outline></PolyStyle>
    </Style>
    <Polygon>
      <tessellate>1</tessellate>
      <altitudeMode>relativeToGround</altitudeMode>
      <outerBoundaryIs><LinearRing><coordinates>174.9282826828404,-37.072516205854576,100 174.9277199915245,-37.070990006635235,100 174.92747799685318,-37.070385000204354,100 174.92709599274727,-37.069427998908154,100 174.92702300115627,-37.06935000308475,100 174.9266229950138,-37.06830499656967,100 174.92603699896588,-37.06681299167937,100 174.92521299940512,-37.06471599657854,100 174.92481900265437,-37.06372799459562,100 174.92469399641865,-37.06379100424054,100 174.92322199838165,-37.06054900601949,100 174.92322100262234,-37.06051300107119,100 174.9229700081832,-37.06060700527853,100 174.9228319947231,-37.06072200138398,100 174.9228141780093,-37.06082490042184,100 174.92283180100003,-37.06072189499998,100 174.922970221,-37.060606741999955,100 174.92322074000003,-37.06051301899998,100 174.92321884900002,-37.06044546599997,100 174.92285293200007,-37.059898568999984,100 174.92280612000002,-37.05970829299997,100 174.9234474440001,-37.05951667899995,100 174.92386396300003,-37.06038895499995,100 174.92420865400004,-37.06065324499996,100 174.9244916130001,-37.060716686999974,100 174.92483332000006,-37.060668247999956,100 174.92495744000007,-37.06069191499994,100 174.92506867200007,-37.06075237599998,100 174.92534379000006,-37.060960480999924,100 174.9256786080001,-37.06099901799996,100 174.92603150500008,-37.061026357999935,100 174.92639957500012,-37.06105597299996,100 174.92695411300008,-37.06126061699996,100 174.92715955100005,-37.061573296999946,100 174.92724361900002,-37.06169258899997,100 174.92747162900005,-37.06177944399996,100 174.9276567170001,-37.061866907999956,100 174.92785047000007,-37.06208786299992,100 174.9278721610001,-37.06230729199996,100 174.92776338500005,-37.06262255599995,100 174.9275809820001,-37.06269986199994,100 174.92733858700015,-37.062682265999975,100 174.92707920000012,-37.062814077999974,100 174.92700190400012,-37.062980868999944,100 174.92697805700004,-37.063097589999984,100 174.9271295970001,-37.06313819999996,100 174.92726455600007,-37.06315754299993,100 174.92749235000008,-37.06323575199997,100 174.9276496880001,-37.06328924299992,100 174.9279220530001,-37.06321578899996,100 174.92814601300006,-37.06313888799997,100 174.9283457260001,-37.06317015299992,100 174.92849482100007,-37.06332289899996,100 174.9288039170001,-37.06342555499997,100 174.92897059000006,-37.06342284299996,100 174.92892250700004,-37.06325628999997,100 174.9286169600001,-37.06302643099996,100 174.92856598700007,-37.06265419999993,100 174.92861407500004,-37.06235956599994,100 174.92875276600012,-37.06224440199997,100 174.92952083300008,-37.062040510999964,100 174.93008293000003,-37.06203055199995,100 174.93026714400006,-37.062061435999965,100 174.93043916200008,-37.06218190699996,100 174.9307597400001,-37.062627783,100 174.93113447200005,-37.062959956999975,100 174.93125089300008,-37.06310394999996,100 174.9312840120001,-37.06328363299996,100 174.9310129590001,-37.063693995999984,100 174.93102238400002,-37.06403274999997,100 174.93110854400004,-37.06409883899993,100 174.93119289600008,-37.06409728499994,100 174.9313564790001,-37.06391412899996,100 174.93155327300008,-37.06391065399998,100 174.93175407000015,-37.06405399299996,100 174.93202111200003,-37.064556696999944,100 174.93245173700006,-37.06487615099996,100 174.9328324060001,-37.06545611699993,100 174.9330344220001,-37.06564358799994,100 174.93325990400012,-37.06566307099996,100 174.9337739340001,-37.06594682799993,100 174.93403245097127,-37.065837420335924,100 174.93403392774871,-37.06583879258589,100 174.9340474815756,-37.06585265960053,100 174.9340506005297,-37.06585519092821,100 174.93406269465817,-37.065862687088085,100 174.93407702372858,-37.06587081014349,100 174.93408372766655,-37.06587451596287,100 174.93409396922175,-37.065880232543584,100 174.9341028727747,-37.06588888662467,100 174.93410553802096,-37.06589999032182,100 174.93410422071153,-37.06590870205846,100 174.93409424921964,-37.065915832585375,100 174.9340738215522,-37.065922656876666,100 174.93407357910817,-37.06592267615308,100 174.9340641074998,-37.06592411498152,100 174.93405511260778,-37.065925902043716,100 174.93404232463737,-37.06592580508441,100 174.93402567827167,-37.06592780617106,100 174.93401360037768,-37.06593334872312,100 174.93399547533667,-37.065943243998156,100 174.93398300026232,-37.06594882457039,100 174.93397215927993,-37.06595710309293,100 174.93396128924985,-37.06596933064518,100 174.9339492832836,-37.06598492411888,100 174.93394904903369,-37.06598522176035,100 174.93393574038606,-37.066000095617625,100 174.93393505099868,-37.06600085042653,100 174.93392221743795,-37.066016008552204,100 174.93392104710256,-37.066017532796124,100 174.9339106360315,-37.06603379424835,100 174.93391003906964,-37.06603473411699,100 174.93390031387446,-37.066048242654176,100 174.9338937026207,-37.06605726515046,100 174.93387866659378,-37.06607103875704,100 174.93387666787334,-37.06607271621087,100 174.93386616756897,-37.06608201033073,100 174.93384702485108,-37.06609142737192,100 174.93384632177688,-37.066091687594614,100 174.93383434141012,-37.066095137542526,100 174.93382157890463,-37.066097240196335,100 174.9338083373266,-37.06610080624715,100 174.93379634837527,-37.066104582598655,100 174.93378609760538,-37.06610789257462,100 174.933782710007,-37.066108201984775,100 174.93377337033624,-37.0661100099706,100 174.93376061173973,-37.066112886763335,100 174.93374956317754,-37.06611556171824,100 174.93373682844543,-37.06611804966273,100 174.93372070094458,-37.06612188358349,100 174.9337056411588,-37.066129851437715,100 174.9336944468513,-37.06613604380017,100 174.9336845736849,-37.066141114140514,100 174.93368500185844,-37.06615899418436,100 174.93369800676348,-37.066304000855474,100 174.9338239984436,-37.06648600334752,100 174.93446500558687,-37.066189006438385,100 174.93572800314448,-37.06556399474112,100 174.93577900736992,-37.065609994087964,100 174.93618300145963,-37.06598100392097,100 174.93544699762091,-37.06634500157707,100 174.93553000232745,-37.06656100654417,100 174.9357260025239,-37.06657700364221,100 174.9357100049617,-37.066687000569445,100 174.93568699140357,-37.066854999234856,100 174.93566500487407,-37.06703499803813,100 174.93565000570598,-37.067156004144636,100 174.93561900484556,-37.0673899968035,100 174.93563400258532,-37.067434007160294,100 174.9357189921498,-37.06767399623203,100 174.9357520038734,-37.06776699597169,100 174.93590999979153,-37.0682159974345,100 174.9359340052728,-37.068267993023106,100 174.93599399187408,-37.068396998653604,100 174.93610499726256,-37.068635996603135,100 174.9361959968282,-37.06883099564252,100 174.93628200073408,-37.06881900558739,100 174.9364780027185,-37.068789995391995,100 174.9365810059533,-37.06877500559822,100 174.93661099662475,-37.068769994002125,100 174.9366330010057,-37.068765000175766,100 174.93665399957837,-37.06875999483318,100 174.93667599299536,-37.06875399533781,100 174.93669700520812,-37.06874700602456,100 174.9367170028791,-37.06873899859721,100 174.9367380052492,-37.06873100359737,100 174.93675700372214,-37.068722006643746,100 174.93677700762842,-37.06871300678373,100 174.93679600323975,-37.06870199638779,100 174.93681400324337,-37.068691994572205,100 174.93683099648837,-37.06867999841977,100 174.93684800546768,-37.06866800200793,100 174.93686499755472,-37.06865600496832,100 174.93688099820892,-37.068641997119016,100 174.9368960055285,-37.06862899871578,100 174.93690999639958,-37.06861499575238,100 174.9371520038204,-37.06862600190905,100 174.93741899415835,-37.06891200125348,100 174.93753700095337,-37.0688360013857,100 174.9376039965581,-37.06884699203208,100 174.93762599772484,-37.06885000603882,100 174.93780599373034,-37.06887900087554,100 174.93783399411032,-37.06888399787917,100 174.9380069973047,-37.06891200170934,100 174.9380619985623,-37.0689209925917,100 174.93820900540078,-37.068945001101646,100 174.93826300234,-37.0689539929848,100 174.9385189970415,-37.06899499335421,100 174.93855300338905,-37.069000997879556,100 174.93859899237424,-37.069114997355456,100 174.93873899536868,-37.069136993565486,100 174.9388590003373,-37.06915699308515,100 174.9389609965568,-37.069172994127165,100 174.93907499723892,-37.06919200105043,100 174.93916700179133,-37.069207003548904,100 174.93918299793708,-37.06920899426682,100 174.93935099486586,-37.06923699327028,100 174.9393649984667,-37.06923900303376,100 174.93940399404272,-37.06924499600948,100 174.9395780039828,-37.06927299457894,100 174.93958400234166,-37.069246993385505,100 174.93959899777332,-37.0691870060867,100 174.93961199875702,-37.06913499988732,100 174.9397459943678,-37.06902100018828,100 174.9397580057778,-37.06902300013552,100 174.9397880054859,-37.06930800106552,100 174.93984100479565,-37.06931600540831,100 174.9399910038577,-37.069340994712974,100 174.94011400708132,-37.06936100157986,100 174.94021300613235,-37.06937699289441,100 174.94059700815586,-37.06943900404512,100 174.9406130005237,-37.06958999766077,100 174.9408200087622,-37.06957600670568,100 174.9410270043778,-37.06956099443509,100 174.94120799182184,-37.06954900241298,100 174.9412349998878,-37.069547000114305,100 174.94123899229078,-37.06958699437438,100 174.94146499640058,-37.069571996401336,100 174.9417039908633,-37.069554999817846,100 174.9419789950912,-37.06958100025534,100 174.94226299167318,-37.06960699425605,100 174.94226600688933,-37.069630000752916,100 174.94250199781044,-37.069614000816514,100 174.9425279942087,-37.06961299269586,100 174.94271699346496,-37.06960000277765,100 174.942720992842,-37.06963900544507,100 174.94317799392593,-37.069678002721155,100 174.94320600802874,-37.06968100096403,100 174.94318099792804,-37.06987000744135,100 174.94317900666948,-37.07009099926961,100 174.94315799646714,-37.07025199390378,100 174.94312099904786,-37.07050999401914,100 174.94306699580542,-37.070476007218296,100 174.94252800458005,-37.070647000421545,100 174.9425150822595,-37.07072719164073,100 174.94248547809156,-37.07090686377008,100 174.94245600818851,-37.07108699785336,100 174.94242600301519,-37.07126599515635,100 174.94241099925645,-37.071271003360735,100 174.94239200293893,-37.07127699628365,100 174.94247799381833,-37.071428996013566,100 174.94250699443253,-37.07148099396618,100 174.942496991934,-37.07182599559744,100 174.94245191353218,-37.072037926884946,100 174.94266600820583,-37.07245700042199,100 174.94245699344486,-37.072525993580264,100 174.94245293642496,-37.07252732691879,100 174.9282826828404,-37.072516205854576,100</coordinates></LinearRing></outerBoundaryIs>
    </Polygon>
  </Placemark>

  <Placemark>
    <name>Pahurehure</name>
    <Point>
      <altitudeMode>relativeToGround</altitudeMode>
      <coordinates>174.93198825056103,-37.06795644761513,100</coordinates>
    </Point>
  </Placemark>

</Document>
</kml>