<?xml version="1.0" encoding="UTF-8"?>
<kml xmlns="http://www.opengis.net/kml/2.2">
  <Document>
    <name>Sunnyhills (polygon: official_shp)</name>
    <Style id="icon-1899-0288D1-nodesc-normal">
      <IconStyle>
        <color>ffd18802</color>
        <scale>1</scale>
        <Icon>
          <href>https://www.gstatic.com/mapspro/images/stock/503-wht-blank_maps.png</href>
        </Icon>
        <hotSpot x="32" xunits="pixels" y="64" yunits="insetPixels"/>
      </IconStyle>
      <LabelStyle>
        <scale>0</scale>
      </LabelStyle>
      <BalloonStyle>
        <text><![CDATA[<h3>$[name]</h3>]]></text>
      </BalloonStyle>
    </Style>
    <Style id="icon-1899-0288D1-nodesc-highlight">
      <IconStyle>
        <color>ffd18802</color>
        <scale>1</scale>
        <Icon>
          <href>https://www.gstatic.com/mapspro/images/stock/503-wht-blank_maps.png</href>
        </Icon>
        <hotSpot x="32" xunits="pixels" y="64" yunits="insetPixels"/>
      </IconStyle>
      <LabelStyle>
        <scale>1</scale>
      </LabelStyle>
      <BalloonStyle>
        <text><![CDATA[<h3>$[name]</h3>]]></text>
      </BalloonStyle>
    </Style>
    <StyleMap id="icon-1899-0288D1-nodesc">
      <Pair>
        <key>normal</key>
        <styleUrl>#icon-1899-0288D1-nodesc-normal</styleUrl>
      </Pair>
      <Pair>
        <key>highlight</key>
        <styleUrl>#icon-1899-0288D1-nodesc-highlight</styleUrl>
      </Pair>
    </StyleMap>
    <Style id="poly-1A237E-2000-102-nodesc-normal">
      <LineStyle>
        <color>ff7e231a</color>
        <width>2</width>
      </LineStyle>
      <PolyStyle>
        <color>667e231a</color>
        <fill>1</fill>
        <outline>1</outline>
      </PolyStyle>
      <BalloonStyle>
        <text><![CDATA[<h3>$[name]</h3>]]></text>
      </BalloonStyle>
    </Style>
    <Style id="poly-1A237E-2000-102-nodesc-highlight">
      <LineStyle>
        <color>ff7e231a</color>
        <width>3</width>
      </LineStyle>
      <PolyStyle>
        <color>667e231a</color>
        <fill>1</fill>
        <outline>1</outline>
      </PolyStyle>
      <BalloonStyle>
        <text><![CDATA[<h3>$[name]</h3>]]></text>
      </BalloonStyle>
    </Style>
    <StyleMap id="poly-1A237E-2000-102-nodesc">
      <Pair>
        <key>normal</key>
        <styleUrl>#poly-1A237E-2000-102-nodesc-normal</styleUrl>
      </Pair>
      <Pair>
        <key>highlight</key>
        <styleUrl>#poly-1A237E-2000-102-nodesc-highlight</styleUrl>
      </Pair>
    </StyleMap>
    <Placemark>
      <name>Sunnyhills (polygon: official_shp)</name>
      <styleUrl>#poly-1A237E-2000-102-nodesc</styleUrl>
      <Polygon>
        <outerBoundaryIs>
          <LinearRing>
            <tessellate>1</tessellate>
            <coordinates>
              174.879336,-36.896,0
              174.879299,-36.896013,0
              174.879253,-36.896024,0
              174.879208,-36.896034,0
              174.87914,-36.896042,0
              174.879092,-36.896048,0
              174.879042,-36.896057,0
              174.878976,-36.896063,0
              174.878906,-36.896069,0
              174.87882,-36.896079,0
              174.878755,-36.896088,0
              174.878702,-36.896088,0
              174.878638,-36.896088,0
              174.878546,-36.89609,0
              174.878504,-36.89609,0
              174.878459,-36.896068,0
              174.878423,-36.896047,0
              174.87838,-36.896021,0
              174.87833,-36.895998,0
              174.878294,-36.895985,0
              174.878251,-36.895972,0
              174.878215,-36.895963,0
              174.878205,-36.89596,0
              174.878158,-36.895957,0
              174.878106,-36.895956,0
              174.878081,-36.895969,0
              174.878069,-36.895989,0
              174.878064,-36.896001,0
              174.878061,-36.89601,0
              174.878058,-36.896045,0
              174.87805,-36.896068,0
              174.878042,-36.896094,0
              174.878022,-36.896171,0
              174.878012,-36.896206,0
              174.878004,-36.896251,0
              174.877993,-36.896276,0
              174.877983,-36.896307,0
              174.877969,-36.896344,0
              174.877953,-36.896382,0
              174.877941,-36.896405,0
              174.877926,-36.896441,0
              174.877911,-36.896484,0
              174.877904,-36.896503,0
              174.87789,-36.896532,0
              174.877869,-36.89657,0
              174.87785,-36.896598,0
              174.877831,-36.896629,0
              174.87781,-36.896665,0
              174.877792,-36.896716,0
              174.87778,-36.896752,0
              174.877774,-36.896787,0
              174.877769,-36.896811,0
              174.87776,-36.896841,0
              174.877747,-36.896887,0
              174.877738,-36.896915,0
              174.877737,-36.896947,0
              174.877737,-36.896948,0
              174.877722,-36.896962,0
              174.877727,-36.896979,0
              174.877735,-36.896997,0
              174.877733,-36.897016,0
              174.877727,-36.897036,0
              174.87772,-36.897052,0
              174.877709,-36.897088,0
              174.877704,-36.897115,0
              174.877694,-36.897136,0
              174.877675,-36.897201,0
              174.877669,-36.897225,0
              174.877664,-36.897249,0
              174.877657,-36.897278,0
              174.87765,-36.897303,0
              174.877645,-36.897327,0
              174.877637,-36.897369,0
              174.877629,-36.897403,0
              174.877624,-36.897428,0
              174.877599,-36.897484,0
              174.877581,-36.897534,0
              174.877558,-36.897569,0
              174.87753,-36.897601,0
              174.877488,-36.897643,0
              174.877464,-36.897662,0
              174.877404,-36.897702,0
              174.877328,-36.897744,0
              174.877298,-36.897764,0
              174.87726,-36.897784,0
              174.877243,-36.897803,0
              174.877234,-36.897829,0
              174.877232,-36.897851,0
              174.877228,-36.897862,0
              174.877248,-36.897895,0
              174.877263,-36.897924,0
              174.877291,-36.897968,0
              174.877325,-36.898002,0
              174.877353,-36.898025,0
              174.877387,-36.89806,0
              174.877418,-36.89809,0
              174.877446,-36.898111,0
              174.877481,-36.898131,0
              174.877533,-36.898168,0
              174.877598,-36.898209,0
              174.877633,-36.898226,0
              174.877674,-36.89825,0
              174.877704,-36.898266,0
              174.87773,-36.898272,0
              174.877766,-36.898272,0
              174.877796,-36.898265,0
              174.877842,-36.898256,0
              174.877879,-36.898252,0
              174.87792,-36.89825,0
              174.877948,-36.898255,0
              174.87796,-36.898261,0
              174.877976,-36.898281,0
              174.878001,-36.898313,0
              174.878027,-36.898341,0
              174.878044,-36.898361,0
              174.878056,-36.898375,0
              174.87807,-36.898396,0
              174.87811,-36.898439,0
              174.878126,-36.898453,0
              174.878131,-36.898471,0
              174.878138,-36.898484,0
              174.878157,-36.898501,0
              174.87817,-36.898523,0
              174.878175,-36.898538,0
              174.87818,-36.898558,0
              174.87818,-36.898574,0
              174.878192,-36.898599,0
              174.878202,-36.898615,0
              174.878222,-36.898637,0
              174.878248,-36.898663,0
              174.878266,-36.898682,0
              174.878286,-36.8987,0
              174.878309,-36.898722,0
              174.878329,-36.898741,0
              174.878345,-36.89876,0
              174.878364,-36.89878,0
              174.878377,-36.898791,0
              174.878368,-36.898806,0
              174.878358,-36.898816,0
              174.87835,-36.898831,0
              174.878344,-36.898848,0
              174.878335,-36.898872,0
              174.878325,-36.898889,0
              174.8783,-36.898913,0
              174.878282,-36.898927,0
              174.878249,-36.898951,0
              174.878238,-36.898962,0
              174.878226,-36.898974,0
              174.878201,-36.898989,0
              174.87817,-36.899008,0
              174.878143,-36.899025,0
              174.878126,-36.899035,0
              174.878117,-36.899043,0
              174.878101,-36.899064,0
              174.878091,-36.899083,0
              174.878083,-36.899104,0
              174.878078,-36.899124,0
              174.878076,-36.899151,0
              174.878077,-36.899166,0
              174.878087,-36.899183,0
              174.878101,-36.899201,0
              174.878121,-36.89922,0
              174.878147,-36.899245,0
              174.878167,-36.899263,0
              174.878199,-36.899293,0
              174.878216,-36.899307,0
              174.878231,-36.89933,0
              174.878248,-36.899368,0
              174.878257,-36.899384,0
              174.878268,-36.899403,0
              174.878279,-36.899426,0
              174.878288,-36.899441,0
              174.8783,-36.899475,0
              174.878333,-36.899522,0
              174.878351,-36.899549,0
              174.878366,-36.89958,0
              174.878381,-36.899601,0
              174.878395,-36.899628,0
              174.878409,-36.899652,0
              174.878419,-36.899678,0
              174.878433,-36.899709,0
              174.878448,-36.899733,0
              174.878457,-36.899758,0
              174.878468,-36.899781,0
              174.878479,-36.899806,0
              174.878485,-36.899828,0
              174.878492,-36.899856,0
              174.878495,-36.899866,0
              174.878506,-36.899894,0
              174.878516,-36.899915,0
              174.878526,-36.899938,0
              174.878536,-36.899971,0
              174.878545,-36.900005,0
              174.878554,-36.900029,0
              174.878565,-36.900055,0
              174.878583,-36.900094,0
              174.878594,-36.900115,0
              174.878608,-36.900136,0
              174.878621,-36.900157,0
              174.87863,-36.900177,0
              174.878644,-36.900198,0
              174.878661,-36.900218,0
              174.878688,-36.900245,0
              174.878692,-36.900271,0
              174.878695,-36.9003,0
              174.878698,-36.900325,0
              174.878703,-36.900345,0
              174.878705,-36.900369,0
              174.878703,-36.900393,0
              174.878699,-36.900418,0
              174.878694,-36.900445,0
              174.87869,-36.900477,0
              174.878675,-36.900512,0
              174.878657,-36.90054,0
              174.878636,-36.900571,0
              174.878615,-36.900594,0
              174.878596,-36.900616,0
              174.878565,-36.900649,0
              174.878533,-36.900681,0
              174.878483,-36.90073,0
              174.878457,-36.900752,0
              174.878418,-36.900788,0
              174.878391,-36.900808,0
              174.878368,-36.900836,0
              174.878344,-36.900862,0
              174.878323,-36.900887,0
              174.878304,-36.900918,0
              174.878279,-36.900951,0
              174.878256,-36.900973,0
              174.878232,-36.901,0
              174.878201,-36.901021,0
              174.878168,-36.901039,0
              174.878126,-36.901055,0
              174.878112,-36.901063,0
              174.878045,-36.901141,0
              174.878019,-36.901166,0
              174.877992,-36.901205,0
              174.87796,-36.901248,0
              174.877931,-36.901292,0
              174.877908,-36.901321,0
              174.877883,-36.901348,0
              174.877859,-36.901377,0
              174.877834,-36.901401,0
              174.877761,-36.901407,0
              174.877678,-36.901436,0
              174.877662,-36.901441,0
              174.877623,-36.901453,0
              174.877597,-36.901464,0
              174.877539,-36.901485,0
              174.877477,-36.901507,0
              174.877398,-36.901532,0
              174.877331,-36.901547,0
              174.877236,-36.901579,0
              174.877152,-36.901598,0
              174.877092,-36.901604,0
              174.877029,-36.901615,0
              174.876971,-36.901633,0
              174.876905,-36.901685,0
              174.876872,-36.901726,0
              174.87682,-36.901779,0
              174.876799,-36.901817,0
              174.876765,-36.901851,0
              174.876739,-36.901892,0
              174.876724,-36.901924,0
              174.876709,-36.901945,0
              174.876679,-36.901978,0
              174.876655,-36.901999,0
              174.876631,-36.902028,0
              174.8766,-36.902065,0
              174.876575,-36.902103,0
              174.876536,-36.902151,0
              174.876514,-36.902186,0
              174.876479,-36.902252,0
              174.876471,-36.90228,0
              174.876455,-36.902311,0
              174.876434,-36.902348,0
              174.876413,-36.902395,0
              174.8764,-36.90243,0
              174.876387,-36.902479,0
              174.876381,-36.902514,0
              174.876371,-36.902563,0
              174.87637,-36.902606,0
              174.876361,-36.902652,0
              174.876356,-36.902683,0
              174.876339,-36.902726,0
              174.876326,-36.902757,0
              174.876298,-36.902805,0
              174.876286,-36.902844,0
              174.876264,-36.902889,0
              174.876249,-36.902941,0
              174.876239,-36.902979,0
              174.876228,-36.903011,0
              174.876218,-36.903036,0
              174.876219,-36.90307,0
              174.876214,-36.903121,0
              174.876209,-36.903167,0
              174.876199,-36.903213,0
              174.87619,-36.903253,0
              174.876179,-36.903279,0
              174.876165,-36.903309,0
              174.876157,-36.90334,0
              174.876158,-36.903359,0
              174.876152,-36.903379,0
              174.876149,-36.903396,0
              174.87614,-36.903419,0
              174.876145,-36.903452,0
              174.876171,-36.90348,0
              174.876198,-36.903498,0
              174.876227,-36.903512,0
              174.876322,-36.903561,0
              174.876311,-36.903609,0
              174.87623,-36.903858,0
              174.876145,-36.904162,0
              174.876128,-36.904187,0
              174.876097,-36.904216,0
              174.876054,-36.904247,0
              174.876027,-36.904309,0
              174.876005,-36.904366,0
              174.875981,-36.904431,0
              174.875963,-36.904468,0
              174.875952,-36.904513,0
              174.875942,-36.904577,0
              174.875927,-36.904628,0
              174.875926,-36.904701,0
              174.87593,-36.904745,0
              174.875939,-36.904787,0
              174.875942,-36.904828,0
              174.875954,-36.904866,0
              174.875962,-36.904902,0
              174.875984,-36.904964,0
              174.875983,-36.904996,0
              174.875987,-36.905028,0
              174.875988,-36.905055,0
              174.87598,-36.905083,0
              174.876009,-36.905089,0
              174.876206,-36.905128,0
              174.876651,-36.905216,0
              174.877196,-36.905324,0
              174.877521,-36.905388,0
              174.877787,-36.905441,0
              174.878151,-36.905513,0
              174.87842,-36.905567,0
              174.878786,-36.905639,0
              174.879145,-36.90571,0
              174.8795,-36.90578,0
              174.879865,-36.905853,0
              174.88021,-36.905921,0
              174.88055,-36.905988,0
              174.880688,-36.906016,0
              174.880618,-36.906257,0
              174.880548,-36.906495,0
              174.881027,-36.906571,0
              174.881071,-36.906578,0
              174.881424,-36.906634,0
              174.88176,-36.906687,0
              174.881698,-36.907002,0
              174.88208,-36.907059,0
              174.88206,-36.907149,0
              174.882404,-36.907217,0
              174.88241,-36.907192,0
              174.88251,-36.906805,0
              174.882647,-36.906828,0
              174.88283,-36.90686,0
              174.882754,-36.907188,0
              174.882734,-36.907273,0
              174.882753,-36.907277,0
              174.882869,-36.9073,0
              174.883207,-36.907367,0
              174.883517,-36.907429,0
              174.883535,-36.907433,0
              174.883518,-36.90749,0
              174.883737,-36.907533,0
              174.883711,-36.907608,0
              174.88423,-36.907578,0
              174.884239,-36.907659,0
              174.884428,-36.907577,0
              174.884642,-36.907896,0
              174.884724,-36.907861,0
              174.884848,-36.90773,0
              174.884869,-36.907657,0
              174.885113,-36.907628,0
              174.885185,-36.907373,0
              174.885192,-36.907346,0
              174.885334,-36.907372,0
              174.885516,-36.907246,0
              174.885618,-36.907176,0
              174.885645,-36.907164,0
              174.885688,-36.907145,0
              174.885869,-36.907068,0
              174.885976,-36.907022,0
              174.885998,-36.907012,0
              174.88605,-36.90699,0
              174.886141,-36.906951,0
              174.88622,-36.906917,0
              174.886231,-36.906912,0
              174.88617,-36.90682,0
              174.886063,-36.90666,0
              174.885974,-36.906526,0
              174.886249,-36.906407,0
              174.886286,-36.906463,0
              174.886657,-36.906333,0
              174.886575,-36.906209,0
              174.886502,-36.906101,0
              174.886478,-36.906064,0
              174.886308,-36.90581,0
              174.886577,-36.905694,0
              174.886618,-36.905677,0
              174.886758,-36.905617,0
              174.886779,-36.905608,0
              174.886939,-36.905539,0
              174.886983,-36.90552,0
              174.886778,-36.905363,0
              174.886747,-36.905318,0
              174.886737,-36.905303,0
              174.886837,-36.905181,0
              174.886947,-36.905048,0
              174.887249,-36.905132,0
              174.887378,-36.905167,0
              174.887502,-36.905166,0
              174.887661,-36.905163,0
              174.887893,-36.90516,0
              174.88792,-36.905159,0
              174.888296,-36.905153,0
              174.888341,-36.905157,0
              174.888439,-36.905165,0
              174.888643,-36.905183,0
              174.88866,-36.905184,0
              174.888907,-36.905205,0
              174.888925,-36.905207,0
              174.889154,-36.905226,0
              174.889206,-36.90523,0
              174.889601,-36.905264,0
              174.88962,-36.905257,0
              174.889667,-36.90524,0
              174.889787,-36.905195,0
              174.889925,-36.905144,0
              174.890091,-36.905083,0
              174.890096,-36.905081,0
              174.890396,-36.90497,0
              174.890445,-36.904775,0
              174.89047,-36.904672,0
              174.890524,-36.904456,0
              174.890562,-36.904305,0
              174.89057,-36.90427,0
              174.890613,-36.904099,0
              174.890656,-36.903927,0
              174.890681,-36.903825,0
              174.890694,-36.903774,0
              174.890702,-36.903756,0
              174.89071,-36.903741,0
              174.890749,-36.90366,0
              174.890888,-36.903871,0
              174.890898,-36.903885,0
              174.891016,-36.904065,0
              174.891196,-36.904337,0
              174.891261,-36.904436,0
              174.891447,-36.904357,0
              174.891572,-36.904304,0
              174.89181,-36.904203,0
              174.891864,-36.904285,0
              174.891964,-36.904437,0
              174.892072,-36.904391,0
              174.892074,-36.904394,0
              174.892241,-36.904647,0
              174.892365,-36.904594,0
              174.892407,-36.904483,0
              174.892679,-36.904367,0
              174.892614,-36.904271,0
              174.892936,-36.904134,0
              174.892943,-36.904131,0
              174.892846,-36.903985,0
              174.892749,-36.90384,0
              174.892652,-36.903695,0
              174.892566,-36.903566,0
              174.892859,-36.903624,0
              174.892946,-36.903641,0
              174.8932,-36.903747,0
              174.893249,-36.903767,0
              174.893292,-36.903785,0
              174.893366,-36.903832,0
              174.893418,-36.903808,0
              174.893625,-36.903714,0
              174.893698,-36.903681,0
              174.893804,-36.903632,0
              174.893963,-36.90356,0
              174.893982,-36.903551,0
              174.894141,-36.903479,0
              174.894161,-36.90347,0
              174.894197,-36.903443,0
              174.894284,-36.90338,0
              174.894101,-36.903008,0
              174.894034,-36.902873,0
              174.894018,-36.90284,0
              174.894264,-36.902884,0
              174.894826,-36.902985,0
              174.89533,-36.903075,0
              174.895371,-36.903082,0
              174.895742,-36.902824,0
              174.895192,-36.902724,0
              174.89576,-36.902328,0
              174.896044,-36.90213,0
              174.896129,-36.901982,0
              174.896618,-36.901671,0
              174.896429,-36.901481,0
              174.896335,-36.901544,0
              174.895808,-36.901195,0
              174.89578,-36.901177,0
              174.895199,-36.900793,0
              174.895675,-36.900309,0
              174.895715,-36.90027,0
              174.895972,-36.900008,0
              174.896167,-36.899939,0
              174.897105,-36.900569,0
              174.897173,-36.900778,0
              174.897201,-36.900818,0
              174.897236,-36.900868,0
              174.897339,-36.901015,0
              174.897355,-36.901038,0
              174.897873,-36.90134,0
              174.898376,-36.90102,0
              174.89839,-36.901011,0
              174.898121,-36.900666,0
              174.898308,-36.90057,0
              174.898495,-36.900473,0
              174.898449,-36.900415,0
              174.898828,-36.900218,0
              174.898823,-36.900212,0
              174.898784,-36.900164,0
              174.897839,-36.899005,0
              174.897539,-36.899164,0
              174.897237,-36.899323,0
              174.897145,-36.899372,0
              174.89696,-36.899381,0
              174.896361,-36.899409,0
              174.896095,-36.899421,0
              174.895887,-36.89949,0
              174.895701,-36.899552,0
              174.895359,-36.899666,0
              174.895129,-36.899742,0
              174.895238,-36.899365,0
              174.895264,-36.899276,0
              174.895289,-36.89919,0
              174.895317,-36.899092,0
              174.895339,-36.899014,0
              174.89537,-36.898908,0
              174.89539,-36.898839,0
              174.895416,-36.898748,0
              174.895441,-36.898663,0
              174.895459,-36.898599,0
              174.895491,-36.898487,0
              174.895502,-36.89845,0
              174.89554,-36.898321,0
              174.895545,-36.898301,0
              174.895601,-36.898108,0
              174.89563,-36.898008,0
              174.895438,-36.897973,0
              174.895247,-36.897938,0
              174.895046,-36.897826,0
              174.894974,-36.897789,0
              174.894646,-36.89762,0
              174.894427,-36.897574,0
              174.894423,-36.897589,0
              174.894417,-36.897604,0
              174.89441,-36.897619,0
              174.894403,-36.897633,0
              174.894394,-36.897648,0
              174.894385,-36.897661,0
              174.894374,-36.897675,0
              174.894363,-36.897687,0
              174.894119,-36.897953,0
              174.894073,-36.897926,0
              174.894059,-36.897942,0
              174.89383,-36.897808,0
              174.893943,-36.897733,0
              174.893597,-36.897623,0
              174.893497,-36.897605,0
              174.893358,-36.897759,0
              174.893307,-36.897815,0
              174.892969,-36.897619,0
              174.893058,-36.897525,0
              174.892908,-36.897497,0
              174.8927,-36.897459,0
              174.89268,-36.897456,0
              174.892463,-36.897416,0
              174.89229,-36.897384,0
              174.892209,-36.897494,0
              174.892078,-36.897672,0
              174.891838,-36.897628,0
              174.891929,-36.897308,0
              174.891789,-36.897282,0
              174.891655,-36.897258,0
              174.891573,-36.897243,0
              174.891395,-36.89721,0
              174.891358,-36.897203,0
              174.891213,-36.897176,0
              174.891142,-36.897163,0
              174.89114,-36.897171,0
              174.891051,-36.897483,0
              174.890848,-36.897446,0
              174.890803,-36.897437,0
              174.890637,-36.897407,0
              174.890556,-36.897392,0
              174.890426,-36.897368,0
              174.890382,-36.89736,0
              174.89031,-36.897347,0
              174.890075,-36.897303,0
              174.89005,-36.897393,0
              174.890022,-36.897354,0
              174.889913,-36.897196,0
              174.889734,-36.896938,0
              174.889681,-36.896928,0
              174.889625,-36.896917,0
              174.889292,-36.896999,0
              174.889087,-36.89705,0
              174.889069,-36.897054,0
              174.889049,-36.897002,0
              174.888569,-36.896913,0
              174.888622,-36.896728,0
              174.888524,-36.89671,0
              174.888228,-36.896654,0
              174.888248,-36.896587,0
              174.888258,-36.896551,0
              174.888033,-36.89642,0
              174.888024,-36.896555,0
              174.887593,-36.896495,0
              174.887586,-36.89652,0
              174.887283,-36.896471,0
              174.887069,-36.896437,0
              174.887016,-36.89663,0
              174.886991,-36.896722,0
              174.886965,-36.896818,0
              174.886759,-36.896787,0
              174.88672,-36.896911,0
              174.886654,-36.897119,0
              174.886605,-36.897118,0
              174.886303,-36.897113,0
              174.886249,-36.897142,0
              174.886187,-36.897139,0
              174.885705,-36.897071,0
              174.885701,-36.897099,0
              174.885653,-36.897398,0
              174.885292,-36.897329,0
              174.885146,-36.897309,0
              174.885141,-36.897326,0
              174.885057,-36.897574,0
              174.884988,-36.897782,0
              174.884933,-36.897943,0
              174.884866,-36.898144,0
              174.884853,-36.898185,0
              174.884826,-36.898263,0
              174.884795,-36.898531,0
              174.884495,-36.898475,0
              174.884354,-36.898449,0
              174.884151,-36.898412,0
              174.884101,-36.898403,0
              174.883616,-36.898315,0
              174.883645,-36.898249,0
              174.883778,-36.898273,0
              174.883804,-36.898017,0
              174.883489,-36.897955,0
              174.883141,-36.897886,0
              174.883089,-36.898045,0
              174.882858,-36.89795,0
              174.882705,-36.897886,0
              174.882628,-36.897855,0
              174.882397,-36.897759,0
              174.882219,-36.897923,0
              174.882151,-36.897986,0
              174.8821,-36.898032,0
              174.881908,-36.897997,0
              174.881842,-36.897931,0
              174.88167,-36.89776,0
              174.88165,-36.897782,0
              174.881388,-36.897625,0
              174.881403,-36.897523,0
              174.881202,-36.897222,0
              174.88105,-36.896993,0
              174.880659,-36.896726,0
              174.880567,-36.89656,0
              174.880556,-36.896544,0
              174.880537,-36.896527,0
              174.880516,-36.896502,0
              174.880498,-36.896469,0
              174.880483,-36.896443,0
              174.880461,-36.896404,0
              174.880441,-36.896378,0
              174.8804,-36.896338,0
              174.880358,-36.896302,0
              174.880332,-36.89628,0
              174.880261,-36.896236,0
              174.880231,-36.896215,0
              174.88018,-36.89618,0
              174.880149,-36.896165,0
              174.880118,-36.896153,0
              174.880065,-36.896127,0
              174.880001,-36.896111,0
              174.879961,-36.896112,0
              174.879943,-36.896118,0
              174.879931,-36.896121,0
              174.87992,-36.896123,0
              174.879909,-36.896125,0
              174.879893,-36.896128,0
              174.879882,-36.89613,0
              174.879864,-36.896135,0
              174.879857,-36.896137,0
              174.879852,-36.896138,0
              174.879846,-36.896139,0
              174.879844,-36.896139,0
              174.879842,-36.896139,0
              174.87983,-36.896136,0
              174.879811,-36.896131,0
              174.879802,-36.896128,0
              174.879785,-36.896125,0
              174.879775,-36.89612,0
              174.879762,-36.896119,0
              174.879749,-36.896115,0
              174.879737,-36.896112,0
              174.879723,-36.896105,0
              174.879707,-36.896099,0
              174.879687,-36.896088,0
              174.879675,-36.896081,0
              174.879662,-36.896078,0
              174.879657,-36.896075,0
              174.879654,-36.896072,0
              174.879656,-36.896069,0
              174.879667,-36.896062,0
              174.879689,-36.896054,0
              174.8797,-36.896047,0
              174.879711,-36.896038,0
              174.879729,-36.896026,0
              174.879742,-36.896018,0
              174.879761,-36.895998,0
              174.879789,-36.895976,0
              174.879799,-36.895949,0
              174.879798,-36.895926,0
              174.879785,-36.895916,0
              174.879757,-36.895925,0
              174.879739,-36.895934,0
              174.879737,-36.895935,0
              174.879703,-36.895953,0
              174.879676,-36.895964,0
              174.879626,-36.895972,0
              174.879556,-36.895976,0
              174.879498,-36.895981,0
              174.879437,-36.895988,0
              174.879415,-36.895991,0
              174.879336,-36.896,0
            </coordinates>
          </LinearRing>
        </outerBoundaryIs>
      </Polygon>
    </Placemark>
    <Placemark>
      <name>Sunnyhills</name>
      <styleUrl>#icon-1899-0288D1-nodesc</styleUrl>
      <Point>
        <coordinates>
          174.88589,-36.901519,100
        </coordinates>
      </Point>
    </Placemark>
  </Document>
</kml>
