<?xml version="1.0" encoding="utf-8"?>
<kml xmlns="http://www.opengis.net/kml/2.2">
<Document>
  <name>Brookby (polygon: official_shp)</name>
  <open>1</open>

  <Placemark>
    <name>Brookby (polygon: official_shp)</name>
    <Style>
      <LineStyle><color>ffff0000</color><width>2</width></LineStyle>
      <PolyStyle><color>66ff0000</color><fill>1</fill><outline>1</outline></PolyStyle>
    </Style>
    <Polygon>
      <tessellate>1</tessellate>
      <altitudeMode>relativeToGround</altitudeMode>
      <outerBoundaryIs><LinearRing><coordinates>174.95204899184216,-36.985615992921346,100 174.9525410077359,-36.985610002165544,100 174.95492100497708,-36.98559100076687,100 174.9562150034508,-36.985596004707986,100 174.95779000381617,-36.98559300340211,100 174.95788699462594,-36.98559300032694,100 174.96307299531435,-36.98557100442196,100 174.96378199237458,-36.98554099279416,100 174.964679999367,-36.98344100377654,100 174.9653419985758,-36.983544004038826,100 174.9669809997712,-36.983796993810984,100 174.96796400716255,-36.98321899256148,100 174.96842600178667,-36.98294700414185,100 174.96867400530476,-36.982801004406745,100 174.9687739988853,-36.98274199240586,100 174.9726479927807,-36.9804470058397,100 174.9737080030348,-36.97982400183986,100 174.97771100540373,-36.97746599839372,100 174.98115699358806,-36.97530800494985,100 174.98526200690543,-36.97273700504915,100 174.98584599389574,-36.973153995101605,100 174.98628299464707,-36.973026005928915,100 174.98658300446914,-36.97280899527583,100 174.98665200485138,-36.9725290018658,100 174.9871429999346,-36.9730959980673,100 174.98934900068605,-36.97362100134709,100 174.99149599279622,-36.97400600341416,100 174.99173199219902,-36.97403499712261,100 174.99253699651564,-36.9741890047598,100 174.9928169927979,-36.9746480044103,100 174.99329400273695,-36.975433993767645,100 174.99381900007486,-36.976298999739896,100 174.99425100600462,-36.976631997809875,100 174.99443900673805,-36.97652399908679,100 174.99480300340576,-36.976803002221935,100 174.99580499592395,-36.97718699296199,100 174.99695299490344,-36.97723600226046,100 174.99714500378735,-36.976466003671455,100 174.99726700191943,-36.97481800406491,100 174.99841199629438,-36.97355400291852,100 174.99917100721808,-36.972939004200114,100 175.00187699274437,-36.97204300328812,100 175.00061000757782,-36.971509991246634,100 174.99901300059756,-36.970666995711426,100 174.99815199680268,-36.97063900382974,100 174.99650899277097,-36.96988200442179,100 174.99744300174294,-36.96850699332054,100 174.99921100827154,-36.96778699625675,100 174.9998009920294,-36.96769600088067,100 175.00095200911403,-36.966831006299785,100 175.00274000820568,-36.96882300199733,100 175.00310299766392,-36.968608005959084,100 175.00583700724863,-36.96698600142267,100 175.0081199983773,-36.96562799358398,100 175.00999200016247,-36.967664001941486,100 175.01017400441197,-36.96755599462437,100 175.01225299313023,-36.969816001548814,100 175.0126729959726,-36.969571003591,100 175.0127940044333,-36.96950200708023,100 175.01290400660156,-36.9694390068447,100 175.0131189943186,-36.969234995084804,100 175.01355299182856,-36.968920999807246,100 175.0140270045089,-36.96850599299757,100 175.01496400469225,-36.967925992890834,100 175.015080007171,-36.96777599342209,100 175.01530500784298,-36.967162996045836,100 175.01577000789192,-36.96667500009739,100 175.01711999800384,-36.96533199258205,100 175.01659499581814,-36.96497599486416,100 175.01609999871218,-36.96481300158095,100 175.01575300778077,-36.96422700004781,100 175.01555399582642,-36.963944005692376,100 175.01529300841537,-36.96378699236025,100 175.01409999762595,-36.96305599781225,100 175.0167999985236,-36.960833995010844,100 175.01714899394167,-36.96039100336821,100 175.02172199562395,-36.95982000292014,100 175.02157200802762,-36.96035600624937,100 175.02148500038507,-36.96066600220682,100 175.0206710000858,-36.963520004266016,100 175.0217859913589,-36.964264002752024,100 175.02263000168406,-36.96455099769004,100 175.02261100053033,-36.96457899744657,100 175.02355599387863,-36.964738003801315,100 175.0235629978922,-36.96460700156835,100 175.02913499903622,-36.9658429940981,100 175.02897400394838,-36.96586599838148,100 175.02799499858907,-36.9691490034353,100 175.02796400793113,-36.969254000598895,100 175.02763999186925,-36.97035699956196,100 175.02758099991456,-36.97054900243764,100 175.02796100012048,-36.97061700426768,100 175.0278149932831,-36.97095900497927,100 175.0238740011311,-36.980178003280905,100 175.0210179947575,-36.97959799930165,100 175.01938599814656,-36.985010003204266,100 175.01934400436855,-36.98521700309419,100 175.0192119998855,-36.98563200283889,100 175.01280800227866,-36.984396001250694,100 175.01255399493286,-36.985423002582216,100 175.01189899540492,-36.98807600084623,100 175.01179100837072,-36.98851699873694,100 175.01251800752877,-36.98865399776135,100 175.01224099358149,-36.989118000977456,100 175.01216999671493,-36.989371006338786,100 175.01227000653307,-36.98962700538692,100 175.0124010075409,-36.99048399855983,100 175.01234700755313,-36.99087099796163,100 175.01156500828446,-36.99148799324065,100 175.01173000579513,-36.99207600394126,100 175.01167800728587,-36.9926210011634,100 175.01174200105635,-36.99283499993327,100 175.01192500772103,-36.9930589958671,100 175.0115340003933,-36.99349500285414,100 175.0111860065144,-36.993716001594485,100 175.01077800624054,-36.994318996644154,100 175.0106559916401,-36.99449999993858,100 175.01048799683696,-36.99533800191837,100 175.00965300686613,-36.99518400240743,100 175.00815400274703,-36.99490599278076,100 175.00793000750687,-36.99487200683699,100 175.0048740068718,-36.99442600109062,100 175.0039190041516,-36.99427400662851,100 175.00127499412537,-36.99389600211149,100 175.0006399936691,-36.993801004182906,100 175.00054100758345,-36.99415399541548,100 175.00041199115367,-36.99461399928335,100 175.00036199525525,-36.99479200618782,100 174.99939999898768,-36.998213994192355,100 174.99616800623954,-36.99994000380933,100 174.99813799754256,-37.00407700008684,100 174.99356399742032,-37.005494996184076,100 174.99286900007004,-37.00571000231955,100 174.98906499167686,-37.00687499318737,100 174.9875959969032,-37.00732800014027,100 174.98395500290152,-37.008450992440714,100 174.98230999246272,-37.008957996366455,100 174.97784300093136,-37.01033500271417,100 174.97330400707887,-37.011722004346744,100 174.97210899249419,-37.01162000662929,100 174.9723720020572,-37.010106001105015,100 174.97134600591644,-37.00960899566182,100 174.97149000567077,-37.00909499724158,100 174.97150399379956,-37.009046003926436,100 174.97145100133307,-37.00903200685866,100 174.97140300523137,-37.00901099579916,100 174.97136500718594,-37.008985994403325,100 174.97130500024664,-37.008936997630016,100 174.97124799394626,-37.00890100440121,100 174.97118700543032,-37.00887299697234,100 174.97111900098685,-37.00884299524539,100 174.97106099653647,-37.008825001113976,100 174.97099500205107,-37.00883299960389,100 174.9709590044495,-37.008831006407966,100 174.9709259961154,-37.00881899974306,100 174.970893995252,-37.00878199337914,100 174.97085399319278,-37.008728994878936,100 174.97079999486186,-37.00867999897232,100 174.9707460039752,-37.00864899904356,100 174.97066299420425,-37.00863200140557,100 174.97060000747237,-37.008626997225576,100 174.9704870063792,-37.008629996189136,100 174.97043700223512,-37.00863900501923,100 174.97036499242807,-37.00865899202454,100 174.97028900477852,-37.00867299556429,100 174.97023100129542,-37.00867400387975,100 174.9701880031934,-37.008673004562134,100 174.97012699837757,-37.00864499685022,100 174.97006700237668,-37.008599995588284,100 174.97002499788908,-37.008556992948584,100 174.96998700464343,-37.008514999833324,100 174.96993399257116,-37.0084690055777,100 174.96988099263802,-37.008420997605626,100 174.9698299986218,-37.008387000262296,100 174.96978500828567,-37.00835100419324,100 174.9697379952299,-37.00833599856923,100 174.96969999482675,-37.0083359931445,100 174.96962800222454,-37.00833700718349,100 174.96957999618297,-37.00833399256957,100 174.96954599711566,-37.00833100137889,100 174.96951699883047,-37.00830100281565,100 174.96947100794316,-37.00824800410419,100 174.96942499876087,-37.00819799526874,100 174.96938100342769,-37.00818499525859,100 174.9693369988485,-37.00817899573413,100 174.96931999957727,-37.00818700198993,100 174.9692939986413,-37.008210999698996,100 174.96925300542787,-37.00824299827619,100 174.96922399940215,-37.00826599764463,100 174.9692109955895,-37.00826900568894,100 174.96916800641156,-37.00827200128536,100 174.9691029935136,-37.00826999158511,100 174.96906400536565,-37.00825100037225,100 174.96902600370854,-37.008204996320444,100 174.96900099438156,-37.008147001230746,100 174.96900899510996,-37.00809500439748,100 174.9690260018212,-37.00804800088076,100 174.96905999774725,-37.00801899544222,100 174.9690779961325,-37.007993003546375,100 174.96907800299337,-37.00796199892432,100 174.96902900681297,-37.00792700458497,100 174.9689390036944,-37.007902001128194,100 174.96885800849427,-37.007895001078005,100 174.96872599887791,-37.00789800284497,100 174.96866800306037,-37.00790599528896,100 174.9686109963263,-37.00791900231579,100 174.96853100485308,-37.00790399181148,100 174.96846099752028,-37.00789799978691,100 174.96839900772466,-37.007904995739956,100 174.96833200356497,-37.00791400271884,100 174.9682240078599,-37.00791399718001,100 174.96814600631978,-37.00790999335294,100 174.96806099789887,-37.00788900275043,100 174.96800900269645,-37.00785200278011,100 174.96796600248922,-37.007819004944245,100 174.96791100478566,-37.00779399958258,100 174.96783700008055,-37.007784998275696,100 174.967779994323,-37.00775999911938,100 174.96771800480604,-37.00771300539322,100 174.96769399354142,-37.007682993058,100 174.96765799610813,-37.00765400418875,100 174.96759999288776,-37.007654994979596,100 174.96753599927783,-37.00766699795378,100 174.96747499810195,-37.00770100143048,100 174.96743000095591,-37.00772300463709,100 174.96738099888879,-37.00773499867083,100 174.96734300540413,-37.00774200714404,100 174.96730399313577,-37.00775400583938,100 174.96722599364185,-37.00777400643843,100 174.9671199974921,-37.007789001224225,100 174.96708599488446,-37.0077889989747,100 174.9670359963952,-37.00778100155806,100 174.966985002403,-37.00774999165688,100 174.96694100253424,-37.007699991778566,100 174.96690099412828,-37.00762699768778,100 174.96688000327595,-37.007569006705445,100 174.9668540050692,-37.0075330055875,100 174.9668229985852,-37.007486998400815,100 174.96678799719393,-37.007453994607815,100 174.96673199521481,-37.007421000943154,100 174.96666800515135,-37.00739999889429,100 174.96661600311478,-37.00739400473683,100 174.96657199639617,-37.00739099290379,100 174.96654100160606,-37.007392005068226,100 174.9664829933096,-37.0074019939166,100 174.96642700496372,-37.00740999435025,100 174.96638500791508,-37.00740699330245,100 174.96633300787227,-37.00737900740582,100 174.96628399297322,-37.00733899290982,100 174.96625400626598,-37.00729900643772,100 174.9662299930782,-37.0072640069652,100 174.96626300189914,-37.00719199629006,100 174.96628500094502,-37.0071199986278,100 174.96627599273978,-37.007075000282214,100 174.96624800713573,-37.007062994673824,100 174.96621000163225,-37.00705299735812,100 174.96616799273255,-37.00704900500321,100 174.96612699623245,-37.00706799328437,100 174.96609899278465,-37.007109992595886,100 174.9660479987953,-37.00715999692869,100 174.9660239909226,-37.00719699812913,100 174.96600500431873,-37.00723400174222,100 174.9659529990245,-37.007276993597976,100 174.9658979922218,-37.0073209995507,100 174.9658500002564,-37.00735100210299,100 174.9657669933801,-37.00737699359783,100 174.9657129913134,-37.00739400257059,100 174.96560699347518,-37.00740399384491,100 174.96554399582635,-37.00740100243494,100 174.96549599560876,-37.00738099485712,100 174.96546500203738,-37.007351991811774,100 174.96543299205868,-37.007309006689724,100 174.96540699461463,-37.00727300523052,100 174.96539499822467,-37.00721900100789,100 174.96540400226732,-37.00714600021663,100 174.96541499220808,-37.007081992991,100 174.96541499652903,-37.00701400376755,100 174.96539299345724,-37.00695200408672,100 174.9653779995545,-37.006928006741994,100 174.96534299453933,-37.006916995056535,100 174.96530899323727,-37.00690899959052,100 174.9652140035536,-37.006914006962496,100 174.96515099622573,-37.00691799872877,100 174.965070008856,-37.00690199831742,100 174.9650379984119,-37.00687499574537,100 174.96500100666435,-37.00683400465392,100 174.96498599921128,-37.00675299969594,100 174.96497199268407,-37.00670200568945,100 174.96493000163036,-37.00666299459606,100 174.96487200371962,-37.00662300569218,100 174.96482099702297,-37.00657799433256,100 174.9647829992818,-37.0064970032451,100 174.9647930011785,-37.0064520009043,100 174.96477600140787,-37.00641699763828,100 174.9647540000696,-37.00642199643896,100 174.96471599500447,-37.00645499218936,100 174.96469000852088,-37.006516995362254,100 174.96467799475784,-37.006576002880315,100 174.9646560056195,-37.006649006849464,100 174.96461300652422,-37.00672099776126,100 174.9645710001646,-37.00675699343722,100 174.96451999469798,-37.00677100411167,100 174.96444599175803,-37.006770007741096,100 174.96440799282516,-37.00675099588506,100 174.96435199235424,-37.00671800104772,100 174.96430799350532,-37.006678995933555,100 174.96426200200585,-37.006592001005565,100 174.96424599364894,-37.006516000276406,100 174.96425700342976,-37.00641400143525,100 174.964284007979,-37.00636599663106,100 174.964316007764,-37.00632200640461,100 174.96439999358907,-37.006297003764224,100 174.96444899245697,-37.00629599059206,100 174.96447099753087,-37.00627699287603,100 174.96446700134135,-37.00624700356657,100 174.96444400824345,-37.00623399283512,100 174.96441699600894,-37.00620799969854,100 174.96438400184192,-37.006170003010865,100 174.9643689953463,-37.00613999680582,100 174.9643610037383,-37.00611200241317,100 174.96433600579374,-37.006061006435566,100 174.96428200424066,-37.00604299673573,100 174.96425499647037,-37.00607799230423,100 174.9642280008454,-37.006137998596856,100 174.96421100775623,-37.0061799999601,100 174.96419699361942,-37.0062429936323,100 174.9641820036179,-37.006283006019906,100 174.96414699691016,-37.00635299336636,100 174.96411500278057,-37.00639899784863,100 174.9640569932279,-37.00642800374794,100 174.96403800454846,-37.00643299400403,100 174.96398500251036,-37.00642099188096,100 174.9639289968965,-37.006396994548126,100 174.96390900072555,-37.006381002192335,100 174.96387999901077,-37.00633599479989,100 174.9638500040169,-37.00628400528616,100 174.96385000803747,-37.00622699741857,100 174.96381999223368,-37.00617000425092,100 174.9637699947316,-37.00614600743614,100 174.9637329991733,-37.00615400317436,100 174.9636920025125,-37.00616499883816,100 174.96364199514144,-37.0061959964431,100 174.96360600103088,-37.00624199669287,100 174.96359500474313,-37.006280000622624,100 174.96361600231526,-37.00632600490096,100 174.96364799588346,-37.0063850050172,100 174.963643992605,-37.00641499877001,100 174.96362999945634,-37.006447993333865,100 174.96361099770616,-37.00647099521486,100 174.96356800685243,-37.00649599661651,100 174.96350100103183,-37.006531995567734,100 174.96346799445757,-37.00655500387335,100 174.9634009935152,-37.00658499375529,100 174.96330099716272,-37.00661200373821,100 174.96322499574998,-37.00661500717337,100 174.96319499974726,-37.006605994855,100 174.96314900639817,-37.00657300329734,100 174.96309799686313,-37.00653400106408,100 174.96306600522652,-37.006506997635924,100 174.9630429967401,-37.00645900041842,100 174.96302200374834,-37.00640700234827,100 174.96302400421087,-37.0063520019739,100 174.9630229971939,-37.006287995146955,100 174.96298199721514,-37.006253999778984,100 174.96292299338967,-37.006268000595774,100 174.96289199305963,-37.00629399218468,100 174.96288200280344,-37.006329004233784,100 174.96288200879545,-37.00637100628378,100 174.96290700302777,-37.00643600335431,100 174.962920994141,-37.006472997163996,100 174.9629340056073,-37.00651699311677,100 174.96294299836526,-37.00656400459316,100 174.9629570051079,-37.00662799282361,100 174.96297600696474,-37.0066720050257,100 174.9629839985871,-37.00673199728731,100 174.96299700176834,-37.006771997927174,100 174.96299099689628,-37.00679299920919,100 174.96298200698357,-37.0068340027454,100 174.96295299688572,-37.006867995564996,100 174.96293299973152,-37.00689499663076,100 174.96290499330783,-37.006913004591475,100 174.96287199697477,-37.00692899688513,100 174.96280299880607,-37.006933003598974,100 174.96274600701838,-37.006857993408296,100 174.96063400149643,-37.00249600105728,100 174.960290003176,-37.00179099870997,100 174.95995900291192,-37.00191300356091,100 174.95958106734966,-37.00204595470033,100 174.95954000511134,-37.00186800408977,100 174.9572600055316,-37.00117899365937,100 174.9538285055486,-37.00015839688508,100 174.95346799282308,-36.99985699586794,100 174.95319200768918,-36.997072996928644,100 174.9528189955946,-36.99329599941893,100 174.9526169943061,-36.991223998381656,100 174.95083999846915,-36.99066899659903,100 174.9501040004013,-36.99044599660608,100 174.95127900741923,-36.98762600412196,100 174.95204899184216,-36.985615992921346,100</coordinates></LinearRing></outerBoundaryIs>
    </Polygon>
  </Placemark>

  <Placemark>
    <name>Brookby</name>
    <Point>
      <altitudeMode>relativeToGround</altitudeMode>
      <coordinates>174.9893841985536,-36.98755920809853,100</coordinates>
    </Point>
  </Placemark>

</Document>
</kml>