<?xml version="1.0" encoding="UTF-8"?>
<kml xmlns="http://www.opengis.net/kml/2.2">
  <Document>
    <name>Alfriston.final</name>
    <Style id="poly-FF0000-1000-0-nodesc-normal">
      <LineStyle>
        <color>ff0000ff</color>
        <width>1</width>
      </LineStyle>
      <PolyStyle>
        <color>000000ff</color>
        <fill>1</fill>
        <outline>1</outline>
      </PolyStyle>
      <BalloonStyle>
        <text><![CDATA[<h3>$[name]</h3>]]></text>
      </BalloonStyle>
    </Style>
    <Style id="poly-FF0000-1000-0-nodesc-highlight">
      <LineStyle>
        <color>ff0000ff</color>
        <width>1.5</width>
      </LineStyle>
      <PolyStyle>
        <color>000000ff</color>
        <fill>1</fill>
        <outline>1</outline>
      </PolyStyle>
      <BalloonStyle>
        <text><![CDATA[<h3>$[name]</h3>]]></text>
      </BalloonStyle>
    </Style>
    <StyleMap id="poly-FF0000-1000-0-nodesc">
      <Pair>
        <key>normal</key>
        <styleUrl>#poly-FF0000-1000-0-nodesc-normal</styleUrl>
      </Pair>
      <Pair>
        <key>highlight</key>
        <styleUrl>#poly-FF0000-1000-0-nodesc-highlight</styleUrl>
      </Pair>
    </StyleMap>
    <Placemark>
      <name>Alfriston (polygon: official_shp)</name>
      <styleUrl>#poly-FF0000-1000-0-nodesc</styleUrl>
      <Polygon>
        <outerBoundaryIs>
          <LinearRing>
            <tessellate>1</tessellate>
            <coordinates>
              174.959581,-37.002046,0
              174.95954,-37.001868,0
              174.941852,-36.996566,0
              174.941854,-36.996535,0
              174.938911,-36.995767,0
              174.938524,-36.99633,0
              174.937938,-36.99661,0
              174.938895,-36.997228,0
              174.938871,-36.998011,0
              174.939192,-36.998017,0
              174.939399,-36.998139,0
              174.939393,-36.998346,0
              174.939236,-36.998534,0
              174.938692,-36.998963,0
              174.93863,-36.999505,0
              174.938732,-36.999825,0
              174.939187,-37.000594,0
              174.939291,-37.001081,0
              174.93906,-37.001697,0
              174.939265,-37.0035,0
              174.93967,-37.005791,0
              174.93897,-37.005859,0
              174.937666,-37.005631,0
              174.936453,-37.005182,0
              174.936325,-37.004629,0
              174.934839,-37.005683,0
              174.934283,-37.00624,0
              174.934413,-37.006748,0
              174.934342,-37.006819,0
              174.933383,-37.006196,0
              174.933144,-37.006311,0
              174.931952,-37.007946,0
              174.930339,-37.009139,0
              174.929865,-37.008614,0
              174.926944,-37.009709,0
              174.924622,-37.010519,0
              174.923367,-37.008238,0
              174.91995,-37.009379,0
              174.91979,-37.009087,0
              174.919337,-37.009488,0
              174.918801,-37.009775,0
              174.919019,-37.010179,0
              174.917929,-37.010673,0
              174.919021,-37.012686,0
              174.920594,-37.012139,0
              174.921811,-37.014382,0
              174.921496,-37.01449,0
              174.921639,-37.014754,0
              174.920612,-37.015081,0
              174.921027,-37.015444,0
              174.920797,-37.015593,0
              174.920456,-37.015737,0
              174.920383,-37.015602,0
              174.920114,-37.015697,0
              174.919953,-37.015389,0
              174.919283,-37.015629,0
              174.919733,-37.016387,0
              174.92043,-37.0178,0
              174.922898,-37.017012,0
              174.923087,-37.017067,0
              174.9257,-37.022393,0
              174.939944,-37.017878,0
              174.939437,-37.0168,0
              174.939627,-37.01669,0
              174.939852,-37.017168,0
              174.94047,-37.016946,0
              174.9406,-37.017223,0
              174.941424,-37.016924,0
              174.941624,-37.01735,0
              174.945748,-37.016068,0
              174.944773,-37.014713,0
              174.944875,-37.014676,0
              174.945886,-37.01608,0
              174.945864,-37.016273,0
              174.947016,-37.01833,0
              174.949777,-37.017534,0
              174.951922,-37.021995,0
              174.956558,-37.020619,0
              174.954353,-37.015985,0
              174.958393,-37.014834,0
              174.95694,-37.011765,0
              174.954361,-37.006542,0
              174.957096,-37.003161,0
              174.957727,-37.002701,0
              174.959581,-37.002046,0
            </coordinates>
          </LinearRing>
        </outerBoundaryIs>
      </Polygon>
    </Placemark>
  </Document>
</kml>
