<?xml version="1.0" encoding="UTF-8"?>
<kml xmlns="http://www.opengis.net/kml/2.2">
  <Document>
    <name>Beachlands.final</name>
    <Style id="poly-FF0000-1000-0-nodesc-normal">
      <LineStyle>
        <color>ff0000ff</color>
        <width>1</width>
      </LineStyle>
      <PolyStyle>
        <color>000000ff</color>
        <fill>1</fill>
        <outline>1</outline>
      </PolyStyle>
      <BalloonStyle>
        <text><![CDATA[<h3>$[name]</h3>]]></text>
      </BalloonStyle>
    </Style>
    <Style id="poly-FF0000-1000-0-nodesc-highlight">
      <LineStyle>
        <color>ff0000ff</color>
        <width>1.5</width>
      </LineStyle>
      <PolyStyle>
        <color>000000ff</color>
        <fill>1</fill>
        <outline>1</outline>
      </PolyStyle>
      <BalloonStyle>
        <text><![CDATA[<h3>$[name]</h3>]]></text>
      </BalloonStyle>
    </Style>
    <StyleMap id="poly-FF0000-1000-0-nodesc">
      <Pair>
        <key>normal</key>
        <styleUrl>#poly-FF0000-1000-0-nodesc-normal</styleUrl>
      </Pair>
      <Pair>
        <key>highlight</key>
        <styleUrl>#poly-FF0000-1000-0-nodesc-highlight</styleUrl>
      </Pair>
    </StyleMap>
    <Placemark>
      <name>Joined Boundary</name>
      <styleUrl>#poly-FF0000-1000-0-nodesc</styleUrl>
      <Polygon>
        <outerBoundaryIs>
          <LinearRing>
            <tessellate>1</tessellate>
            <coordinates>
              174.999556,-36.876454,0
              174.999197,-36.876833,0
              174.998852,-36.877077,0
              174.998856,-36.877284,0
              174.99908,-36.877777,0
              174.998798,-36.878214,0
              174.99846,-36.878433,0
              174.998403,-36.878526,0
              174.998147,-36.878686,0
              174.997486,-36.878924,0
              174.997159,-36.878944,0
              174.996382,-36.878703,0
              174.996078,-36.87887,0
              174.995837,-36.878926,0
              174.995605,-36.879195,0
              174.995452,-36.87916,0
              174.995181,-36.879381,0
              174.995175,-36.879516,0
              174.994967,-36.879588,0
              174.994832,-36.879498,0
              174.994764,-36.879534,0
              174.994797,-36.879632,0
              174.994685,-36.879693,0
              174.994711,-36.880161,0
              174.994673,-36.880257,0
              174.994565,-36.880354,0
              174.993966,-36.880584,0
              174.993423,-36.880635,0
              174.993216,-36.880737,0
              174.991776,-36.880968,0
              174.990523,-36.881085,0
              174.990218,-36.881045,0
              174.989635,-36.88079,0
              174.98936,-36.880919,0
              174.98892,-36.8809,0
              174.988886,-36.880868,0
              174.988903,-36.880941,0
              174.988815,-36.880961,0
              174.98871,-36.881123,0
              174.988649,-36.881125,0
              174.988647,-36.881055,0
              174.988569,-36.881086,0
              174.988555,-36.880999,0
              174.988513,-36.88108,0
              174.98848,-36.880984,0
              174.987799,-36.881059,0
              174.987341,-36.880915,0
              174.987156,-36.880947,0
              174.98658,-36.880898,0
              174.986245,-36.880824,0
              174.985932,-36.880688,0
              174.985277,-36.881417,0
              174.985087,-36.88156,0
              174.983562,-36.881383,0
              174.983966,-36.881883,0
              174.984007,-36.882461,0
              174.983893,-36.882831,0
              174.983928,-36.883103,0
              174.98443,-36.884754,0
              174.984657,-36.885137,0
              174.985197,-36.885352,0
              174.985596,-36.885592,0
              174.986046,-36.885629,0
              174.986536,-36.886079,0
              174.986724,-36.88672,0
              174.987607,-36.887951,0
              174.986494,-36.888036,0
              174.986337,-36.887503,0
              174.984212,-36.887886,0
              174.98527,-36.888169,0
              174.985473,-36.888467,0
              174.985705,-36.88906,0
              174.985909,-36.889275,0
              174.985241,-36.890185,0
              174.985492,-36.890761,0
              174.986668,-36.891327,0
              174.986899,-36.891299,0
              174.987563,-36.891628,0
              174.988405,-36.891427,0
              174.988755,-36.891022,0
              174.988643,-36.891825,0
              174.988012,-36.89245,0
              174.988425,-36.893043,0
              174.988315,-36.893113,0
              174.988328,-36.893541,0
              174.988124,-36.89519,0
              174.987952,-36.896004,0
              174.987005,-36.89814,0
              174.986633,-36.898823,0
              174.986646,-36.899297,0
              174.987277,-36.89978,0
              174.987628,-36.900247,0
              174.988197,-36.901453,0
              174.988235,-36.901813,0
              174.988496,-36.902078,0
              174.989209,-36.902493,0
              174.989446,-36.902872,0
              174.989419,-36.903886,0
              174.989572,-36.904312,0
              174.989976,-36.904687,0
              174.990399,-36.904769,0
              174.990735,-36.904763,0
              174.990972,-36.904664,0
              174.990306,-36.904455,0
              174.990074,-36.904189,0
              174.990034,-36.903829,0
              174.990173,-36.903782,0
              174.990345,-36.903869,0
              174.990513,-36.903865,0
              174.990649,-36.903728,0
              174.990641,-36.903457,0
              174.990748,-36.903275,0
              174.991,-36.903271,0
              174.991341,-36.903399,0
              174.991929,-36.90331,0
              174.991962,-36.903545,0
              174.991829,-36.90375,0
              174.991388,-36.904029,0
              174.991368,-36.9043,0
              174.991596,-36.904453,0
              174.991959,-36.904379,0
              174.992297,-36.904418,0
              174.992354,-36.904462,0
              174.992333,-36.90471,0
              174.992172,-36.904916,0
              174.992175,-36.905028,0
              174.992649,-36.905852,0
              174.992936,-36.906095,0
              174.993589,-36.906353,0
              174.994057,-36.906976,0
              174.994315,-36.907173,0
              174.994739,-36.907278,0
              174.994888,-36.907591,0
              174.99506,-36.9077,0
              174.995258,-36.907719,0
              174.995986,-36.908674,0
              174.996509,-36.910174,0
              174.99746,-36.911332,0
              174.997765,-36.91184,0
              174.997777,-36.912245,0
              174.997953,-36.912512,0
              174.998048,-36.912849,0
              174.99848,-36.913246,0
              174.998401,-36.913428,0
              174.998125,-36.913591,0
              174.998051,-36.913908,0
              174.998345,-36.914375,0
              174.99851,-36.915184,0
              174.99811,-36.916858,0
              174.997946,-36.917019,0
              174.997213,-36.916921,0
              174.997041,-36.916789,0
              174.996923,-36.916588,0
              174.996919,-36.916431,0
              174.997081,-36.916225,0
              174.99706,-36.915527,0
              174.997188,-36.915096,0
              174.997126,-36.914917,0
              174.996862,-36.914516,0
              174.996401,-36.914097,0
              174.996331,-36.913647,0
              174.996158,-36.913493,0
              174.996024,-36.913721,0
              174.995885,-36.914715,0
              174.995393,-36.91513,0
              174.995153,-36.915585,0
              174.994714,-36.915932,0
              174.994186,-36.9161,0
              174.994131,-36.916146,0
              174.994109,-36.916326,0
              174.994286,-36.916616,0
              174.994228,-36.917496,0
              174.994296,-36.9179,0
              174.994876,-36.918521,0
              174.994987,-36.918496,0
              174.995304,-36.917836,0
              174.995386,-36.917767,0
              174.996107,-36.917438,0
              174.996274,-36.917412,0
              174.996384,-36.91732,0
              174.996719,-36.917246,0
              174.996912,-36.917129,0
              174.997195,-36.917214,0
              174.997625,-36.917544,0
              174.99769,-36.917836,0
              174.997611,-36.918018,0
              174.997266,-36.917754,0
              174.996928,-36.917715,0
              174.99665,-36.917788,0
              174.996479,-36.917702,0
              174.996282,-36.917683,0
              174.996146,-36.91782,0
              174.996097,-36.918092,0
              174.996106,-36.918362,0
              174.996399,-36.918785,0
              174.996417,-36.91937,0
              174.99656,-36.91948,0
              174.997036,-36.919448,0
              174.997547,-36.919641,0
              174.997664,-36.919797,0
              174.997768,-36.920471,0
              174.998029,-36.920737,0
              174.998234,-36.921048,0
              174.997868,-36.921956,0
              174.997823,-36.92234,0
              174.997745,-36.922522,0
              174.997635,-36.922614,0
              174.997349,-36.922578,0
              174.997148,-36.922783,0
              174.997134,-36.922865,0
              174.997249,-36.923074,0
              174.997182,-36.923496,0
              174.996862,-36.923509,0
              174.997426,-36.923867,0
              174.997834,-36.923963,0
              174.997583,-36.924271,0
              174.997699,-36.924452,0
              174.998293,-36.923952,0
              174.9986,-36.924246,0
              174.998786,-36.924601,0
              174.999012,-36.924732,0
              174.998986,-36.924761,0
              174.999629,-36.924942,0
              175.00074,-36.925146,0
              175.000694,-36.9256,0
              175.001144,-36.926115,0
              175.001273,-36.926351,0
              175.001521,-36.9265,0
              175.00186,-36.926555,0
              175.002445,-36.92641,0
              175.002475,-36.926696,0
              175.002266,-36.927056,0
              175.002135,-36.927549,0
              175.001967,-36.927705,0
              175.008825,-36.928214,0
              175.009215,-36.924565,0
              175.015927,-36.925108,0
              175.016904,-36.932728,0
              175.035296,-36.936023,0
              175.038347,-36.928151,0
              175.049719,-36.930193,0
              175.051955,-36.923413,0
              175.053126,-36.920051,0
              175.051503,-36.919538,0
              175.046998,-36.907729,0
              175.03581,-36.908009,0
              175.035427,-36.908091,0
              175.035227,-36.908333,0
              175.031751,-36.906411,0
              175.030074,-36.90763,0
              175.029954,-36.907423,0
              175.029653,-36.90716,0
              175.029409,-36.907041,0
              175.028906,-36.906967,0
              175.028677,-36.90683,0
              175.028449,-36.906444,0
              175.028278,-36.905865,0
              175.02769,-36.905508,0
              175.027215,-36.905439,0
              175.026834,-36.905461,0
              175.026644,-36.905804,0
              175.026501,-36.905823,0
              175.026267,-36.90594,0
              175.02599,-36.90594,0
              175.025828,-36.905848,0
              175.025476,-36.905819,0
              175.025264,-36.905656,0
              175.024884,-36.90549,0
              175.024304,-36.905094,0
              175.02372,-36.904468,0
              175.022857,-36.903829,0
              175.022582,-36.90372,0
              175.022108,-36.903623,0
              175.021677,-36.903456,0
              175.021293,-36.90323,0
              175.021006,-36.903019,0
              175.020898,-36.902881,0
              175.020703,-36.902778,0
              175.019642,-36.90268,0
              175.021447,-36.896708,0
              175.032011,-36.898732,0
              175.03347,-36.893731,0
              175.034402,-36.890981,0
              175.042797,-36.892605,0
              175.042251,-36.893687,0
              175.04871,-36.899337,0
              175.06203,-36.895033,0
              175.062398,-36.894804,0
              175.062173,-36.894581,0
              175.06166,-36.893801,0
              175.061654,-36.893598,0
              175.061783,-36.893213,0
              175.061772,-36.892829,0
              175.061496,-36.892277,0
              175.060615,-36.891126,0
              175.060332,-36.890048,0
              175.059897,-36.88956,0
              175.059422,-36.888667,0
              175.059159,-36.888311,0
              175.058971,-36.887889,0
              175.05878,-36.887292,0
              175.05866,-36.886031,0
              175.058473,-36.885359,0
              175.05831,-36.88508,0
              175.058138,-36.884947,0
              175.057614,-36.884742,0
              175.057167,-36.884368,0
              175.056909,-36.883859,0
              175.057416,-36.883601,0
              175.057363,-36.88353,0
              175.056851,-36.883778,0
              175.056054,-36.88273,0
              175.056129,-36.882368,0
              175.056042,-36.88228,0
              175.055873,-36.88226,0
              175.055212,-36.882701,0
              175.054705,-36.882642,0
              175.054208,-36.882449,0
              175.053824,-36.88223,0
              175.053323,-36.881723,0
              175.052716,-36.880807,0
              175.052793,-36.880512,0
              175.052735,-36.880468,0
              175.052091,-36.880526,0
              175.051356,-36.881097,0
              175.05075,-36.881259,0
              175.050246,-36.881291,0
              175.047946,-36.881306,0
              175.04702,-36.881365,0
              175.044909,-36.88102,0
              175.044092,-36.880758,0
              175.043955,-36.88067,0
              175.044422,-36.879951,0
              175.044338,-36.879917,0
              175.043832,-36.880608,0
              175.043544,-36.880484,0
              175.042905,-36.880095,0
              175.042339,-36.879672,0
              175.042084,-36.8794,0
              175.041811,-36.878744,0
              175.041825,-36.878442,0
              175.041751,-36.878096,0
              175.041324,-36.877919,0
              175.041162,-36.877676,0
              175.040871,-36.877031,0
              175.040595,-36.876798,0
              175.04058,-36.876679,0
              175.040479,-36.876541,0
              175.040291,-36.876445,0
              175.040319,-36.876325,0
              175.039938,-36.875853,0
              175.039864,-36.875686,0
              175.0393,-36.875503,0
              175.038613,-36.874989,0
              175.038359,-36.874739,0
              175.038092,-36.874322,0
              175.037728,-36.87454,0
              175.037619,-36.874742,0
              175.037387,-36.874972,0
              175.037086,-36.875205,0
              175.036813,-36.875337,0
              175.036499,-36.875709,0
              175.036256,-36.875893,0
              175.036083,-36.87595,0
              175.036001,-36.876052,0
              175.034923,-36.876481,0
              175.033408,-36.876896,0
              175.032273,-36.877063,0
              175.030684,-36.877142,0
              175.030307,-36.877113,0
              175.029754,-36.876911,0
              175.029531,-36.877062,0
              175.028934,-36.877081,0
              175.028285,-36.877315,0
              175.027653,-36.877464,0
              175.027388,-36.87746,0
              175.026172,-36.877614,0
              175.025682,-36.877598,0
              175.025052,-36.877665,0
              175.024162,-36.877975,0
              175.023883,-36.878013,0
              175.023517,-36.877953,0
              175.023116,-36.877666,0
              175.022464,-36.877599,0
              175.021503,-36.877098,0
              175.020772,-36.87706,0
              175.0195,-36.877348,0
              175.019309,-36.877577,0
              175.019313,-36.877712,0
              175.018986,-36.878022,0
              175.018877,-36.878193,0
              175.019024,-36.878416,0
              175.01903,-36.878619,0
              175.018266,-36.879388,0
              175.018049,-36.879674,0
              175.017936,-36.880161,0
              175.017952,-36.880724,0
              175.018028,-36.880937,0
              175.018606,-36.881693,0
              175.019248,-36.882175,0
              175.019379,-36.882398,0
              175.019741,-36.882756,0
              175.019927,-36.882822,0
              175.020207,-36.882794,0
              175.020737,-36.882466,0
              175.020695,-36.882351,0
              175.020288,-36.882382,0
              175.020167,-36.882369,0
              175.020132,-36.882323,0
              175.020649,-36.881908,0
              175.020616,-36.882101,0
              175.020663,-36.882192,0
              175.021125,-36.882113,0
              175.02143,-36.882311,0
              175.021675,-36.882368,0
              175.021644,-36.882585,0
              175.021686,-36.882709,0
              175.021918,-36.882738,0
              175.022004,-36.882842,0
              175.022291,-36.882962,0
              175.022349,-36.883198,0
              175.022557,-36.88337,0
              175.022659,-36.883576,0
              175.022267,-36.883711,0
              175.021955,-36.883359,0
              175.021809,-36.883285,0
              175.021397,-36.883197,0
              175.020945,-36.883191,0
              175.020682,-36.883116,0
              175.020219,-36.883218,0
              175.020037,-36.883431,0
              175.020017,-36.883649,0
              175.020078,-36.883791,0
              175.019629,-36.883916,0
              175.019418,-36.883578,0
              175.019256,-36.883529,0
              175.019062,-36.883534,0
              175.018571,-36.883655,0
              175.018118,-36.883896,0
              175.018457,-36.883661,0
              175.019144,-36.883385,0
              175.019241,-36.883142,0
              175.019079,-36.882724,0
              175.018847,-36.882361,0
              175.018347,-36.882105,0
              175.01782,-36.881707,0
              175.016081,-36.882065,0
              175.015687,-36.882073,0
              175.015278,-36.881979,0
              175.014971,-36.881863,0
              175.01457,-36.881612,0
              175.014586,-36.881206,0
              175.014285,-36.880536,0
              175.014111,-36.880336,0
              175.0138,-36.880229,0
              175.012533,-36.880096,0
              175.011824,-36.87984,0
              175.01143,-36.879802,0
              175.011314,-36.879636,0
              175.011503,-36.879418,0
              175.012024,-36.879002,0
              175.01202,-36.87889,0
              175.011818,-36.878691,0
              175.010601,-36.878331,0
              175.010204,-36.878181,0
              175.009861,-36.877984,0
              175.009608,-36.877966,0
              175.009413,-36.878015,0
              175.008902,-36.878397,0
              175.008601,-36.878382,0
              175.00822,-36.878602,0
              175.00724,-36.878924,0
              175.006006,-36.879147,0
              175.005606,-36.878927,0
              175.005397,-36.878757,0
              175.005346,-36.878606,0
              175.005225,-36.878555,0
              175.004456,-36.878405,0
              175.004104,-36.878531,0
              175.003589,-36.878527,0
              175.003405,-36.878486,0
              175.003149,-36.878238,0
              175.002724,-36.878225,0
              175.002378,-36.877982,0
              175.001926,-36.877783,0
              175.001615,-36.877587,0
              175.001409,-36.877538,0
              175.001229,-36.877357,0
              175.000891,-36.877139,0
              175.00038,-36.876898,0
              175.000155,-36.876723,0
              174.999556,-36.876454,0
            </coordinates>
          </LinearRing>
        </outerBoundaryIs>
      </Polygon>
    </Placemark>
  </Document>
</kml>
