<?xml version="1.0" encoding="UTF-8"?>
<kml xmlns="http://www.opengis.net/kml/2.2">
  <Document>
    <name>Botany_Downs.final</name>
    <Style id="poly-FF0000-1000-0-nodesc-normal">
      <LineStyle>
        <color>ff0000ff</color>
        <width>1</width>
      </LineStyle>
      <PolyStyle>
        <color>000000ff</color>
        <fill>1</fill>
        <outline>1</outline>
      </PolyStyle>
      <BalloonStyle>
        <text><![CDATA[<h3>$[name]</h3>]]></text>
      </BalloonStyle>
    </Style>
    <Style id="poly-FF0000-1000-0-nodesc-highlight">
      <LineStyle>
        <color>ff0000ff</color>
        <width>1.5</width>
      </LineStyle>
      <PolyStyle>
        <color>000000ff</color>
        <fill>1</fill>
        <outline>1</outline>
      </PolyStyle>
      <BalloonStyle>
        <text><![CDATA[<h3>$[name]</h3>]]></text>
      </BalloonStyle>
    </Style>
    <StyleMap id="poly-FF0000-1000-0-nodesc">
      <Pair>
        <key>normal</key>
        <styleUrl>#poly-FF0000-1000-0-nodesc-normal</styleUrl>
      </Pair>
      <Pair>
        <key>highlight</key>
        <styleUrl>#poly-FF0000-1000-0-nodesc-highlight</styleUrl>
      </Pair>
    </StyleMap>
    <Placemark>
      <name>Botany Downs (polygon: official_shp)</name>
      <styleUrl>#poly-FF0000-1000-0-nodesc</styleUrl>
      <Polygon>
        <outerBoundaryIs>
          <LinearRing>
            <tessellate>1</tessellate>
            <coordinates>
              174.929348,-36.90883,0
              174.928011,-36.908029,0
              174.924376,-36.907038,0
              174.919626,-36.905327,0
              174.91969,-36.904572,0
              174.919544,-36.90439,0
              174.919566,-36.90421,0
              174.919766,-36.904177,0
              174.919762,-36.903862,0
              174.919826,-36.903762,0
              174.919384,-36.903425,0
              174.91887,-36.90284,0
              174.918775,-36.902328,0
              174.919005,-36.902345,0
              174.918805,-36.901939,0
              174.919018,-36.90188,0
              174.918931,-36.901636,0
              174.918797,-36.90134,0
              174.918564,-36.901321,0
              174.918533,-36.901394,0
              174.917967,-36.900931,0
              174.917725,-36.900922,0
              174.917052,-36.901453,0
              174.917356,-36.901701,0
              174.916239,-36.902582,0
              174.914641,-36.903418,0
              174.911803,-36.904807,0
              174.911506,-36.905201,0
              174.910731,-36.905056,0
              174.909512,-36.904468,0
              174.909285,-36.90477,0
              174.90919,-36.904725,0
              174.909051,-36.904911,0
              174.908987,-36.90488,0
              174.908904,-36.904992,0
              174.908937,-36.90506,0
              174.909281,-36.905248,0
              174.909449,-36.905071,0
              174.909252,-36.905309,0
              174.909881,-36.905593,0
              174.909706,-36.905766,0
              174.909371,-36.905668,0
              174.909281,-36.90587,0
              174.909174,-36.905839,0
              174.909056,-36.906152,0
              174.909108,-36.90633,0
              174.908979,-36.906354,0
              174.90907,-36.906612,0
              174.90911,-36.906979,0
              174.908573,-36.907057,0
              174.908894,-36.907514,0
              174.908688,-36.907725,0
              174.909087,-36.908278,0
              174.908714,-36.908452,0
              174.908804,-36.908906,0
              174.909251,-36.909031,0
              174.90919,-36.909193,0
              174.909294,-36.909243,0
              174.909233,-36.909652,0
              174.909094,-36.909664,0
              174.909184,-36.909901,0
              174.909516,-36.909868,0
              174.909703,-36.910977,0
              174.909504,-36.911799,0
              174.909773,-36.911905,0
              174.909619,-36.91196,0
              174.909743,-36.912254,0
              174.909233,-36.912324,0
              174.909013,-36.912286,0
              174.90898,-36.912732,0
              174.909096,-36.913122,0
              174.909232,-36.913276,0
              174.909132,-36.913442,0
              174.908856,-36.913321,0
              174.908416,-36.913214,0
              174.908005,-36.913224,0
              174.908062,-36.913735,0
              174.908015,-36.914188,0
              174.907927,-36.914322,0
              174.907666,-36.914488,0
              174.907617,-36.914731,0
              174.913341,-36.915795,0
              174.913577,-36.91587,0
              174.913931,-36.916221,0
              174.914578,-36.916483,0
              174.914787,-36.916153,0
              174.915323,-36.91639,0
              174.915461,-36.91591,0
              174.915636,-36.915618,0
              174.916572,-36.914813,0
              174.916686,-36.914665,0
              174.916727,-36.914467,0
              174.916681,-36.914114,0
              174.916772,-36.913836,0
              174.91664,-36.913618,0
              174.916738,-36.913608,0
              174.917105,-36.913742,0
              174.917562,-36.913733,0
              174.917997,-36.913595,0
              174.918149,-36.913604,0
              174.918307,-36.913902,0
              174.918529,-36.914081,0
              174.919307,-36.914189,0
              174.919856,-36.914098,0
              174.92008,-36.914124,0
              174.920334,-36.914323,0
              174.92108,-36.914376,0
              174.921338,-36.914335,0
              174.923061,-36.913036,0
              174.923528,-36.913156,0
              174.923717,-36.913256,0
              174.924168,-36.912852,0
              174.924509,-36.912365,0
              174.924626,-36.912318,0
              174.925374,-36.912373,0
              174.926106,-36.912285,0
              174.926083,-36.91201,0
              174.9262,-36.912017,0
              174.926586,-36.911903,0
              174.926536,-36.911692,0
              174.926848,-36.911155,0
              174.927608,-36.910536,0
              174.927645,-36.91057,0
              174.927812,-36.910431,0
              174.927747,-36.910381,0
              174.928512,-36.909736,0
              174.92822,-36.909533,0
              174.928352,-36.909394,0
              174.928665,-36.909589,0
              174.929019,-36.909114,0
              174.929348,-36.90883,0
            </coordinates>
          </LinearRing>
        </outerBoundaryIs>
      </Polygon>
    </Placemark>
  </Document>
</kml>
