<?xml version="1.0" encoding="UTF-8"?>
<kml xmlns="http://www.opengis.net/kml/2.2">
  <Document>
    <name>Bucklands_Beach_Eastern_Beach.final</name>
    <Style id="poly-FF0000-1000-0-nodesc-normal">
      <LineStyle>
        <color>ff0000ff</color>
        <width>1</width>
      </LineStyle>
      <PolyStyle>
        <color>000000ff</color>
        <fill>1</fill>
        <outline>1</outline>
      </PolyStyle>
      <BalloonStyle>
        <text><![CDATA[<h3>$[name]</h3>]]></text>
      </BalloonStyle>
    </Style>
    <Style id="poly-FF0000-1000-0-nodesc-highlight">
      <LineStyle>
        <color>ff0000ff</color>
        <width>1.5</width>
      </LineStyle>
      <PolyStyle>
        <color>000000ff</color>
        <fill>1</fill>
        <outline>1</outline>
      </PolyStyle>
      <BalloonStyle>
        <text><![CDATA[<h3>$[name]</h3>]]></text>
      </BalloonStyle>
    </Style>
    <StyleMap id="poly-FF0000-1000-0-nodesc">
      <Pair>
        <key>normal</key>
        <styleUrl>#poly-FF0000-1000-0-nodesc-normal</styleUrl>
      </Pair>
      <Pair>
        <key>highlight</key>
        <styleUrl>#poly-FF0000-1000-0-nodesc-highlight</styleUrl>
      </Pair>
    </StyleMap>
    <Placemark>
      <name>Joined Boundary</name>
      <styleUrl>#poly-FF0000-1000-0-nodesc</styleUrl>
      <Polygon>
        <outerBoundaryIs>
          <LinearRing>
            <tessellate>1</tessellate>
            <coordinates>
              174.92123,-36.878903,0
              174.921243,-36.878859,0
              174.919923,-36.878347,0
              174.917844,-36.877004,0
              174.91548,-36.874754,0
              174.914035,-36.873136,0
              174.912141,-36.870486,0
              174.911874,-36.87006,0
              174.91143,-36.869113,0
              174.910517,-36.867805,0
              174.910523,-36.867669,0
              174.910685,-36.86744,0
              174.910674,-36.867318,0
              174.910594,-36.867192,0
              174.910328,-36.867028,0
              174.910173,-36.866777,0
              174.909975,-36.866606,0
              174.910041,-36.866403,0
              174.909982,-36.866299,0
              174.909765,-36.86619,0
              174.909527,-36.865893,0
              174.909473,-36.865783,0
              174.909489,-36.865581,0
              174.909158,-36.865269,0
              174.909119,-36.864933,0
              174.908909,-36.864715,0
              174.908654,-36.864271,0
              174.907991,-36.863652,0
              174.907846,-36.863452,0
              174.907662,-36.862914,0
              174.90699,-36.862071,0
              174.906712,-36.861617,0
              174.906511,-36.861424,0
              174.90642,-36.861201,0
              174.905816,-36.860404,0
              174.905676,-36.860059,0
              174.905359,-36.859699,0
              174.904861,-36.858819,0
              174.904816,-36.858622,0
              174.904875,-36.858396,0
              174.905004,-36.858216,0
              174.90513,-36.858211,0
              174.905419,-36.857976,0
              174.905607,-36.857724,0
              174.905659,-36.857565,0
              174.905849,-36.857359,0
              174.905607,-36.856887,0
              174.905597,-36.856372,0
              174.905651,-36.856303,0
              174.905647,-36.856145,0
              174.90558,-36.856042,0
              174.905665,-36.855785,0
              174.905775,-36.855738,0
              174.905856,-36.855623,0
              174.905879,-36.855465,0
              174.906062,-36.855293,0
              174.905724,-36.85509,0
              174.905408,-36.854353,0
              174.905204,-36.854087,0
              174.905203,-36.853873,0
              174.905093,-36.85373,0
              174.905154,-36.853631,0
              174.90495,-36.853342,0
              174.90502,-36.852848,0
              174.904909,-36.852231,0
              174.904839,-36.852211,0
              174.904868,-36.852106,0
              174.904726,-36.8518,0
              174.904499,-36.851794,0
              174.904426,-36.851739,0
              174.904242,-36.85125,0
              174.90375,-36.850389,0
              174.903675,-36.850088,0
              174.903822,-36.849913,0
              174.90387,-36.84977,0
              174.90362,-36.849765,0
              174.903549,-36.849644,0
              174.903568,-36.849358,0
              174.903381,-36.849051,0
              174.903208,-36.848892,0
              174.903114,-36.848669,0
              174.902986,-36.848578,0
              174.902895,-36.848413,0
              174.902334,-36.847869,0
              174.9022,-36.847352,0
              174.902336,-36.847192,0
              174.901795,-36.846716,0
              174.90168,-36.846516,0
              174.901556,-36.846452,0
              174.90136,-36.846518,0
              174.901209,-36.84637,0
              174.900882,-36.8466,0
              174.90056,-36.846586,0
              174.900442,-36.846663,0
              174.900446,-36.846713,0
              174.900523,-36.846857,0
              174.900743,-36.847048,0
              174.900791,-36.84723,0
              174.900438,-36.847899,0
              174.900142,-36.848137,0
              174.90005,-36.848319,0
              174.900381,-36.848996,0
              174.900355,-36.849196,0
              174.900118,-36.849393,0
              174.900032,-36.849535,0
              174.899802,-36.8497,0
              174.899629,-36.850096,0
              174.899673,-36.850533,0
              174.899615,-36.850699,0
              174.899631,-36.851522,0
              174.899521,-36.851742,0
              174.899576,-36.852437,0
              174.89949,-36.852963,0
              174.899701,-36.853398,0
              174.899777,-36.853849,0
              174.900129,-36.854406,0
              174.900316,-36.855071,0
              174.900219,-36.855585,0
              174.900374,-36.855916,0
              174.900431,-36.856218,0
              174.900339,-36.856488,0
              174.900323,-36.856753,0
              174.900159,-36.857151,0
              174.900338,-36.857377,0
              174.900451,-36.857894,0
              174.900218,-36.85842,0
              174.900313,-36.85902,0
              174.900094,-36.859306,0
              174.899793,-36.860332,0
              174.898984,-36.86124,0
              174.89895,-36.861499,0
              174.899814,-36.863212,0
              174.901462,-36.865317,0
              174.902482,-36.866998,0
              174.903413,-36.868825,0
              174.903633,-36.870005,0
              174.903472,-36.870699,0
              174.903534,-36.871054,0
              174.903654,-36.87108,0
              174.90365,-36.871172,0
              174.904039,-36.87104,0
              174.904191,-36.870927,0
              174.904604,-36.87127,0
              174.904996,-36.871749,0
              174.905589,-36.872779,0
              174.905978,-36.874425,0
              174.906028,-36.875151,0
              174.905943,-36.875608,0
              174.905719,-36.875848,0
              174.905481,-36.875871,0
              174.905173,-36.876086,0
              174.904747,-36.876283,0
              174.904658,-36.876488,0
              174.9045,-36.876635,0
              174.904038,-36.876893,0
              174.904127,-36.877108,0
              174.905052,-36.878317,0
              174.904759,-36.87846,0
              174.904909,-36.878658,0
              174.904209,-36.878999,0
              174.904466,-36.87934,0
              174.904702,-36.879399,0
              174.905128,-36.879964,0
              174.904867,-36.880167,0
              174.9054,-36.880265,0
              174.904738,-36.882597,0
              174.910448,-36.883644,0
              174.910378,-36.883894,0
              174.910296,-36.883935,0
              174.910261,-36.884311,0
              174.909879,-36.884241,0
              174.908853,-36.887801,0
              174.90897,-36.88802,0
              174.908887,-36.888313,0
              174.908373,-36.888219,0
              174.908229,-36.888728,0
              174.908482,-36.888945,0
              174.908242,-36.889065,0
              174.908376,-36.88939,0
              174.90845,-36.88976,0
              174.908366,-36.890056,0
              174.908085,-36.890041,0
              174.90817,-36.890238,0
              174.907794,-36.891553,0
              174.907458,-36.891943,0
              174.907067,-36.892251,0
              174.907374,-36.892603,0
              174.907505,-36.892567,0
              174.907862,-36.89276,0
              174.907783,-36.892831,0
              174.907686,-36.893338,0
              174.907305,-36.89326,0
              174.90723,-36.8935,0
              174.905899,-36.893894,0
              174.905937,-36.894227,0
              174.905835,-36.894688,0
              174.905566,-36.895107,0
              174.905398,-36.895214,0
              174.905102,-36.895756,0
              174.905134,-36.895925,0
              174.905367,-36.896148,0
              174.905809,-36.896289,0
              174.905845,-36.896495,0
              174.906015,-36.896671,0
              174.905949,-36.896911,0
              174.906002,-36.897142,0
              174.905876,-36.897229,0
              174.905834,-36.89734,0
              174.906323,-36.89744,0
              174.906112,-36.898001,0
              174.906597,-36.898127,0
              174.906671,-36.897521,0
              174.90702,-36.896238,0
              174.907528,-36.896117,0
              174.907783,-36.89594,0
              174.907954,-36.895903,0
              174.908015,-36.895956,0
              174.907911,-36.896415,0
              174.908431,-36.896494,0
              174.90849,-36.896674,0
              174.908396,-36.89685,0
              174.90996,-36.896881,0
              174.909145,-36.898502,0
              174.909086,-36.89877,0
              174.90914,-36.898841,0
              174.909409,-36.898877,0
              174.909481,-36.898533,0
              174.909688,-36.898552,0
              174.909703,-36.898235,0
              174.910154,-36.898254,0
              174.910164,-36.898039,0
              174.910489,-36.89788,0
              174.910602,-36.897624,0
              174.911147,-36.897286,0
              174.911378,-36.897065,0
              174.911785,-36.897138,0
              174.912102,-36.897008,0
              174.912358,-36.896778,0
              174.912778,-36.896755,0
              174.912701,-36.895779,0
              174.912625,-36.895518,0
              174.913504,-36.89471,0
              174.913551,-36.894743,0
              174.913594,-36.894704,0
              174.91372,-36.894588,0
              174.913643,-36.894534,0
              174.915797,-36.892606,0
              174.91618,-36.892696,0
              174.916279,-36.892435,0
              174.91621,-36.89236,0
              174.917137,-36.891803,0
              174.917424,-36.892134,0
              174.918308,-36.891502,0
              174.919229,-36.890999,0
              174.91901,-36.890762,0
              174.919776,-36.890354,0
              174.920005,-36.8906,0
              174.920179,-36.890511,0
              174.919995,-36.88998,0
              174.920091,-36.889929,0
              174.920064,-36.889726,0
              174.920368,-36.889564,0
              174.920158,-36.889458,0
              174.920306,-36.889213,0
              174.919974,-36.889099,0
              174.919642,-36.888868,0
              174.919014,-36.888534,0
              174.919265,-36.888134,0
              174.918959,-36.88797,0
              174.919214,-36.887794,0
              174.919426,-36.887878,0
              174.919906,-36.887911,0
              174.920115,-36.887859,0
              174.920564,-36.888041,0
              174.920729,-36.887255,0
              174.920667,-36.887203,0
              174.920804,-36.886806,0
              174.920763,-36.886795,0
              174.920958,-36.886552,0
              174.92114,-36.886646,0
              174.9213,-36.88645,0
              174.921193,-36.886458,0
              174.920969,-36.886341,0
              174.921144,-36.886122,0
              174.920904,-36.885953,0
              174.921136,-36.885665,0
              174.920465,-36.885317,0
              174.920726,-36.884992,0
              174.919861,-36.884544,0
              174.919719,-36.885044,0
              174.919499,-36.885004,0
              174.919615,-36.884594,0
              174.919266,-36.884529,0
              174.91916,-36.884254,0
              174.91926,-36.883903,0
              174.91842,-36.883341,0
              174.918873,-36.881751,0
              174.919606,-36.881886,0
              174.920325,-36.88209,0
              174.920585,-36.881173,0
              174.919929,-36.881053,0
              174.919764,-36.880871,0
              174.91878,-36.88069,0
              174.91888,-36.880339,0
              174.918805,-36.88014,0
              174.918912,-36.879763,0
              174.919568,-36.879883,0
              174.920026,-36.879609,0
              174.920177,-36.87943,0
              174.920707,-36.879718,0
              174.921016,-36.879658,0
              174.92123,-36.878903,0
            </coordinates>
          </LinearRing>
        </outerBoundaryIs>
      </Polygon>
    </Placemark>
  </Document>
</kml>
