<?xml version="1.0" encoding="UTF-8"?>
<kml xmlns="http://www.opengis.net/kml/2.2">
  <Document>
    <name>Burswood.final</name>
    <Style id="poly-FF0000-1000-0-nodesc-normal">
      <LineStyle>
        <color>ff0000ff</color>
        <width>1</width>
      </LineStyle>
      <PolyStyle>
        <color>000000ff</color>
        <fill>1</fill>
        <outline>1</outline>
      </PolyStyle>
      <BalloonStyle>
        <text><![CDATA[<h3>$[name]</h3>]]></text>
      </BalloonStyle>
    </Style>
    <Style id="poly-FF0000-1000-0-nodesc-highlight">
      <LineStyle>
        <color>ff0000ff</color>
        <width>1.5</width>
      </LineStyle>
      <PolyStyle>
        <color>000000ff</color>
        <fill>1</fill>
        <outline>1</outline>
      </PolyStyle>
      <BalloonStyle>
        <text><![CDATA[<h3>$[name]</h3>]]></text>
      </BalloonStyle>
    </Style>
    <StyleMap id="poly-FF0000-1000-0-nodesc">
      <Pair>
        <key>normal</key>
        <styleUrl>#poly-FF0000-1000-0-nodesc-normal</styleUrl>
      </Pair>
      <Pair>
        <key>highlight</key>
        <styleUrl>#poly-FF0000-1000-0-nodesc-highlight</styleUrl>
      </Pair>
    </StyleMap>
    <Placemark>
      <name>Burswood (polygon: official_shp)</name>
      <styleUrl>#poly-FF0000-1000-0-nodesc</styleUrl>
      <Polygon>
        <outerBoundaryIs>
          <LinearRing>
            <tessellate>1</tessellate>
            <coordinates>
              174.887576,-36.925073,0
              174.889537,-36.925555,0
              174.889007,-36.926168,0
              174.88898,-36.92635,0
              174.889065,-36.926467,0
              174.889278,-36.926607,0
              174.889442,-36.926894,0
              174.890506,-36.92712,0
              174.890727,-36.926534,0
              174.891432,-36.926684,0
              174.891566,-36.926169,0
              174.891799,-36.926235,0
              174.891598,-36.926978,0
              174.89252,-36.927139,0
              174.892414,-36.927531,0
              174.892867,-36.92761,0
              174.892944,-36.92775,0
              174.892977,-36.927629,0
              174.894103,-36.927826,0
              174.893776,-36.929053,0
              174.893496,-36.929192,0
              174.893633,-36.929406,0
              174.894856,-36.929221,0
              174.895327,-36.929266,0
              174.895656,-36.929208,0
              174.896041,-36.927735,0
              174.896761,-36.927857,0
              174.896973,-36.927044,0
              174.899155,-36.927478,0
              174.89892,-36.928317,0
              174.899155,-36.928436,0
              174.900214,-36.928627,0
              174.900184,-36.928734,0
              174.900466,-36.928876,0
              174.90096,-36.928966,0
              174.90127,-36.927862,0
              174.901789,-36.928007,0
              174.901827,-36.928077,0
              174.902052,-36.928146,0
              174.902139,-36.928116,0
              174.902438,-36.928219,0
              174.904967,-36.929131,0
              174.904954,-36.929158,0
              174.906614,-36.929574,0
              174.906768,-36.929052,0
              174.906596,-36.929048,0
              174.90644,-36.928988,0
              174.906007,-36.928995,0
              174.905545,-36.928802,0
              174.905398,-36.928624,0
              174.905258,-36.928311,0
              174.905144,-36.928245,0
              174.905054,-36.928044,0
              174.904852,-36.927845,0
              174.904455,-36.927739,0
              174.904114,-36.927587,0
              174.903721,-36.927595,0
              174.903268,-36.927446,0
              174.902539,-36.927458,0
              174.902509,-36.927392,0
              174.902669,-36.927096,0
              174.902751,-36.927027,0
              174.903002,-36.926955,0
              174.903192,-36.926748,0
              174.903218,-36.925689,0
              174.90327,-36.92553,0
              174.903487,-36.925278,0
              174.904014,-36.925043,0
              174.904124,-36.924951,0
              174.90442,-36.92454,0
              174.904416,-36.924382,0
              174.904358,-36.924316,0
              174.904215,-36.924228,0
              174.903906,-36.924211,0
              174.903566,-36.924105,0
              174.903342,-36.924109,0
              174.902925,-36.924274,0
              174.902559,-36.924213,0
              174.9023,-36.923992,0
              174.902281,-36.923317,0
              174.902192,-36.923162,0
              174.901992,-36.92303,0
              174.901796,-36.923056,0
              174.901606,-36.923148,0
              174.901296,-36.92337,0
              174.901105,-36.92383,0
              174.901016,-36.923898,0
              174.900972,-36.923676,0
              174.901093,-36.92318,0
              174.90151,-36.922858,0
              174.901584,-36.922519,0
              174.901577,-36.922271,0
              174.901455,-36.921913,0
              174.901144,-36.921805,0
              174.900892,-36.921832,0
              174.900643,-36.921973,0
              174.900592,-36.922154,0
              174.900482,-36.922246,0
              174.900034,-36.922277,0
              174.899919,-36.922166,0
              174.899935,-36.92176,0
              174.899757,-36.921425,0
              174.899855,-36.920905,0
              174.899822,-36.920748,0
              174.899653,-36.920728,0
              174.899018,-36.921079,0
              174.898876,-36.921013,0
              174.898867,-36.920721,0
              174.898273,-36.920573,0
              174.898073,-36.920419,0
              174.897955,-36.920218,0
              174.897944,-36.919858,0
              174.898139,-36.918796,0
              174.897932,-36.918439,0
              174.89779,-36.918374,0
              174.897201,-36.918385,0
              174.896805,-36.918279,0
              174.89612,-36.917864,0
              174.895951,-36.917867,0
              174.895675,-36.917984,0
              174.895439,-36.91862,0
              174.895005,-36.919101,0
              174.894008,-36.919592,0
              174.893562,-36.919713,0
              174.893231,-36.919922,0
              174.893073,-36.920285,0
              174.89306,-36.920826,0
              174.893333,-36.921543,0
              174.893278,-36.921589,0
              174.893138,-36.921591,0
              174.892771,-36.921508,0
              174.892519,-36.921513,0
              174.892156,-36.921609,0
              174.891497,-36.92214,0
              174.891391,-36.922367,0
              174.891141,-36.923431,0
              174.891149,-36.923701,0
              174.891784,-36.924342,0
              174.891896,-36.92434,0
              174.892311,-36.924108,0
              174.892363,-36.923949,0
              174.892273,-36.923748,0
              174.892355,-36.923679,0
              174.892916,-36.923646,0
              174.893164,-36.923483,0
              174.89327,-36.923301,0
              174.893247,-36.922894,0
              174.893286,-36.922873,0
              174.893859,-36.923291,0
              174.89417,-36.923308,0
              174.895196,-36.922739,0
              174.895242,-36.922862,0
              174.895326,-36.922918,0
              174.895297,-36.922963,0
              174.895174,-36.922974,0
              174.895082,-36.923051,0
              174.895081,-36.923145,0
              174.8947,-36.923367,0
              174.894475,-36.923635,0
              174.894422,-36.923841,0
              174.894349,-36.923845,0
              174.894165,-36.923715,0
              174.89403,-36.923713,0
              174.893802,-36.923774,0
              174.893619,-36.923884,0
              174.89315,-36.923988,0
              174.892513,-36.924329,0
              174.892482,-36.924436,0
              174.892324,-36.924582,0
              174.892676,-36.925051,0
              174.892666,-36.925574,0
              174.892721,-36.9257,0
              174.892525,-36.925704,0
              174.89186,-36.925553,0
              174.891784,-36.925259,0
              174.891578,-36.925134,0
              174.891337,-36.925162,0
              174.891253,-36.925412,0
              174.890959,-36.925377,0
              174.890851,-36.924854,0
              174.890818,-36.924774,0
              174.890689,-36.924687,0
              174.890451,-36.924713,0
              174.890148,-36.924832,0
              174.8896,-36.925266,0
              174.88777,-36.924833,0
              174.887576,-36.925073,0
            </coordinates>
          </LinearRing>
        </outerBoundaryIs>
      </Polygon>
    </Placemark>
  </Document>
</kml>
