<?xml version="1.0" encoding="UTF-8"?>
<kml xmlns="http://www.opengis.net/kml/2.2">
  <Document>
    <name>Clevedon.final</name>
    <Style id="poly-FF0000-1000-0-nodesc-normal">
      <LineStyle>
        <color>ff0000ff</color>
        <width>1</width>
      </LineStyle>
      <PolyStyle>
        <color>000000ff</color>
        <fill>1</fill>
        <outline>1</outline>
      </PolyStyle>
      <BalloonStyle>
        <text><![CDATA[<h3>$[name]</h3>]]></text>
      </BalloonStyle>
    </Style>
    <Style id="poly-FF0000-1000-0-nodesc-highlight">
      <LineStyle>
        <color>ff0000ff</color>
        <width>1.5</width>
      </LineStyle>
      <PolyStyle>
        <color>000000ff</color>
        <fill>1</fill>
        <outline>1</outline>
      </PolyStyle>
      <BalloonStyle>
        <text><![CDATA[<h3>$[name]</h3>]]></text>
      </BalloonStyle>
    </Style>
    <StyleMap id="poly-FF0000-1000-0-nodesc">
      <Pair>
        <key>normal</key>
        <styleUrl>#poly-FF0000-1000-0-nodesc-normal</styleUrl>
      </Pair>
      <Pair>
        <key>highlight</key>
        <styleUrl>#poly-FF0000-1000-0-nodesc-highlight</styleUrl>
      </Pair>
    </StyleMap>
    <Placemark>
      <name>Joined Boundary</name>
      <styleUrl>#poly-FF0000-1000-0-nodesc</styleUrl>
      <Polygon>
        <outerBoundaryIs>
          <LinearRing>
            <tessellate>1</tessellate>
            <coordinates>
              175.020749,-37.065228,0
              175.02202,-37.065475,0
              175.022346,-37.065201,0
              175.022379,-37.06372,0
              175.02472,-37.064677,0
              175.02513,-37.064961,0
              175.02597,-37.065417,0
              175.02607,-37.064066,0
              175.026607,-37.063812,0
              175.029231,-37.062875,0
              175.029707,-37.062852,0
              175.030033,-37.062483,0
              175.03023,-37.062482,0
              175.03041,-37.062584,0
              175.031444,-37.062519,0
              175.032079,-37.062327,0
              175.032856,-37.061806,0
              175.033505,-37.061694,0
              175.034189,-37.061721,0
              175.03464,-37.061952,0
              175.035563,-37.063003,0
              175.036749,-37.06356,0
              175.037288,-37.063726,0
              175.038844,-37.063968,0
              175.039876,-37.064483,0
              175.039971,-37.064836,0
              175.040234,-37.064919,0
              175.046162,-37.064845,0
              175.051162,-37.060563,0
              175.053181,-37.059113,0
              175.053332,-37.059221,0
              175.053563,-37.05914,0
              175.053789,-37.059952,0
              175.053927,-37.060175,0
              175.054085,-37.060256,0
              175.054604,-37.060024,0
              175.054901,-37.059666,0
              175.055294,-37.059639,0
              175.055516,-37.059556,0
              175.055653,-37.059447,0
              175.055672,-37.059298,0
              175.056014,-37.059068,0
              175.056283,-37.058939,0
              175.056716,-37.05885,0
              175.056879,-37.058526,0
              175.057057,-37.058411,0
              175.057296,-37.058406,0
              175.057589,-37.058529,0
              175.057852,-37.058518,0
              175.058199,-37.058669,0
              175.05876,-37.058775,0
              175.056963,-37.055652,0
              175.061874,-37.053794,0
              175.060744,-37.051872,0
              175.06194,-37.051423,0
              175.059034,-37.046663,0
              175.060773,-37.04602,0
              175.059676,-37.043708,0
              175.059788,-37.043488,0
              175.060598,-37.043723,0
              175.06155,-37.04408,0
              175.06224,-37.04384,0
              175.062678,-37.043842,0
              175.063936,-37.044004,0
              175.064117,-37.044118,0
              175.064373,-37.044142,0
              175.064503,-37.04423,0
              175.064989,-37.044273,0
              175.065749,-37.044794,0
              175.07419,-37.04145,0
              175.074435,-37.041783,0
              175.075029,-37.042267,0
              175.075376,-37.042911,0
              175.076054,-37.043611,0
              175.076283,-37.043977,0
              175.07652,-37.044228,0
              175.077095,-37.044516,0
              175.07747,-37.04484,0
              175.077603,-37.045259,0
              175.077519,-37.045602,0
              175.077656,-37.046125,0
              175.077737,-37.046278,0
              175.077939,-37.046464,0
              175.078378,-37.047481,0
              175.078602,-37.047782,0
              175.078632,-37.04829,0
              175.078361,-37.048816,0
              175.077932,-37.049192,0
              175.077314,-37.049479,0
              175.077044,-37.049684,0
              175.077176,-37.05023,0
              175.077377,-37.050521,0
              175.077502,-37.05065,0
              175.077939,-37.050881,0
              175.07837,-37.05137,0
              175.078901,-37.051601,0
              175.079221,-37.051553,0
              175.079605,-37.050757,0
              175.079772,-37.05054,0
              175.080145,-37.050431,0
              175.080294,-37.050446,0
              175.080444,-37.050583,0
              175.08051,-37.050813,0
              175.080518,-37.05118,0
              175.080608,-37.051375,0
              175.08079,-37.051617,0
              175.080951,-37.051659,0
              175.08132,-37.051573,0
              175.082383,-37.050759,0
              175.0827,-37.050581,0
              175.082847,-37.050584,0
              175.082906,-37.050696,0
              175.082765,-37.051371,0
              175.082835,-37.051906,0
              175.083139,-37.05221,0
              175.084097,-37.052799,0
              175.08435,-37.052887,0
              175.085287,-37.053048,0
              175.085885,-37.053086,0
              175.086043,-37.053137,0
              175.086248,-37.053346,0
              175.086386,-37.053419,0
              175.086761,-37.053959,0
              175.086974,-37.054161,0
              175.087437,-37.055046,0
              175.087794,-37.05546,0
              175.088038,-37.055839,0
              175.088255,-37.056408,0
              175.088258,-37.056551,0
              175.101903,-37.053724,0
              175.102366,-37.054977,0
              175.102713,-37.055168,0
              175.102882,-37.055164,0
              175.104542,-37.054211,0
              175.104762,-37.053982,0
              175.10496,-37.053539,0
              175.105002,-37.052997,0
              175.105212,-37.052476,0
              175.105234,-37.051742,0
              175.105118,-37.051632,0
              175.104408,-37.051352,0
              175.103943,-37.051244,0
              175.104481,-37.050922,0
              175.104558,-37.050673,0
              175.104944,-37.050395,0
              175.104907,-37.050103,0
              175.104792,-37.04997,0
              175.104655,-37.049651,0
              175.104694,-37.048991,0
              175.104589,-37.048757,0
              175.104374,-37.048614,0
              175.103797,-37.048567,0
              175.102356,-37.049337,0
              175.101951,-37.049446,0
              175.101137,-37.049482,0
              175.100784,-37.049597,0
              175.100924,-37.049385,0
              175.101412,-37.049253,0
              175.102127,-37.049183,0
              175.102515,-37.048973,0
              175.102623,-37.048814,0
              175.102698,-37.048474,0
              175.103334,-37.04808,0
              175.103506,-37.047705,0
              175.103485,-37.047469,0
              175.103398,-37.047357,0
              175.103285,-37.047315,0
              175.103144,-37.04734,0
              175.102648,-37.047664,0
              175.102181,-37.047571,0
              175.101505,-37.047561,0
              175.101349,-37.047484,0
              175.101317,-37.04735,0
              175.101427,-37.04728,0
              175.101596,-37.047277,0
              175.101796,-37.047386,0
              175.102008,-37.047394,0
              175.102397,-37.047251,0
              175.102777,-37.047233,0
              175.103382,-37.046749,0
              175.103701,-37.046654,0
              175.103879,-37.046448,0
              175.104036,-37.046028,0
              175.103871,-37.045648,0
              175.103882,-37.045546,0
              175.104294,-37.045179,0
              175.104289,-37.044998,0
              175.104203,-37.044932,0
              175.103643,-37.04501,0
              175.103442,-37.044878,0
              175.103019,-37.044818,0
              175.102933,-37.044751,0
              175.102987,-37.044684,0
              175.103393,-37.044608,0
              175.104081,-37.044618,0
              175.104303,-37.04448,0
              175.1043,-37.044367,0
              175.104155,-37.044235,0
              175.103808,-37.044077,0
              175.10384,-37.043992,0
              175.104627,-37.044,0
              175.105431,-37.043581,0
              175.105836,-37.043483,0
              175.106042,-37.0433,0
              175.105899,-37.043212,0
              175.105758,-37.043214,0
              175.105672,-37.043148,0
              175.10561,-37.042969,0
              175.10541,-37.04286,0
              175.104848,-37.042803,0
              175.104301,-37.043166,0
              175.104022,-37.043171,0
              175.104481,-37.042753,0
              175.104669,-37.042467,0
              175.105034,-37.042461,0
              175.10509,-37.042349,0
              175.104734,-37.042071,0
              175.104694,-37.041963,0
              175.104746,-37.041353,0
              175.104909,-37.040663,0
              175.105249,-37.040193,0
              175.104794,-37.039715,0
              175.104764,-37.039524,0
              175.105011,-37.039424,0
              175.105503,-37.039795,0
              175.105766,-37.040106,0
              175.105674,-37.040829,0
              175.106052,-37.041251,0
              175.106055,-37.041408,0
              175.105893,-37.041614,0
              175.10703,-37.042493,0
              175.107591,-37.042655,0
              175.107829,-37.042757,0
              175.108054,-37.042925,0
              175.107801,-37.042908,0
              175.107579,-37.043025,0
              175.107272,-37.043075,0
              175.107189,-37.043144,0
              175.107112,-37.043416,0
              175.106895,-37.043667,0
              175.106878,-37.044073,0
              175.106518,-37.044305,0
              175.106329,-37.044556,0
              175.10569,-37.044689,0
              175.105455,-37.044873,0
              175.105413,-37.045086,0
              175.105935,-37.045372,0
              175.106137,-37.045676,0
              175.107065,-37.04589,0
              175.106948,-37.046008,0
              175.106435,-37.046017,0
              175.105519,-37.045939,0
              175.105404,-37.046102,0
              175.105551,-37.046959,0
              175.10529,-37.047119,0
              175.105303,-37.047537,0
              175.105872,-37.047552,0
              175.105915,-37.047641,0
              175.105727,-37.047786,0
              175.105669,-37.047986,0
              175.105727,-37.048062,0
              175.105897,-37.048091,0
              175.105962,-37.048148,0
              175.105663,-37.04832,0
              175.105652,-37.048494,0
              175.105728,-37.048634,0
              175.106428,-37.048685,0
              175.106783,-37.048808,0
              175.106511,-37.049128,0
              175.10649,-37.049399,0
              175.106302,-37.049718,0
              175.106418,-37.049828,0
              175.10653,-37.049826,0
              175.106702,-37.049936,0
              175.107067,-37.049929,0
              175.107427,-37.049743,0
              175.10766,-37.04948,0
              175.107882,-37.049397,0
              175.108117,-37.049223,0
              175.108523,-37.048687,0
              175.108656,-37.048414,0
              175.108797,-37.048434,0
              175.109086,-37.0487,0
              175.109395,-37.048694,0
              175.109709,-37.048891,0
              175.110046,-37.048885,0
              175.110186,-37.048815,0
              175.110211,-37.048702,0
              175.109945,-37.048256,0
              175.109941,-37.048121,0
              175.110052,-37.048051,0
              175.110738,-37.048444,0
              175.110935,-37.048464,0
              175.111271,-37.04839,0
              175.111505,-37.048262,0
              175.112255,-37.047381,0
              175.112744,-37.047275,0
              175.112838,-37.047123,0
              175.113117,-37.04705,0
              175.113227,-37.046958,0
              175.113525,-37.046547,0
              175.113576,-37.046366,0
              175.113741,-37.046228,0
              175.113869,-37.046223,0
              175.11394,-37.046314,0
              175.113863,-37.046564,0
              175.113566,-37.046997,0
              175.113568,-37.047087,0
              175.113682,-37.047176,0
              175.113909,-37.047239,0
              175.113968,-37.047328,0
              175.113859,-37.047443,0
              175.113633,-37.047422,0
              175.113335,-37.047282,0
              175.112817,-37.047314,0
              175.11241,-37.047896,0
              175.112412,-37.047986,0
              175.112554,-37.048029,0
              175.112856,-37.047776,0
              175.112985,-37.047898,0
              175.113066,-37.048246,0
              175.113844,-37.04893,0
              175.11413,-37.049106,0
              175.114427,-37.049145,0
              175.116048,-37.048857,0
              175.116428,-37.04884,0
              175.116572,-37.048949,0
              175.116603,-37.049084,0
              175.116689,-37.04915,0
              175.116983,-37.049078,0
              175.118243,-37.048379,0
              175.118994,-37.048095,0
              175.119074,-37.047958,0
              175.119089,-37.04774,0
              175.119301,-37.047576,0
              175.119425,-37.047357,0
              175.122239,-37.039901,0
              175.122524,-37.039746,0
              175.122628,-37.039639,0
              175.122816,-37.039264,0
              175.122985,-37.038523,0
              175.12358,-37.037317,0
              175.123532,-37.037061,0
              175.123374,-37.036866,0
              175.123293,-37.037098,0
              175.123148,-37.036929,0
              175.122905,-37.036781,0
              175.121545,-37.035494,0
              175.121311,-37.035197,0
              175.120106,-37.034008,0
              175.119733,-37.033412,0
              175.119523,-37.032866,0
              175.11933,-37.031922,0
              175.098058,-37.026852,0
              175.099263,-37.023578,0
              175.096881,-37.022953,0
              175.096891,-37.022028,0
              175.097114,-37.021721,0
              175.097349,-37.021694,0
              175.097514,-37.0209,0
              175.098413,-37.02016,0
              175.09957,-37.019665,0
              175.099772,-37.019393,0
              175.099816,-37.018874,0
              175.099681,-37.018625,0
              175.10061,-37.017892,0
              175.101076,-37.017917,0
              175.101405,-37.017641,0
              175.101416,-37.017255,0
              175.102664,-37.017631,0
              175.102322,-37.016397,0
              175.101875,-37.015905,0
              175.102429,-37.015511,0
              175.101975,-37.01535,0
              175.102184,-37.015105,0
              175.101908,-37.014811,0
              175.101865,-37.01408,0
              175.101912,-37.013142,0
              175.101778,-37.012689,0
              175.101851,-37.011971,0
              175.101628,-37.011922,0
              175.100977,-37.010927,0
              175.10063,-37.010784,0
              175.100413,-37.010538,0
              175.100034,-37.010516,0
              175.099734,-37.010353,0
              175.099498,-37.010075,0
              175.099297,-37.00994,0
              175.098744,-37.009402,0
              175.098214,-37.009016,0
              175.097786,-37.008774,0
              175.097612,-37.008577,0
              175.09732,-37.008593,0
              175.097146,-37.008772,0
              175.096701,-37.008767,0
              175.096028,-37.008657,0
              175.095873,-37.008332,0
              175.095521,-37.007996,0
              175.094968,-37.007742,0
              175.094885,-37.007241,0
              175.095026,-37.006995,0
              175.095055,-37.006798,0
              175.094926,-37.006692,0
              175.094496,-37.00688,0
              175.094372,-37.007044,0
              175.093811,-37.007055,0
              175.093508,-37.006918,0
              175.092879,-37.006928,0
              175.092777,-37.00664,0
              175.093105,-37.00585,0
              175.092933,-37.005425,0
              175.091708,-37.005545,0
              175.090947,-37.005357,0
              175.090521,-37.005369,0
              175.089484,-37.004505,0
              175.090647,-37.004001,0
              175.091863,-37.004027,0
              175.091847,-37.003531,0
              175.090327,-37.003404,0
              175.089001,-37.00345,0
              175.088379,-37.00391,0
              175.087721,-37.003904,0
              175.087906,-37.004527,0
              175.087879,-37.004879,0
              175.087714,-37.00522,0
              175.087334,-37.005589,0
              175.087224,-37.005955,0
              175.087292,-37.006239,0
              175.08719,-37.006702,0
              175.087323,-37.00708,0
              175.087728,-37.007583,0
              175.087903,-37.00791,0
              175.087869,-37.008203,0
              175.08807,-37.008722,0
              175.085712,-37.008172,0
              175.084813,-36.990605,0
              175.083101,-36.989181,0
              175.084159,-36.988414,0
              175.086421,-36.987258,0
              175.079871,-36.983653,0
              175.081044,-36.982808,0
              175.081041,-36.982717,0
              175.081546,-36.982461,0
              175.081793,-36.98243,0
              175.082217,-36.982608,0
              175.082592,-36.982493,0
              175.082904,-36.9822,0
              175.083209,-36.981783,0
              175.083138,-36.981322,0
              175.083676,-36.98137,0
              175.083922,-36.9813,0
              175.084573,-36.98085,0
              175.084886,-36.980858,0
              175.085324,-36.981008,0
              175.085453,-36.981009,0
              175.085534,-36.980961,0
              175.085652,-36.980841,0
              175.08571,-36.980631,0
              175.085492,-36.980439,0
              175.084963,-36.980209,0
              175.08426,-36.980279,0
              175.084182,-36.980253,0
              175.084166,-36.980184,0
              175.084267,-36.980066,0
              175.084674,-36.979858,0
              175.084823,-36.979675,0
              175.084979,-36.979098,0
              175.085101,-36.978938,0
              175.085251,-36.978883,0
              175.085496,-36.979059,0
              175.086448,-36.979329,0
              175.086611,-36.979306,0
              175.086703,-36.979218,0
              175.086725,-36.979181,0
              175.086428,-36.978961,0
              175.085901,-36.978154,0
              175.085608,-36.97793,0
              175.084375,-36.977839,0
              175.084307,-36.976583,0
              175.092106,-36.975561,0
              175.092646,-36.975727,0
              175.092705,-36.975874,0
              175.093143,-36.976361,0
              175.093251,-36.976416,0
              175.093496,-36.976443,0
              175.093653,-36.97663,0
              175.093922,-36.976738,0
              175.094306,-36.977079,0
              175.094794,-36.977235,0
              175.094783,-36.977313,0
              175.098759,-36.979072,0
              175.121696,-36.962222,0
              175.111929,-36.951633,0
              175.111866,-36.95101,0
              175.111754,-36.950772,0
              175.112012,-36.950449,0
              175.112009,-36.950323,0
              175.112052,-36.950387,0
              175.112483,-36.950093,0
              175.112562,-36.94985,0
              175.1124,-36.949662,0
              175.112653,-36.94941,0
              175.112532,-36.949366,0
              175.112309,-36.949415,0
              175.11199,-36.949321,0
              175.11161,-36.948821,0
              175.111379,-36.948611,0
              175.110355,-36.948179,0
              175.109633,-36.948001,0
              175.108999,-36.947912,0
              175.108398,-36.948002,0
              175.107296,-36.947819,0
              175.106509,-36.947766,0
              175.10597,-36.947596,0
              175.104649,-36.947598,0
              175.103379,-36.947419,0
              175.102705,-36.947386,0
              175.101699,-36.947123,0
              175.100534,-36.946648,0
              175.099697,-36.946822,0
              175.099614,-36.946891,0
              175.09962,-36.947094,0
              175.099456,-36.947233,0
              175.099051,-36.94733,0
              175.09833,-36.947892,0
              175.097767,-36.947151,0
              175.097735,-36.947016,0
              175.098426,-36.946621,0
              175.098789,-36.946523,0
              175.098899,-36.946431,0
              175.099053,-36.945932,0
              175.099406,-36.945508,0
              175.099512,-36.945292,0
              175.099426,-36.945226,0
              175.099285,-36.945228,0
              175.098994,-36.945358,0
              175.098512,-36.944713,0
              175.098153,-36.944416,0
              175.097853,-36.944263,0
              175.097456,-36.944135,0
              175.097312,-36.944025,0
              175.097478,-36.943447,0
              175.097545,-36.942837,0
              175.097688,-36.94244,0
              175.098094,-36.941879,0
              175.098761,-36.941191,0
              175.099326,-36.940808,0
              175.099347,-36.940537,0
              175.09926,-36.940449,0
              175.098994,-36.940499,0
              175.098347,-36.94094,0
              175.097376,-36.940856,0
              175.096965,-36.940762,0
              175.095912,-36.940285,0
              175.095564,-36.939909,0
              175.095308,-36.939778,0
              175.095113,-36.939827,0
              175.095058,-36.939895,0
              175.095092,-36.940075,0
              175.095667,-36.940515,0
              175.09593,-36.940872,0
              175.096067,-36.941263,0
              175.096082,-36.941782,0
              175.095943,-36.942315,0
              175.095113,-36.943243,0
              175.094562,-36.943659,0
              175.094277,-36.943991,0
              175.094032,-36.944751,0
              175.093779,-36.945229,0
              175.093439,-36.945596,0
              175.092941,-36.945888,0
              175.091802,-36.946325,0
              175.091035,-36.946509,0
              175.090731,-36.946672,0
              175.090541,-36.946924,0
              175.090169,-36.94763,0
              175.089739,-36.947841,0
              175.089455,-36.948229,0
              175.089235,-36.948414,0
              175.0888,-36.948433,0
              175.088279,-36.948364,0
              175.087879,-36.948619,0
              175.08698,-36.948623,0
              175.086661,-36.948725,0
              175.086384,-36.948917,0
              175.085399,-36.949804,0
              175.084995,-36.95042,0
              175.084559,-36.950925,0
              175.084063,-36.951283,0
              175.082537,-36.951435,0
              175.082049,-36.951546,0
              175.081454,-36.951872,0
              175.081085,-36.952217,0
              175.081063,-36.952443,0
              175.08115,-36.95251,0
              175.081814,-36.952204,0
              175.082178,-36.952129,0
              175.082236,-36.952173,0
              175.082205,-36.952569,0
              175.082036,-36.953034,0
              175.081578,-36.953742,0
              175.081445,-36.954015,0
              175.081451,-36.954217,0
              175.081685,-36.95454,0
              175.082317,-36.955035,0
              175.082472,-36.955552,0
              175.082733,-36.955829,0
              175.082837,-36.956052,0
              175.08281,-36.95656,0
              175.082943,-36.956771,0
              175.083099,-36.956848,0
              175.083488,-36.95666,0
              175.084288,-36.956581,0
              175.084443,-36.957172,0
              175.084482,-36.958017,0
              175.084573,-36.958241,0
              175.084803,-36.958418,0
              175.085492,-36.958484,0
              175.085679,-36.958604,0
              175.085795,-36.958805,0
              175.085841,-36.95939,0
              175.086074,-36.959679,0
              175.086099,-36.96005,0
              175.085955,-36.960403,0
              175.08596,-36.960583,0
              175.086247,-36.960803,0
              175.086404,-36.960857,0
              175.087405,-36.961029,0
              175.08762,-36.96115,0
              175.087817,-36.961374,0
              175.08776,-36.961609,0
              175.087636,-36.961724,0
              175.087332,-36.961876,0
              175.087237,-36.962003,0
              175.087273,-36.962295,0
              175.087651,-36.962645,0
              175.087199,-36.962612,0
              175.086681,-36.962689,0
              175.086551,-36.962602,0
              175.086709,-36.962193,0
              175.086704,-36.962035,0
              175.086548,-36.961959,0
              175.085465,-36.961945,0
              175.084923,-36.961662,0
              175.084615,-36.96169,0
              175.084476,-36.961761,0
              175.084341,-36.961921,0
              175.084445,-36.963356,0
              175.083398,-36.962356,0
              175.083404,-36.962062,0
              175.083546,-36.961642,0
              175.083499,-36.961011,0
              175.083815,-36.960735,0
              175.084106,-36.960594,0
              175.084351,-36.960342,0
              175.084357,-36.96006,0
              175.084136,-36.959207,0
              175.083924,-36.95867,0
              175.083733,-36.95838,0
              175.083303,-36.958061,0
              175.083007,-36.958022,0
              175.082658,-36.958096,0
              175.082303,-36.958486,0
              175.082192,-36.958532,0
              175.082007,-36.958897,0
              175.081759,-36.959105,0
              175.080855,-36.959414,0
              175.080412,-36.959681,0
              175.079655,-36.959719,0
              175.079378,-36.959825,0
              175.079116,-36.960022,0
              175.078982,-36.960215,0
              175.078849,-36.960533,0
              175.078777,-36.960918,0
              175.078497,-36.960946,0
              175.077895,-36.960551,0
              175.077639,-36.960511,0
              175.07727,-36.960292,0
              175.077039,-36.96007,0
              175.076992,-36.959925,0
              175.076998,-36.959643,0
              175.077188,-36.959414,0
              175.077409,-36.959275,0
              175.077702,-36.959213,0
              175.078656,-36.959162,0
              175.079557,-36.959258,0
              175.079879,-36.959207,0
              175.080044,-36.959068,0
              175.079972,-36.958506,0
              175.079651,-36.958095,0
              175.079148,-36.957687,0
              175.078548,-36.957337,0
              175.077354,-36.95684,0
              175.077024,-36.956621,0
              175.076405,-36.95608,0
              175.075689,-36.95562,0
              175.074166,-36.954456,0
              175.074369,-36.954167,0
              175.07444,-36.953692,0
              175.074362,-36.953434,0
              175.074078,-36.952842,0
              175.073233,-36.951753,0
              175.073228,-36.951594,0
              175.073309,-36.95148,0
              175.073421,-36.951479,0
              175.074047,-36.951737,0
              175.074258,-36.951756,0
              175.074636,-36.951682,0
              175.074898,-36.951508,0
              175.075238,-36.95113,0
              175.075436,-36.950663,0
              175.075468,-36.950313,0
              175.076209,-36.949206,0
              175.076511,-36.948986,0
              175.077053,-36.948724,0
              175.078196,-36.948437,0
              175.078305,-36.948344,0
              175.078246,-36.948233,0
              175.077759,-36.947927,0
              175.077087,-36.947775,0
              175.077648,-36.947477,0
              175.077881,-36.94727,0
              175.078192,-36.94634,0
              175.07838,-36.946032,0
              175.07868,-36.945722,0
              175.078794,-36.945765,0
              175.07897,-36.946032,0
              175.07937,-36.946061,0
              175.079577,-36.946607,0
              175.07936,-36.946927,0
              175.079337,-36.947097,0
              175.079401,-36.947355,0
              175.079517,-36.947488,0
              175.079686,-36.947485,0
              175.079905,-36.947301,0
              175.08037,-36.946494,0
              175.080689,-36.946047,0
              175.080853,-36.946124,0
              175.080818,-36.946302,0
              175.08065,-36.946836,0
              175.080325,-36.94727,0
              175.080455,-36.947369,0
              175.080694,-36.947354,0
              175.080941,-36.947157,0
              175.081485,-36.946538,0
              175.082052,-36.945751,0
              175.082436,-36.94492,0
              175.082493,-36.944434,0
              175.082424,-36.944007,0
              175.082047,-36.943608,0
              175.081952,-36.942764,0
              175.081799,-36.942294,0
              175.081528,-36.940675,0
              175.081392,-36.94035,0
              175.080576,-36.939283,0
              175.080439,-36.938958,0
              175.080415,-36.938609,0
              175.080484,-36.937559,0
              175.08055,-36.93739,0
              175.080845,-36.937417,0
              175.081214,-36.937546,0
              175.08293,-36.937627,0
              175.084113,-36.937741,0
              175.084586,-36.937597,0
              175.08523,-36.937495,0
              175.086024,-36.937266,0
              175.086384,-36.937101,0
              175.086547,-36.936964,0
              175.08657,-36.936795,0
              175.086457,-36.936209,0
              175.086287,-36.935728,0
              175.085917,-36.935532,0
              175.085379,-36.935383,0
              175.085061,-36.935062,0
              175.084592,-36.934349,0
              175.084128,-36.93379,0
              175.083437,-36.933277,0
              175.083349,-36.933143,0
              175.0834,-36.93294,0
              175.083835,-36.932458,0
              175.084118,-36.932475,0
              175.082898,-36.931912,0
              175.080978,-36.929202,0
              175.081653,-36.928906,0
              175.082322,-36.928709,0
              175.083346,-36.928668,0
              175.083075,-36.928505,0
              175.083073,-36.928437,0
              175.083682,-36.92811,0
              175.083873,-36.927926,0
              175.083737,-36.927579,0
              175.083648,-36.926916,0
              175.083386,-36.926628,0
              175.083325,-36.926448,0
              175.082654,-36.925535,0
              175.082354,-36.924887,0
              175.08177,-36.924064,0
              175.081576,-36.923673,0
              175.081377,-36.923079,0
              175.081414,-36.922909,0
              175.081721,-36.922373,0
              175.081688,-36.92217,0
              175.081356,-36.92193,0
              175.081059,-36.921822,0
              175.080498,-36.921878,0
              175.079862,-36.922206,0
              175.07947,-36.922257,0
              175.078752,-36.922236,0
              175.078327,-36.922396,0
              175.077903,-36.92242,0
              175.078029,-36.921901,0
              175.077696,-36.92158,0
              175.077195,-36.921228,0
              175.076614,-36.920585,0
              175.076191,-36.920222,0
              175.076435,-36.92017,0
              175.077266,-36.920295,0
              175.077187,-36.919999,0
              175.076925,-36.919644,0
              175.076698,-36.919117,0
              175.076632,-36.918758,0
              175.076776,-36.916985,0
              175.077184,-36.914509,0
              175.077192,-36.913764,0
              175.077284,-36.913479,0
              175.077434,-36.913319,0
              175.077668,-36.913202,0
              175.078895,-36.912886,0
              175.079283,-36.912676,0
              175.079498,-36.912426,0
              175.079553,-36.91134,0
              175.079826,-36.911042,0
              175.080184,-36.91081,0
              175.08038,-36.910784,0
              175.080972,-36.910863,0
              175.08149,-36.910786,0
              175.081813,-36.910825,0
              175.082203,-36.910728,0
              175.08251,-36.910573,0
              175.083079,-36.910408,0
              175.084619,-36.910313,0
              175.085477,-36.91005,0
              175.086535,-36.909612,0
              175.086894,-36.909369,0
              175.087071,-36.909175,0
              175.087427,-36.90839,0
              175.087669,-36.907495,0
              175.087751,-36.907425,0
              175.087949,-36.907467,0
              175.088138,-36.907215,0
              175.088469,-36.906984,0
              175.088664,-36.906957,0
              175.088882,-36.906728,0
              175.089064,-36.906183,0
              175.089307,-36.905875,0
              175.089637,-36.905631,0
              175.090631,-36.905534,0
              175.091171,-36.905287,0
              175.091691,-36.905278,0
              175.092389,-36.905164,0
              175.092876,-36.905008,0
              175.093264,-36.904821,0
              175.093473,-36.904794,0
              175.093798,-36.904833,0
              175.094061,-36.904693,0
              175.094403,-36.904405,0
              175.09519,-36.903454,0
              175.095311,-36.902753,0
              175.095687,-36.902148,0
              175.095958,-36.901839,0
              175.096194,-36.901756,0
              175.097158,-36.901592,0
              175.098266,-36.901097,0
              175.099121,-36.901047,0
              175.09933,-36.900965,0
              175.099037,-36.900553,0
              175.098663,-36.900256,0
              175.098228,-36.900275,0
              175.09759,-36.900513,0
              175.097031,-36.900613,0
              175.096337,-36.900851,0
              175.095673,-36.900911,0
              175.09398,-36.90094,0
              175.093343,-36.9012,0
              175.092452,-36.901464,0
              175.090366,-36.901672,0
              175.089115,-36.901617,0
              175.088016,-36.901502,0
              175.087676,-36.901395,0
              175.086719,-36.9013,0
              175.086012,-36.90111,0
              175.085491,-36.901064,0
              175.08488,-36.900838,0
              175.084458,-36.90079,0
              175.08401,-36.900832,0
              175.083829,-36.900891,0
              175.083638,-36.901052,0
              175.083381,-36.901407,0
              175.082524,-36.901673,0
              175.081889,-36.902742,0
              175.081601,-36.903007,0
              175.081201,-36.903217,0
              175.080376,-36.903367,0
              175.079478,-36.90335,0
              175.077904,-36.90381,0
              175.077009,-36.904388,0
              175.075794,-36.904624,0
              175.075491,-36.90481,0
              175.075037,-36.905334,0
              175.074485,-36.905494,0
              175.073729,-36.905541,0
              175.073222,-36.905517,0
              175.072545,-36.905417,0
              175.071399,-36.905111,0
              175.07071,-36.90482,0
              175.070749,-36.904755,0
              175.070064,-36.904486,0
              175.068454,-36.903688,0
              175.067168,-36.902911,0
              175.065879,-36.90201,0
              175.064864,-36.901409,0
              175.064082,-36.900532,0
              175.063871,-36.900017,0
              175.063521,-36.899573,0
              175.063489,-36.899404,0
              175.063586,-36.898907,0
              175.063539,-36.898705,0
              175.063231,-36.898226,0
              175.063232,-36.897786,0
              175.062993,-36.897271,0
              175.063058,-36.89709,0
              175.063522,-36.896642,0
              175.063608,-36.8962,0
              175.063531,-36.895965,0
              175.062398,-36.894804,0
              175.06203,-36.895033,0
              175.04871,-36.899337,0
              175.042251,-36.893687,0
              175.042797,-36.892605,0
              175.034402,-36.890981,0
              175.03347,-36.893731,0
              175.032011,-36.898732,0
              175.021447,-36.896708,0
              175.019642,-36.90268,0
              175.020703,-36.902778,0
              175.020898,-36.902881,0
              175.021006,-36.903019,0
              175.021293,-36.90323,0
              175.021677,-36.903456,0
              175.022108,-36.903623,0
              175.022582,-36.90372,0
              175.022857,-36.903829,0
              175.02372,-36.904468,0
              175.024304,-36.905094,0
              175.024884,-36.90549,0
              175.025264,-36.905656,0
              175.025476,-36.905819,0
              175.025828,-36.905848,0
              175.02599,-36.90594,0
              175.026267,-36.90594,0
              175.026501,-36.905823,0
              175.026644,-36.905804,0
              175.026834,-36.905461,0
              175.027215,-36.905439,0
              175.02769,-36.905508,0
              175.028278,-36.905865,0
              175.028449,-36.906444,0
              175.028677,-36.90683,0
              175.028906,-36.906967,0
              175.029409,-36.907041,0
              175.029653,-36.90716,0
              175.029954,-36.907423,0
              175.030074,-36.90763,0
              175.031751,-36.906411,0
              175.035227,-36.908333,0
              175.035427,-36.908091,0
              175.03581,-36.908009,0
              175.046998,-36.907729,0
              175.051503,-36.919538,0
              175.053126,-36.920051,0
              175.051955,-36.923413,0
              175.049719,-36.930193,0
              175.05134,-36.93049,0
              175.035124,-36.940573,0
              175.035996,-36.941603,0
              175.035731,-36.941869,0
              175.036197,-36.942037,0
              175.036252,-36.942912,0
              175.0361,-36.943212,0
              175.036913,-36.943682,0
              175.037207,-36.943554,0
              175.037028,-36.943169,0
              175.037281,-36.94311,0
              175.039394,-36.945656,0
              175.038615,-36.94716,0
              175.026578,-36.944479,0
              175.023902,-36.953056,0
              175.021722,-36.95982,0
              175.017149,-36.960391,0
              175.0168,-36.960834,0
              175.0141,-36.963056,0
              175.015554,-36.963944,0
              175.0161,-36.964813,0
              175.016595,-36.964976,0
              175.01712,-36.965332,0
              175.015305,-36.967163,0
              175.01508,-36.967776,0
              175.014964,-36.967926,0
              175.014027,-36.968506,0
              175.012904,-36.969439,0
              175.012253,-36.969816,0
              175.010174,-36.967556,0
              175.009992,-36.967664,0
              175.00812,-36.965628,0
              175.00274,-36.968823,0
              175.000952,-36.966831,0
              174.999801,-36.967696,0
              174.999211,-36.967787,0
              174.997443,-36.968507,0
              174.996509,-36.969882,0
              174.998152,-36.970639,0
              174.999013,-36.970667,0
              175.00061,-36.97151,0
              175.001877,-36.972043,0
              174.999171,-36.972939,0
              174.998412,-36.973554,0
              174.997267,-36.974818,0
              174.997145,-36.976466,0
              174.996953,-36.977236,0
              174.995805,-36.977187,0
              174.994803,-36.976803,0
              174.994439,-36.976524,0
              174.994251,-36.976632,0
              174.993819,-36.976299,0
              174.992537,-36.974189,0
              174.989349,-36.973621,0
              174.987143,-36.973096,0
              174.986652,-36.972529,0
              174.986583,-36.972809,0
              174.986283,-36.973026,0
              174.985846,-36.973154,0
              174.985262,-36.972737,0
              174.977711,-36.977466,0
              174.966981,-36.983797,0
              174.96468,-36.983441,0
              174.963782,-36.985541,0
              174.952049,-36.985616,0
              174.951279,-36.987626,0
              174.950104,-36.990446,0
              174.952617,-36.991224,0
              174.953468,-36.999857,0
              174.953829,-37.000158,0
              174.95954,-37.001868,0
              174.959581,-37.002046,0
              174.957727,-37.002701,0
              174.957096,-37.003161,0
              174.954361,-37.006542,0
              174.95694,-37.011765,0
              174.960414,-37.019076,0
              174.960543,-37.019037,0
              174.959545,-37.016943,0
              174.961901,-37.016221,0
              174.962613,-37.018402,0
              174.966226,-37.016572,0
              174.968721,-37.019748,0
              174.961792,-37.021909,0
              174.962725,-37.023835,0
              174.949246,-37.027916,0
              174.95021,-37.030155,0
              174.948825,-37.030536,0
              174.949713,-37.032986,0
              174.947992,-37.033522,0
              174.948033,-37.033704,0
              174.948444,-37.033576,0
              174.948625,-37.033951,0
              174.94816,-37.034102,0
              174.948419,-37.034614,0
              174.950564,-37.033947,0
              174.951771,-37.036399,0
              174.94965,-37.037057,0
              174.95132,-37.040375,0
              174.951738,-37.04053,0
              174.951613,-37.040756,0
              174.951635,-37.041,0
              174.952862,-37.043435,0
              174.959484,-37.041803,0
              174.961107,-37.045099,0
              174.963184,-37.044595,0
              174.963231,-37.044695,0
              174.967509,-37.043317,0
              174.969151,-37.046473,0
              174.973389,-37.045137,0
              174.974178,-37.046742,0
              174.975042,-37.046469,0
              174.974944,-37.046269,0
              174.975232,-37.045526,0
              174.975577,-37.045306,0
              174.976025,-37.045467,0
              174.97629,-37.045365,0
              174.976424,-37.045534,0
              174.976662,-37.045516,0
              174.977202,-37.044833,0
              174.97783,-37.043792,0
              174.979276,-37.045323,0
              174.98269,-37.044248,0
              174.982559,-37.049414,0
              174.985806,-37.0505,0
              174.991463,-37.048476,0
              174.996713,-37.046858,0
              174.999205,-37.051842,0
              175.000161,-37.051584,0
              175.00239,-37.050877,0
              175.004496,-37.055333,0
              174.99856,-37.057274,0
              175.001495,-37.060911,0
              175.004689,-37.065145,0
              175.005435,-37.066258,0
              175.006733,-37.067934,0
              175.007291,-37.067388,0
              175.008295,-37.066933,0
              175.009123,-37.06642,0
              175.010282,-37.065802,0
              175.011003,-37.064978,0
              175.011712,-37.064575,0
              175.011755,-37.064452,0
              175.012371,-37.065012,0
              175.012342,-37.065699,0
              175.012635,-37.066744,0
              175.011404,-37.0702,0
              175.011543,-37.070758,0
              175.017255,-37.070442,0
              175.017917,-37.070059,0
              175.018239,-37.070355,0
              175.018425,-37.070297,0
              175.018655,-37.07036,0
              175.01887,-37.070358,0
              175.018918,-37.070745,0
              175.019011,-37.070873,0
              175.01926,-37.071019,0
              175.019951,-37.071093,0
              175.0203,-37.071279,0
              175.020428,-37.0713,0
              175.020506,-37.071246,0
              175.020535,-37.071105,0
              175.020397,-37.070641,0
              175.020491,-37.069739,0
              175.020287,-37.06927,0
              175.020403,-37.068449,0
              175.020527,-37.068134,0
              175.020509,-37.067903,0
              175.02066,-37.067487,0
              175.020659,-37.067061,0
              175.02107,-37.066194,0
              175.020988,-37.06604,0
              175.020831,-37.065994,0
              175.020656,-37.066086,0
              175.020509,-37.066313,0
              175.020392,-37.066401,0
              175.020187,-37.066417,0
              175.020112,-37.066286,0
              175.020276,-37.06591,0
              175.020737,-37.065509,0
              175.020749,-37.065228,0
            </coordinates>
          </LinearRing>
        </outerBoundaryIs>
      </Polygon>
    </Placemark>
  </Document>
</kml>
