<?xml version="1.0" encoding="UTF-8"?>
<kml xmlns="http://www.opengis.net/kml/2.2">
  <Document>
    <name>Cockle_Bay_Shelly_Park.final</name>
    <Style id="poly-FF0000-1000-0-nodesc-normal">
      <LineStyle>
        <color>ff0000ff</color>
        <width>1</width>
      </LineStyle>
      <PolyStyle>
        <color>000000ff</color>
        <fill>1</fill>
        <outline>1</outline>
      </PolyStyle>
      <BalloonStyle>
        <text><![CDATA[<h3>$[name]</h3>]]></text>
      </BalloonStyle>
    </Style>
    <Style id="poly-FF0000-1000-0-nodesc-highlight">
      <LineStyle>
        <color>ff0000ff</color>
        <width>1.5</width>
      </LineStyle>
      <PolyStyle>
        <color>000000ff</color>
        <fill>1</fill>
        <outline>1</outline>
      </PolyStyle>
      <BalloonStyle>
        <text><![CDATA[<h3>$[name]</h3>]]></text>
      </BalloonStyle>
    </Style>
    <StyleMap id="poly-FF0000-1000-0-nodesc">
      <Pair>
        <key>normal</key>
        <styleUrl>#poly-FF0000-1000-0-nodesc-normal</styleUrl>
      </Pair>
      <Pair>
        <key>highlight</key>
        <styleUrl>#poly-FF0000-1000-0-nodesc-highlight</styleUrl>
      </Pair>
    </StyleMap>
    <Placemark>
      <name>Joined Boundary</name>
      <styleUrl>#poly-FF0000-1000-0-nodesc</styleUrl>
      <Polygon>
        <outerBoundaryIs>
          <LinearRing>
            <tessellate>1</tessellate>
            <coordinates>
              174.95453,-36.905949,0
              174.954577,-36.90566,0
              174.954333,-36.905132,0
              174.954365,-36.904604,0
              174.954272,-36.904286,0
              174.954449,-36.903993,0
              174.954474,-36.903713,0
              174.954338,-36.903497,0
              174.954195,-36.903388,0
              174.953945,-36.90283,0
              174.95408,-36.902483,0
              174.954379,-36.901957,0
              174.95437,-36.901722,0
              174.954235,-36.901629,0
              174.953745,-36.901495,0
              174.952082,-36.900831,0
              174.950888,-36.900269,0
              174.950663,-36.90012,0
              174.95061,-36.899911,0
              174.950607,-36.899373,0
              174.950654,-36.89923,0
              174.950611,-36.899017,0
              174.950818,-36.898711,0
              174.951241,-36.898526,0
              174.951336,-36.898364,0
              174.95129,-36.898157,0
              174.951053,-36.897911,0
              174.950991,-36.897602,0
              174.950798,-36.89743,0
              174.950726,-36.897111,0
              174.950866,-36.896854,0
              174.950828,-36.896602,0
              174.950936,-36.896472,0
              174.951095,-36.896035,0
              174.951322,-36.895782,0
              174.951342,-36.895396,0
              174.950905,-36.894893,0
              174.950754,-36.894865,0
              174.950574,-36.894899,0
              174.950406,-36.894648,0
              174.950168,-36.894419,0
              174.949894,-36.894265,0
              174.949055,-36.894041,0
              174.948737,-36.894096,0
              174.948507,-36.894244,0
              174.948213,-36.89433,0
              174.947595,-36.894172,0
              174.946633,-36.894077,0
              174.946449,-36.894005,0
              174.946442,-36.893919,0
              174.946317,-36.893804,0
              174.946332,-36.893696,0
              174.9462,-36.893645,0
              174.945981,-36.893697,0
              174.945866,-36.89353,0
              174.945724,-36.893455,0
              174.945422,-36.893405,0
              174.945048,-36.893263,0
              174.944911,-36.893304,0
              174.944893,-36.893473,0
              174.944807,-36.893539,0
              174.944553,-36.893483,0
              174.944186,-36.893477,0
              174.94387,-36.893345,0
              174.943655,-36.893324,0
              174.942103,-36.892844,0
              174.94164,-36.892668,0
              174.941129,-36.892397,0
              174.940908,-36.892419,0
              174.940774,-36.89218,0
              174.940618,-36.892235,0
              174.940054,-36.892239,0
              174.939954,-36.89237,0
              174.939749,-36.892467,0
              174.939634,-36.892762,0
              174.939339,-36.892532,0
              174.939131,-36.89257,0
              174.939005,-36.892533,0
              174.938892,-36.892574,0
              174.938566,-36.892429,0
              174.938252,-36.89217,0
              174.937715,-36.892045,0
              174.937472,-36.891933,0
              174.937194,-36.891923,0
              174.936928,-36.892877,0
              174.936808,-36.893032,0
              174.936861,-36.893727,0
              174.936591,-36.893719,0
              174.935017,-36.894303,0
              174.934984,-36.894207,0
              174.934773,-36.89429,0
              174.93484,-36.894364,0
              174.934413,-36.894515,0
              174.934087,-36.894546,0
              174.93408,-36.894655,0
              174.933755,-36.894686,0
              174.933743,-36.894636,0
              174.933553,-36.894644,0
              174.933566,-36.895408,0
              174.934095,-36.895384,0
              174.934168,-36.896008,0
              174.934275,-36.89614,0
              174.934491,-36.897068,0
              174.934592,-36.897053,0
              174.93464,-36.897258,0
              174.934768,-36.897362,0
              174.934778,-36.897403,0
              174.934576,-36.897433,0
              174.934618,-36.897611,0
              174.935323,-36.897504,0
              174.934801,-36.898399,0
              174.934781,-36.898775,0
              174.934274,-36.898851,0
              174.934413,-36.899234,0
              174.934569,-36.899213,0
              174.934684,-36.899704,0
              174.935091,-36.899642,0
              174.935204,-36.900128,0
              174.934594,-36.90022,0
              174.934632,-36.900351,0
              174.934417,-36.900446,0
              174.93372,-36.90055,0
              174.934032,-36.901215,0
              174.934279,-36.90117,0
              174.933962,-36.901664,0
              174.93405,-36.901936,0
              174.933844,-36.902189,0
              174.934309,-36.902381,0
              174.933831,-36.903,0
              174.933578,-36.903475,0
              174.933226,-36.904448,0
              174.933393,-36.904577,0
              174.933258,-36.904701,0
              174.934046,-36.905249,0
              174.934274,-36.905354,0
              174.934623,-36.904963,0
              174.934799,-36.905086,0
              174.934638,-36.905659,0
              174.936875,-36.907242,0
              174.936622,-36.907382,0
              174.938883,-36.909661,0
              174.940827,-36.90842,0
              174.941644,-36.909273,0
              174.942639,-36.911642,0
              174.942467,-36.911743,0
              174.941399,-36.912073,0
              174.940041,-36.912801,0
              174.938648,-36.911125,0
              174.937283,-36.911856,0
              174.936546,-36.912515,0
              174.93874,-36.914092,0
              174.93909,-36.913977,0
              174.94074,-36.915209,0
              174.940664,-36.915025,0
              174.940787,-36.915005,0
              174.940955,-36.915129,0
              174.940952,-36.915014,0
              174.941035,-36.914949,0
              174.942141,-36.91486,0
              174.942799,-36.914926,0
              174.943028,-36.914984,0
              174.943375,-36.915162,0
              174.943562,-36.915143,0
              174.944406,-36.914954,0
              174.945233,-36.914701,0
              174.945544,-36.914661,0
              174.945941,-36.914441,0
              174.946603,-36.914253,0
              174.947077,-36.913993,0
              174.947809,-36.913845,0
              174.948114,-36.913545,0
              174.948317,-36.913441,0
              174.948413,-36.91331,0
              174.948413,-36.913099,0
              174.948277,-36.912782,0
              174.948151,-36.912666,0
              174.948103,-36.912406,0
              174.948669,-36.912295,0
              174.948842,-36.912142,0
              174.949033,-36.912192,0
              174.949131,-36.912174,0
              174.94942,-36.911772,0
              174.949478,-36.911817,0
              174.949693,-36.911579,0
              174.949967,-36.911405,0
              174.950284,-36.911039,0
              174.950492,-36.910934,0
              174.951388,-36.91083,0
              174.951692,-36.910889,0
              174.951675,-36.910652,0
              174.951903,-36.910318,0
              174.953645,-36.909235,0
              174.953982,-36.909093,0
              174.954253,-36.909171,0
              174.954417,-36.909378,0
              174.954423,-36.909461,0
              174.95436,-36.909449,0
              174.954389,-36.909558,0
              174.954342,-36.909554,0
              174.954361,-36.910054,0
              174.954443,-36.910291,0
              174.954541,-36.91036,0
              174.954505,-36.910166,0
              174.954621,-36.909396,0
              174.954481,-36.908786,0
              174.954547,-36.908615,0
              174.954858,-36.90832,0
              174.954987,-36.908026,0
              174.955111,-36.907381,0
              174.954883,-36.906915,0
              174.9549,-36.906653,0
              174.954572,-36.906335,0
              174.95453,-36.905949,0
            </coordinates>
          </LinearRing>
        </outerBoundaryIs>
      </Polygon>
    </Placemark>
  </Document>
</kml>
