<?xml version="1.0" encoding="UTF-8"?>
<kml xmlns="http://www.opengis.net/kml/2.2">
  <Document>
    <name>Dannemora_Shamrock_Park.final</name>
    <Style id="poly-FF0000-1000-0-nodesc-normal">
      <LineStyle>
        <color>ff0000ff</color>
        <width>1</width>
      </LineStyle>
      <PolyStyle>
        <color>000000ff</color>
        <fill>1</fill>
        <outline>1</outline>
      </PolyStyle>
      <BalloonStyle>
        <text><![CDATA[<h3>$[name]</h3>]]></text>
      </BalloonStyle>
    </Style>
    <Style id="poly-FF0000-1000-0-nodesc-highlight">
      <LineStyle>
        <color>ff0000ff</color>
        <width>1.5</width>
      </LineStyle>
      <PolyStyle>
        <color>000000ff</color>
        <fill>1</fill>
        <outline>1</outline>
      </PolyStyle>
      <BalloonStyle>
        <text><![CDATA[<h3>$[name]</h3>]]></text>
      </BalloonStyle>
    </Style>
    <StyleMap id="poly-FF0000-1000-0-nodesc">
      <Pair>
        <key>normal</key>
        <styleUrl>#poly-FF0000-1000-0-nodesc-normal</styleUrl>
      </Pair>
      <Pair>
        <key>highlight</key>
        <styleUrl>#poly-FF0000-1000-0-nodesc-highlight</styleUrl>
      </Pair>
    </StyleMap>
    <Placemark>
      <name>Joined Boundary</name>
      <styleUrl>#poly-FF0000-1000-0-nodesc</styleUrl>
      <Polygon>
        <outerBoundaryIs>
          <LinearRing>
            <tessellate>1</tessellate>
            <coordinates>
              174.915354,-36.931395,0
              174.915147,-36.933021,0
              174.916727,-36.933301,0
              174.918295,-36.934243,0
              174.918701,-36.934699,0
              174.91935,-36.934814,0
              174.919574,-36.934916,0
              174.920274,-36.934971,0
              174.920964,-36.935117,0
              174.921292,-36.935106,0
              174.921493,-36.935033,0
              174.921657,-36.935104,0
              174.921868,-36.935022,0
              174.921917,-36.934854,0
              174.922045,-36.934806,0
              174.922412,-36.934876,0
              174.922437,-36.934789,0
              174.923189,-36.934924,0
              174.923745,-36.934959,0
              174.924133,-36.935093,0
              174.928219,-36.935815,0
              174.929017,-36.934831,0
              174.929362,-36.93483,0
              174.930928,-36.934495,0
              174.930978,-36.934354,0
              174.930537,-36.934096,0
              174.930346,-36.932992,0
              174.931723,-36.932511,0
              174.931793,-36.930655,0
              174.931945,-36.929607,0
              174.930975,-36.929517,0
              174.931093,-36.928698,0
              174.931605,-36.927925,0
              174.932287,-36.928091,0
              174.932488,-36.927388,0
              174.933862,-36.927401,0
              174.933935,-36.927167,0
              174.934116,-36.926876,0
              174.934133,-36.92673,0
              174.934049,-36.926494,0
              174.934108,-36.926185,0
              174.934268,-36.925828,0
              174.934513,-36.925615,0
              174.934714,-36.92528,0
              174.935095,-36.924891,0
              174.935365,-36.924412,0
              174.935401,-36.924306,0
              174.935299,-36.924305,0
              174.935272,-36.92424,0
              174.935304,-36.923895,0
              174.935478,-36.923469,0
              174.935655,-36.923272,0
              174.935848,-36.922736,0
              174.93587,-36.922501,0
              174.93596,-36.922357,0
              174.932778,-36.921349,0
              174.932765,-36.921385,0
              174.932589,-36.921249,0
              174.932724,-36.921082,0
              174.931413,-36.920292,0
              174.931726,-36.919794,0
              174.931379,-36.919473,0
              174.930963,-36.920002,0
              174.929193,-36.919031,0
              174.929217,-36.919002,0
              174.929035,-36.918776,0
              174.928983,-36.918778,0
              174.929065,-36.91888,0
              174.928794,-36.919111,0
              174.928364,-36.918577,0
              174.928422,-36.918752,0
              174.927983,-36.918743,0
              174.927825,-36.918959,0
              174.927563,-36.918768,0
              174.927323,-36.919071,0
              174.927218,-36.918995,0
              174.927076,-36.919142,0
              174.926527,-36.919495,0
              174.926869,-36.919648,0
              174.926171,-36.920097,0
              174.926014,-36.919912,0
              174.925285,-36.919707,0
              174.925184,-36.919937,0
              174.925306,-36.92005,0
              174.925097,-36.920173,0
              174.925251,-36.920297,0
              174.925172,-36.920348,0
              174.925292,-36.920467,0
              174.924072,-36.921264,0
              174.923959,-36.921152,0
              174.923752,-36.921286,0
              174.923875,-36.921386,0
              174.923634,-36.921526,0
              174.923533,-36.921426,0
              174.923504,-36.921445,0
              174.923352,-36.92163,0
              174.923587,-36.921761,0
              174.923297,-36.921948,0
              174.922189,-36.923138,0
              174.921982,-36.923014,0
              174.921352,-36.923675,0
              174.921245,-36.923611,0
              174.921089,-36.923837,0
              174.919862,-36.925136,0
              174.919808,-36.925254,0
              174.920078,-36.925414,0
              174.919777,-36.925739,0
              174.919606,-36.925637,0
              174.919466,-36.925784,0
              174.919325,-36.925705,0
              174.919321,-36.925882,0
              174.919005,-36.925856,0
              174.918976,-36.925994,0
              174.918673,-36.926407,0
              174.918983,-36.926593,0
              174.917785,-36.927882,0
              174.917386,-36.92822,0
              174.915949,-36.929213,0
              174.915758,-36.929268,0
              174.915489,-36.92965,0
              174.915547,-36.929794,0
              174.915354,-36.931395,0
            </coordinates>
          </LinearRing>
        </outerBoundaryIs>
      </Polygon>
    </Placemark>
  </Document>
</kml>
