<?xml version="1.0" encoding="UTF-8"?>
<kml xmlns="http://www.opengis.net/kml/2.2">
  <Document>
    <name>Drury.final</name>
    <Style id="poly-FF0000-1000-0-nodesc-normal">
      <LineStyle>
        <color>ff0000ff</color>
        <width>1</width>
      </LineStyle>
      <PolyStyle>
        <color>000000ff</color>
        <fill>1</fill>
        <outline>1</outline>
      </PolyStyle>
      <BalloonStyle>
        <text><![CDATA[<h3>$[name]</h3>]]></text>
      </BalloonStyle>
    </Style>
    <Style id="poly-FF0000-1000-0-nodesc-highlight">
      <LineStyle>
        <color>ff0000ff</color>
        <width>1.5</width>
      </LineStyle>
      <PolyStyle>
        <color>000000ff</color>
        <fill>1</fill>
        <outline>1</outline>
      </PolyStyle>
      <BalloonStyle>
        <text><![CDATA[<h3>$[name]</h3>]]></text>
      </BalloonStyle>
    </Style>
    <StyleMap id="poly-FF0000-1000-0-nodesc">
      <Pair>
        <key>normal</key>
        <styleUrl>#poly-FF0000-1000-0-nodesc-normal</styleUrl>
      </Pair>
      <Pair>
        <key>highlight</key>
        <styleUrl>#poly-FF0000-1000-0-nodesc-highlight</styleUrl>
      </Pair>
    </StyleMap>
    <Placemark>
      <name>Joined Boundary</name>
      <styleUrl>#poly-FF0000-1000-0-nodesc</styleUrl>
      <Polygon>
        <outerBoundaryIs>
          <LinearRing>
            <tessellate>1</tessellate>
            <coordinates>
              174.995304,-37.11344,0
              174.996251,-37.110268,0
              174.993391,-37.110398,0
              174.993694,-37.109797,0
              174.990162,-37.105936,0
              174.996795,-37.104235,0
              175.001586,-37.104992,0
              175.005507,-37.103619,0
              175.005374,-37.103785,0
              175.004888,-37.104051,0
              175.004817,-37.104733,0
              175.005049,-37.104857,0
              175.005427,-37.104816,0
              175.006068,-37.105199,0
              175.006439,-37.105275,0
              175.006404,-37.105081,0
              175.006527,-37.105022,0
              175.00631,-37.104949,0
              175.00609,-37.10459,0
              175.006323,-37.1041,0
              175.005781,-37.102912,0
              175.005326,-37.102585,0
              175.005315,-37.102226,0
              175.005106,-37.102061,0
              175.009172,-37.100677,0
              175.005341,-37.094502,0
              175.004936,-37.094464,0
              175.004637,-37.094159,0
              175.00464,-37.093917,0
              175.00498,-37.093434,0
              175.005434,-37.093199,0
              175.005454,-37.093078,0
              175.005134,-37.092968,0
              175.004801,-37.092943,0
              175.004633,-37.093029,0
              175.004586,-37.09329,0
              175.004484,-37.093441,0
              175.004319,-37.093442,0
              175.004016,-37.093361,0
              175.003875,-37.093259,0
              175.00384,-37.093159,0
              175.003897,-37.092928,0
              175.003877,-37.092601,0
              175.003612,-37.092351,0
              175.00297,-37.091983,0
              175.002822,-37.092009,0
              175.002595,-37.092266,0
              175.002435,-37.092267,0
              175.002242,-37.092001,0
              175.001985,-37.091967,0
              175.001685,-37.091655,0
              175.001352,-37.091589,0
              175.00121,-37.091415,0
              175.001121,-37.09097,0
              175.000999,-37.090854,0
              175.000587,-37.090633,0
              175.00058,-37.090383,0
              175.000417,-37.090058,0
              175.00026,-37.089931,0
              174.999793,-37.089813,0
              174.999662,-37.089717,0
              174.999745,-37.089312,0
              174.99958,-37.089129,0
              174.999454,-37.088795,0
              174.999061,-37.088377,0
              174.998645,-37.088202,0
              174.997722,-37.087481,0
              174.998941,-37.086,0
              175.000557,-37.083743,0
              175.000427,-37.083766,0
              174.999649,-37.083297,0
              174.998402,-37.083454,0
              174.997987,-37.083361,0
              174.996793,-37.083702,0
              174.994206,-37.083691,0
              174.992371,-37.082749,0
              174.992113,-37.08224,0
              174.990972,-37.081669,0
              174.9903,-37.081639,0
              174.990115,-37.082002,0
              174.987967,-37.081423,0
              174.986031,-37.081309,0
              174.985496,-37.081731,0
              174.985225,-37.082232,0
              174.981064,-37.08203,0
              174.970837,-37.083558,0
              174.970505,-37.08081,0
              174.970259,-37.080848,0
              174.970114,-37.078376,0
              174.969253,-37.078284,0
              174.96904,-37.078182,0
              174.968851,-37.077992,0
              174.968682,-37.077931,0
              174.968518,-37.077964,0
              174.968202,-37.078147,0
              174.967885,-37.078119,0
              174.967672,-37.077883,0
              174.967411,-37.077748,0
              174.966561,-37.077131,0
              174.96627,-37.077027,0
              174.966021,-37.077149,0
              174.965378,-37.077329,0
              174.964845,-37.077586,0
              174.964142,-37.077665,0
              174.963282,-37.077877,0
              174.962198,-37.078014,0
              174.962132,-37.078,0
              174.962126,-37.077949,0
              174.961968,-37.07795,0
              174.961457,-37.07809,0
              174.96072,-37.078187,0
              174.95925,-37.078166,0
              174.959063,-37.07822,0
              174.958769,-37.078441,0
              174.957612,-37.078445,0
              174.957256,-37.077286,0
              174.956968,-37.076564,0
              174.956977,-37.076384,0
              174.956501,-37.075549,0
              174.955917,-37.074749,0
              174.955263,-37.074034,0
              174.954395,-37.073277,0
              174.952558,-37.072041,0
              174.951655,-37.071344,0
              174.951362,-37.071622,0
              174.951182,-37.071704,0
              174.951607,-37.072082,0
              174.95144,-37.072217,0
              174.951294,-37.072101,0
              174.951111,-37.07225,0
              174.950829,-37.072227,0
              174.950447,-37.072537,0
              174.951002,-37.073315,0
              174.94916,-37.07331,0
              174.949064,-37.073175,0
              174.948351,-37.073501,0
              174.94822,-37.073302,0
              174.947813,-37.073488,0
              174.947727,-37.073336,0
              174.947542,-37.07345,0
              174.947331,-37.073076,0
              174.946713,-37.072643,0
              174.946655,-37.072969,0
              174.946426,-37.072995,0
              174.946383,-37.072751,0
              174.945244,-37.07251,0
              174.945365,-37.072383,0
              174.945072,-37.072202,0
              174.944839,-37.072444,0
              174.94467,-37.07243,0
              174.944728,-37.072074,0
              174.944779,-37.072021,0
              174.943774,-37.071401,0
              174.943739,-37.071333,0
              174.94398,-37.071024,0
              174.944075,-37.071014,0
              174.94361,-37.070727,0
              174.943067,-37.070476,0
              174.942528,-37.070647,0
              174.942392,-37.071277,0
              174.942507,-37.071481,0
              174.942452,-37.072038,0
              174.942666,-37.072457,0
              174.94201,-37.072672,0
              174.942011,-37.073288,0
              174.94267,-37.073287,0
              174.942618,-37.07365,0
              174.942011,-37.073651,0
              174.942012,-37.074195,0
              174.942577,-37.074194,0
              174.942537,-37.074738,0
              174.94199,-37.074739,0
              174.941928,-37.075804,0
              174.942392,-37.075798,0
              174.942385,-37.076135,0
              174.94191,-37.076117,0
              174.941876,-37.076721,0
              174.941748,-37.076716,0
              174.941757,-37.077104,0
              174.941605,-37.077118,0
              174.941647,-37.077395,0
              174.941557,-37.077404,0
              174.941535,-37.077653,0
              174.94175,-37.07763,0
              174.941783,-37.077824,0
              174.941577,-37.077846,0
              174.941564,-37.078591,0
              174.942149,-37.078617,0
              174.942195,-37.078947,0
              174.941541,-37.078918,0
              174.941498,-37.079543,0
              174.940984,-37.07966,0
              174.941096,-37.079975,0
              174.941697,-37.079841,0
              174.941678,-37.080111,0
              174.942112,-37.08013,0
              174.942103,-37.080266,0
              174.942043,-37.080309,0
              174.942076,-37.08065,0
              174.941681,-37.080632,0
              174.941663,-37.080887,0
              174.939463,-37.081436,0
              174.940017,-37.082859,0
              174.940331,-37.083065,0
              174.941603,-37.082748,0
              174.94193,-37.082743,0
              174.941915,-37.08296,0
              174.941846,-37.083031,0
              174.941863,-37.083217,0
              174.941924,-37.083255,0
              174.941913,-37.08341,0
              174.941554,-37.0835,0
              174.941649,-37.083745,0
              174.941519,-37.083777,0
              174.941493,-37.084161,0
              174.941895,-37.084061,0
              174.94208,-37.085649,0
              174.941465,-37.085803,0
              174.941532,-37.085976,0
              174.941696,-37.085935,0
              174.941747,-37.086299,0
              174.942157,-37.086197,0
              174.942185,-37.086393,0
              174.942481,-37.086442,0
              174.942536,-37.086407,0
              174.942701,-37.086457,0
              174.942715,-37.086753,0
              174.942887,-37.0868,0
              174.942806,-37.086974,0
              174.943229,-37.087102,0
              174.943381,-37.087387,0
              174.943631,-37.087356,0
              174.943806,-37.087799,0
              174.944135,-37.087899,0
              174.9439,-37.088396,0
              174.944792,-37.088498,0
              174.944853,-37.08837,0
              174.94684,-37.088977,0
              174.946428,-37.089378,0
              174.946201,-37.089488,0
              174.946409,-37.09042,0
              174.946809,-37.090315,0
              174.946897,-37.090468,0
              174.947795,-37.090138,0
              174.948457,-37.091641,0
              174.950026,-37.091204,0
              174.950068,-37.091212,0
              174.950104,-37.091591,0
              174.95024,-37.091794,0
              174.950154,-37.092023,0
              174.949474,-37.092416,0
              174.949324,-37.092565,0
              174.949112,-37.09291,0
              174.948855,-37.093587,0
              174.948891,-37.093963,0
              174.949043,-37.094029,0
              174.949211,-37.093964,0
              174.94941,-37.093973,0
              174.949639,-37.094093,0
              174.949789,-37.094243,0
              174.949904,-37.094573,0
              174.949842,-37.094764,0
              174.949732,-37.094894,0
              174.949212,-37.095052,0
              174.948654,-37.095139,0
              174.948171,-37.09511,0
              174.947927,-37.095152,0
              174.947493,-37.09511,0
              174.947258,-37.095062,0
              174.947071,-37.094901,0
              174.94691,-37.09491,0
              174.94645,-37.094726,0
              174.946129,-37.094422,0
              174.945961,-37.094376,0
              174.94581,-37.0942,0
              174.945106,-37.094477,0
              174.944264,-37.094713,0
              174.943867,-37.094923,0
              174.943415,-37.09524,0
              174.943825,-37.095692,0
              174.943812,-37.095793,0
              174.943904,-37.095957,0
              174.944121,-37.096082,0
              174.944341,-37.096955,0
              174.944229,-37.097062,0
              174.944157,-37.097229,0
              174.943857,-37.097353,0
              174.943725,-37.097483,0
              174.943509,-37.097924,0
              174.943156,-37.098207,0
              174.943091,-37.098351,0
              174.943398,-37.098786,0
              174.943851,-37.099181,0
              174.943929,-37.099398,0
              174.943868,-37.099755,0
              174.944163,-37.10014,0
              174.944253,-37.100405,0
              174.944422,-37.10047,0
              174.94423,-37.100578,0
              174.944279,-37.100668,0
              174.944247,-37.100853,0
              174.944318,-37.101004,0
              174.944098,-37.101499,0
              174.944118,-37.101708,0
              174.943815,-37.101835,0
              174.943745,-37.10207,0
              174.943815,-37.102191,0
              174.943524,-37.102358,0
              174.943604,-37.102627,0
              174.943725,-37.102748,0
              174.943586,-37.102921,0
              174.943658,-37.103128,0
              174.943583,-37.103378,0
              174.943855,-37.103574,0
              174.943933,-37.103686,0
              174.9438,-37.103682,0
              174.943923,-37.103911,0
              174.943835,-37.104553,0
              174.94351,-37.104977,0
              174.943095,-37.105288,0
              174.94285,-37.105585,0
              174.942826,-37.10571,0
              174.942919,-37.106069,0
              174.942676,-37.106445,0
              174.942825,-37.106736,0
              174.942799,-37.106837,0
              174.942552,-37.107079,0
              174.942333,-37.107815,0
              174.942325,-37.108052,0
              174.942472,-37.108263,0
              174.943019,-37.108761,0
              174.943011,-37.108953,0
              174.942787,-37.10953,0
              174.942191,-37.109903,0
              174.941869,-37.110164,0
              174.94188,-37.110235,0
              174.941789,-37.110353,0
              174.941473,-37.110569,0
              174.941646,-37.11077,0
              174.942035,-37.110851,0
              174.942322,-37.110833,0
              174.942121,-37.112885,0
              174.942681,-37.112537,0
              174.943488,-37.113005,0
              174.943812,-37.112913,0
              174.944056,-37.113026,0
              174.94416,-37.112864,0
              174.944559,-37.11297,0
              174.94538,-37.111718,0
              174.945576,-37.111799,0
              174.946129,-37.110855,0
              174.946722,-37.110763,0
              174.947339,-37.112695,0
              174.947355,-37.1123,0
              174.947887,-37.114089,0
              174.94815,-37.114455,0
              174.948395,-37.114976,0
              174.948445,-37.114953,0
              174.948554,-37.115158,0
              174.948513,-37.115176,0
              174.948528,-37.115258,0
              174.949638,-37.116559,0
              174.95034,-37.118197,0
              174.951459,-37.118045,0
              174.953685,-37.119148,0
              174.954991,-37.119926,0
              174.95546,-37.1204,0
              174.955615,-37.120446,0
              174.955621,-37.120565,0
              174.956518,-37.121645,0
              174.958068,-37.124598,0
              174.958843,-37.12594,0
              174.95903,-37.126508,0
              174.959271,-37.126878,0
              174.959404,-37.126951,0
              174.959401,-37.127085,0
              174.959772,-37.127664,0
              174.960176,-37.12816,0
              174.962109,-37.131521,0
              174.962412,-37.13232,0
              174.96278,-37.132715,0
              174.963202,-37.133578,0
              174.963579,-37.133436,0
              174.963706,-37.133657,0
              174.968209,-37.131963,0
              174.967942,-37.132242,0
              174.96787,-37.132409,0
              174.967925,-37.132603,0
              174.9681,-37.132668,0
              174.966367,-37.133438,0
              174.96663,-37.134,0
              174.969226,-37.133739,0
              174.970503,-37.133676,0
              174.970428,-37.133507,0
              174.970346,-37.132985,0
              174.972226,-37.132781,0
              174.972627,-37.135263,0
              174.976458,-37.134918,0
              174.976417,-37.134693,0
              174.977759,-37.134575,0
              174.977526,-37.132984,0
              174.981689,-37.132581,0
              174.9819,-37.134173,0
              174.984714,-37.133919,0
              174.984476,-37.132376,0
              174.990129,-37.131904,0
              174.989904,-37.130664,0
              174.993057,-37.130415,0
              174.99295,-37.129434,0
              174.993064,-37.128036,0
              174.992589,-37.123478,0
              174.992309,-37.123487,0
              174.994639,-37.115862,0
              174.995304,-37.11344,0
            </coordinates>
          </LinearRing>
        </outerBoundaryIs>
      </Polygon>
    </Placemark>
  </Document>
</kml>
