<?xml version="1.0" encoding="UTF-8"?>
<kml xmlns="http://www.opengis.net/kml/2.2">
  <Document>
    <name>East_Tamaki_Heights.final</name>
    <Style id="poly-FF0000-1000-0-nodesc-normal">
      <LineStyle>
        <color>ff0000ff</color>
        <width>1</width>
      </LineStyle>
      <PolyStyle>
        <color>000000ff</color>
        <fill>1</fill>
        <outline>1</outline>
      </PolyStyle>
      <BalloonStyle>
        <text><![CDATA[<h3>$[name]</h3>]]></text>
      </BalloonStyle>
    </Style>
    <Style id="poly-FF0000-1000-0-nodesc-highlight">
      <LineStyle>
        <color>ff0000ff</color>
        <width>1.5</width>
      </LineStyle>
      <PolyStyle>
        <color>000000ff</color>
        <fill>1</fill>
        <outline>1</outline>
      </PolyStyle>
      <BalloonStyle>
        <text><![CDATA[<h3>$[name]</h3>]]></text>
      </BalloonStyle>
    </Style>
    <StyleMap id="poly-FF0000-1000-0-nodesc">
      <Pair>
        <key>normal</key>
        <styleUrl>#poly-FF0000-1000-0-nodesc-normal</styleUrl>
      </Pair>
      <Pair>
        <key>highlight</key>
        <styleUrl>#poly-FF0000-1000-0-nodesc-highlight</styleUrl>
      </Pair>
    </StyleMap>
    <Placemark>
      <name>East Tāmaki Heights (polygon: official_shp)</name>
      <styleUrl>#poly-FF0000-1000-0-nodesc</styleUrl>
      <Polygon>
        <outerBoundaryIs>
          <LinearRing>
            <tessellate>1</tessellate>
            <coordinates>
              174.933862,-36.927401,0
              174.932488,-36.927388,0
              174.932287,-36.928091,0
              174.931605,-36.927925,0
              174.931093,-36.928698,0
              174.930975,-36.929517,0
              174.931945,-36.929607,0
              174.931793,-36.930655,0
              174.931723,-36.932511,0
              174.930346,-36.932992,0
              174.930537,-36.934096,0
              174.930978,-36.934354,0
              174.930928,-36.934495,0
              174.929362,-36.93483,0
              174.929017,-36.934831,0
              174.928219,-36.935815,0
              174.924133,-36.935093,0
              174.923745,-36.934959,0
              174.923189,-36.934924,0
              174.922437,-36.934789,0
              174.922412,-36.934876,0
              174.922045,-36.934806,0
              174.921917,-36.934854,0
              174.921868,-36.935022,0
              174.921657,-36.935104,0
              174.921493,-36.935033,0
              174.921292,-36.935106,0
              174.920964,-36.935117,0
              174.920274,-36.934971,0
              174.919574,-36.934916,0
              174.91935,-36.934814,0
              174.918701,-36.934699,0
              174.918295,-36.934243,0
              174.916727,-36.933301,0
              174.915439,-36.933075,0
              174.915388,-36.933513,0
              174.914725,-36.935855,0
              174.915067,-36.935917,0
              174.914894,-36.936445,0
              174.914968,-36.936469,0
              174.914911,-36.936675,0
              174.914626,-36.936589,0
              174.914509,-36.936928,0
              174.914831,-36.936946,0
              174.914729,-36.937309,0
              174.914544,-36.937298,0
              174.914488,-36.937475,0
              174.914616,-36.937498,0
              174.914407,-36.938061,0
              174.914117,-36.938008,0
              174.914104,-36.938052,0
              174.914526,-36.938129,0
              174.914204,-36.93928,0
              174.913892,-36.939224,0
              174.913872,-36.939294,0
              174.914058,-36.939328,0
              174.914007,-36.939513,0
              174.914133,-36.939535,0
              174.913912,-36.940281,0
              174.913709,-36.940244,0
              174.913658,-36.94043,0
              174.913801,-36.940455,0
              174.913237,-36.94256,0
              174.9129,-36.942514,0
              174.912713,-36.943121,0
              174.912812,-36.943092,0
              174.913847,-36.943154,0
              174.913915,-36.943208,0
              174.913916,-36.943785,0
              174.913568,-36.943785,0
              174.91291,-36.943967,0
              174.912484,-36.944651,0
              174.912315,-36.945256,0
              174.912274,-36.945487,0
              174.912335,-36.945497,0
              174.912122,-36.94629,0
              174.912181,-36.9463,0
              174.912118,-36.946532,0
              174.911747,-36.946467,0
              174.911572,-36.947116,0
              174.911944,-36.947181,0
              174.911879,-36.947419,0
              174.911799,-36.947488,0
              174.911444,-36.948809,0
              174.913311,-36.949126,0
              174.913244,-36.949372,0
              174.915657,-36.949788,0
              174.916206,-36.947718,0
              174.92167,-36.94866,0
              174.921863,-36.948552,0
              174.922267,-36.948492,0
              174.923589,-36.948732,0
              174.924631,-36.948718,0
              174.923679,-36.952089,0
              174.936069,-36.954577,0
              174.936963,-36.951671,0
              174.937156,-36.95086,0
              174.937447,-36.95015,0
              174.934376,-36.949098,0
              174.934501,-36.948836,0
              174.934781,-36.948629,0
              174.934719,-36.948302,0
              174.934778,-36.948138,0
              174.935072,-36.947907,0
              174.935471,-36.947165,0
              174.935559,-36.945999,0
              174.935426,-36.945672,0
              174.935633,-36.945392,0
              174.935572,-36.945153,0
              174.935619,-36.945099,0
              174.935562,-36.945059,0
              174.935587,-36.944943,0
              174.935467,-36.944685,0
              174.935537,-36.944457,0
              174.935717,-36.944189,0
              174.935698,-36.944112,0
              174.935792,-36.943842,0
              174.935794,-36.943395,0
              174.935721,-36.943128,0
              174.935841,-36.94293,0
              174.935919,-36.942895,0
              174.935828,-36.942823,0
              174.935842,-36.942451,0
              174.936174,-36.942005,0
              174.93609,-36.941667,0
              174.936103,-36.941317,0
              174.936204,-36.941234,0
              174.936237,-36.941019,0
              174.937054,-36.94057,0
              174.937726,-36.939957,0
              174.936689,-36.939649,0
              174.936841,-36.937977,0
              174.93654,-36.93718,0
              174.936322,-36.937015,0
              174.936272,-36.936918,0
              174.936206,-36.936548,0
              174.936261,-36.936466,0
              174.936168,-36.936163,0
              174.93587,-36.935806,0
              174.935565,-36.935758,0
              174.935008,-36.935565,0
              174.934612,-36.935271,0
              174.934333,-36.934811,0
              174.934123,-36.934577,0
              174.93402,-36.934531,0
              174.933725,-36.934125,0
              174.933409,-36.933502,0
              174.933299,-36.933012,0
              174.933343,-36.931894,0
              174.933241,-36.931703,0
              174.932892,-36.931399,0
              174.932865,-36.931173,0
              174.932994,-36.930263,0
              174.93349,-36.929145,0
              174.93357,-36.928705,0
              174.933641,-36.928616,0
              174.933801,-36.928101,0
              174.933773,-36.927859,0
              174.933862,-36.927401,0
            </coordinates>
          </LinearRing>
        </outerBoundaryIs>
      </Polygon>
    </Placemark>
  </Document>
</kml>
