<?xml version="1.0" encoding="UTF-8"?>
<kml xmlns="http://www.opengis.net/kml/2.2">
  <Document>
    <name>Ellerslie (Polygon: Official_Shp) Section 1</name>
    <Style id="poly-0000FF-2000-102-nodesc-normal">
      <LineStyle>
        <color>ffff0000</color>
        <width>2</width>
      </LineStyle>
      <PolyStyle>
        <color>66ff0000</color>
        <fill>1</fill>
        <outline>1</outline>
      </PolyStyle>
      <BalloonStyle>
        <text><![CDATA[<h3>$[name]</h3>]]></text>
      </BalloonStyle>
    </Style>
    <Style id="poly-0000FF-2000-102-nodesc-highlight">
      <LineStyle>
        <color>ffff0000</color>
        <width>3</width>
      </LineStyle>
      <PolyStyle>
        <color>66ff0000</color>
        <fill>1</fill>
        <outline>1</outline>
      </PolyStyle>
      <BalloonStyle>
        <text><![CDATA[<h3>$[name]</h3>]]></text>
      </BalloonStyle>
    </Style>
    <StyleMap id="poly-0000FF-2000-102-nodesc">
      <Pair>
        <key>normal</key>
        <styleUrl>#poly-0000FF-2000-102-nodesc-normal</styleUrl>
      </Pair>
      <Pair>
        <key>highlight</key>
        <styleUrl>#poly-0000FF-2000-102-nodesc-highlight</styleUrl>
      </Pair>
    </StyleMap>
    <Placemark>
      <name>Ellerslie (Polygon: Official_Shp) Section 1</name>
      <styleUrl>#poly-0000FF-2000-102-nodesc</styleUrl>
      <Polygon>
        <outerBoundaryIs>
          <LinearRing>
            <tessellate>1</tessellate>
            <coordinates>
              174.801626,-36.891753,0
              174.801429,-36.891957,0
              174.802234,-36.892452,0
              174.802316,-36.892791,0
              174.802267,-36.892841,0
              174.804066,-36.894043,0
              174.80664,-36.896034,0
              174.808743,-36.899775,0
              174.810374,-36.902932,0
              174.811332,-36.903964,0
              174.812373,-36.904424,0
              174.814131,-36.905044,0
              174.8145,-36.905226,0
              174.816362,-36.905927,0
              174.817194,-36.9062,0
              174.817271,-36.906143,0
              174.818562,-36.906127,0
              174.81869,-36.906103,0
              174.818523,-36.905836,0
              174.818397,-36.90549,0
              174.818577,-36.905204,0
              174.818757,-36.905212,0
              174.818777,-36.904831,0
              174.819584,-36.904653,0
              174.819971,-36.902027,0
              174.819516,-36.901775,0
              174.822319,-36.898496,0
              174.822184,-36.898328,0
              174.822606,-36.898228,0
              174.822576,-36.898194,0
              174.822918,-36.897801,0
              174.823007,-36.897889,0
              174.823249,-36.89785,0
              174.823206,-36.897731,0
              174.82518,-36.89669,0
              174.824749,-36.896401,0
              174.824918,-36.896238,0
              174.825145,-36.896441,0
              174.82536,-36.895987,0
              174.825686,-36.896083,0
              174.825803,-36.895827,0
              174.826096,-36.895523,0
              174.825993,-36.895429,0
              174.825746,-36.895428,0
              174.825387,-36.895216,0
              174.825331,-36.895127,0
              174.825381,-36.895022,0
              174.825282,-36.894932,0
              174.825577,-36.894103,0
              174.825052,-36.894007,0
              174.825336,-36.893005,0
              174.825446,-36.893025,0
              174.825552,-36.892654,0
              174.825332,-36.892613,0
              174.825462,-36.892157,0
              174.825117,-36.892091,0
              174.8256,-36.891997,0
              174.825612,-36.891874,0
              174.826029,-36.891012,0
              174.827219,-36.890242,0
              174.826655,-36.890374,0
              174.827045,-36.890122,0
              174.824578,-36.887308,0
              174.82009,-36.887848,0
              174.819746,-36.887844,0
              174.819755,-36.888015,0
              174.817557,-36.888399,0
              174.817533,-36.888311,0
              174.816872,-36.888427,0
              174.817147,-36.889552,0
              174.816922,-36.88957,0
              174.816603,-36.888266,0
              174.816162,-36.888343,0
              174.816285,-36.888846,0
              174.81577,-36.888936,0
              174.815706,-36.888677,0
              174.815155,-36.888773,0
              174.815233,-36.889218,0
              174.814789,-36.889149,0
              174.814887,-36.888741,0
              174.81369,-36.888978,0
              174.813678,-36.888945,0
              174.812782,-36.889159,0
              174.813563,-36.889823,0
              174.813122,-36.890157,0
              174.812832,-36.890316,0
              174.812452,-36.889934,0
              174.810938,-36.891066,0
              174.810558,-36.891272,0
              174.809761,-36.891336,0
              174.809469,-36.891235,0
              174.809496,-36.892021,0
              174.808204,-36.892159,0
              174.807836,-36.892842,0
              174.802408,-36.890954,0
              174.801885,-36.891493,0
              174.801547,-36.891416,0
              174.801293,-36.891425,0
              174.801257,-36.891245,0
              174.800697,-36.890939,0
              174.80049,-36.891313,0
              174.800887,-36.891567,0
              174.800888,-36.891621,0
              174.800996,-36.891689,0
              174.801626,-36.891753,0
            </coordinates>
          </LinearRing>
        </outerBoundaryIs>
      </Polygon>
    </Placemark>
  </Document>
</kml>
