<?xml version="1.0" encoding="UTF-8"?>
<kml xmlns="http://www.opengis.net/kml/2.2">
  <Document>
    <name>Farm_Cove_Sunnyhills.final</name>
    <Style id="poly-FF0000-1000-0-nodesc-normal">
      <LineStyle>
        <color>ff0000ff</color>
        <width>1</width>
      </LineStyle>
      <PolyStyle>
        <color>000000ff</color>
        <fill>1</fill>
        <outline>1</outline>
      </PolyStyle>
      <BalloonStyle>
        <text><![CDATA[<h3>$[name]</h3>]]></text>
      </BalloonStyle>
    </Style>
    <Style id="poly-FF0000-1000-0-nodesc-highlight">
      <LineStyle>
        <color>ff0000ff</color>
        <width>1.5</width>
      </LineStyle>
      <PolyStyle>
        <color>000000ff</color>
        <fill>1</fill>
        <outline>1</outline>
      </PolyStyle>
      <BalloonStyle>
        <text><![CDATA[<h3>$[name]</h3>]]></text>
      </BalloonStyle>
    </Style>
    <StyleMap id="poly-FF0000-1000-0-nodesc">
      <Pair>
        <key>normal</key>
        <styleUrl>#poly-FF0000-1000-0-nodesc-normal</styleUrl>
      </Pair>
      <Pair>
        <key>highlight</key>
        <styleUrl>#poly-FF0000-1000-0-nodesc-highlight</styleUrl>
      </Pair>
    </StyleMap>
    <Placemark>
      <name>Joined Boundary</name>
      <styleUrl>#poly-FF0000-1000-0-nodesc</styleUrl>
      <Polygon>
        <outerBoundaryIs>
          <LinearRing>
            <tessellate>1</tessellate>
            <coordinates>
              174.897145,-36.899372,0
              174.89696,-36.899381,0
              174.896949,-36.899217,0
              174.897017,-36.899181,0
              174.896822,-36.898942,0
              174.897235,-36.898725,0
              174.896903,-36.898318,0
              174.897166,-36.89818,0
              174.896964,-36.897931,0
              174.896845,-36.897613,0
              174.897285,-36.897564,0
              174.897242,-36.897552,0
              174.897413,-36.896947,0
              174.897674,-36.89693,0
              174.899345,-36.895633,0
              174.899615,-36.894683,0
              174.899223,-36.894252,0
              174.898217,-36.894098,0
              174.898247,-36.893992,0
              174.897351,-36.893859,0
              174.897334,-36.893737,0
              174.897097,-36.893708,0
              174.897165,-36.893469,0
              174.895573,-36.893202,0
              174.895478,-36.893267,0
              174.89541,-36.893518,0
              174.895161,-36.893697,0
              174.894992,-36.893705,0
              174.89481,-36.893945,0
              174.89462,-36.893934,0
              174.894212,-36.893777,0
              174.894051,-36.893654,0
              174.893834,-36.893349,0
              174.893931,-36.893108,0
              174.893748,-36.89299,0
              174.893349,-36.893061,0
              174.892977,-36.893199,0
              174.892911,-36.89333,0
              174.892955,-36.893824,0
              174.892846,-36.894043,0
              174.892788,-36.89406,0
              174.892672,-36.893765,0
              174.892619,-36.893375,0
              174.89226,-36.893188,0
              174.891468,-36.892948,0
              174.891352,-36.892835,0
              174.89114,-36.892831,0
              174.890634,-36.892665,0
              174.89049,-36.892667,0
              174.890378,-36.892742,0
              174.890264,-36.893141,0
              174.889934,-36.89337,0
              174.889858,-36.893487,0
              174.889858,-36.8934,0
              174.889997,-36.893196,0
              174.890023,-36.892954,0
              174.890199,-36.892694,0
              174.890206,-36.892584,0
              174.89013,-36.892434,0
              174.890158,-36.892365,0
              174.89008,-36.892263,0
              174.889966,-36.89223,0
              174.889402,-36.892296,0
              174.888914,-36.892224,0
              174.888127,-36.891916,0
              174.887678,-36.891677,0
              174.887291,-36.891551,0
              174.886887,-36.891526,0
              174.886519,-36.891573,0
              174.886011,-36.891782,0
              174.885519,-36.891602,0
              174.885069,-36.891528,0
              174.884062,-36.89152,0
              174.882817,-36.891668,0
              174.882189,-36.891532,0
              174.881731,-36.891604,0
              174.881086,-36.891435,0
              174.880285,-36.891074,0
              174.879897,-36.891052,0
              174.879768,-36.891154,0
              174.879648,-36.891385,0
              174.879228,-36.892688,0
              174.879238,-36.892895,0
              174.879369,-36.893281,0
              174.879533,-36.893499,0
              174.879718,-36.89361,0
              174.880006,-36.893692,0
              174.880287,-36.893885,0
              174.880516,-36.894346,0
              174.880524,-36.894744,0
              174.880104,-36.895173,0
              174.879759,-36.895416,0
              174.879617,-36.89584,0
              174.879473,-36.895941,0
              174.879208,-36.896034,0
              174.878755,-36.896088,0
              174.878504,-36.89609,0
              174.878251,-36.895972,0
              174.878081,-36.895969,0
              174.87778,-36.896752,0
              174.877581,-36.897534,0
              174.877243,-36.897803,0
              174.877291,-36.897968,0
              174.877533,-36.898168,0
              174.87773,-36.898272,0
              174.87796,-36.898261,0
              174.878377,-36.898791,0
              174.878325,-36.898889,0
              174.878117,-36.899043,0
              174.878077,-36.899166,0
              174.878231,-36.89933,0
              174.878688,-36.900245,0
              174.87869,-36.900477,0
              174.877834,-36.901401,0
              174.876971,-36.901633,0
              174.876514,-36.902186,0
              174.8764,-36.90243,0
              174.87614,-36.903419,0
              174.876322,-36.903561,0
              174.876145,-36.904162,0
              174.876054,-36.904247,0
              174.875952,-36.904513,0
              174.875926,-36.904701,0
              174.87598,-36.905083,0
              174.880688,-36.906016,0
              174.880548,-36.906495,0
              174.88176,-36.906687,0
              174.881698,-36.907002,0
              174.88208,-36.907059,0
              174.88206,-36.907149,0
              174.882404,-36.907217,0
              174.88251,-36.906805,0
              174.88283,-36.90686,0
              174.882734,-36.907273,0
              174.883535,-36.907433,0
              174.883518,-36.90749,0
              174.883737,-36.907533,0
              174.883711,-36.907608,0
              174.88423,-36.907578,0
              174.884239,-36.907659,0
              174.884428,-36.907577,0
              174.884642,-36.907896,0
              174.884724,-36.907861,0
              174.884869,-36.907657,0
              174.885113,-36.907628,0
              174.885192,-36.907346,0
              174.885334,-36.907372,0
              174.885618,-36.907176,0
              174.886231,-36.906912,0
              174.885974,-36.906526,0
              174.886249,-36.906407,0
              174.886286,-36.906463,0
              174.886657,-36.906333,0
              174.886308,-36.90581,0
              174.886983,-36.90552,0
              174.886737,-36.905303,0
              174.886947,-36.905048,0
              174.887378,-36.905167,0
              174.888296,-36.905153,0
              174.889601,-36.905264,0
              174.890396,-36.90497,0
              174.890749,-36.90366,0
              174.891261,-36.904436,0
              174.89181,-36.904203,0
              174.891964,-36.904437,0
              174.892072,-36.904391,0
              174.892241,-36.904647,0
              174.892365,-36.904594,0
              174.892407,-36.904483,0
              174.892679,-36.904367,0
              174.892614,-36.904271,0
              174.892943,-36.904131,0
              174.892566,-36.903566,0
              174.892946,-36.903641,0
              174.893366,-36.903832,0
              174.894284,-36.90338,0
              174.894018,-36.90284,0
              174.895371,-36.903082,0
              174.895742,-36.902824,0
              174.895192,-36.902724,0
              174.896044,-36.90213,0
              174.896129,-36.901982,0
              174.896618,-36.901671,0
              174.896429,-36.901481,0
              174.896335,-36.901544,0
              174.895199,-36.900793,0
              174.895972,-36.900008,0
              174.896167,-36.899939,0
              174.897105,-36.900569,0
              174.897173,-36.900778,0
              174.897355,-36.901038,0
              174.897873,-36.90134,0
              174.89839,-36.901011,0
              174.898121,-36.900666,0
              174.898495,-36.900473,0
              174.898449,-36.900415,0
              174.898828,-36.900218,0
              174.897839,-36.899005,0
              174.897145,-36.899372,0
            </coordinates>
          </LinearRing>
        </outerBoundaryIs>
      </Polygon>
    </Placemark>
  </Document>
</kml>
