<?xml version="1.0" encoding="UTF-8"?>
<kml xmlns="http://www.opengis.net/kml/2.2">
  <Document>
    <name>Flat_Bush.final</name>
    <Style id="poly-FF0000-1000-0-nodesc-normal">
      <LineStyle>
        <color>ff0000ff</color>
        <width>1</width>
      </LineStyle>
      <PolyStyle>
        <color>000000ff</color>
        <fill>1</fill>
        <outline>1</outline>
      </PolyStyle>
      <BalloonStyle>
        <text><![CDATA[<h3>$[name]</h3>]]></text>
      </BalloonStyle>
    </Style>
    <Style id="poly-FF0000-1000-0-nodesc-highlight">
      <LineStyle>
        <color>ff0000ff</color>
        <width>1.5</width>
      </LineStyle>
      <PolyStyle>
        <color>000000ff</color>
        <fill>1</fill>
        <outline>1</outline>
      </PolyStyle>
      <BalloonStyle>
        <text><![CDATA[<h3>$[name]</h3>]]></text>
      </BalloonStyle>
    </Style>
    <StyleMap id="poly-FF0000-1000-0-nodesc">
      <Pair>
        <key>normal</key>
        <styleUrl>#poly-FF0000-1000-0-nodesc-normal</styleUrl>
      </Pair>
      <Pair>
        <key>highlight</key>
        <styleUrl>#poly-FF0000-1000-0-nodesc-highlight</styleUrl>
      </Pair>
    </StyleMap>
    <Placemark>
      <name>Flat Bush (polygon: official_shp)</name>
      <styleUrl>#poly-FF0000-1000-0-nodesc</styleUrl>
      <Polygon>
        <outerBoundaryIs>
          <LinearRing>
            <tessellate>1</tessellate>
            <coordinates>
              174.968426,-36.982947,0
              174.962655,-36.976556,0
              174.96231,-36.976866,0
              174.961835,-36.977031,0
              174.961224,-36.976824,0
              174.960744,-36.977633,0
              174.960201,-36.978849,0
              174.959715,-36.979013,0
              174.958928,-36.979626,0
              174.958502,-36.979716,0
              174.95776,-36.980283,0
              174.956651,-36.980897,0
              174.956586,-36.981488,0
              174.956399,-36.98147,0
              174.956007,-36.981336,0
              174.955599,-36.981593,0
              174.955447,-36.981609,0
              174.951311,-36.98076,0
              174.951152,-36.980383,0
              174.949866,-36.97912,0
              174.949429,-36.978509,0
              174.949273,-36.978226,0
              174.949141,-36.977476,0
              174.948653,-36.977454,0
              174.948033,-36.977343,0
              174.948342,-36.976271,0
              174.948149,-36.976237,0
              174.948717,-36.975771,0
              174.949062,-36.975273,0
              174.949112,-36.974892,0
              174.949073,-36.974513,0
              174.94896,-36.97423,0
              174.947931,-36.973257,0
              174.947665,-36.972894,0
              174.947592,-36.972557,0
              174.947565,-36.971827,0
              174.947405,-36.971471,0
              174.946961,-36.970972,0
              174.946994,-36.970572,0
              174.951975,-36.971397,0
              174.953436,-36.967437,0
              174.956343,-36.965807,0
              174.949098,-36.95756,0
              174.949045,-36.957626,0
              174.948598,-36.957299,0
              174.949546,-36.956984,0
              174.949844,-36.95675,0
              174.949996,-36.956207,0
              174.946632,-36.955669,0
              174.944441,-36.955202,0
              174.946012,-36.950263,0
              174.94478,-36.949785,0
              174.941914,-36.948929,0
              174.940588,-36.953508,0
              174.939861,-36.953478,0
              174.938759,-36.952768,0
              174.93784,-36.951699,0
              174.938109,-36.951157,0
              174.937774,-36.950477,0
              174.937467,-36.950084,0
              174.937156,-36.95086,0
              174.936963,-36.951671,0
              174.936069,-36.954577,0
              174.923679,-36.952089,0
              174.924631,-36.948718,0
              174.923589,-36.948732,0
              174.922267,-36.948492,0
              174.921863,-36.948552,0
              174.92167,-36.94866,0
              174.916206,-36.947718,0
              174.915657,-36.949788,0
              174.913244,-36.949372,0
              174.913311,-36.949126,0
              174.911163,-36.948785,0
              174.910915,-36.94857,0
              174.909204,-36.948302,0
              174.908938,-36.948382,0
              174.908584,-36.948356,0
              174.907007,-36.948092,0
              174.906454,-36.948341,0
              174.905104,-36.953208,0
              174.904861,-36.953967,0
              174.904635,-36.954358,0
              174.904671,-36.954521,0
              174.904144,-36.956611,0
              174.903611,-36.956517,0
              174.903046,-36.956186,0
              174.90166,-36.955914,0
              174.901726,-36.9557,0
              174.900198,-36.954814,0
              174.899058,-36.955078,0
              174.898889,-36.955684,0
              174.899496,-36.955791,0
              174.899219,-36.956758,0
              174.898938,-36.956792,0
              174.89856,-36.957103,0
              174.899017,-36.957461,0
              174.899313,-36.957382,0
              174.899872,-36.957425,0
              174.900228,-36.957646,0
              174.900392,-36.95808,0
              174.900056,-36.958829,0
              174.900205,-36.959786,0
              174.900328,-36.959904,0
              174.90242,-36.959939,0
              174.902601,-36.960139,0
              174.902863,-36.960238,0
              174.902517,-36.961409,0
              174.901714,-36.961381,0
              174.901041,-36.963422,0
              174.901729,-36.963508,0
              174.901576,-36.96383,0
              174.902338,-36.964018,0
              174.902184,-36.964088,0
              174.901603,-36.965648,0
              174.900084,-36.970936,0
              174.899553,-36.970839,0
              174.89955,-36.970029,0
              174.899623,-36.969426,0
              174.89977,-36.968831,0
              174.899962,-36.968314,0
              174.900263,-36.96772,0
              174.896546,-36.967034,0
              174.894375,-36.97481,0
              174.895159,-36.975317,0
              174.895371,-36.975107,0
              174.895423,-36.975141,0
              174.895212,-36.975351,0
              174.895762,-36.975707,0
              174.896241,-36.975888,0
              174.89642,-36.975648,0
              174.896272,-36.9759,0
              174.896726,-36.976071,0
              174.897954,-36.976799,0
              174.897918,-36.976931,0
              174.897583,-36.976732,0
              174.897526,-36.97675,0
              174.897391,-36.977245,0
              174.897813,-36.977318,0
              174.897684,-36.977783,0
              174.897584,-36.977849,0
              174.898018,-36.977917,0
              174.898034,-36.977855,0
              174.898396,-36.977919,0
              174.898353,-36.978079,0
              174.898664,-36.978201,0
              174.898726,-36.977977,0
              174.899077,-36.978039,0
              174.898953,-36.978514,0
              174.89929,-36.978575,0
              174.899725,-36.978869,0
              174.899806,-36.979021,0
              174.900011,-36.979142,0
              174.899956,-36.979341,0
              174.901993,-36.980548,0
              174.901932,-36.98075,0
              174.901814,-36.98068,0
              174.901597,-36.980918,0
              174.901369,-36.981725,0
              174.901477,-36.981743,0
              174.901409,-36.981995,0
              174.901592,-36.982027,0
              174.901674,-36.981985,0
              174.901563,-36.982376,0
              174.901212,-36.982312,0
              174.901183,-36.982415,0
              174.900699,-36.982303,0
              174.900606,-36.982644,0
              174.901095,-36.98273,0
              174.900965,-36.983189,0
              174.901316,-36.983253,0
              174.901267,-36.983429,0
              174.900916,-36.983365,0
              174.900823,-36.983694,0
              174.900608,-36.984119,0
              174.901282,-36.984333,0
              174.901593,-36.984331,0
              174.901681,-36.984107,0
              174.901914,-36.984148,0
              174.902544,-36.98406,0
              174.903392,-36.983735,0
              174.907192,-36.983896,0
              174.907605,-36.98423,0
              174.907463,-36.98428,0
              174.90743,-36.984334,0
              174.907475,-36.984352,0
              174.906949,-36.985173,0
              174.906337,-36.984936,0
              174.906291,-36.984986,0
              174.906131,-36.984861,0
              174.905149,-36.985798,0
              174.904837,-36.985697,0
              174.904699,-36.985856,0
              174.90455,-36.985811,0
              174.904302,-36.986601,0
              174.903891,-36.988828,0
              174.903332,-36.988934,0
              174.903511,-36.989263,0
              174.903398,-36.990474,0
              174.904628,-36.990386,0
              174.904615,-36.98946,0
              174.904503,-36.98908,0
              174.906073,-36.988748,0
              174.906506,-36.988753,0
              174.907979,-36.99146,0
              174.908747,-36.990546,0
              174.909806,-36.99056,0
              174.909813,-36.990247,0
              174.910378,-36.990254,0
              174.910408,-36.988804,0
              174.912289,-36.988829,0
              174.913856,-36.989307,0
              174.913783,-36.989461,0
              174.913975,-36.989519,0
              174.914048,-36.989365,0
              174.915537,-36.989477,0
              174.915505,-36.989447,0
              174.915784,-36.988968,0
              174.918421,-36.989259,0
              174.918557,-36.989183,0
              174.919415,-36.986079,0
              174.9196,-36.986246,0
              174.928689,-36.987887,0
              174.929692,-36.984116,0
              174.929998,-36.98381,0
              174.930127,-36.983995,0
              174.930162,-36.984146,0
              174.930285,-36.984221,0
              174.930373,-36.984231,0
              174.930456,-36.984094,0
              174.930606,-36.98402,0
              174.931039,-36.98423,0
              174.931202,-36.984464,0
              174.931164,-36.984541,0
              174.930999,-36.984643,0
              174.931056,-36.984742,0
              174.93121,-36.984734,0
              174.931441,-36.984595,0
              174.931596,-36.984625,0
              174.931656,-36.984939,0
              174.931772,-36.985078,0
              174.931851,-36.985099,0
              174.93211,-36.984981,0
              174.932202,-36.984995,0
              174.93249,-36.985253,0
              174.932571,-36.985256,0
              174.932812,-36.985174,0
              174.933266,-36.9852,0
              174.933518,-36.985101,0
              174.933886,-36.985037,0
              174.934135,-36.985063,0
              174.934388,-36.985178,0
              174.934898,-36.985535,0
              174.93477,-36.985935,0
              174.93895,-36.987164,0
              174.937465,-36.991929,0
              174.936393,-36.995161,0
              174.938699,-36.995795,0
              174.938911,-36.995767,0
              174.941854,-36.996535,0
              174.941852,-36.996566,0
              174.953829,-37.000158,0
              174.953468,-36.999857,0
              174.952617,-36.991224,0
              174.950104,-36.990446,0
              174.951279,-36.987626,0
              174.952049,-36.985616,0
              174.963782,-36.985541,0
              174.96468,-36.983441,0
              174.966981,-36.983797,0
              174.968426,-36.982947,0
            </coordinates>
          </LinearRing>
        </outerBoundaryIs>
      </Polygon>
    </Placemark>
  </Document>
</kml>
