<?xml version="1.0" encoding="UTF-8"?>
<kml xmlns="http://www.opengis.net/kml/2.2">
  <Document>
    <name>Glendowie.final</name>
    <Style id="poly-FF0000-1000-0-nodesc-normal">
      <LineStyle>
        <color>ff0000ff</color>
        <width>1</width>
      </LineStyle>
      <PolyStyle>
        <color>000000ff</color>
        <fill>1</fill>
        <outline>1</outline>
      </PolyStyle>
      <BalloonStyle>
        <text><![CDATA[<h3>$[name]</h3>]]></text>
      </BalloonStyle>
    </Style>
    <Style id="poly-FF0000-1000-0-nodesc-highlight">
      <LineStyle>
        <color>ff0000ff</color>
        <width>1.5</width>
      </LineStyle>
      <PolyStyle>
        <color>000000ff</color>
        <fill>1</fill>
        <outline>1</outline>
      </PolyStyle>
      <BalloonStyle>
        <text><![CDATA[<h3>$[name]</h3>]]></text>
      </BalloonStyle>
    </Style>
    <StyleMap id="poly-FF0000-1000-0-nodesc">
      <Pair>
        <key>normal</key>
        <styleUrl>#poly-FF0000-1000-0-nodesc-normal</styleUrl>
      </Pair>
      <Pair>
        <key>highlight</key>
        <styleUrl>#poly-FF0000-1000-0-nodesc-highlight</styleUrl>
      </Pair>
    </StyleMap>
    <Placemark>
      <name>Glendowie (polygon: official_shp)</name>
      <styleUrl>#poly-FF0000-1000-0-nodesc</styleUrl>
      <Polygon>
        <outerBoundaryIs>
          <LinearRing>
            <tessellate>1</tessellate>
            <coordinates>
              174.89204,-36.871732,0
              174.89142,-36.871581,0
              174.891062,-36.871545,0
              174.889893,-36.87121,0
              174.889464,-36.871139,0
              174.888739,-36.870922,0
              174.888573,-36.870823,0
              174.888266,-36.870791,0
              174.887929,-36.870687,0
              174.886547,-36.870116,0
              174.885435,-36.869553,0
              174.884612,-36.869086,0
              174.88286,-36.867853,0
              174.88161,-36.866738,0
              174.881512,-36.866575,0
              174.881485,-36.866259,0
              174.8812,-36.866082,0
              174.880489,-36.865219,0
              174.880291,-36.865074,0
              174.879794,-36.86488,0
              174.879829,-36.864784,0
              174.880253,-36.864822,0
              174.880438,-36.864675,0
              174.880392,-36.864447,0
              174.880208,-36.864222,0
              174.880139,-36.863852,0
              174.880162,-36.863618,0
              174.880085,-36.863504,0
              174.88027,-36.863183,0
              174.88028,-36.862748,0
              174.880399,-36.862349,0
              174.880591,-36.862184,0
              174.881262,-36.862074,0
              174.881324,-36.861879,0
              174.881639,-36.86176,0
              174.881847,-36.861506,0
              174.882073,-36.861378,0
              174.882206,-36.861234,0
              174.882445,-36.861117,0
              174.882654,-36.860876,0
              174.883031,-36.860742,0
              174.883302,-36.860208,0
              174.883512,-36.859579,0
              174.883493,-36.85954,0
              174.883133,-36.859431,0
              174.882981,-36.859233,0
              174.882588,-36.858992,0
              174.882544,-36.858738,0
              174.882766,-36.858239,0
              174.882433,-36.858014,0
              174.882419,-36.857956,0
              174.88254,-36.85785,0
              174.882303,-36.857811,0
              174.882216,-36.857568,0
              174.882334,-36.85749,0
              174.882152,-36.857197,0
              174.882331,-36.856951,0
              174.882298,-36.856819,0
              174.882639,-36.856629,0
              174.88267,-36.856549,0
              174.882557,-36.856419,0
              174.882772,-36.856277,0
              174.882716,-36.856145,0
              174.882782,-36.855918,0
              174.882725,-36.855805,0
              174.882491,-36.85568,0
              174.882369,-36.855544,0
              174.882388,-36.855413,0
              174.882628,-36.855371,0
              174.882418,-36.855247,0
              174.882563,-36.855067,0
              174.88231,-36.85486,0
              174.882209,-36.854671,0
              174.882226,-36.854525,0
              174.88175,-36.85436,0
              174.881582,-36.854193,0
              174.881426,-36.853888,0
              174.88144,-36.853824,0
              174.880875,-36.853416,0
              174.880772,-36.853095,0
              174.880884,-36.852909,0
              174.880863,-36.852792,0
              174.880802,-36.852806,0
              174.880866,-36.852758,0
              174.880828,-36.852307,0
              174.880606,-36.852146,0
              174.880357,-36.852054,0
              174.880064,-36.852089,0
              174.879558,-36.851769,0
              174.878289,-36.850607,0
              174.876975,-36.849833,0
              174.876068,-36.848968,0
              174.875653,-36.848448,0
              174.87535,-36.847948,0
              174.875298,-36.847646,0
              174.875408,-36.84737,0
              174.875387,-36.847132,0
              174.875511,-36.846802,0
              174.875407,-36.846499,0
              174.875267,-36.846465,0
              174.8748,-36.846561,0
              174.874608,-36.846536,0
              174.874318,-36.846405,0
              174.874174,-36.846448,0
              174.873784,-36.846453,0
              174.873265,-36.846402,0
              174.872495,-36.846211,0
              174.871188,-36.845719,0
              174.870202,-36.845622,0
              174.869655,-36.845414,0
              174.869538,-36.845677,0
              174.87009,-36.845775,0
              174.87014,-36.846178,0
              174.869845,-36.846059,0
              174.869684,-36.84614,0
              174.869706,-36.84639,0
              174.869361,-36.84647,0
              174.869377,-36.846513,0
              174.869919,-36.846388,0
              174.870466,-36.847919,0
              174.870297,-36.847958,0
              174.870414,-36.848285,0
              174.870093,-36.84835,0
              174.870148,-36.848526,0
              174.870235,-36.848508,0
              174.870576,-36.848864,0
              174.870697,-36.849569,0
              174.870561,-36.849879,0
              174.871136,-36.850064,0
              174.870941,-36.851049,0
              174.87117,-36.851657,0
              174.871032,-36.852087,0
              174.870287,-36.851933,0
              174.870198,-36.852236,0
              174.868756,-36.85194,0
              174.868489,-36.852297,0
              174.868151,-36.852415,0
              174.86785,-36.85275,0
              174.86816,-36.852813,0
              174.862632,-36.858954,0
              174.862692,-36.859168,0
              174.861932,-36.859387,0
              174.861881,-36.859287,0
              174.861134,-36.859556,0
              174.860602,-36.859451,0
              174.860671,-36.859651,0
              174.860593,-36.859907,0
              174.861706,-36.860411,0
              174.861032,-36.862903,0
              174.861089,-36.863145,0
              174.861044,-36.863313,0
              174.861427,-36.86338,0
              174.861386,-36.863529,0
              174.861003,-36.863462,0
              174.860919,-36.863774,0
              174.860718,-36.864062,0
              174.860331,-36.865494,0
              174.86023,-36.865397,0
              174.859626,-36.865748,0
              174.85911,-36.865672,0
              174.858999,-36.865737,0
              174.859272,-36.866039,0
              174.859189,-36.866087,0
              174.859469,-36.866399,0
              174.859172,-36.866572,0
              174.859292,-36.866706,0
              174.859521,-36.866573,0
              174.859661,-36.866728,0
              174.859799,-36.866648,0
              174.86012,-36.867004,0
              174.85992,-36.86712,0
              174.860062,-36.867275,0
              174.859893,-36.867372,0
              174.860002,-36.867493,0
              174.860126,-36.867421,0
              174.860208,-36.867507,0
              174.860389,-36.86742,0
              174.860626,-36.867683,0
              174.860795,-36.868179,0
              174.861128,-36.868187,0
              174.861238,-36.86832,0
              174.860761,-36.868577,0
              174.860611,-36.86875,0
              174.860492,-36.869257,0
              174.860623,-36.869217,0
              174.860806,-36.869312,0
              174.861131,-36.869385,0
              174.861497,-36.869383,0
              174.86148,-36.869486,0
              174.862144,-36.869559,0
              174.862883,-36.869508,0
              174.865081,-36.869536,0
              174.865081,-36.869688,0
              174.865254,-36.869719,0
              174.865313,-36.869838,0
              174.865539,-36.869838,0
              174.865539,-36.869586,0
              174.865778,-36.869586,0
              174.867101,-36.869138,0
              174.868697,-36.868434,0
              174.869033,-36.868342,0
              174.869449,-36.868465,0
              174.869733,-36.868436,0
              174.872138,-36.869047,0
              174.874014,-36.86937,0
              174.875259,-36.86895,0
              174.875448,-36.868418,0
              174.875656,-36.868816,0
              174.875919,-36.868726,0
              174.875942,-36.86866,0
              174.876394,-36.868567,0
              174.876186,-36.868169,0
              174.876337,-36.868118,0
              174.876443,-36.868158,0
              174.876667,-36.868082,0
              174.876733,-36.868209,0
              174.877047,-36.868103,0
              174.877332,-36.867693,0
              174.877255,-36.867369,0
              174.877326,-36.867189,0
              174.877804,-36.867278,0
              174.877914,-36.866977,0
              174.877872,-36.866873,0
              174.878133,-36.866837,0
              174.878492,-36.867033,0
              174.878516,-36.867599,0
              174.878433,-36.867901,0
              174.877989,-36.868084,0
              174.878347,-36.868418,0
              174.877978,-36.868703,0
              174.878133,-36.86883,0
              174.878217,-36.868823,0
              174.878453,-36.869099,0
              174.87881,-36.868822,0
              174.879384,-36.8693,0
              174.880018,-36.869193,0
              174.880906,-36.869257,0
              174.881217,-36.869516,0
              174.881386,-36.870191,0
              174.881725,-36.870555,0
              174.881783,-36.87098,0
              174.881742,-36.871267,0
              174.881997,-36.87148,0
              174.88185,-36.871932,0
              174.882032,-36.872083,0
              174.881746,-36.872927,0
              174.882688,-36.873013,0
              174.883305,-36.873013,0
              174.883649,-36.873134,0
              174.883891,-36.873035,0
              174.884489,-36.8731,0
              174.884699,-36.873067,0
              174.885078,-36.873207,0
              174.885407,-36.873248,0
              174.885936,-36.873218,0
              174.88531,-36.872633,0
              174.885201,-36.872466,0
              174.885039,-36.872369,0
              174.884754,-36.872006,0
              174.884435,-36.871805,0
              174.883984,-36.87134,0
              174.883469,-36.870927,0
              174.883344,-36.870745,0
              174.883093,-36.87058,0
              174.883101,-36.870403,0
              174.883014,-36.870232,0
              174.883007,-36.8698,0
              174.882945,-36.869746,0
              174.882789,-36.869762,0
              174.883275,-36.868253,0
              174.883482,-36.868406,0
              174.88332,-36.868594,0
              174.883453,-36.868912,0
              174.883838,-36.869035,0
              174.884092,-36.86927,0
              174.884804,-36.869553,0
              174.88476,-36.869428,0
              174.884175,-36.869139,0
              174.884056,-36.868973,0
              174.883612,-36.868863,0
              174.883455,-36.868746,0
              174.883418,-36.868684,0
              174.883461,-36.868551,0
              174.883565,-36.868479,0
              174.884164,-36.868863,0
              174.884394,-36.869072,0
              174.885024,-36.869442,0
              174.885307,-36.870134,0
              174.88535,-36.870687,0
              174.885451,-36.870919,0
              174.885594,-36.871004,0
              174.885611,-36.871181,0
              174.885883,-36.87084,0
              174.886038,-36.870761,0
              174.886098,-36.870775,0
              174.886142,-36.870815,0
              174.886153,-36.871073,0
              174.886335,-36.87146,0
              174.886475,-36.871563,0
              174.886649,-36.871563,0
              174.886631,-36.871476,0
              174.886421,-36.87134,0
              174.886325,-36.871103,0
              174.886358,-36.870906,0
              174.885964,-36.870366,0
              174.88595,-36.870211,0
              174.886035,-36.870182,0
              174.886319,-36.870387,0
              174.886387,-36.870507,0
              174.886598,-36.870635,0
              174.88659,-36.870868,0
              174.886747,-36.870988,0
              174.886965,-36.871011,0
              174.887527,-36.87136,0
              174.887908,-36.871533,0
              174.888304,-36.871822,0
              174.888446,-36.872063,0
              174.887913,-36.872273,0
              174.887709,-36.872192,0
              174.887315,-36.871858,0
              174.886923,-36.871811,0
              174.88688,-36.87189,0
              174.886949,-36.871971,0
              174.887378,-36.872216,0
              174.887473,-36.872351,0
              174.887349,-36.872571,0
              174.888054,-36.872276,0
              174.88953,-36.87178,0
              174.88984,-36.871745,0
              174.890474,-36.871852,0
              174.89131,-36.872066,0
              174.89204,-36.871732,0
            </coordinates>
          </LinearRing>
        </outerBoundaryIs>
      </Polygon>
    </Placemark>
  </Document>
</kml>
