<?xml version="1.0" encoding="UTF-8"?>
<kml xmlns="http://www.opengis.net/kml/2.2">
  <Document>
    <name>Glen_Innes_Point_England_Wai.final</name>
    <Style id="poly-FF0000-1000-0-nodesc-normal">
      <LineStyle>
        <color>ff0000ff</color>
        <width>1</width>
      </LineStyle>
      <PolyStyle>
        <color>000000ff</color>
        <fill>1</fill>
        <outline>1</outline>
      </PolyStyle>
      <BalloonStyle>
        <text><![CDATA[<h3>$[name]</h3>]]></text>
      </BalloonStyle>
    </Style>
    <Style id="poly-FF0000-1000-0-nodesc-highlight">
      <LineStyle>
        <color>ff0000ff</color>
        <width>1.5</width>
      </LineStyle>
      <PolyStyle>
        <color>000000ff</color>
        <fill>1</fill>
        <outline>1</outline>
      </PolyStyle>
      <BalloonStyle>
        <text><![CDATA[<h3>$[name]</h3>]]></text>
      </BalloonStyle>
    </Style>
    <StyleMap id="poly-FF0000-1000-0-nodesc">
      <Pair>
        <key>normal</key>
        <styleUrl>#poly-FF0000-1000-0-nodesc-normal</styleUrl>
      </Pair>
      <Pair>
        <key>highlight</key>
        <styleUrl>#poly-FF0000-1000-0-nodesc-highlight</styleUrl>
      </Pair>
    </StyleMap>
    <Placemark>
      <name>Joined Boundary</name>
      <styleUrl>#poly-FF0000-1000-0-nodesc</styleUrl>
      <Polygon>
        <outerBoundaryIs>
          <LinearRing>
            <tessellate>1</tessellate>
            <coordinates>
              174.866915,-36.890683,0
              174.867679,-36.890821,0
              174.867969,-36.890477,0
              174.867866,-36.889422,0
              174.86797,-36.888969,0
              174.867964,-36.888724,0
              174.868066,-36.888539,0
              174.868034,-36.888178,0
              174.868091,-36.887819,0
              174.868235,-36.887605,0
              174.868314,-36.887268,0
              174.868403,-36.887284,0
              174.868513,-36.886968,0
              174.868697,-36.886726,0
              174.869031,-36.885857,0
              174.869912,-36.884797,0
              174.870665,-36.884171,0
              174.870923,-36.884026,0
              174.871646,-36.883762,0
              174.872236,-36.883709,0
              174.872431,-36.883812,0
              174.872485,-36.883727,0
              174.87256,-36.883722,0
              174.872588,-36.883758,0
              174.872741,-36.883748,0
              174.873056,-36.883878,0
              174.873166,-36.88379,0
              174.873254,-36.883958,0
              174.873422,-36.883985,0
              174.873447,-36.883859,0
              174.8732,-36.883542,0
              174.873245,-36.883384,0
              174.873175,-36.883122,0
              174.873286,-36.882357,0
              174.873455,-36.882,0
              174.873823,-36.881678,0
              174.874162,-36.881551,0
              174.874567,-36.881526,0
              174.874841,-36.881757,0
              174.875402,-36.881558,0
              174.875447,-36.881492,0
              174.875231,-36.881232,0
              174.875295,-36.880954,0
              174.875387,-36.880818,0
              174.875521,-36.880742,0
              174.875801,-36.880707,0
              174.875915,-36.880649,0
              174.876141,-36.88022,0
              174.876328,-36.880324,0
              174.876439,-36.880318,0
              174.876584,-36.880115,0
              174.876892,-36.879891,0
              174.876984,-36.879676,0
              174.877346,-36.879597,0
              174.877565,-36.879376,0
              174.877512,-36.879187,0
              174.877672,-36.878542,0
              174.877632,-36.878498,0
              174.877551,-36.878501,0
              174.87752,-36.87834,0
              174.877297,-36.878197,0
              174.877124,-36.877623,0
              174.876827,-36.877201,0
              174.876721,-36.876793,0
              174.876577,-36.876829,0
              174.876525,-36.876888,0
              174.876659,-36.877264,0
              174.876615,-36.877397,0
              174.876009,-36.877705,0
              174.875507,-36.877776,0
              174.875042,-36.878031,0
              174.874041,-36.878279,0
              174.873955,-36.878355,0
              174.873896,-36.878519,0
              174.873736,-36.878344,0
              174.873525,-36.878301,0
              174.873161,-36.87847,0
              174.873074,-36.878592,0
              174.87279,-36.878801,0
              174.87239,-36.87886,0
              174.87219,-36.878821,0
              174.871749,-36.878417,0
              174.872502,-36.878606,0
              174.872706,-36.878514,0
              174.873062,-36.878193,0
              174.874283,-36.877786,0
              174.87537,-36.877574,0
              174.875964,-36.877374,0
              174.876082,-36.877311,0
              174.876163,-36.877081,0
              174.876434,-36.876965,0
              174.876476,-36.876891,0
              174.876398,-36.876793,0
              174.876466,-36.876486,0
              174.876416,-36.876219,0
              174.876285,-36.876068,0
              174.876308,-36.875925,0
              174.876444,-36.87581,0
              174.87686,-36.875645,0
              174.877705,-36.874728,0
              174.878107,-36.874068,0
              174.878275,-36.874065,0
              174.878446,-36.874174,0
              174.87867,-36.87417,0
              174.878976,-36.874052,0
              174.879482,-36.874111,0
              174.879676,-36.874017,0
              174.880524,-36.873258,0
              174.880972,-36.87325,0
              174.882031,-36.872983,0
              174.882294,-36.872984,0
              174.881746,-36.872927,0
              174.882032,-36.872083,0
              174.88185,-36.871932,0
              174.881997,-36.87148,0
              174.881742,-36.871267,0
              174.881783,-36.87098,0
              174.881725,-36.870555,0
              174.881386,-36.870191,0
              174.881217,-36.869516,0
              174.880906,-36.869257,0
              174.880018,-36.869193,0
              174.879384,-36.8693,0
              174.87881,-36.868822,0
              174.878453,-36.869099,0
              174.878217,-36.868823,0
              174.878133,-36.86883,0
              174.877978,-36.868703,0
              174.878347,-36.868418,0
              174.877989,-36.868084,0
              174.878433,-36.867901,0
              174.878516,-36.867599,0
              174.878492,-36.867033,0
              174.878133,-36.866837,0
              174.877872,-36.866873,0
              174.877914,-36.866977,0
              174.877804,-36.867278,0
              174.877326,-36.867189,0
              174.877255,-36.867369,0
              174.877332,-36.867693,0
              174.877047,-36.868103,0
              174.876733,-36.868209,0
              174.876667,-36.868082,0
              174.876443,-36.868158,0
              174.876337,-36.868118,0
              174.876186,-36.868169,0
              174.876394,-36.868567,0
              174.875942,-36.86866,0
              174.875919,-36.868726,0
              174.875656,-36.868816,0
              174.875448,-36.868418,0
              174.875259,-36.86895,0
              174.874014,-36.86937,0
              174.872138,-36.869047,0
              174.869733,-36.868436,0
              174.869449,-36.868465,0
              174.869033,-36.868342,0
              174.868697,-36.868434,0
              174.867101,-36.869138,0
              174.865778,-36.869586,0
              174.865539,-36.869586,0
              174.865539,-36.869838,0
              174.865313,-36.869838,0
              174.865254,-36.869719,0
              174.865081,-36.869688,0
              174.865081,-36.869536,0
              174.862883,-36.869508,0
              174.862144,-36.869559,0
              174.86148,-36.869486,0
              174.861497,-36.869383,0
              174.861131,-36.869385,0
              174.860806,-36.869312,0
              174.860623,-36.869217,0
              174.860375,-36.869293,0
              174.860139,-36.869231,0
              174.860074,-36.869389,0
              174.85984,-36.869323,0
              174.859807,-36.869403,0
              174.859515,-36.869325,0
              174.859434,-36.869391,0
              174.859191,-36.869359,0
              174.85892,-36.86965,0
              174.858872,-36.869931,0
              174.858455,-36.869858,0
              174.858284,-36.87008,0
              174.85763,-36.870073,0
              174.856796,-36.869898,0
              174.856898,-36.869785,0
              174.856756,-36.869602,0
              174.8569,-36.869481,0
              174.856753,-36.869323,0
              174.856859,-36.869267,0
              174.856757,-36.869135,0
              174.856411,-36.86932,0
              174.856151,-36.869011,0
              174.856244,-36.86896,0
              174.856112,-36.868803,0
              174.855831,-36.868955,0
              174.855107,-36.86786,0
              174.854851,-36.867783,0
              174.854923,-36.867628,0
              174.854699,-36.867561,0
              174.85477,-36.867408,0
              174.854547,-36.867339,0
              174.854595,-36.867236,0
              174.854423,-36.867184,0
              174.854302,-36.867441,0
              174.853852,-36.867305,0
              174.853816,-36.867382,0
              174.852927,-36.867113,0
              174.851682,-36.868324,0
              174.85042,-36.867524,0
              174.849388,-36.868203,0
              174.849296,-36.868175,0
              174.848929,-36.868416,0
              174.848705,-36.868268,0
              174.848317,-36.868785,0
              174.847861,-36.868547,0
              174.846301,-36.868717,0
              174.846373,-36.869081,0
              174.845782,-36.869156,0
              174.845985,-36.869827,0
              174.846277,-36.869879,0
              174.846715,-36.870091,0
              174.846874,-36.869893,0
              174.848129,-36.870487,0
              174.847586,-36.871385,0
              174.849111,-36.871736,0
              174.850413,-36.872401,0
              174.851058,-36.872897,0
              174.848903,-36.872525,0
              174.850173,-36.873284,0
              174.850904,-36.873921,0
              174.852122,-36.875331,0
              174.85277,-36.877576,0
              174.852935,-36.878834,0
              174.852893,-36.879959,0
              174.852792,-36.880303,0
              174.852622,-36.880392,0
              174.852236,-36.880411,0
              174.855134,-36.880931,0
              174.855063,-36.881165,0
              174.855446,-36.88238,0
              174.855618,-36.883153,0
              174.855765,-36.88458,0
              174.855676,-36.886034,0
              174.855284,-36.887519,0
              174.856075,-36.887634,0
              174.855916,-36.888694,0
              174.856907,-36.888874,0
              174.856975,-36.888839,0
              174.857241,-36.888879,0
              174.857276,-36.888756,0
              174.858648,-36.88875,0
              174.858834,-36.888396,0
              174.858897,-36.888418,0
              174.858959,-36.888441,0
              174.85877,-36.888802,0
              174.859149,-36.888961,0
              174.860436,-36.889975,0
              174.860838,-36.890194,0
              174.861217,-36.890327,0
              174.861175,-36.890545,0
              174.862099,-36.890696,0
              174.862152,-36.890427,0
              174.863065,-36.890287,0
              174.863706,-36.889945,0
              174.863621,-36.889469,0
              174.864013,-36.889315,0
              174.864012,-36.889913,0
              174.864351,-36.89,0
              174.864411,-36.8898,0
              174.864663,-36.889858,0
              174.864567,-36.890139,0
              174.866111,-36.890433,0
              174.866257,-36.890033,0
              174.866655,-36.890127,0
              174.866712,-36.889969,0
              174.866797,-36.889931,0
              174.866946,-36.890109,0
              174.866748,-36.890652,0
              174.866915,-36.890683,0
            </coordinates>
          </LinearRing>
        </outerBoundaryIs>
      </Polygon>
    </Placemark>
  </Document>
</kml>
