<?xml version="1.0" encoding="UTF-8"?>
<kml xmlns="http://www.opengis.net/kml/2.2">
  <Document>
    <name>Golflands_Huntington_Park.final</name>
    <Style id="poly-FF0000-1000-0-nodesc-normal">
      <LineStyle>
        <color>ff0000ff</color>
        <width>1</width>
      </LineStyle>
      <PolyStyle>
        <color>000000ff</color>
        <fill>1</fill>
        <outline>1</outline>
      </PolyStyle>
      <BalloonStyle>
        <text><![CDATA[<h3>$[name]</h3>]]></text>
      </BalloonStyle>
    </Style>
    <Style id="poly-FF0000-1000-0-nodesc-highlight">
      <LineStyle>
        <color>ff0000ff</color>
        <width>1.5</width>
      </LineStyle>
      <PolyStyle>
        <color>000000ff</color>
        <fill>1</fill>
        <outline>1</outline>
      </PolyStyle>
      <BalloonStyle>
        <text><![CDATA[<h3>$[name]</h3>]]></text>
      </BalloonStyle>
    </Style>
    <StyleMap id="poly-FF0000-1000-0-nodesc">
      <Pair>
        <key>normal</key>
        <styleUrl>#poly-FF0000-1000-0-nodesc-normal</styleUrl>
      </Pair>
      <Pair>
        <key>highlight</key>
        <styleUrl>#poly-FF0000-1000-0-nodesc-highlight</styleUrl>
      </Pair>
    </StyleMap>
    <Placemark>
      <name>Joined Boundary</name>
      <styleUrl>#poly-FF0000-1000-0-nodesc</styleUrl>
      <Polygon>
        <outerBoundaryIs>
          <LinearRing>
            <tessellate>1</tessellate>
            <coordinates>
              174.903132,-36.931896,0
              174.903059,-36.931972,0
              174.903489,-36.93264,0
              174.903301,-36.933191,0
              174.903271,-36.933654,0
              174.903568,-36.933708,0
              174.903386,-36.934357,0
              174.904157,-36.934856,0
              174.90463,-36.935238,0
              174.905001,-36.935446,0
              174.90497,-36.935335,0
              174.905289,-36.934968,0
              174.90538,-36.934985,0
              174.905533,-36.934799,0
              174.905589,-36.934598,0
              174.905651,-36.934609,0
              174.906664,-36.933397,0
              174.906734,-36.933442,0
              174.906885,-36.933282,0
              174.906794,-36.933224,0
              174.907141,-36.932825,0
              174.906757,-36.932556,0
              174.906939,-36.93237,0
              174.907421,-36.932713,0
              174.907976,-36.932178,0
              174.907856,-36.932087,0
              174.908252,-36.931751,0
              174.908502,-36.931945,0
              174.908949,-36.931574,0
              174.909765,-36.93109,0
              174.909904,-36.931141,0
              174.910229,-36.930574,0
              174.910659,-36.930733,0
              174.910785,-36.930514,0
              174.911382,-36.930735,0
              174.910998,-36.931396,0
              174.911381,-36.931521,0
              174.911764,-36.93081,0
              174.912019,-36.930448,0
              174.912554,-36.929363,0
              174.912822,-36.928661,0
              174.913251,-36.926392,0
              174.913337,-36.926329,0
              174.913345,-36.926094,0
              174.913271,-36.926041,0
              174.913194,-36.924073,0
              174.916074,-36.924611,0
              174.916372,-36.923338,0
              174.915547,-36.923184,0
              174.915105,-36.92188,0
              174.915275,-36.921264,0
              174.915493,-36.920949,0
              174.915585,-36.92001,0
              174.915846,-36.919999,0
              174.915899,-36.919802,0
              174.916259,-36.919737,0
              174.915454,-36.918759,0
              174.915219,-36.918142,0
              174.915215,-36.917778,0
              174.915416,-36.917264,0
              174.915431,-36.916735,0
              174.915492,-36.916465,0
              174.914787,-36.916153,0
              174.914578,-36.916483,0
              174.913931,-36.916221,0
              174.913577,-36.91587,0
              174.912981,-36.915705,0
              174.905036,-36.91426,0
              174.904902,-36.914819,0
              174.904769,-36.915091,0
              174.904552,-36.915321,0
              174.904339,-36.915753,0
              174.903987,-36.91621,0
              174.903911,-36.91646,0
              174.903453,-36.917,0
              174.90292,-36.917176,0
              174.902755,-36.917315,0
              174.902703,-36.917428,0
              174.902712,-36.917743,0
              174.902893,-36.918213,0
              174.90284,-36.918445,0
              174.902437,-36.917951,0
              174.902249,-36.917278,0
              174.90219,-36.917167,0
              174.902076,-36.917101,0
              174.901644,-36.917695,0
              174.901425,-36.91788,0
              174.900953,-36.918068,0
              174.900816,-36.918183,0
              174.900766,-36.91841,0
              174.900946,-36.918812,0
              174.900955,-36.919127,0
              174.900744,-36.919627,0
              174.900724,-36.919875,0
              174.900897,-36.920052,0
              174.901601,-36.92013,0
              174.901803,-36.920329,0
              174.901787,-36.920735,0
              174.901905,-36.920936,0
              174.901878,-36.920981,0
              174.90171,-36.920984,0
              174.901104,-36.920432,0
              174.900682,-36.920394,0
              174.900544,-36.920487,0
              174.900502,-36.920939,0
              174.900704,-36.92116,0
              174.901267,-36.921217,0
              174.901663,-36.921346,0
              174.902196,-36.922304,0
              174.90251,-36.922502,0
              174.902713,-36.922701,0
              174.90255,-36.922884,0
              174.902695,-36.923084,0
              174.902897,-36.923261,0
              174.903324,-36.923501,0
              174.903745,-36.923493,0
              174.903944,-36.92358,0
              174.904347,-36.92391,0
              174.904641,-36.924401,0
              174.904679,-36.924716,0
              174.90446,-36.924945,0
              174.90399,-36.925201,0
              174.903716,-36.925432,0
              174.903584,-36.92575,0
              174.903595,-36.92611,0
              174.90383,-36.926467,0
              174.903927,-36.926916,0
              174.904157,-36.927114,0
              174.904554,-36.927242,0
              174.904816,-36.927598,0
              174.90533,-36.927881,0
              174.905597,-36.928417,0
              174.905782,-36.928644,0
              174.906229,-36.928879,0
              174.906602,-36.928928,0
              174.906768,-36.929052,0
              174.906614,-36.929574,0
              174.904954,-36.929158,0
              174.904967,-36.929131,0
              174.90316,-36.928492,0
              174.903196,-36.929225,0
              174.903389,-36.92949,0
              174.90345,-36.929714,0
              174.903868,-36.929915,0
              174.90389,-36.930088,0
              174.903803,-36.930769,0
              174.903902,-36.931014,0
              174.903812,-36.931249,0
              174.903132,-36.931896,0
            </coordinates>
          </LinearRing>
        </outerBoundaryIs>
      </Polygon>
    </Placemark>
  </Document>
</kml>
