<?xml version="1.0" encoding="UTF-8"?>
<kml xmlns="http://www.opengis.net/kml/2.2">
  <Document>
    <name>Half_Moon_Bay.final</name>
    <Style id="poly-FF0000-1000-0-nodesc-normal">
      <LineStyle>
        <color>ff0000ff</color>
        <width>1</width>
      </LineStyle>
      <PolyStyle>
        <color>000000ff</color>
        <fill>1</fill>
        <outline>1</outline>
      </PolyStyle>
      <BalloonStyle>
        <text><![CDATA[<h3>$[name]</h3>]]></text>
      </BalloonStyle>
    </Style>
    <Style id="poly-FF0000-1000-0-nodesc-highlight">
      <LineStyle>
        <color>ff0000ff</color>
        <width>1.5</width>
      </LineStyle>
      <PolyStyle>
        <color>000000ff</color>
        <fill>1</fill>
        <outline>1</outline>
      </PolyStyle>
      <BalloonStyle>
        <text><![CDATA[<h3>$[name]</h3>]]></text>
      </BalloonStyle>
    </Style>
    <StyleMap id="poly-FF0000-1000-0-nodesc">
      <Pair>
        <key>normal</key>
        <styleUrl>#poly-FF0000-1000-0-nodesc-normal</styleUrl>
      </Pair>
      <Pair>
        <key>highlight</key>
        <styleUrl>#poly-FF0000-1000-0-nodesc-highlight</styleUrl>
      </Pair>
    </StyleMap>
    <Placemark>
      <name>Half Moon Bay (polygon: official_shp)</name>
      <styleUrl>#poly-FF0000-1000-0-nodesc</styleUrl>
      <Polygon>
        <outerBoundaryIs>
          <LinearRing>
            <tessellate>1</tessellate>
            <coordinates>
              174.896064,-36.893207,0
              174.895909,-36.893253,0
              174.897165,-36.893469,0
              174.897097,-36.893708,0
              174.897334,-36.893737,0
              174.897351,-36.893859,0
              174.898247,-36.893992,0
              174.898217,-36.894098,0
              174.899223,-36.894252,0
              174.899615,-36.894683,0
              174.899345,-36.895633,0
              174.897674,-36.89693,0
              174.897413,-36.896947,0
              174.897242,-36.897552,0
              174.897285,-36.897564,0
              174.896845,-36.897613,0
              174.896964,-36.897931,0
              174.897166,-36.89818,0
              174.896903,-36.898318,0
              174.897235,-36.898725,0
              174.896822,-36.898942,0
              174.897017,-36.899181,0
              174.896949,-36.899217,0
              174.89696,-36.899381,0
              174.897145,-36.899372,0
              174.897839,-36.899005,0
              174.898828,-36.900218,0
              174.898449,-36.900415,0
              174.898771,-36.900815,0
              174.898816,-36.901121,0
              174.902188,-36.899341,0
              174.903397,-36.900818,0
              174.903998,-36.9005,0
              174.904262,-36.900799,0
              174.904382,-36.90037,0
              174.904886,-36.899609,0
              174.904879,-36.899253,0
              174.905344,-36.89908,0
              174.905366,-36.898898,0
              174.905799,-36.898405,0
              174.905749,-36.897958,0
              174.905777,-36.897915,0
              174.906112,-36.898001,0
              174.906323,-36.89744,0
              174.905839,-36.897351,0
              174.905856,-36.897254,0
              174.906002,-36.897142,0
              174.905949,-36.896911,0
              174.906015,-36.896671,0
              174.905845,-36.896495,0
              174.905809,-36.896289,0
              174.905367,-36.896148,0
              174.905134,-36.895925,0
              174.905102,-36.895756,0
              174.905398,-36.895214,0
              174.905566,-36.895107,0
              174.905835,-36.894688,0
              174.905937,-36.894227,0
              174.905899,-36.893894,0
              174.90723,-36.8935,0
              174.907305,-36.89326,0
              174.907686,-36.893338,0
              174.907783,-36.892831,0
              174.907862,-36.89276,0
              174.907505,-36.892567,0
              174.907374,-36.892603,0
              174.907067,-36.892251,0
              174.907458,-36.891943,0
              174.907794,-36.891553,0
              174.90817,-36.890238,0
              174.908085,-36.890041,0
              174.908366,-36.890056,0
              174.90845,-36.88976,0
              174.908376,-36.88939,0
              174.908242,-36.889065,0
              174.908482,-36.888945,0
              174.908229,-36.888728,0
              174.908373,-36.888219,0
              174.908887,-36.888313,0
              174.90897,-36.88802,0
              174.908853,-36.887801,0
              174.909879,-36.884241,0
              174.910261,-36.884311,0
              174.910296,-36.883935,0
              174.910378,-36.883894,0
              174.910448,-36.883644,0
              174.904738,-36.882597,0
              174.9054,-36.880265,0
              174.904867,-36.880167,0
              174.905128,-36.879964,0
              174.904702,-36.879399,0
              174.904466,-36.87934,0
              174.904209,-36.878999,0
              174.904909,-36.878658,0
              174.904759,-36.87846,0
              174.905052,-36.878317,0
              174.904127,-36.877108,0
              174.904038,-36.876893,0
              174.9045,-36.876635,0
              174.904658,-36.876488,0
              174.904747,-36.876283,0
              174.905173,-36.876086,0
              174.905481,-36.875871,0
              174.905719,-36.875848,0
              174.905932,-36.875634,0
              174.906028,-36.875151,0
              174.905978,-36.874425,0
              174.905731,-36.873462,0
              174.905863,-36.874316,0
              174.905854,-36.874967,0
              174.905783,-36.875465,0
              174.905661,-36.875667,0
              174.905393,-36.875869,0
              174.905251,-36.875923,0
              174.905108,-36.875901,0
              174.90485,-36.876032,0
              174.904819,-36.876193,0
              174.90446,-36.876572,0
              174.903647,-36.876981,0
              174.903546,-36.877007,0
              174.903254,-36.876629,0
              174.903177,-36.876621,0
              174.902619,-36.876917,0
              174.901096,-36.878127,0
              174.9011,-36.878271,0
              174.902125,-36.878668,0
              174.902159,-36.879059,0
              174.901685,-36.879842,0
              174.901733,-36.879915,0
              174.902341,-36.880131,0
              174.901732,-36.881264,0
              174.90162,-36.881347,0
              174.899093,-36.880355,0
              174.899094,-36.87922,0
              174.898984,-36.879226,0
              174.898966,-36.880071,0
              174.898289,-36.880089,0
              174.89752,-36.879876,0
              174.897283,-36.880086,0
              174.897012,-36.88008,0
              174.896529,-36.879967,0
              174.895951,-36.88118,0
              174.895615,-36.882177,0
              174.895377,-36.8827,0
              174.895162,-36.88302,0
              174.894508,-36.883707,0
              174.89443,-36.883934,0
              174.894439,-36.884249,0
              174.894226,-36.884659,0
              174.894088,-36.884751,0
              174.893531,-36.884897,0
              174.893338,-36.884991,0
              174.893063,-36.885221,0
              174.892933,-36.885539,0
              174.892796,-36.885655,0
              174.891768,-36.886033,0
              174.890972,-36.886634,0
              174.889696,-36.887175,0
              174.888508,-36.887588,0
              174.888375,-36.887946,0
              174.888004,-36.888286,0
              174.887882,-36.88948,0
              174.887908,-36.889967,0
              174.888318,-36.890684,0
              174.888403,-36.890752,0
              174.888561,-36.890756,0
              174.888802,-36.890906,0
              174.889423,-36.891131,0
              174.889867,-36.891127,0
              174.890649,-36.891334,0
              174.891343,-36.891722,0
              174.892118,-36.89203,0
              174.892236,-36.892143,0
              174.892346,-36.892421,0
              174.8928,-36.892576,0
              174.893373,-36.892464,0
              174.893761,-36.892335,0
              174.894187,-36.892144,0
              174.894332,-36.892013,0
              174.894371,-36.891537,0
              174.894318,-36.891072,0
              174.894366,-36.890979,0
              174.894496,-36.891242,0
              174.894822,-36.891488,0
              174.895272,-36.89202,0
              174.895396,-36.892292,0
              174.895684,-36.892384,0
              174.895934,-36.892371,0
              174.895963,-36.892409,0
              174.896038,-36.89238,0
              174.896184,-36.892502,0
              174.896197,-36.892576,0
              174.896623,-36.892407,0
              174.896812,-36.892386,0
              174.896831,-36.892522,0
              174.896628,-36.893061,0
              174.896471,-36.893155,0
              174.896064,-36.893207,0
            </coordinates>
          </LinearRing>
        </outerBoundaryIs>
      </Polygon>
    </Placemark>
  </Document>
</kml>
