<?xml version="1.0" encoding="UTF-8"?>
<kml xmlns="http://www.opengis.net/kml/2.2">
  <Document>
    <name>Highland_Park.final</name>
    <Style id="poly-FF0000-1000-0-nodesc-normal">
      <LineStyle>
        <color>ff0000ff</color>
        <width>1</width>
      </LineStyle>
      <PolyStyle>
        <color>000000ff</color>
        <fill>1</fill>
        <outline>1</outline>
      </PolyStyle>
      <BalloonStyle>
        <text><![CDATA[<h3>$[name]</h3>]]></text>
      </BalloonStyle>
    </Style>
    <Style id="poly-FF0000-1000-0-nodesc-highlight">
      <LineStyle>
        <color>ff0000ff</color>
        <width>1.5</width>
      </LineStyle>
      <PolyStyle>
        <color>000000ff</color>
        <fill>1</fill>
        <outline>1</outline>
      </PolyStyle>
      <BalloonStyle>
        <text><![CDATA[<h3>$[name]</h3>]]></text>
      </BalloonStyle>
    </Style>
    <StyleMap id="poly-FF0000-1000-0-nodesc">
      <Pair>
        <key>normal</key>
        <styleUrl>#poly-FF0000-1000-0-nodesc-normal</styleUrl>
      </Pair>
      <Pair>
        <key>highlight</key>
        <styleUrl>#poly-FF0000-1000-0-nodesc-highlight</styleUrl>
      </Pair>
    </StyleMap>
    <Placemark>
      <name>Highland Park (polygon: official_shp)</name>
      <styleUrl>#poly-FF0000-1000-0-nodesc</styleUrl>
      <Polygon>
        <outerBoundaryIs>
          <LinearRing>
            <tessellate>1</tessellate>
            <coordinates>
              174.917725,-36.900922,0
              174.914783,-36.900805,0
              174.914846,-36.899746,0
              174.914464,-36.89973,0
              174.914475,-36.899587,0
              174.913957,-36.899566,0
              174.913972,-36.899329,0
              174.909848,-36.899164,0
              174.909916,-36.898844,0
              174.909489,-36.898826,0
              174.909409,-36.898877,0
              174.90914,-36.898841,0
              174.909086,-36.89877,0
              174.909145,-36.898502,0
              174.90996,-36.896881,0
              174.908396,-36.89685,0
              174.90849,-36.896674,0
              174.908431,-36.896494,0
              174.907911,-36.896415,0
              174.908015,-36.895956,0
              174.907954,-36.895903,0
              174.907807,-36.895928,0
              174.907513,-36.896123,0
              174.90702,-36.896238,0
              174.906671,-36.897521,0
              174.906597,-36.898127,0
              174.905777,-36.897915,0
              174.905742,-36.898062,0
              174.905799,-36.898405,0
              174.905366,-36.898898,0
              174.905344,-36.89908,0
              174.904879,-36.899253,0
              174.904886,-36.899609,0
              174.904382,-36.90037,0
              174.904295,-36.900752,0
              174.904117,-36.901099,0
              174.904039,-36.901527,0
              174.904005,-36.902193,0
              174.904184,-36.902631,0
              174.904185,-36.902812,0
              174.904364,-36.903364,0
              174.904424,-36.903792,0
              174.904179,-36.904437,0
              174.904092,-36.905026,0
              174.90394,-36.90545,0
              174.904119,-36.906231,0
              174.904245,-36.906475,0
              174.904208,-36.906876,0
              174.904384,-36.90706,0
              174.904456,-36.90724,0
              174.904263,-36.907544,0
              174.903994,-36.907676,0
              174.90386,-36.907831,0
              174.903493,-36.908519,0
              174.90341,-36.9089,0
              174.9035,-36.909018,0
              174.903675,-36.909119,0
              174.903905,-36.909139,0
              174.903984,-36.909208,0
              174.903757,-36.909478,0
              174.903726,-36.909655,0
              174.903785,-36.909777,0
              174.903886,-36.909845,0
              174.904276,-36.909943,0
              174.904542,-36.910198,0
              174.904766,-36.910309,0
              174.904672,-36.910503,0
              174.904685,-36.910696,0
              174.905132,-36.910951,0
              174.9049,-36.911197,0
              174.904448,-36.911435,0
              174.904359,-36.911576,0
              174.904387,-36.911881,0
              174.904513,-36.912024,0
              174.904668,-36.912392,0
              174.904902,-36.912701,0
              174.904927,-36.912822,0
              174.904893,-36.91292,0
              174.904588,-36.913028,0
              174.904409,-36.913184,0
              174.904407,-36.913556,0
              174.904523,-36.913732,0
              174.904641,-36.913539,0
              174.904608,-36.913337,0
              174.904773,-36.913244,0
              174.905748,-36.912978,0
              174.905937,-36.912749,0
              174.905927,-36.912366,0
              174.90609,-36.91216,0
              174.906201,-36.912113,0
              174.906425,-36.912109,0
              174.906823,-36.912235,0
              174.906629,-36.912398,0
              174.906556,-36.912782,0
              174.905756,-36.91327,0
              174.905115,-36.913417,0
              174.905005,-36.91351,0
              174.905125,-36.913778,0
              174.90508,-36.914083,0
              174.904804,-36.914052,0
              174.904716,-36.914211,0
              174.907617,-36.914731,0
              174.907666,-36.914488,0
              174.907927,-36.914322,0
              174.908015,-36.914188,0
              174.908062,-36.913735,0
              174.908005,-36.913224,0
              174.908416,-36.913214,0
              174.908856,-36.913321,0
              174.909132,-36.913442,0
              174.909232,-36.913276,0
              174.909096,-36.913122,0
              174.90898,-36.912732,0
              174.909013,-36.912286,0
              174.909233,-36.912324,0
              174.909743,-36.912254,0
              174.909619,-36.91196,0
              174.909773,-36.911905,0
              174.909504,-36.911799,0
              174.909703,-36.910977,0
              174.909516,-36.909868,0
              174.909184,-36.909901,0
              174.909094,-36.909664,0
              174.909233,-36.909652,0
              174.909294,-36.909243,0
              174.90919,-36.909193,0
              174.909251,-36.909031,0
              174.908804,-36.908906,0
              174.908714,-36.908452,0
              174.909087,-36.908278,0
              174.908688,-36.907725,0
              174.908894,-36.907514,0
              174.908573,-36.907057,0
              174.90911,-36.906979,0
              174.90907,-36.906612,0
              174.908979,-36.906354,0
              174.909108,-36.90633,0
              174.909056,-36.906152,0
              174.909174,-36.905839,0
              174.909281,-36.90587,0
              174.909371,-36.905668,0
              174.909706,-36.905766,0
              174.909881,-36.905593,0
              174.909252,-36.905309,0
              174.909449,-36.905071,0
              174.909281,-36.905248,0
              174.908937,-36.90506,0
              174.908904,-36.904992,0
              174.908987,-36.90488,0
              174.909051,-36.904911,0
              174.90919,-36.904725,0
              174.909285,-36.90477,0
              174.909512,-36.904468,0
              174.910731,-36.905056,0
              174.911506,-36.905201,0
              174.911803,-36.904807,0
              174.914641,-36.903418,0
              174.916239,-36.902582,0
              174.917356,-36.901701,0
              174.917052,-36.901453,0
              174.917725,-36.900922,0
            </coordinates>
          </LinearRing>
        </outerBoundaryIs>
      </Polygon>
    </Placemark>
  </Document>
</kml>
