<?xml version="1.0" encoding="UTF-8"?>
<kml xmlns="http://www.opengis.net/kml/2.2">
  <Document>
    <name>Howick.final</name>
    <Style id="poly-FF0000-1000-0-nodesc-normal">
      <LineStyle>
        <color>ff0000ff</color>
        <width>1</width>
      </LineStyle>
      <PolyStyle>
        <color>000000ff</color>
        <fill>1</fill>
        <outline>1</outline>
      </PolyStyle>
      <BalloonStyle>
        <text><![CDATA[<h3>$[name]</h3>]]></text>
      </BalloonStyle>
    </Style>
    <Style id="poly-FF0000-1000-0-nodesc-highlight">
      <LineStyle>
        <color>ff0000ff</color>
        <width>1.5</width>
      </LineStyle>
      <PolyStyle>
        <color>000000ff</color>
        <fill>1</fill>
        <outline>1</outline>
      </PolyStyle>
      <BalloonStyle>
        <text><![CDATA[<h3>$[name]</h3>]]></text>
      </BalloonStyle>
    </Style>
    <StyleMap id="poly-FF0000-1000-0-nodesc">
      <Pair>
        <key>normal</key>
        <styleUrl>#poly-FF0000-1000-0-nodesc-normal</styleUrl>
      </Pair>
      <Pair>
        <key>highlight</key>
        <styleUrl>#poly-FF0000-1000-0-nodesc-highlight</styleUrl>
      </Pair>
    </StyleMap>
    <Placemark>
      <name>Howick (polygon: official_shp)</name>
      <styleUrl>#poly-FF0000-1000-0-nodesc</styleUrl>
      <Polygon>
        <outerBoundaryIs>
          <LinearRing>
            <tessellate>1</tessellate>
            <coordinates>
              174.934524,-36.90631,0
              174.934991,-36.905904,0
              174.934638,-36.905659,0
              174.934799,-36.905086,0
              174.934623,-36.904963,0
              174.934274,-36.905354,0
              174.934046,-36.905249,0
              174.933258,-36.904701,0
              174.933393,-36.904577,0
              174.933226,-36.904448,0
              174.933409,-36.903849,0
              174.933638,-36.903345,0
              174.933831,-36.903,0
              174.934309,-36.902381,0
              174.933844,-36.902189,0
              174.93405,-36.901936,0
              174.933962,-36.901664,0
              174.934279,-36.90117,0
              174.934032,-36.901215,0
              174.93372,-36.90055,0
              174.934417,-36.900446,0
              174.934632,-36.900351,0
              174.934594,-36.90022,0
              174.935204,-36.900128,0
              174.935091,-36.899642,0
              174.934684,-36.899704,0
              174.934569,-36.899213,0
              174.934413,-36.899234,0
              174.934274,-36.898851,0
              174.934781,-36.898775,0
              174.934801,-36.898399,0
              174.935323,-36.897504,0
              174.934618,-36.897611,0
              174.934576,-36.897433,0
              174.934778,-36.897403,0
              174.93464,-36.897258,0
              174.934592,-36.897053,0
              174.934491,-36.897068,0
              174.934275,-36.89614,0
              174.934168,-36.896008,0
              174.934095,-36.895384,0
              174.933566,-36.895408,0
              174.933553,-36.894644,0
              174.933359,-36.894651,0
              174.933328,-36.894535,0
              174.933053,-36.894481,0
              174.932997,-36.89408,0
              174.932075,-36.894093,0
              174.931715,-36.893862,0
              174.931888,-36.89327,0
              174.931731,-36.893199,0
              174.931607,-36.893377,0
              174.931424,-36.89325,0
              174.931106,-36.893542,0
              174.930896,-36.893391,0
              174.930976,-36.893387,0
              174.931455,-36.892947,0
              174.930993,-36.892613,0
              174.931569,-36.891798,0
              174.930948,-36.891352,0
              174.930639,-36.891627,0
              174.930202,-36.891316,0
              174.929625,-36.891786,0
              174.929445,-36.891658,0
              174.929244,-36.891838,0
              174.929048,-36.891699,0
              174.928855,-36.891872,0
              174.928539,-36.891119,0
              174.929376,-36.890384,0
              174.928845,-36.889738,0
              174.928483,-36.889734,0
              174.928163,-36.889533,0
              174.927917,-36.889786,0
              174.925774,-36.888259,0
              174.925945,-36.888248,0
              174.925999,-36.887707,0
              174.926227,-36.887377,0
              174.926421,-36.887291,0
              174.926802,-36.886995,0
              174.926454,-36.886798,0
              174.926216,-36.886793,0
              174.925248,-36.885755,0
              174.924462,-36.886233,0
              174.924174,-36.885931,0
              174.923203,-36.886672,0
              174.922667,-36.886218,0
              174.922196,-36.886537,0
              174.922025,-36.886783,0
              174.9213,-36.88645,0
              174.92114,-36.886646,0
              174.920958,-36.886552,0
              174.920763,-36.886795,0
              174.920804,-36.886806,0
              174.920667,-36.887203,0
              174.920729,-36.887255,0
              174.920564,-36.888041,0
              174.920115,-36.887859,0
              174.919906,-36.887911,0
              174.919426,-36.887878,0
              174.919214,-36.887794,0
              174.918959,-36.88797,0
              174.919265,-36.888134,0
              174.919014,-36.888534,0
              174.919642,-36.888868,0
              174.919974,-36.889099,0
              174.920306,-36.889213,0
              174.920158,-36.889458,0
              174.920368,-36.889564,0
              174.920064,-36.889726,0
              174.920091,-36.889929,0
              174.919995,-36.88998,0
              174.920179,-36.890511,0
              174.920005,-36.8906,0
              174.919776,-36.890354,0
              174.91901,-36.890762,0
              174.919229,-36.890999,0
              174.918308,-36.891502,0
              174.917424,-36.892134,0
              174.917137,-36.891803,0
              174.91621,-36.89236,0
              174.916279,-36.892435,0
              174.91618,-36.892696,0
              174.915797,-36.892606,0
              174.913643,-36.894534,0
              174.91372,-36.894588,0
              174.913594,-36.894704,0
              174.913551,-36.894743,0
              174.913504,-36.89471,0
              174.912625,-36.895518,0
              174.912701,-36.895779,0
              174.912778,-36.896755,0
              174.912358,-36.896778,0
              174.912102,-36.897008,0
              174.911785,-36.897138,0
              174.911378,-36.897065,0
              174.911147,-36.897286,0
              174.910602,-36.897624,0
              174.910489,-36.89788,0
              174.910164,-36.898039,0
              174.910154,-36.898254,0
              174.909703,-36.898235,0
              174.909688,-36.898552,0
              174.909481,-36.898533,0
              174.909409,-36.898877,0
              174.909489,-36.898826,0
              174.909916,-36.898844,0
              174.909848,-36.899164,0
              174.913972,-36.899329,0
              174.913957,-36.899566,0
              174.914475,-36.899587,0
              174.914464,-36.89973,0
              174.914846,-36.899746,0
              174.914783,-36.900805,0
              174.917967,-36.900931,0
              174.918533,-36.901394,0
              174.918564,-36.901321,0
              174.918797,-36.90134,0
              174.919018,-36.90188,0
              174.918805,-36.901939,0
              174.919005,-36.902345,0
              174.918775,-36.902328,0
              174.91887,-36.90284,0
              174.919384,-36.903425,0
              174.919826,-36.903762,0
              174.919762,-36.903862,0
              174.919766,-36.904177,0
              174.919566,-36.90421,0
              174.919544,-36.90439,0
              174.91969,-36.904572,0
              174.919626,-36.905327,0
              174.924376,-36.907038,0
              174.928011,-36.908029,0
              174.929348,-36.90883,0
              174.930184,-36.908032,0
              174.930053,-36.907939,0
              174.930495,-36.907571,0
              174.930557,-36.907615,0
              174.931312,-36.906937,0
              174.932714,-36.907933,0
              174.934524,-36.90631,0
            </coordinates>
          </LinearRing>
        </outerBoundaryIs>
      </Polygon>
    </Placemark>
  </Document>
</kml>
