<?xml version="1.0" encoding="UTF-8"?>
<kml xmlns="http://www.opengis.net/kml/2.2">
  <Document>
    <name>Karaka.final</name>
    <Style id="poly-FF0000-1000-0-nodesc-normal">
      <LineStyle>
        <color>ff0000ff</color>
        <width>1</width>
      </LineStyle>
      <PolyStyle>
        <color>000000ff</color>
        <fill>1</fill>
        <outline>1</outline>
      </PolyStyle>
      <BalloonStyle>
        <text><![CDATA[<h3>$[name]</h3>]]></text>
      </BalloonStyle>
    </Style>
    <Style id="poly-FF0000-1000-0-nodesc-highlight">
      <LineStyle>
        <color>ff0000ff</color>
        <width>1.5</width>
      </LineStyle>
      <PolyStyle>
        <color>000000ff</color>
        <fill>1</fill>
        <outline>1</outline>
      </PolyStyle>
      <BalloonStyle>
        <text><![CDATA[<h3>$[name]</h3>]]></text>
      </BalloonStyle>
    </Style>
    <StyleMap id="poly-FF0000-1000-0-nodesc">
      <Pair>
        <key>normal</key>
        <styleUrl>#poly-FF0000-1000-0-nodesc-normal</styleUrl>
      </Pair>
      <Pair>
        <key>highlight</key>
        <styleUrl>#poly-FF0000-1000-0-nodesc-highlight</styleUrl>
      </Pair>
    </StyleMap>
    <Placemark>
      <name>Joined Boundary</name>
      <styleUrl>#poly-FF0000-1000-0-nodesc</styleUrl>
      <Polygon>
        <outerBoundaryIs>
          <LinearRing>
            <tessellate>1</tessellate>
            <coordinates>
              174.942011,-37.073288,0
              174.94201,-37.072672,0
              174.942666,-37.072457,0
              174.942452,-37.072038,0
              174.942507,-37.071481,0
              174.942392,-37.071277,0
              174.942528,-37.070647,0
              174.943067,-37.070476,0
              174.943121,-37.07051,0
              174.943206,-37.069681,0
              174.942721,-37.069639,0
              174.942717,-37.0696,0
              174.942266,-37.06963,0
              174.941704,-37.069555,0
              174.940613,-37.06959,0
              174.940597,-37.069439,0
              174.939788,-37.069308,0
              174.939758,-37.069023,0
              174.939612,-37.069135,0
              174.939578,-37.069273,0
              174.938599,-37.069115,0
              174.938519,-37.068995,0
              174.937537,-37.068836,0
              174.937419,-37.068912,0
              174.937152,-37.068626,0
              174.93691,-37.068615,0
              174.936676,-37.068754,0
              174.936196,-37.068831,0
              174.93591,-37.068216,0
              174.935619,-37.06739,0
              174.935726,-37.066577,0
              174.93553,-37.066561,0
              174.935447,-37.066345,0
              174.936183,-37.065981,0
              174.935728,-37.065564,0
              174.933824,-37.066486,0
              174.933698,-37.066304,0
              174.933685,-37.066141,0
              174.933866,-37.066082,0
              174.934094,-37.06588,0
              174.934032,-37.065837,0
              174.933774,-37.065947,0
              174.93326,-37.065663,0
              174.933034,-37.065644,0
              174.932832,-37.065456,0
              174.932452,-37.064876,0
              174.932021,-37.064557,0
              174.931754,-37.064054,0
              174.931553,-37.063911,0
              174.931356,-37.063914,0
              174.931193,-37.064097,0
              174.931109,-37.064099,0
              174.931022,-37.064033,0
              174.931013,-37.063694,0
              174.931284,-37.063284,0
              174.931251,-37.063104,0
              174.93076,-37.062628,0
              174.930439,-37.062182,0
              174.930267,-37.062061,0
              174.929521,-37.062041,0
              174.928753,-37.062244,0
              174.928614,-37.06236,0
              174.928566,-37.062654,0
              174.928617,-37.063026,0
              174.928923,-37.063256,0
              174.928971,-37.063423,0
              174.928804,-37.063426,0
              174.928495,-37.063323,0
              174.928346,-37.06317,0
              174.928146,-37.063139,0
              174.92765,-37.063289,0
              174.926978,-37.063098,0
              174.927079,-37.062814,0
              174.927339,-37.062682,0
              174.927581,-37.0627,0
              174.927763,-37.062623,0
              174.927872,-37.062307,0
              174.92785,-37.062088,0
              174.927657,-37.061867,0
              174.927244,-37.061693,0
              174.926954,-37.061261,0
              174.9264,-37.061056,0
              174.925344,-37.06096,0
              174.925069,-37.060752,0
              174.924833,-37.060668,0
              174.924492,-37.060717,0
              174.924209,-37.060653,0
              174.923864,-37.060389,0
              174.923447,-37.059517,0
              174.920643,-37.059968,0
              174.913004,-37.058529,0
              174.902876,-37.061954,0
              174.90279,-37.069967,0
              174.902104,-37.074898,0
              174.899271,-37.080855,0
              174.900044,-37.085032,0
              174.90382,-37.087497,0
              174.905537,-37.086744,0
              174.909485,-37.085785,0
              174.915322,-37.089551,0
              174.922224,-37.084322,0
              174.921922,-37.084806,0
              174.921457,-37.085343,0
              174.921299,-37.085774,0
              174.921067,-37.086038,0
              174.920473,-37.086442,0
              174.920381,-37.086702,0
              174.920402,-37.086961,0
              174.920954,-37.087594,0
              174.921366,-37.088321,0
              174.921654,-37.088541,0
              174.921767,-37.088584,0
              174.922302,-37.088553,0
              174.922468,-37.08846,0
              174.92266,-37.088163,0
              174.922962,-37.088037,0
              174.923295,-37.088001,0
              174.923698,-37.088123,0
              174.924155,-37.088408,0
              174.924501,-37.088729,0
              174.924705,-37.089008,0
              174.925005,-37.089679,0
              174.925149,-37.089789,0
              174.925403,-37.08983,0
              174.925632,-37.089973,0
              174.926268,-37.090616,0
              174.927765,-37.091865,0
              174.92833,-37.091967,0
              174.928477,-37.09219,0
              174.92876,-37.092253,0
              174.929108,-37.092123,0
              174.929446,-37.092095,0
              174.930039,-37.091667,0
              174.93056,-37.09167,0
              174.931323,-37.091792,0
              174.932097,-37.091813,0
              174.932638,-37.091511,0
              174.933859,-37.090692,0
              174.934031,-37.09151,0
              174.933952,-37.09168,0
              174.933703,-37.091876,0
              174.933656,-37.092215,0
              174.933533,-37.092363,0
              174.932938,-37.092746,0
              174.932627,-37.092683,0
              174.932411,-37.093002,0
              174.931987,-37.092965,0
              174.931932,-37.093011,0
              174.932091,-37.093684,0
              174.932324,-37.094007,0
              174.932454,-37.094118,0
              174.932752,-37.094214,0
              174.932868,-37.094348,0
              174.933078,-37.095347,0
              174.933071,-37.09563,0
              174.933304,-37.096448,0
              174.933377,-37.096571,0
              174.93355,-37.096704,0
              174.934243,-37.096826,0
              174.935096,-37.096632,0
              174.935262,-37.096516,0
              174.935395,-37.096221,0
              174.935478,-37.096152,0
              174.93573,-37.096102,0
              174.93595,-37.095918,0
              174.936003,-37.095805,0
              174.935905,-37.094251,0
              174.936068,-37.094034,0
              174.937512,-37.092882,0
              174.93784,-37.092932,0
              174.938068,-37.093041,0
              174.939314,-37.093291,0
              174.939897,-37.09301,0
              174.940094,-37.093029,0
              174.940297,-37.093228,0
              174.940193,-37.093547,0
              174.940314,-37.093837,0
              174.941473,-37.095114,0
              174.94177,-37.095728,0
              174.941929,-37.095838,0
              174.942083,-37.095836,0
              174.94222,-37.095721,0
              174.942355,-37.095431,0
              174.942523,-37.095975,0
              174.942668,-37.096211,0
              174.942629,-37.096315,0
              174.942752,-37.096386,0
              174.942896,-37.096303,0
              174.943232,-37.095466,0
              174.943593,-37.0951,0
              174.944284,-37.094705,0
              174.945106,-37.094477,0
              174.94581,-37.0942,0
              174.945961,-37.094376,0
              174.946129,-37.094422,0
              174.946434,-37.094717,0
              174.94691,-37.09491,0
              174.947071,-37.094901,0
              174.947291,-37.095072,0
              174.947927,-37.095152,0
              174.948171,-37.09511,0
              174.948654,-37.095139,0
              174.949518,-37.094973,0
              174.94975,-37.094881,0
              174.949875,-37.094698,0
              174.949904,-37.094562,0
              174.949833,-37.094312,0
              174.949704,-37.094145,0
              174.949432,-37.093981,0
              174.949211,-37.093964,0
              174.949043,-37.094029,0
              174.948891,-37.093963,0
              174.948855,-37.093587,0
              174.949112,-37.09291,0
              174.949324,-37.092565,0
              174.949474,-37.092416,0
              174.950082,-37.092077,0
              174.950191,-37.091968,0
              174.950238,-37.091745,0
              174.950098,-37.091573,0
              174.950068,-37.091212,0
              174.948457,-37.091641,0
              174.947795,-37.090138,0
              174.946897,-37.090468,0
              174.946809,-37.090315,0
              174.946409,-37.09042,0
              174.946201,-37.089488,0
              174.946428,-37.089378,0
              174.94684,-37.088977,0
              174.944853,-37.08837,0
              174.944792,-37.088498,0
              174.9439,-37.088396,0
              174.944135,-37.087899,0
              174.943806,-37.087799,0
              174.943631,-37.087356,0
              174.943381,-37.087387,0
              174.943229,-37.087102,0
              174.942806,-37.086974,0
              174.942887,-37.0868,0
              174.942715,-37.086753,0
              174.942701,-37.086457,0
              174.942536,-37.086407,0
              174.942481,-37.086442,0
              174.942185,-37.086393,0
              174.942157,-37.086197,0
              174.941747,-37.086299,0
              174.941696,-37.085935,0
              174.941532,-37.085976,0
              174.941465,-37.085803,0
              174.94208,-37.085649,0
              174.941895,-37.084061,0
              174.941493,-37.084161,0
              174.941519,-37.083777,0
              174.941649,-37.083745,0
              174.941554,-37.0835,0
              174.941913,-37.08341,0
              174.941924,-37.083255,0
              174.941863,-37.083217,0
              174.941846,-37.083031,0
              174.941915,-37.08296,0
              174.94193,-37.082743,0
              174.941603,-37.082748,0
              174.940331,-37.083065,0
              174.940017,-37.082859,0
              174.939463,-37.081436,0
              174.941663,-37.080887,0
              174.941681,-37.080632,0
              174.942076,-37.08065,0
              174.942043,-37.080309,0
              174.942103,-37.080266,0
              174.942112,-37.08013,0
              174.941678,-37.080111,0
              174.941697,-37.079841,0
              174.941096,-37.079975,0
              174.940984,-37.07966,0
              174.941498,-37.079543,0
              174.941541,-37.078918,0
              174.942195,-37.078947,0
              174.942149,-37.078617,0
              174.941564,-37.078591,0
              174.941577,-37.077846,0
              174.941783,-37.077824,0
              174.94175,-37.07763,0
              174.941535,-37.077653,0
              174.941557,-37.077404,0
              174.941647,-37.077395,0
              174.941605,-37.077118,0
              174.941757,-37.077104,0
              174.941748,-37.076716,0
              174.941876,-37.076721,0
              174.94191,-37.076117,0
              174.942385,-37.076135,0
              174.942392,-37.075798,0
              174.941928,-37.075804,0
              174.94199,-37.074739,0
              174.942537,-37.074738,0
              174.942577,-37.074194,0
              174.942012,-37.074195,0
              174.942011,-37.073651,0
              174.942618,-37.07365,0
              174.94267,-37.073287,0
              174.942011,-37.073288,0
            </coordinates>
          </LinearRing>
        </outerBoundaryIs>
      </Polygon>
    </Placemark>
  </Document>
</kml>
