<?xml version="1.0" encoding="UTF-8"?>
<kml xmlns="http://www.opengis.net/kml/2.2">
  <Document>
    <name>Kohimarama.final</name>
    <Style id="poly-FF0000-1000-0-nodesc-normal">
      <LineStyle>
        <color>ff0000ff</color>
        <width>1</width>
      </LineStyle>
      <PolyStyle>
        <color>000000ff</color>
        <fill>1</fill>
        <outline>1</outline>
      </PolyStyle>
      <BalloonStyle>
        <text><![CDATA[<h3>$[name]</h3>]]></text>
      </BalloonStyle>
    </Style>
    <Style id="poly-FF0000-1000-0-nodesc-highlight">
      <LineStyle>
        <color>ff0000ff</color>
        <width>1.5</width>
      </LineStyle>
      <PolyStyle>
        <color>000000ff</color>
        <fill>1</fill>
        <outline>1</outline>
      </PolyStyle>
      <BalloonStyle>
        <text><![CDATA[<h3>$[name]</h3>]]></text>
      </BalloonStyle>
    </Style>
    <StyleMap id="poly-FF0000-1000-0-nodesc">
      <Pair>
        <key>normal</key>
        <styleUrl>#poly-FF0000-1000-0-nodesc-normal</styleUrl>
      </Pair>
      <Pair>
        <key>highlight</key>
        <styleUrl>#poly-FF0000-1000-0-nodesc-highlight</styleUrl>
      </Pair>
    </StyleMap>
    <Placemark>
      <name>Kohimarama (polygon: official_shp)</name>
      <styleUrl>#poly-FF0000-1000-0-nodesc</styleUrl>
      <Polygon>
        <outerBoundaryIs>
          <LinearRing>
            <tessellate>1</tessellate>
            <coordinates>
              174.84771,-36.850722,0
              174.846973,-36.850635,0
              174.84628,-36.850489,0
              174.845663,-36.850451,0
              174.842339,-36.849641,0
              174.841869,-36.849491,0
              174.840594,-36.848955,0
              174.84006,-36.848673,0
              174.840096,-36.848602,0
              174.839769,-36.848469,0
              174.839742,-36.84851,0
              174.837622,-36.84763,0
              174.837612,-36.848316,0
              174.83852,-36.84868,0
              174.838844,-36.848971,0
              174.83891,-36.8495,0
              174.839059,-36.849786,0
              174.838517,-36.849915,0
              174.838455,-36.850127,0
              174.838128,-36.850065,0
              174.838067,-36.850095,0
              174.838027,-36.850231,0
              174.83791,-36.850209,0
              174.837478,-36.851683,0
              174.836711,-36.851662,0
              174.83633,-36.853003,0
              174.836137,-36.853954,0
              174.836304,-36.853969,0
              174.836213,-36.854504,0
              174.83607,-36.854772,0
              174.836186,-36.85501,0
              174.836129,-36.855207,0
              174.835947,-36.855173,0
              174.835893,-36.85536,0
              174.835762,-36.855336,0
              174.835695,-36.855567,0
              174.835522,-36.855555,0
              174.835591,-36.855835,0
              174.835763,-36.855846,0
              174.835636,-36.856471,0
              174.836045,-36.856499,0
              174.835818,-36.857464,0
              174.836025,-36.857424,0
              174.836019,-36.857778,0
              174.836328,-36.857963,0
              174.836322,-36.858313,0
              174.835559,-36.85836,0
              174.835519,-36.858321,0
              174.835487,-36.858433,0
              174.835542,-36.858421,0
              174.835382,-36.858974,0
              174.836105,-36.85893,0
              174.836179,-36.859392,0
              174.836431,-36.859377,0
              174.836479,-36.859963,0
              174.837146,-36.860317,0
              174.837124,-36.86064,0
              174.83702,-36.86071,0
              174.836188,-36.860647,0
              174.835216,-36.860949,0
              174.83553,-36.861567,0
              174.835819,-36.861884,0
              174.835757,-36.862385,0
              174.835509,-36.863374,0
              174.835151,-36.864061,0
              174.834939,-36.864839,0
              174.833579,-36.8646,0
              174.833487,-36.865054,0
              174.833607,-36.865019,0
              174.833676,-36.864879,0
              174.833773,-36.864842,0
              174.833926,-36.864896,0
              174.834047,-36.865067,0
              174.83378,-36.864886,0
              174.833572,-36.865086,0
              174.833173,-36.865084,0
              174.833092,-36.865119,0
              174.833103,-36.865196,0
              174.832946,-36.865168,0
              174.832688,-36.865212,0
              174.832455,-36.865317,0
              174.832282,-36.865336,0
              174.835159,-36.865769,0
              174.837828,-36.866731,0
              174.838379,-36.865745,0
              174.83939,-36.865216,0
              174.840449,-36.864845,0
              174.840569,-36.865093,0
              174.840971,-36.864953,0
              174.840802,-36.864722,0
              174.84106,-36.864632,0
              174.841013,-36.86455,0
              174.841263,-36.864463,0
              174.841141,-36.864247,0
              174.841299,-36.86419,0
              174.841227,-36.864062,0
              174.840959,-36.864151,0
              174.840758,-36.863918,0
              174.841221,-36.86366,0
              174.841578,-36.863755,0
              174.841999,-36.86352,0
              174.842068,-36.8636,0
              174.842532,-36.863342,0
              174.842803,-36.86327,0
              174.842886,-36.863474,0
              174.843131,-36.863338,0
              174.843182,-36.863616,0
              174.843365,-36.86348,0
              174.844261,-36.863284,0
              174.84463,-36.863039,0
              174.844972,-36.862659,0
              174.845516,-36.862426,0
              174.846304,-36.859586,0
              174.8458,-36.859496,0
              174.845829,-36.859389,0
              174.845911,-36.859347,0
              174.845963,-36.85916,0
              174.845911,-36.859094,0
              174.84594,-36.858991,0
              174.846444,-36.859081,0
              174.846626,-36.858424,0
              174.846839,-36.858415,0
              174.846932,-36.857985,0
              174.846757,-36.857953,0
              174.846971,-36.85718,0
              174.846836,-36.857047,0
              174.846971,-36.856685,0
              174.847102,-36.856708,0
              174.847909,-36.853798,0
              174.847103,-36.853585,0
              174.847051,-36.853644,0
              174.847001,-36.853484,0
              174.846782,-36.853415,0
              174.846796,-36.852337,0
              174.84667,-36.852223,0
              174.846881,-36.851777,0
              174.847246,-36.851282,0
              174.847704,-36.851002,0
              174.84771,-36.850722,0
            </coordinates>
          </LinearRing>
        </outerBoundaryIs>
      </Polygon>
    </Placemark>
  </Document>
</kml>
