<?xml version="1.0" encoding="UTF-8"?>
<kml xmlns="http://www.opengis.net/kml/2.2">
  <Document>
    <name>Mangere.final</name>
    <Style id="poly-FF0000-1000-0-nodesc-normal">
      <LineStyle>
        <color>ff0000ff</color>
        <width>1</width>
      </LineStyle>
      <PolyStyle>
        <color>000000ff</color>
        <fill>1</fill>
        <outline>1</outline>
      </PolyStyle>
      <BalloonStyle>
        <text><![CDATA[<h3>$[name]</h3>]]></text>
      </BalloonStyle>
    </Style>
    <Style id="poly-FF0000-1000-0-nodesc-highlight">
      <LineStyle>
        <color>ff0000ff</color>
        <width>1.5</width>
      </LineStyle>
      <PolyStyle>
        <color>000000ff</color>
        <fill>1</fill>
        <outline>1</outline>
      </PolyStyle>
      <BalloonStyle>
        <text><![CDATA[<h3>$[name]</h3>]]></text>
      </BalloonStyle>
    </Style>
    <StyleMap id="poly-FF0000-1000-0-nodesc">
      <Pair>
        <key>normal</key>
        <styleUrl>#poly-FF0000-1000-0-nodesc-normal</styleUrl>
      </Pair>
      <Pair>
        <key>highlight</key>
        <styleUrl>#poly-FF0000-1000-0-nodesc-highlight</styleUrl>
      </Pair>
    </StyleMap>
    <Placemark>
      <name>Joined Boundary</name>
      <styleUrl>#poly-FF0000-1000-0-nodesc</styleUrl>
      <Polygon>
        <outerBoundaryIs>
          <LinearRing>
            <tessellate>1</tessellate>
            <coordinates>
              174.799324,-36.994743,0
              174.799321,-36.99463,0
              174.799511,-36.994402,0
              174.800073,-36.994392,0
              174.800351,-36.994298,0
              174.800883,-36.99422,0
              174.801242,-36.993989,0
              174.801492,-36.993895,0
              174.802475,-36.993877,0
              174.802529,-36.993809,0
              174.802496,-36.993606,0
              174.802203,-36.993183,0
              174.801828,-36.992806,0
              174.801399,-36.992522,0
              174.801172,-36.992435,0
              174.800891,-36.992417,0
              174.800661,-36.992264,0
              174.800561,-36.991657,0
              174.800229,-36.990829,0
              174.800055,-36.990606,0
              174.799741,-36.990432,0
              174.799322,-36.990484,0
              174.798934,-36.990716,0
              174.798212,-36.991045,0
              174.797822,-36.991141,0
              174.797625,-36.991144,0
              174.797517,-36.991097,0
              174.797649,-36.990986,0
              174.798538,-36.990588,0
              174.798648,-36.990496,0
              174.798697,-36.990292,0
              174.798611,-36.990227,0
              174.797991,-36.990147,0
              174.797764,-36.990061,0
              174.797192,-36.989665,0
              174.796569,-36.989473,0
              174.796008,-36.989505,0
              174.795563,-36.989649,0
              174.795149,-36.989926,0
              174.794344,-36.990323,0
              174.793904,-36.990646,0
              174.793621,-36.990606,0
              174.792933,-36.990055,0
              174.792834,-36.989516,0
              174.792745,-36.989359,0
              174.792573,-36.989227,0
              174.792006,-36.989034,0
              174.791558,-36.989087,0
              174.791289,-36.989047,0
              174.791553,-36.988884,0
              174.791742,-36.988633,0
              174.79162,-36.988252,0
              174.791889,-36.987819,0
              174.791937,-36.987503,0
              174.791897,-36.987075,0
              174.791979,-36.986984,0
              174.792181,-36.987183,0
              174.792241,-36.98734,0
              174.792251,-36.987678,0
              174.792179,-36.988152,0
              174.792216,-36.988489,0
              174.792705,-36.988909,0
              174.793216,-36.989103,0
              174.794174,-36.989199,0
              174.794734,-36.989144,0
              174.795341,-36.988728,0
              174.795902,-36.988673,0
              174.797285,-36.988965,0
              174.797911,-36.989269,0
              174.798193,-36.989265,0
              174.798386,-36.989171,0
              174.798797,-36.988781,0
              174.799244,-36.988683,0
              174.799448,-36.988491,0
              174.799475,-36.987868,0
              174.799271,-36.987601,0
              174.798848,-36.987518,0
              174.798204,-36.98762,0
              174.797783,-36.987627,0
              174.797143,-36.987322,0
              174.796963,-36.987065,0
              174.797047,-36.986966,0
              174.797271,-36.986987,0
              174.797435,-36.986796,0
              174.797572,-36.986766,0
              174.797718,-36.986611,0
              174.797819,-36.986599,0
              174.798086,-36.986691,0
              174.798658,-36.986492,0
              174.798273,-36.986018,0
              174.798065,-36.985572,0
              174.797803,-36.985215,0
              174.79708,-36.984484,0
              174.796983,-36.984205,0
              174.796943,-36.983723,0
              174.796774,-36.983356,0
              174.796813,-36.983149,0
              174.796645,-36.982707,0
              174.796845,-36.982932,0
              174.796953,-36.982909,0
              174.797157,-36.983153,0
              174.797366,-36.983645,0
              174.797851,-36.98393,0
              174.798086,-36.983955,0
              174.798358,-36.98378,0
              174.798454,-36.983333,0
              174.798931,-36.982013,0
              174.798946,-36.981812,0
              174.799039,-36.981656,0
              174.79913,-36.981032,0
              174.799088,-36.980931,0
              174.798715,-36.980606,0
              174.798543,-36.980262,0
              174.798735,-36.980337,0
              174.798885,-36.980591,0
              174.799255,-36.980876,0
              174.799344,-36.981009,0
              174.799403,-36.981894,0
              174.799493,-36.982236,0
              174.799411,-36.982397,0
              174.79943,-36.983091,0
              174.799517,-36.983286,0
              174.799993,-36.983987,0
              174.800246,-36.984159,0
              174.800699,-36.984308,0
              174.801272,-36.984319,0
              174.801455,-36.984268,0
              174.801677,-36.984111,0
              174.801643,-36.983887,0
              174.801262,-36.98333,0
              174.801172,-36.982069,0
              174.80128,-36.981887,0
              174.801344,-36.981937,0
              174.801448,-36.981522,0
              174.801481,-36.981818,0
              174.801423,-36.981997,0
              174.8015,-36.982269,0
              174.801588,-36.98234,0
              174.801568,-36.982865,0
              174.80162,-36.983053,0
              174.801768,-36.983321,0
              174.802261,-36.983946,0
              174.802383,-36.984187,0
              174.802355,-36.984405,0
              174.802029,-36.98469,0
              174.802075,-36.985343,0
              174.802029,-36.985728,0
              174.802209,-36.986129,0
              174.802666,-36.986415,0
              174.80306,-36.986453,0
              174.803281,-36.986314,0
              174.803308,-36.986246,0
              174.803291,-36.985609,0
              174.803529,-36.985765,0
              174.803703,-36.985782,0
              174.804057,-36.985535,0
              174.804103,-36.986025,0
              174.803955,-36.986351,0
              174.803835,-36.986813,0
              174.803733,-36.986962,0
              174.803405,-36.987201,0
              174.803228,-36.987425,0
              174.803116,-36.987712,0
              174.803068,-36.988214,0
              174.802892,-36.988536,0
              174.803092,-36.989697,0
              174.803377,-36.989873,0
              174.803744,-36.989912,0
              174.803974,-36.989777,0
              174.803998,-36.98953,0
              174.803901,-36.989165,0
              174.803983,-36.988817,0
              174.804233,-36.988469,0
              174.804403,-36.987923,0
              174.804544,-36.987871,0
              174.804599,-36.987931,0
              174.804592,-36.988371,0
              174.8047,-36.988751,0
              174.804993,-36.988939,0
              174.805657,-36.988977,0
              174.805916,-36.989139,0
              174.805661,-36.989096,0
              174.805546,-36.989152,0
              174.805199,-36.989485,0
              174.805088,-36.98966,0
              174.805112,-36.990153,0
              174.805194,-36.990437,0
              174.805134,-36.990584,0
              174.805143,-36.990766,0
              174.805293,-36.991057,0
              174.805663,-36.991275,0
              174.806846,-36.991367,0
              174.807067,-36.991228,0
              174.807135,-36.991135,0
              174.80717,-36.990905,0
              174.807495,-36.990488,0
              174.808107,-36.990218,0
              174.808891,-36.990137,0
              174.809167,-36.989951,0
              174.809419,-36.989925,0
              174.809368,-36.990106,0
              174.808759,-36.990477,0
              174.808486,-36.990707,0
              174.808325,-36.991003,0
              174.808365,-36.991476,0
              174.808612,-36.991912,0
              174.808694,-36.992191,0
              174.808702,-36.992484,0
              174.808647,-36.992552,0
              174.808428,-36.992567,0
              174.808242,-36.992476,0
              174.807967,-36.992469,0
              174.807881,-36.992322,0
              174.807764,-36.99229,0
              174.807436,-36.992292,0
              174.807269,-36.992443,0
              174.807343,-36.992662,0
              174.807294,-36.992928,0
              174.80736,-36.993066,0
              174.807293,-36.993159,0
              174.807278,-36.993369,0
              174.807188,-36.993479,0
              174.807151,-36.99372,0
              174.807145,-36.994109,0
              174.807213,-36.994538,0
              174.807534,-36.995246,0
              174.807725,-36.995363,0
              174.807693,-36.995457,0
              174.807888,-36.995569,0
              174.80844,-36.995188,0
              174.808635,-36.994991,0
              174.808974,-36.99481,0
              174.809242,-36.994567,0
              174.810015,-36.994286,0
              174.811159,-36.993996,0
              174.811352,-36.993857,0
              174.811317,-36.993632,0
              174.810802,-36.993281,0
              174.810743,-36.993147,0
              174.81074,-36.992614,0
              174.810856,-36.992829,0
              174.811058,-36.992863,0
              174.811428,-36.99278,0
              174.811677,-36.992354,0
              174.811821,-36.992287,0
              174.811805,-36.992418,0
              174.811885,-36.992634,0
              174.811847,-36.992845,0
              174.811975,-36.993035,0
              174.812385,-36.993019,0
              174.812392,-36.99306,0
              174.812248,-36.993127,0
              174.812659,-36.993405,0
              174.812915,-36.993495,0
              174.813871,-36.993497,0
              174.815237,-36.993135,0
              174.816414,-36.993157,0
              174.816608,-36.993095,0
              174.817051,-36.992676,0
              174.817775,-36.992411,0
              174.818062,-36.992044,0
              174.819215,-36.991624,0
              174.819365,-36.991479,0
              174.819447,-36.991169,0
              174.819438,-36.990983,0
              174.819215,-36.990862,0
              174.819109,-36.99059,0
              174.818831,-36.990273,0
              174.818655,-36.990109,0
              174.81793,-36.989911,0
              174.817754,-36.989825,0
              174.817373,-36.989444,0
              174.817666,-36.989525,0
              174.817951,-36.989685,0
              174.818078,-36.989701,0
              174.818185,-36.989619,0
              174.81793,-36.989084,0
              174.817674,-36.988744,0
              174.817216,-36.988436,0
              174.816094,-36.988428,0
              174.815833,-36.988486,0
              174.815605,-36.988479,0
              174.81549,-36.988535,0
              174.815388,-36.9887,0
              174.81506,-36.988785,0
              174.815108,-36.988606,0
              174.815081,-36.988429,0
              174.814851,-36.988207,0
              174.814722,-36.988187,0
              174.814492,-36.988628,0
              174.814386,-36.988569,0
              174.814194,-36.988553,0
              174.81354,-36.98869,0
              174.813533,-36.988634,0
              174.813882,-36.988444,0
              174.814071,-36.988239,0
              174.813716,-36.987822,0
              174.812624,-36.986917,0
              174.812157,-36.986249,0
              174.812065,-36.986003,0
              174.812119,-36.985934,0
              174.812288,-36.985954,0
              174.813288,-36.986567,0
              174.814282,-36.986978,0
              174.814875,-36.987058,0
              174.815043,-36.986825,0
              174.815256,-36.986769,0
              174.815424,-36.986486,0
              174.815444,-36.986387,0
              174.815369,-36.986188,0
              174.815672,-36.985664,0
              174.815625,-36.985397,0
              174.815702,-36.985211,0
              174.815852,-36.985398,0
              174.816167,-36.985488,0
              174.816029,-36.985733,0
              174.816031,-36.986181,0
              174.815825,-36.986883,0
              174.815861,-36.98713,0
              174.816237,-36.98731,0
              174.81688,-36.987428,0
              174.816989,-36.987336,0
              174.816879,-36.987127,0
              174.816949,-36.986981,0
              174.817134,-36.986949,0
              174.817378,-36.986988,0
              174.817815,-36.98672,0
              174.81794,-36.986701,0
              174.81791,-36.986953,0
              174.817962,-36.987104,0
              174.81791,-36.987439,0
              174.817996,-36.987684,0
              174.818222,-36.988023,0
              174.818402,-36.988133,0
              174.818464,-36.988436,0
              174.818567,-36.988525,0
              174.818648,-36.988524,0
              174.818605,-36.988031,0
              174.819137,-36.986984,0
              174.819128,-36.986734,0
              174.819264,-36.986275,0
              174.819316,-36.98577,0
              174.819169,-36.985383,0
              174.818893,-36.985016,0
              174.818711,-36.984928,0
              174.818219,-36.984848,0
              174.818496,-36.984677,0
              174.818562,-36.984244,0
              174.818385,-36.984049,0
              174.818121,-36.983936,0
              174.817854,-36.983448,0
              174.817693,-36.983293,0
              174.817766,-36.983275,0
              174.817851,-36.983297,0
              174.817997,-36.983403,0
              174.818117,-36.983373,0
              174.818371,-36.983436,0
              174.81883,-36.983125,0
              174.819002,-36.982783,0
              174.818891,-36.982707,0
              174.819092,-36.982603,0
              174.819134,-36.982521,0
              174.819164,-36.982283,0
              174.818883,-36.981742,0
              174.818989,-36.981414,0
              174.818977,-36.980856,0
              174.818826,-36.980464,0
              174.819013,-36.979944,0
              174.819505,-36.979713,0
              174.819647,-36.979551,0
              174.819665,-36.979377,0
              174.819462,-36.978795,0
              174.819549,-36.977757,0
              174.819483,-36.97746,0
              174.819576,-36.977771,0
              174.819519,-36.978527,0
              174.819822,-36.979065,0
              174.819958,-36.97912,0
              174.819983,-36.979183,0
              174.819921,-36.979372,0
              174.819699,-36.979606,0
              174.819634,-36.979785,0
              174.819291,-36.980068,0
              174.819211,-36.980244,0
              174.819217,-36.980446,0
              174.819519,-36.980786,0
              174.819733,-36.980883,0
              174.819949,-36.980873,0
              174.819978,-36.980921,0
              174.819913,-36.980997,0
              174.819704,-36.981054,0
              174.819718,-36.981317,0
              174.819563,-36.981815,0
              174.819629,-36.982658,0
              174.819581,-36.98318,0
              174.819297,-36.984411,0
              174.819418,-36.984702,0
              174.819533,-36.98479,0
              174.819753,-36.984769,0
              174.819908,-36.984474,0
              174.820127,-36.984268,0
              174.820178,-36.984037,0
              174.820499,-36.983367,0
              174.820548,-36.983312,0
              174.820629,-36.983252,0
              174.820937,-36.983079,0
              174.821207,-36.98248,0
              174.821108,-36.982805,0
              174.820964,-36.983089,0
              174.820586,-36.983289,0
              174.820409,-36.983667,0
              174.820185,-36.985122,0
              174.819794,-36.98582,0
              174.819791,-36.986047,0
              174.819941,-36.986383,0
              174.819864,-36.986677,0
              174.819968,-36.986878,0
              174.81993,-36.987332,0
              174.819803,-36.987704,0
              174.819542,-36.988004,0
              174.819642,-36.988168,0
              174.81939,-36.988401,0
              174.819366,-36.988481,0
              174.819455,-36.988638,0
              174.819204,-36.988991,0
              174.819169,-36.98912,0
              174.819228,-36.989269,0
              174.819152,-36.989289,0
              174.819814,-36.989945,0
              174.819931,-36.990123,0
              174.820212,-36.991155,0
              174.820282,-36.991695,0
              174.820432,-36.992008,0
              174.820718,-36.992183,0
              174.821248,-36.992038,0
              174.822244,-36.991345,0
              174.822243,-36.991283,0
              174.822627,-36.991196,0
              174.823032,-36.991022,0
              174.823507,-36.991129,0
              174.823679,-36.991095,0
              174.823713,-36.991014,0
              174.823644,-36.990936,0
              174.823667,-36.990874,0
              174.823806,-36.990881,0
              174.823921,-36.990943,0
              174.824258,-36.990859,0
              174.824247,-36.990976,0
              174.82392,-36.991135,0
              174.824035,-36.991245,0
              174.824243,-36.99167,0
              174.82479,-36.992134,0
              174.825469,-36.992324,0
              174.826144,-36.992358,0
              174.826511,-36.992419,0
              174.826824,-36.99253,0
              174.827277,-36.992465,0
              174.82711,-36.99268,0
              174.827442,-36.993005,0
              174.827837,-36.993635,0
              174.828001,-36.993753,0
              174.828341,-36.993634,0
              174.828437,-36.993649,0
              174.82887,-36.993436,0
              174.829489,-36.993279,0
              174.829756,-36.993093,0
              174.830187,-36.992729,0
              174.830654,-36.99177,0
              174.830705,-36.991514,0
              174.830873,-36.991368,0
              174.831271,-36.991218,0
              174.832192,-36.990507,0
              174.832086,-36.990402,0
              174.832134,-36.990337,0
              174.832461,-36.990255,0
              174.832513,-36.990014,0
              174.832383,-36.989708,0
              174.832126,-36.989599,0
              174.83206,-36.989512,0
              174.83208,-36.989358,0
              174.832222,-36.989253,0
              174.832514,-36.989117,0
              174.832829,-36.988874,0
              174.833258,-36.988732,0
              174.83351,-36.988735,0
              174.833943,-36.988855,0
              174.834341,-36.988827,0
              174.834539,-36.988769,0
              174.834694,-36.988656,0
              174.835363,-36.988732,0
              174.835436,-36.988619,0
              174.835848,-36.988389,0
              174.835952,-36.988468,0
              174.836022,-36.988429,0
              174.836297,-36.987816,0
              174.836588,-36.987591,0
              174.836566,-36.987322,0
              174.83634,-36.987334,0
              174.836286,-36.987152,0
              174.836176,-36.987011,0
              174.834074,-36.98533,0
              174.833945,-36.985013,0
              174.831954,-36.983253,0
              174.831842,-36.983351,0
              174.830746,-36.982679,0
              174.83059,-36.982183,0
              174.829945,-36.981759,0
              174.829734,-36.981971,0
              174.829585,-36.981825,0
              174.830222,-36.981188,0
              174.82977,-36.981329,0
              174.829911,-36.981188,0
              174.829673,-36.981035,0
              174.830201,-36.980507,0
              174.830338,-36.980493,0
              174.83099,-36.97978,0
              174.830765,-36.979614,0
              174.831121,-36.979258,0
              174.831383,-36.978909,0
              174.831623,-36.979063,0
              174.832795,-36.977891,0
              174.83293,-36.977866,0
              174.833065,-36.977731,0
              174.833141,-36.97778,0
              174.833417,-36.977504,0
              174.833438,-36.977315,0
              174.833804,-36.976952,0
              174.834047,-36.976601,0
              174.835805,-36.974852,0
              174.836281,-36.975036,0
              174.836454,-36.974902,0
              174.836256,-36.974825,0
              174.836501,-36.974417,0
              174.836862,-36.974557,0
              174.837075,-36.974198,0
              174.837526,-36.974074,0
              174.837618,-36.973632,0
              174.837489,-36.973582,0
              174.837243,-36.97399,0
              174.836551,-36.973722,0
              174.836751,-36.97339,0
              174.8365,-36.973185,0
              174.83596,-36.97294,0
              174.835707,-36.973345,0
              174.835733,-36.973405,0
              174.835315,-36.973243,0
              174.835573,-36.972814,0
              174.835265,-36.972563,0
              174.839845,-36.968952,0
              174.840267,-36.968866,0
              174.840319,-36.968361,0
              174.840797,-36.968361,0
              174.840816,-36.96818,0
              174.840418,-36.968154,0
              174.840273,-36.968183,0
              174.840315,-36.967777,0
              174.839961,-36.967754,0
              174.839782,-36.96779,0
              174.839749,-36.967686,0
              174.840755,-36.966895,0
              174.840512,-36.966696,0
              174.840948,-36.96657,0
              174.841277,-36.96663,0
              174.841431,-36.966395,0
              174.841215,-36.966071,0
              174.841483,-36.96589,0
              174.841459,-36.965669,0
              174.84076,-36.965405,0
              174.837349,-36.960334,0
              174.837549,-36.960248,0
              174.835981,-36.957895,0
              174.835615,-36.957267,0
              174.835333,-36.956024,0
              174.835061,-36.95616,0
              174.834935,-36.955985,0
              174.834728,-36.956233,0
              174.834528,-36.955339,0
              174.833802,-36.950521,0
              174.833669,-36.950169,0
              174.833525,-36.949225,0
              174.833041,-36.949254,0
              174.833016,-36.949092,0
              174.833478,-36.949047,0
              174.833248,-36.948521,0
              174.832934,-36.948552,0
              174.832631,-36.946558,0
              174.832407,-36.946581,0
              174.832636,-36.9451,0
              174.832046,-36.941298,0
              174.832335,-36.941531,0
              174.831706,-36.937535,0
              174.831305,-36.937691,0
              174.831166,-36.938015,0
              174.82983,-36.938195,0
              174.829561,-36.940826,0
              174.830206,-36.941835,0
              174.830003,-36.941857,0
              174.829582,-36.941725,0
              174.829202,-36.941769,0
              174.829078,-36.941578,0
              174.828627,-36.941369,0
              174.828354,-36.941085,0
              174.828305,-36.941333,0
              174.828336,-36.941588,0
              174.828539,-36.941912,0
              174.828542,-36.942241,0
              174.828606,-36.942481,0
              174.828541,-36.942654,0
              174.828634,-36.943001,0
              174.828583,-36.943218,0
              174.828733,-36.943568,0
              174.828672,-36.944044,0
              174.829011,-36.944734,0
              174.829354,-36.944914,0
              174.829267,-36.945078,0
              174.82909,-36.945029,0
              174.829266,-36.944941,0
              174.82918,-36.944887,0
              174.82897,-36.944895,0
              174.828503,-36.945127,0
              174.827852,-36.945551,0
              174.827205,-36.946396,0
              174.827021,-36.946225,0
              174.826978,-36.946082,0
              174.826819,-36.945884,0
              174.826463,-36.945609,0
              174.826086,-36.945522,0
              174.825704,-36.945521,0
              174.825246,-36.945417,0
              174.825009,-36.945408,0
              174.824711,-36.945268,0
              174.824533,-36.945118,0
              174.823859,-36.945608,0
              174.823899,-36.945671,0
              174.823803,-36.945757,0
              174.823228,-36.946108,0
              174.823168,-36.946074,0
              174.822514,-36.946404,0
              174.822215,-36.945927,0
              174.821028,-36.946406,0
              174.821597,-36.947298,0
              174.82133,-36.947478,0
              174.821198,-36.947437,0
              174.82106,-36.947549,0
              174.821117,-36.94764,0
              174.821001,-36.947979,0
              174.820721,-36.948281,0
              174.820316,-36.94854,0
              174.819923,-36.948649,0
              174.819596,-36.948833,0
              174.819344,-36.949323,0
              174.818925,-36.949317,0
              174.816476,-36.948824,0
              174.81657,-36.94856,0
              174.816378,-36.948533,0
              174.816337,-36.948408,0
              174.816224,-36.948347,0
              174.816156,-36.948228,0
              174.816202,-36.948076,0
              174.816101,-36.948041,0
              174.816034,-36.947942,0
              174.81591,-36.947936,0
              174.815874,-36.947845,0
              174.815656,-36.948106,0
              174.815023,-36.948455,0
              174.815166,-36.94824,0
              174.815536,-36.947971,0
              174.815581,-36.947869,0
              174.815491,-36.947764,0
              174.815142,-36.947695,0
              174.81483,-36.947509,0
              174.814814,-36.9474,0
              174.815261,-36.947276,0
              174.815343,-36.947196,0
              174.815554,-36.947185,0
              174.815874,-36.947076,0
              174.81615,-36.947063,0
              174.816448,-36.947196,0
              174.816672,-36.947115,0
              174.81653,-36.947099,0
              174.816541,-36.946942,0
              174.816259,-36.946694,0
              174.816174,-36.946546,0
              174.816203,-36.946439,0
              174.816335,-36.94636,0
              174.816336,-36.946311,0
              174.816116,-36.94588,0
              174.815871,-36.945775,0
              174.815794,-36.945635,0
              174.816139,-36.945461,0
              174.816046,-36.945269,0
              174.816067,-36.945136,0
              174.816231,-36.945098,0
              174.816465,-36.945123,0
              174.816356,-36.945053,0
              174.81629,-36.944878,0
              174.816405,-36.944437,0
              174.816394,-36.944195,0
              174.816891,-36.94383,0
              174.817096,-36.943591,0
              174.817158,-36.943392,0
              174.817156,-36.943096,0
              174.817077,-36.942977,0
              174.816879,-36.942911,0
              174.815873,-36.942904,0
              174.815192,-36.943058,0
              174.815106,-36.94309,0
              174.81512,-36.943124,0
              174.814805,-36.943124,0
              174.814804,-36.943166,0
              174.814407,-36.9432,0
              174.814373,-36.943114,0
              174.814328,-36.943116,0
              174.814095,-36.943198,0
              174.813739,-36.943437,0
              174.813219,-36.943691,0
              174.812886,-36.943801,0
              174.812511,-36.943845,0
              174.812257,-36.94382,0
              174.812227,-36.943759,0
              174.812091,-36.943753,0
              174.81126,-36.944,0
              174.811276,-36.944037,0
              174.811071,-36.944119,0
              174.810722,-36.944144,0
              174.810483,-36.94427,0
              174.810354,-36.944264,0
              174.809752,-36.944572,0
              174.809139,-36.944803,0
              174.808673,-36.945123,0
              174.80857,-36.945119,0
              174.808071,-36.945306,0
              174.807785,-36.945502,0
              174.807752,-36.945601,0
              174.807633,-36.945703,0
              174.807318,-36.945862,0
              174.806952,-36.946125,0
              174.806771,-36.946401,0
              174.806482,-36.946602,0
              174.80645,-36.946557,0
              174.806326,-36.946542,0
              174.806284,-36.946684,0
              174.806145,-36.946689,0
              174.806073,-36.946753,0
              174.805964,-36.946768,0
              174.8058,-36.946911,0
              174.805559,-36.946945,0
              174.805431,-36.94702,0
              174.805329,-36.947109,0
              174.805197,-36.947362,0
              174.804524,-36.947535,0
              174.804305,-36.947716,0
              174.804032,-36.947808,0
              174.803655,-36.948029,0
              174.802695,-36.948197,0
              174.802233,-36.948388,0
              174.80173,-36.948409,0
              174.801349,-36.948665,0
              174.800947,-36.948842,0
              174.800717,-36.9491,0
              174.799741,-36.94904,0
              174.798715,-36.949221,0
              174.798302,-36.949428,0
              174.797967,-36.949482,0
              174.797471,-36.949798,0
              174.797303,-36.949835,0
              174.797078,-36.950062,0
              174.796893,-36.95016,0
              174.796777,-36.949886,0
              174.796893,-36.94978,0
              174.797098,-36.949259,0
              174.797255,-36.949089,0
              174.797474,-36.949007,0
              174.797583,-36.94891,0
              174.797761,-36.948575,0
              174.798056,-36.948354,0
              174.798214,-36.948117,0
              174.798382,-36.947976,0
              174.798372,-36.947881,0
              174.798139,-36.947676,0
              174.798131,-36.947581,0
              174.798341,-36.947541,0
              174.79888,-36.947686,0
              174.799283,-36.947603,0
              174.799461,-36.947628,0
              174.799668,-36.947519,0
              174.799583,-36.947419,0
              174.799537,-36.947239,0
              174.799648,-36.946686,0
              174.799631,-36.946509,0
              174.799008,-36.945826,0
              174.798299,-36.944562,0
              174.79836,-36.944166,0
              174.798479,-36.94392,0
              174.798316,-36.943488,0
              174.797715,-36.943075,0
              174.797251,-36.942886,0
              174.796783,-36.942941,0
              174.796284,-36.942844,0
              174.795643,-36.942934,0
              174.795357,-36.942909,0
              174.795246,-36.942505,0
              174.795482,-36.942452,0
              174.796143,-36.942612,0
              174.796362,-36.942553,0
              174.79648,-36.942352,0
              174.796593,-36.942311,0
              174.796847,-36.942351,0
              174.797269,-36.942186,0
              174.79716,-36.941954,0
              174.796758,-36.941913,0
              174.79589,-36.941578,0
              174.79472,-36.941489,0
              174.794436,-36.941648,0
              174.794194,-36.941694,0
              174.794131,-36.941622,0
              174.793902,-36.941565,0
              174.793807,-36.941153,0
              174.793652,-36.940821,0
              174.793635,-36.94088,0
              174.793353,-36.940567,0
              174.79306,-36.940364,0
              174.792354,-36.940129,0
              174.791977,-36.940103,0
              174.791494,-36.940156,0
              174.791415,-36.939843,0
              174.791018,-36.939207,0
              174.790732,-36.938537,0
              174.790395,-36.937621,0
              174.79008,-36.936349,0
              174.789942,-36.936026,0
              174.789801,-36.93581,0
              174.789456,-36.935519,0
              174.788888,-36.935393,0
              174.788934,-36.935685,0
              174.788755,-36.935924,0
              174.788578,-36.936009,0
              174.787976,-36.936024,0
              174.787727,-36.93608,0
              174.787675,-36.936164,0
              174.787693,-36.937293,0
              174.787609,-36.937412,0
              174.786806,-36.937434,0
              174.786438,-36.937364,0
              174.786429,-36.936534,0
              174.786107,-36.936549,0
              174.786112,-36.93831,0
              174.785991,-36.938349,0
              174.786102,-36.938513,0
              174.786101,-36.938682,0
              174.78587,-36.938855,0
              174.78572,-36.938879,0
              174.785679,-36.938833,0
              174.78561,-36.9389,0
              174.785213,-36.938969,0
              174.78537,-36.939392,0
              174.785281,-36.939413,0
              174.785002,-36.940156,0
              174.784536,-36.940308,0
              174.784068,-36.940232,0
              174.784094,-36.940136,0
              174.784045,-36.940086,0
              174.783933,-36.940107,0
              174.783846,-36.939803,0
              174.783993,-36.939726,0
              174.784055,-36.93953,0
              174.784025,-36.93941,0
              174.783909,-36.93937,0
              174.783476,-36.939378,0
              174.783131,-36.93952,0
              174.782731,-36.939549,0
              174.782529,-36.939667,0
              174.782285,-36.939626,0
              174.781969,-36.939753,0
              174.78159,-36.939691,0
              174.781257,-36.939515,0
              174.781154,-36.939387,0
              174.780847,-36.939322,0
              174.780656,-36.939002,0
              174.780349,-36.938877,0
              174.780135,-36.93887,0
              174.779964,-36.938929,0
              174.779694,-36.939179,0
              174.779293,-36.939122,0
              174.778919,-36.938805,0
              174.778794,-36.938252,0
              174.77892,-36.937702,0
              174.778656,-36.937595,0
              174.777973,-36.937621,0
              174.777758,-36.93767,0
              174.777594,-36.937874,0
              174.77754,-36.938196,0
              174.777229,-36.938382,0
              174.777337,-36.938577,0
              174.777306,-36.938739,0
              174.777364,-36.938896,0
              174.777479,-36.938962,0
              174.777765,-36.938975,0
              174.777906,-36.939141,0
              174.777922,-36.939363,0
              174.777771,-36.939587,0
              174.77733,-36.939824,0
              174.776661,-36.940093,0
              174.776501,-36.940333,0
              174.774812,-36.940828,0
              174.774447,-36.940821,0
              174.774156,-36.940762,0
              174.773713,-36.940578,0
              174.77362,-36.940482,0
              174.773453,-36.940441,0
              174.773346,-36.940303,0
              174.773018,-36.940159,0
              174.772637,-36.940125,0
              174.772436,-36.940187,0
              174.772243,-36.940181,0
              174.771896,-36.940469,0
              174.771442,-36.940502,0
              174.771013,-36.940337,0
              174.770815,-36.940399,0
              174.770588,-36.940355,0
              174.770507,-36.940142,0
              174.770341,-36.940266,0
              174.770215,-36.940281,0
              174.769977,-36.940206,0
              174.769856,-36.940083,0
              174.768836,-36.94046,0
              174.769041,-36.940473,0
              174.768905,-36.940747,0
              174.768756,-36.940868,0
              174.768283,-36.941011,0
              174.767946,-36.941175,0
              174.767739,-36.941199,0
              174.767428,-36.941065,0
              174.765551,-36.939929,0
              174.765395,-36.939665,0
              174.764816,-36.939522,0
              174.764395,-36.939225,0
              174.764236,-36.940064,0
              174.764089,-36.940211,0
              174.762745,-36.940693,0
              174.762712,-36.941482,0
              174.76257,-36.941631,0
              174.76246,-36.941662,0
              174.762143,-36.941518,0
              174.761869,-36.941267,0
              174.761809,-36.941152,0
              174.761956,-36.941006,0
              174.762275,-36.940869,0
              174.76187,-36.940793,0
              174.761776,-36.940705,0
              174.761758,-36.94059,0
              174.761985,-36.940209,0
              174.762319,-36.939935,0
              174.762274,-36.939872,0
              174.762164,-36.93984,0
              174.762078,-36.939659,0
              174.761828,-36.939588,0
              174.761737,-36.939644,0
              174.761632,-36.939863,0
              174.761535,-36.939873,0
              174.76124,-36.93975,0
              174.761213,-36.939939,0
              174.760983,-36.939921,0
              174.76083,-36.940003,0
              174.760922,-36.940162,0
              174.761149,-36.940089,0
              174.761336,-36.940134,0
              174.761403,-36.940384,0
              174.761337,-36.940456,0
              174.761222,-36.940471,0
              174.760713,-36.940292,0
              174.760151,-36.940433,0
              174.759986,-36.940328,0
              174.75962,-36.940548,0
              174.759362,-36.940561,0
              174.758889,-36.940825,0
              174.758487,-36.940786,0
              174.758476,-36.940924,0
              174.758605,-36.941052,0
              174.75843,-36.941168,0
              174.7582,-36.941147,0
              174.758202,-36.940981,0
              174.757787,-36.94073,0
              174.757686,-36.940805,0
              174.757649,-36.940912,0
              174.757793,-36.941396,0
              174.75769,-36.9415,0
              174.75746,-36.941593,0
              174.757335,-36.94187,0
              174.756921,-36.941907,0
              174.756759,-36.941744,0
              174.756493,-36.941683,0
              174.756104,-36.941807,0
              174.755952,-36.941933,0
              174.755932,-36.942047,0
              174.755995,-36.942174,0
              174.756345,-36.942444,0
              174.756761,-36.942896,0
              174.756788,-36.94299,0
              174.75661,-36.943154,0
              174.756722,-36.943241,0
              174.756686,-36.943296,0
              174.756568,-36.943334,0
              174.756198,-36.943323,0
              174.755992,-36.943551,0
              174.755997,-36.9436,0
              174.756163,-36.943697,0
              174.756142,-36.943804,0
              174.756412,-36.943913,0
              174.756048,-36.9441,0
              174.755862,-36.944412,0
              174.755573,-36.944426,0
              174.755492,-36.94449,0
              174.755479,-36.944553,0
              174.755561,-36.944671,0
              174.755472,-36.944924,0
              174.755728,-36.945352,0
              174.755493,-36.945799,0
              174.755189,-36.945934,0
              174.755125,-36.946049,0
              174.755357,-36.946047,0
              174.7557,-36.946204,0
              174.755848,-36.946323,0
              174.755716,-36.946471,0
              174.755433,-36.946654,0
              174.75537,-36.946801,0
              174.755387,-36.947147,0
              174.755678,-36.947303,0
              174.755741,-36.947561,0
              174.756011,-36.947561,0
              174.755981,-36.947656,0
              174.755761,-36.947823,0
              174.755931,-36.947847,0
              174.756039,-36.947916,0
              174.756161,-36.948315,0
              174.756364,-36.948384,0
              174.756437,-36.948517,0
              174.756871,-36.948606,0
              174.756709,-36.948989,0
              174.756496,-36.949061,0
              174.756404,-36.949217,0
              174.75624,-36.949294,0
              174.756333,-36.949544,0
              174.756848,-36.949569,0
              174.757206,-36.949463,0
              174.760045,-36.950776,0
              174.760454,-36.951048,0
              174.760783,-36.951422,0
              174.762826,-36.952012,0
              174.763904,-36.952362,0
              174.764606,-36.952652,0
              174.765117,-36.953089,0
              174.765437,-36.953652,0
              174.765895,-36.954743,0
              174.766352,-36.955214,0
              174.766664,-36.955471,0
              174.767871,-36.955986,0
              174.768277,-36.956102,0
              174.76877,-36.956373,0
              174.768999,-36.956636,0
              174.768767,-36.956796,0
              174.768881,-36.956917,0
              174.768526,-36.957146,0
              174.768316,-36.957617,0
              174.768152,-36.957743,0
              174.768169,-36.957832,0
              174.768032,-36.957934,0
              174.768099,-36.958357,0
              174.768494,-36.958618,0
              174.76932,-36.958314,0
              174.769454,-36.958122,0
              174.769593,-36.958131,0
              174.769784,-36.958017,0
              174.770066,-36.958168,0
              174.770974,-36.957819,0
              174.771053,-36.957639,0
              174.77186,-36.957704,0
              174.772354,-36.957484,0
              174.772715,-36.957489,0
              174.773247,-36.957647,0
              174.773614,-36.957875,0
              174.773958,-36.958271,0
              174.775766,-36.959445,0
              174.775999,-36.959876,0
              174.776106,-36.960371,0
              174.776101,-36.96061,0
              174.775879,-36.961148,0
              174.775486,-36.961556,0
              174.774885,-36.961934,0
              174.774615,-36.96225,0
              174.774276,-36.965823,0
              174.774142,-36.965981,0
              174.773921,-36.966029,0
              174.773881,-36.966096,0
              174.768491,-36.96489,0
              174.764272,-36.964636,0
              174.763029,-36.963689,0
              174.759062,-36.963335,0
              174.758493,-36.963205,0
              174.758181,-36.962913,0
              174.7578,-36.962431,0
              174.757527,-36.961964,0
              174.757345,-36.961842,0
              174.756643,-36.961752,0
              174.756535,-36.96168,0
              174.755935,-36.961798,0
              174.755327,-36.961808,0
              174.754934,-36.961745,0
              174.754702,-36.961597,0
              174.75444,-36.961612,0
              174.754301,-36.961685,0
              174.753389,-36.961525,0
              174.75277,-36.961309,0
              174.752526,-36.961139,0
              174.752637,-36.96099,0
              174.752632,-36.960756,0
              174.752469,-36.960599,0
              174.752538,-36.960527,0
              174.75243,-36.960596,0
              174.752272,-36.960895,0
              174.75118,-36.96088,0
              174.750798,-36.961192,0
              174.750748,-36.961284,0
              174.750228,-36.9612,0
              174.749332,-36.960865,0
              174.749133,-36.960686,0
              174.748991,-36.960301,0
              174.748684,-36.960445,0
              174.748557,-36.960598,0
              174.748299,-36.960626,0
              174.747529,-36.960515,0
              174.747238,-36.960353,0
              174.747012,-36.960557,0
              174.746871,-36.960536,0
              174.746714,-36.960425,0
              174.746159,-36.960433,0
              174.746087,-36.96045,0
              174.746118,-36.96073,0
              174.746034,-36.960764,0
              174.74604,-36.960845,0
              174.745963,-36.960911,0
              174.745223,-36.960858,0
              174.744573,-36.960688,0
              174.74171,-36.960737,0
              174.741316,-36.960699,0
              174.740842,-36.960842,0
              174.740171,-36.960943,0
              174.739778,-36.96095,0
              174.739466,-36.960843,0
              174.738849,-36.960875,0
              174.738651,-36.960812,0
              174.738174,-36.960819,0
              174.737944,-36.960756,0
              174.737287,-36.960706,0
              174.73693,-36.960533,0
              174.73631,-36.960629,0
              174.736059,-36.960471,0
              174.736023,-36.960203,0
              174.735847,-36.960141,0
              174.735688,-36.960175,0
              174.735781,-36.960612,0
              174.73587,-36.960746,0
              174.73588,-36.960981,0
              174.735738,-36.961086,0
              174.735542,-36.961112,0
              174.735421,-36.961199,0
              174.735344,-36.961364,0
              174.735235,-36.961341,0
              174.735146,-36.961157,0
              174.735008,-36.961098,0
              174.73484,-36.961101,0
              174.734589,-36.961196,0
              174.73414,-36.961203,0
              174.73403,-36.961272,0
              174.733981,-36.961566,0
              174.733844,-36.961703,0
              174.73345,-36.961666,0
              174.732796,-36.961338,0
              174.732684,-36.961363,0
              174.73263,-36.961431,0
              174.732663,-36.961633,0
              174.732963,-36.961996,0
              174.732959,-36.961931,0
              174.733116,-36.962002,0
              174.733137,-36.962107,0
              174.732987,-36.962405,0
              174.732576,-36.962621,0
              174.73244,-36.962763,0
              174.732588,-36.962916,0
              174.732879,-36.962955,0
              174.733145,-36.963077,0
              174.733222,-36.963195,0
              174.733611,-36.963511,0
              174.733895,-36.96364,0
              174.734554,-36.964107,0
              174.734605,-36.963944,0
              174.734851,-36.963693,0
              174.734785,-36.96331,0
              174.734886,-36.962881,0
              174.734742,-36.962748,0
              174.734515,-36.962728,0
              174.734374,-36.962796,0
              174.73426,-36.962748,0
              174.73428,-36.962702,0
              174.734561,-36.962376,0
              174.735347,-36.961937,0
              174.735611,-36.961926,0
              174.735671,-36.962009,0
              174.735571,-36.962154,0
              174.735738,-36.962145,0
              174.735881,-36.962255,0
              174.73583,-36.962482,0
              174.735604,-36.962744,0
              174.735571,-36.962879,0
              174.735414,-36.962913,0
              174.735299,-36.963014,0
              174.735369,-36.963175,0
              174.735294,-36.963454,0
              174.735498,-36.963749,0
              174.735503,-36.963973,0
              174.735439,-36.964105,0
              174.735458,-36.964199,0
              174.735338,-36.964367,0
              174.735294,-36.96466,0
              174.735315,-36.964853,0
              174.735681,-36.965346,0
              174.735645,-36.96609,0
              174.735759,-36.966178,0
              174.73594,-36.966185,0
              174.735792,-36.96638,0
              174.735596,-36.966383,0
              174.735453,-36.966273,0
              174.735277,-36.966029,0
              174.73494,-36.966034,0
              174.734684,-36.965903,0
              174.734375,-36.965886,0
              174.734232,-36.965775,0
              174.734173,-36.965776,0
              174.734154,-36.965908,0
              174.733771,-36.966044,0
              174.733543,-36.966222,0
              174.733568,-36.966276,0
              174.7339,-36.966403,0
              174.733735,-36.966582,0
              174.7338,-36.966722,0
              174.734345,-36.966752,0
              174.734792,-36.966669,0
              174.735093,-36.966859,0
              174.735333,-36.967087,0
              174.735412,-36.967459,0
              174.735042,-36.967894,0
              174.734963,-36.968062,0
              174.734988,-36.968128,0
              174.735206,-36.968153,0
              174.735319,-36.968309,0
              174.735567,-36.96825,0
              174.735798,-36.968325,0
              174.736378,-36.968354,0
              174.737386,-36.968583,0
              174.737772,-36.968136,0
              174.737952,-36.968031,0
              174.738087,-36.968016,0
              174.738242,-36.968052,0
              174.738283,-36.96811,0
              174.738224,-36.968647,0
              174.738436,-36.968778,0
              174.738884,-36.968819,0
              174.739314,-36.969017,0
              174.739586,-36.96962,0
              174.739773,-36.969724,0
              174.740181,-36.969805,0
              174.740373,-36.969984,0
              174.740859,-36.969943,0
              174.74135,-36.969967,0
              174.742154,-36.969559,0
              174.742654,-36.969619,0
              174.743441,-36.969873,0
              174.74453,-36.970444,0
              174.744717,-36.970683,0
              174.74512,-36.971462,0
              174.745139,-36.971871,0
              174.745019,-36.972039,0
              174.745037,-36.972174,0
              174.745166,-36.972289,0
              174.745236,-36.972564,0
              174.745209,-36.972638,0
              174.745045,-36.972756,0
              174.745039,-36.972863,0
              174.745108,-36.972913,0
              174.745169,-36.972913,0
              174.74542,-36.972651,0
              174.745624,-36.972676,0
              174.745792,-36.972607,0
              174.745926,-36.972697,0
              174.745931,-36.97275,0
              174.746158,-36.972782,0
              174.746731,-36.972579,0
              174.747489,-36.972477,0
              174.747628,-36.972413,0
              174.748444,-36.971861,0
              174.748984,-36.971354,0
              174.749964,-36.970976,0
              174.750801,-36.970559,0
              174.751179,-36.97027,0
              174.751463,-36.969893,0
              174.751546,-36.969511,0
              174.75195,-36.969175,0
              174.752495,-36.969079,0
              174.752864,-36.969153,0
              174.75382,-36.969919,0
              174.753978,-36.970002,0
              174.754366,-36.970077,0
              174.756031,-36.969879,0
              174.756581,-36.969669,0
              174.756971,-36.969469,0
              174.757091,-36.969314,0
              174.75717,-36.968813,0
              174.756935,-36.968304,0
              174.756401,-36.968067,0
              174.756329,-36.967422,0
              174.756682,-36.967082,0
              174.759927,-36.966873,0
              174.763045,-36.966063,0
              174.765826,-36.967266,0
              174.767946,-36.973027,0
              174.767758,-36.973275,0
              174.768042,-36.973516,0
              174.764599,-36.975757,0
              174.764028,-36.976279,0
              174.763727,-36.976745,0
              174.763591,-36.977083,0
              174.763055,-36.977727,0
              174.762927,-36.977773,0
              174.762598,-36.978059,0
              174.76247,-36.978294,0
              174.762444,-36.97921,0
              174.762205,-36.979333,0
              174.761996,-36.979085,0
              174.761646,-36.978507,0
              174.761346,-36.977843,0
              174.760225,-36.977478,0
              174.759639,-36.977399,0
              174.758174,-36.97769,0
              174.757655,-36.977654,0
              174.75737,-36.978018,0
              174.757043,-36.978092,0
              174.756705,-36.97799,0
              174.756157,-36.977646,0
              174.756058,-36.977441,0
              174.756295,-36.977205,0
              174.756407,-36.977006,0
              174.755815,-36.976681,0
              174.755481,-36.976665,0
              174.755054,-36.97698,0
              174.754728,-36.977462,0
              174.754416,-36.977452,0
              174.75368,-36.977996,0
              174.753559,-36.978327,0
              174.753232,-36.978455,0
              174.753029,-36.979692,0
              174.752817,-36.980074,0
              174.752433,-36.980303,0
              174.752155,-36.980391,0
              174.751304,-36.980417,0
              174.751143,-36.980242,0
              174.750959,-36.980227,0
              174.750543,-36.980309,0
              174.750428,-36.980396,0
              174.750148,-36.980388,0
              174.749677,-36.980481,0
              174.749537,-36.980635,0
              174.74915,-36.980859,0
              174.748564,-36.980808,0
              174.748331,-36.980891,0
              174.74788,-36.981384,0
              174.74761,-36.98134,0
              174.747457,-36.9812,0
              174.747201,-36.981291,0
              174.746892,-36.981566,0
              174.746814,-36.98181,0
              174.746514,-36.982061,0
              174.746614,-36.982099,0
              174.746594,-36.982322,0
              174.74668,-36.982558,0
              174.7465,-36.982694,0
              174.746275,-36.982676,0
              174.746165,-36.982768,0
              174.746285,-36.983138,0
              174.746283,-36.983265,0
              174.746159,-36.983483,0
              174.745989,-36.983619,0
              174.745407,-36.983906,0
              174.745299,-36.984021,0
              174.74491,-36.984186,0
              174.744515,-36.984183,0
              174.744427,-36.984219,0
              174.744022,-36.984178,0
              174.744324,-36.984576,0
              174.744338,-36.984831,0
              174.74417,-36.984963,0
              174.744162,-36.985034,0
              174.74436,-36.985207,0
              174.744392,-36.985438,0
              174.744314,-36.985556,0
              174.743691,-36.985683,0
              174.743574,-36.985862,0
              174.743761,-36.985929,0
              174.743635,-36.985996,0
              174.74364,-36.986041,0
              174.743863,-36.986112,0
              174.743858,-36.986316,0
              174.743716,-36.986457,0
              174.743748,-36.986524,0
              174.743842,-36.986523,0
              174.744081,-36.986647,0
              174.744233,-36.986934,0
              174.744196,-36.987582,0
              174.744218,-36.987678,0
              174.744403,-36.987865,0
              174.744432,-36.988947,0
              174.744336,-36.989241,0
              174.744342,-36.989833,0
              174.744224,-36.990433,0
              174.743955,-36.990932,0
              174.743953,-36.991017,0
              174.743882,-36.991062,0
              174.743819,-36.991291,0
              174.743676,-36.991369,0
              174.743167,-36.991483,0
              174.742363,-36.992025,0
              174.742037,-36.992392,0
              174.741932,-36.992688,0
              174.742001,-36.993031,0
              174.742108,-36.993244,0
              174.742848,-36.994307,0
              174.742896,-36.994467,0
              174.743215,-36.994915,0
              174.743286,-36.995113,0
              174.743324,-36.995654,0
              174.743514,-36.995932,0
              174.743618,-36.996399,0
              174.743457,-36.996698,0
              174.743556,-36.99707,0
              174.743539,-36.997369,0
              174.743593,-36.997453,0
              174.743999,-36.997724,0
              174.74439,-36.998154,0
              174.744476,-36.99817,0
              174.744732,-36.998045,0
              174.745196,-36.998336,0
              174.745391,-36.998359,0
              174.745745,-36.998239,0
              174.746862,-36.998111,0
              174.74705,-36.998165,0
              174.747292,-36.998386,0
              174.747591,-36.998498,0
              174.747979,-36.998543,0
              174.748533,-36.998508,0
              174.748893,-36.998677,0
              174.749449,-36.998744,0
              174.749818,-36.998933,0
              174.750138,-36.998987,0
              174.75089,-36.999321,0
              174.751506,-36.999247,0
              174.752107,-36.999266,0
              174.752646,-36.9994,0
              174.753163,-36.999691,0
              174.753731,-37.000123,0
              174.754592,-37.000587,0
              174.754816,-37.000673,0
              174.755516,-37.000766,0
              174.755941,-37.000963,0
              174.75639,-37.001242,0
              174.75647,-37.001352,0
              174.756706,-37.001414,0
              174.75682,-37.001492,0
              174.757059,-37.001817,0
              174.757266,-37.00196,0
              174.75781,-37.002232,0
              174.75807,-37.002422,0
              174.758756,-37.002733,0
              174.760764,-37.003874,0
              174.762036,-37.00474,0
              174.762621,-37.005057,0
              174.76305,-37.005215,0
              174.763189,-37.005324,0
              174.763348,-37.005589,0
              174.763614,-37.005375,0
              174.763962,-37.004863,0
              174.764178,-37.004814,0
              174.764702,-37.004799,0
              174.765261,-37.004864,0
              174.765393,-37.004843,0
              174.765864,-37.005015,0
              174.767038,-37.005035,0
              174.768519,-37.005357,0
              174.769338,-37.005438,0
              174.769809,-37.005439,0
              174.770234,-37.005515,0
              174.770313,-37.005478,0
              174.770465,-37.005206,0
              174.770825,-37.005252,0
              174.770873,-37.005226,0
              174.770879,-37.005038,0
              174.770992,-37.004812,0
              174.770949,-37.005292,0
              174.771052,-37.005453,0
              174.774889,-37.000334,0
              174.779757,-37.001705,0
              174.781923,-36.998817,0
              174.78425,-36.999485,0
              174.786926,-36.998833,0
              174.786905,-36.997946,0
              174.786728,-36.997793,0
              174.786711,-36.997468,0
              174.785865,-36.995794,0
              174.785637,-36.995121,0
              174.785881,-36.994167,0
              174.78583,-36.994119,0
              174.785993,-36.993873,0
              174.786132,-36.993374,0
              174.786085,-36.993334,0
              174.786105,-36.992464,0
              174.791514,-36.993244,0
              174.795896,-36.994943,0
              174.799324,-36.994743,0
            </coordinates>
          </LinearRing>
        </outerBoundaryIs>
      </Polygon>
    </Placemark>
  </Document>
</kml>
