<?xml version="1.0" encoding="UTF-8"?>
<kml xmlns="http://www.opengis.net/kml/2.2">
  <Document>
    <name>Manukau_Clover_Goodwood_Totara.final</name>
    <Style id="poly-FF0000-1000-0-nodesc-normal">
      <LineStyle>
        <color>ff0000ff</color>
        <width>1</width>
      </LineStyle>
      <PolyStyle>
        <color>000000ff</color>
        <fill>1</fill>
        <outline>1</outline>
      </PolyStyle>
      <BalloonStyle>
        <text><![CDATA[<h3>$[name]</h3>]]></text>
      </BalloonStyle>
    </Style>
    <Style id="poly-FF0000-1000-0-nodesc-highlight">
      <LineStyle>
        <color>ff0000ff</color>
        <width>1.5</width>
      </LineStyle>
      <PolyStyle>
        <color>000000ff</color>
        <fill>1</fill>
        <outline>1</outline>
      </PolyStyle>
      <BalloonStyle>
        <text><![CDATA[<h3>$[name]</h3>]]></text>
      </BalloonStyle>
    </Style>
    <StyleMap id="poly-FF0000-1000-0-nodesc">
      <Pair>
        <key>normal</key>
        <styleUrl>#poly-FF0000-1000-0-nodesc-normal</styleUrl>
      </Pair>
      <Pair>
        <key>highlight</key>
        <styleUrl>#poly-FF0000-1000-0-nodesc-highlight</styleUrl>
      </Pair>
    </StyleMap>
    <Placemark>
      <name>Joined Boundary</name>
      <styleUrl>#poly-FF0000-1000-0-nodesc</styleUrl>
      <Polygon>
        <outerBoundaryIs>
          <LinearRing>
            <tessellate>1</tessellate>
            <coordinates>
              174.90603,-36.99869,0
              174.906149,-36.998476,0
              174.905604,-36.998144,0
              174.905812,-36.998244,0
              174.906117,-36.998446,0
              174.906528,-36.997711,0
              174.905115,-36.994922,0
              174.904715,-36.99259,0
              174.903122,-36.991193,0
              174.903187,-36.990489,0
              174.903398,-36.990474,0
              174.903427,-36.990175,0
              174.903511,-36.989263,0
              174.903332,-36.988934,0
              174.903891,-36.988828,0
              174.904302,-36.986601,0
              174.90455,-36.985811,0
              174.904699,-36.985856,0
              174.904837,-36.985697,0
              174.905149,-36.985798,0
              174.906131,-36.984861,0
              174.906291,-36.984986,0
              174.906337,-36.984936,0
              174.906949,-36.985173,0
              174.907475,-36.984352,0
              174.90743,-36.984334,0
              174.907463,-36.98428,0
              174.907605,-36.98423,0
              174.907192,-36.983896,0
              174.903392,-36.983735,0
              174.902544,-36.98406,0
              174.901914,-36.984148,0
              174.901681,-36.984107,0
              174.901593,-36.984331,0
              174.901282,-36.984333,0
              174.900608,-36.984119,0
              174.900823,-36.983694,0
              174.900916,-36.983365,0
              174.901267,-36.983429,0
              174.901316,-36.983253,0
              174.900965,-36.983189,0
              174.901095,-36.98273,0
              174.900606,-36.982644,0
              174.900699,-36.982303,0
              174.901183,-36.982415,0
              174.901212,-36.982312,0
              174.901563,-36.982376,0
              174.901674,-36.981985,0
              174.901592,-36.982027,0
              174.901409,-36.981995,0
              174.901477,-36.981743,0
              174.901369,-36.981725,0
              174.901597,-36.980918,0
              174.901814,-36.98068,0
              174.901932,-36.98075,0
              174.901993,-36.980548,0
              174.899956,-36.979341,0
              174.900011,-36.979142,0
              174.899806,-36.979021,0
              174.899725,-36.978869,0
              174.89929,-36.978575,0
              174.898953,-36.978514,0
              174.899077,-36.978039,0
              174.898726,-36.977977,0
              174.898664,-36.978201,0
              174.898353,-36.978079,0
              174.898396,-36.977919,0
              174.898034,-36.977855,0
              174.898018,-36.977917,0
              174.897584,-36.977849,0
              174.897684,-36.977783,0
              174.897813,-36.977318,0
              174.897391,-36.977245,0
              174.897526,-36.97675,0
              174.897583,-36.976732,0
              174.897918,-36.976931,0
              174.897954,-36.976799,0
              174.896726,-36.976071,0
              174.896272,-36.9759,0
              174.89642,-36.975648,0
              174.896241,-36.975888,0
              174.895762,-36.975707,0
              174.895212,-36.975351,0
              174.895423,-36.975141,0
              174.895371,-36.975107,0
              174.895159,-36.975317,0
              174.894375,-36.97481,0
              174.894084,-36.975861,0
              174.893406,-36.975758,0
              174.893391,-36.975681,0
              174.89323,-36.975587,0
              174.892992,-36.975849,0
              174.892908,-36.975847,0
              174.892915,-36.975663,0
              174.89227,-36.975477,0
              174.892233,-36.975508,0
              174.891481,-36.97549,0
              174.891589,-36.97535,0
              174.89134,-36.975196,0
              174.891082,-36.97548,0
              174.890148,-36.975458,0
              174.890161,-36.97512,0
              174.889867,-36.975209,0
              174.889858,-36.975451,0
              174.888598,-36.975421,0
              174.888611,-36.975077,0
              174.88814,-36.975065,0
              174.888129,-36.975353,0
              174.88794,-36.975349,0
              174.887926,-36.975728,0
              174.886718,-36.975699,0
              174.886729,-36.975413,0
              174.886848,-36.975416,0
              174.886861,-36.975086,0
              174.886988,-36.974889,0
              174.887002,-36.974519,0
              174.886884,-36.974216,0
              174.886584,-36.974024,0
              174.886436,-36.974324,0
              174.886557,-36.974018,0
              174.886152,-36.973945,0
              174.885915,-36.974364,0
              174.885832,-36.975314,0
              174.885384,-36.975303,0
              174.885283,-36.975664,0
              174.884927,-36.975654,0
              174.88485,-36.975555,0
              174.884626,-36.975529,0
              174.884503,-36.975591,0
              174.88447,-36.975771,0
              174.884307,-36.975742,0
              174.884224,-36.976041,0
              174.883818,-36.975955,0
              174.883726,-36.976256,0
              174.883475,-36.976284,0
              174.883413,-36.976512,0
              174.883834,-36.976587,0
              174.883158,-36.97915,0
              174.882247,-36.97898,0
              174.881682,-36.979115,0
              174.882068,-36.979834,0
              174.881578,-36.980048,0
              174.881185,-36.979247,0
              174.879411,-36.980235,0
              174.877509,-36.980104,0
              174.8744623,-36.9777138,0
              174.8707289,-36.979986,0
              174.8690982,-36.9822487,0
              174.870617,-36.984613,0
              174.873721,-36.984021,0
              174.8723971,-36.9859115,0
              174.873882,-36.9857277,0
              174.874251,-36.986161,0
              174.874815,-36.987212,0
              174.873757,-36.989436,0
              174.869737,-36.99017,0
              174.8677265,-36.9904671,0
              174.867776,-36.991724,0
              174.864801,-36.99187,0
              174.86193,-36.993814,0
              174.862,-36.996435,0
              174.860885,-36.997621,0
              174.861443,-36.998047,0
              174.864882,-36.99786,0
              174.865457,-36.999263,0
              174.866206,-36.999011,0
              174.866824,-37.000016,0
              174.867646,-36.999735,0
              174.867908,-37.00023,0
              174.868801,-36.999924,0
              174.868919,-37.000571,0
              174.869764,-37.00028,0
              174.8697353,-36.9998672,0
              174.8713732,-36.9990267,0
              174.870133,-36.997261,0
              174.8723443,-36.9971752,0
              174.873686,-36.9980919,0
              174.8751294,-36.9974362,0
              174.877116,-36.998147,0
              174.8797197,-36.9979435,0
              174.885678,-36.996184,0
              174.8887428,-36.9964478,0
              174.8895242,-36.9966996,0
              174.890091,-36.997397,0
              174.89071,-36.998097,0
              174.893725,-37.00199,0
              174.893679,-37.002007,0
              174.894309,-37.002912,0
              174.89537,-37.004172,0
              174.896084,-37.005135,0
              174.896504,-37.005626,0
              174.897018,-37.006098,0
              174.897992,-37.006818,0
              174.899062,-37.006452,0
              174.89929,-37.006415,0
              174.900015,-37.00655,0
              174.900492,-37.006254,0
              174.900815,-37.006208,0
              174.901047,-37.006229,0
              174.901483,-37.006124,0
              174.901955,-37.006189,0
              174.902151,-37.006171,0
              174.9025,-37.006045,0
              174.90299,-37.005975,0
              174.903535,-37.005796,0
              174.903695,-37.005731,0
              174.903301,-37.005003,0
              174.907273,-37.003643,0
              174.907228,-37.003561,0
              174.907839,-37.003352,0
              174.907138,-37.002112,0
              174.906774,-37.001888,0
              174.906298,-37.001822,0
              174.905312,-36.999975,0
              174.90603,-36.99869,0
            </coordinates>
          </LinearRing>
        </outerBoundaryIs>
      </Polygon>
    </Placemark>
  </Document>
</kml>
