<?xml version="1.0" encoding="UTF-8"?>
<kml xmlns="http://www.opengis.net/kml/2.2">
  <Document>
    <name>Manurewa.final</name>
    <Style id="poly-FF0000-1000-0-nodesc-normal">
      <LineStyle>
        <color>ff0000ff</color>
        <width>1</width>
      </LineStyle>
      <PolyStyle>
        <color>000000ff</color>
        <fill>1</fill>
        <outline>1</outline>
      </PolyStyle>
      <BalloonStyle>
        <text><![CDATA[<h3>$[name]</h3>]]></text>
      </BalloonStyle>
    </Style>
    <Style id="poly-FF0000-1000-0-nodesc-highlight">
      <LineStyle>
        <color>ff0000ff</color>
        <width>1.5</width>
      </LineStyle>
      <PolyStyle>
        <color>000000ff</color>
        <fill>1</fill>
        <outline>1</outline>
      </PolyStyle>
      <BalloonStyle>
        <text><![CDATA[<h3>$[name]</h3>]]></text>
      </BalloonStyle>
    </Style>
    <StyleMap id="poly-FF0000-1000-0-nodesc">
      <Pair>
        <key>normal</key>
        <styleUrl>#poly-FF0000-1000-0-nodesc-normal</styleUrl>
      </Pair>
      <Pair>
        <key>highlight</key>
        <styleUrl>#poly-FF0000-1000-0-nodesc-highlight</styleUrl>
      </Pair>
    </StyleMap>
    <Placemark>
      <name>Joined Boundary</name>
      <styleUrl>#poly-FF0000-1000-0-nodesc</styleUrl>
      <Polygon>
        <outerBoundaryIs>
          <LinearRing>
            <tessellate>1</tessellate>
            <coordinates>
              174.899906,-37.041011,0
              174.90006,-37.040864,0
              174.900273,-37.040772,0
              174.900414,-37.040606,0
              174.901565,-37.039921,0
              174.901937,-37.039648,0
              174.902132,-37.039355,0
              174.901644,-37.038849,0
              174.90159,-37.038713,0
              174.901625,-37.038532,0
              174.901734,-37.03844,0
              174.902841,-37.038097,0
              174.902938,-37.037994,0
              174.903076,-37.037611,0
              174.9033,-37.037453,0
              174.90345,-37.037276,0
              174.903457,-37.037052,0
              174.903666,-37.036607,0
              174.90379,-37.036511,0
              174.903942,-37.036689,0
              174.904293,-37.036718,0
              174.904574,-37.036623,0
              174.90488,-37.036634,0
              174.905186,-37.036465,0
              174.905309,-37.036124,0
              174.905271,-37.035805,0
              174.905436,-37.03511,0
              174.906502,-37.034533,0
              174.906623,-37.033895,0
              174.9069,-37.033715,0
              174.906616,-37.033435,0
              174.907415,-37.033155,0
              174.907697,-37.033213,0
              174.907932,-37.033447,0
              174.908059,-37.033449,0
              174.908283,-37.033327,0
              174.908565,-37.033454,0
              174.908725,-37.033435,0
              174.909196,-37.033809,0
              174.909249,-37.033762,0
              174.909763,-37.034172,0
              174.909686,-37.033716,0
              174.909743,-37.031625,0
              174.90942,-37.032011,0
              174.909286,-37.032397,0
              174.908906,-37.032784,0
              174.908869,-37.032875,0
              174.908933,-37.032931,0
              174.908881,-37.032981,0
              174.90879,-37.032895,0
              174.90883,-37.032763,0
              174.90868,-37.032798,0
              174.908689,-37.03286,0
              174.908489,-37.032825,0
              174.903477,-37.02887,0
              174.903462,-37.028509,0
              174.903385,-37.028371,0
              174.903435,-37.028353,0
              174.903194,-37.027824,0
              174.902992,-37.027895,0
              174.902753,-37.027575,0
              174.903449,-37.027252,0
              174.903076,-37.026752,0
              174.902673,-37.026892,0
              174.90191,-37.025874,0
              174.902199,-37.025735,0
              174.902034,-37.025515,0
              174.901799,-37.025585,0
              174.901572,-37.025321,0
              174.90102,-37.025546,0
              174.900995,-37.025618,0
              174.90076,-37.025234,0
              174.901273,-37.025025,0
              174.901167,-37.024884,0
              174.901473,-37.024759,0
              174.901121,-37.024143,0
              174.90071,-37.024288,0
              174.900065,-37.023158,0
              174.89987,-37.023028,0
              174.899579,-37.022553,0
              174.899011,-37.022749,0
              174.898818,-37.022606,0
              174.898997,-37.022544,0
              174.898833,-37.022417,0
              174.899238,-37.022129,0
              174.899272,-37.022165,0
              174.899615,-37.022041,0
              174.899546,-37.021923,0
              174.899695,-37.021855,0
              174.900012,-37.02219,0
              174.900156,-37.02207,0
              174.900298,-37.022221,0
              174.9005,-37.021785,0
              174.900572,-37.021862,0
              174.901235,-37.021629,0
              174.901073,-37.021318,0
              174.901548,-37.02115,0
              174.901895,-37.021819,0
              174.902355,-37.021657,0
              174.902072,-37.021113,0
              174.902532,-37.020951,0
              174.902837,-37.021539,0
              174.903581,-37.021277,0
              174.903638,-37.021381,0
              174.903836,-37.021311,0
              174.90387,-37.021377,0
              174.904077,-37.021302,0
              174.904013,-37.021179,0
              174.905101,-37.020817,0
              174.90483,-37.020293,0
              174.907245,-37.019447,0
              174.907003,-37.018485,0
              174.90801,-37.018088,0
              174.906967,-37.016377,0
              174.906803,-37.016434,0
              174.905282,-37.013558,0
              174.904771,-37.01393,0
              174.904727,-37.014007,0
              174.90455,-37.013673,0
              174.904664,-37.013669,0
              174.90487,-37.013535,0
              174.904984,-37.013218,0
              174.904843,-37.012765,0
              174.90398,-37.011123,0
              174.903222,-37.010293,0
              174.90244,-37.009694,0
              174.898244,-37.007006,0
              174.897018,-37.006098,0
              174.896504,-37.005626,0
              174.89537,-37.004172,0
              174.894309,-37.002912,0
              174.893679,-37.002007,0
              174.893725,-37.00199,0
              174.89071,-36.998097,0
              174.890091,-36.997397,0
              174.88921,-36.99697,0
              174.889678,-36.996625,0
              174.888091,-36.996235,0
              174.886414,-36.996153,0
              174.885678,-36.996184,0
              174.88545,-36.996015,0
              174.885356,-36.996013,0
              174.885317,-36.996328,0
              174.88082,-36.997855,0
              174.880665,-36.997751,0
              174.880428,-36.997822,0
              174.88,-36.99784,0
              174.879617,-36.99772,0
              174.879511,-36.997807,0
              174.879491,-36.997997,0
              174.879562,-36.998082,0
              174.879771,-36.998147,0
              174.879756,-36.998259,0
              174.87965,-36.998317,0
              174.879433,-36.998181,0
              174.87922,-36.997823,0
              174.879153,-36.99779,0
              174.879025,-36.997936,0
              174.87908,-36.998218,0
              174.878999,-36.998275,0
              174.878871,-36.998276,0
              174.878797,-36.998008,0
              174.878623,-36.99783,0
              174.878569,-36.997572,0
              174.878505,-36.997522,0
              174.878426,-36.997546,0
              174.878206,-36.997767,0
              174.877861,-36.997721,0
              174.877711,-36.997848,0
              174.877639,-36.997783,0
              174.877571,-36.997539,0
              174.877429,-36.99751,0
              174.877302,-36.997631,0
              174.877131,-36.997699,0
              174.877341,-36.997955,0
              174.877275,-36.998031,0
              174.87709,-36.998027,0
              174.877123,-36.998183,0
              174.877028,-36.998201,0
              174.876711,-36.997916,0
              174.87677,-36.997787,0
              174.87655,-36.997525,0
              174.876075,-36.997867,0
              174.875449,-36.997377,0
              174.875402,-36.997266,0
              174.875216,-36.997301,0
              174.874924,-36.99728,0
              174.874916,-36.997468,0
              174.874875,-36.997573,0
              174.874816,-36.99759,0
              174.87475,-36.997876,0
              174.8746,-36.997899,0
              174.874506,-36.997785,0
              174.874386,-36.99776,0
              174.874203,-36.998004,0
              174.873977,-36.998025,0
              174.873685,-36.997979,0
              174.873577,-36.997876,0
              174.873276,-36.997765,0
              174.873232,-36.997669,0
              174.873362,-36.997547,0
              174.873249,-36.99744,0
              174.873111,-36.997468,0
              174.872983,-36.997376,0
              174.872847,-36.997411,0
              174.872802,-36.997282,0
              174.872509,-36.997191,0
              174.872353,-36.997036,0
              174.870133,-36.997261,0
              174.871206,-36.999005,0
              174.870522,-36.999275,0
              174.870614,-36.999422,0
              174.869492,-36.999858,0
              174.869468,-36.999822,0
              174.869083,-36.999972,0
              174.869114,-37.000022,0
              174.869431,-36.999898,0
              174.869537,-36.999928,0
              174.869764,-37.00028,0
              174.868919,-37.000571,0
              174.869049,-37.000463,0
              174.86904,-37.000313,0
              174.868801,-36.999924,0
              174.867908,-37.00023,0
              174.867646,-36.999735,0
              174.866824,-37.000016,0
              174.866206,-36.999011,0
              174.865457,-36.999263,0
              174.864808,-36.997682,0
              174.861443,-36.998047,0
              174.861122,-36.99744,0
              174.861391,-36.997349,0
              174.86126,-36.997254,0
              174.860815,-36.99745,0
              174.860885,-36.997621,0
              174.860602,-36.99772,0
              174.860294,-36.997136,0
              174.860143,-36.996374,0
              174.859454,-36.99503,0
              174.859021,-36.994392,0
              174.857521,-36.992518,0
              174.85604,-36.99006,0
              174.855338,-36.990304,0
              174.855453,-36.9905,0
              174.855092,-36.990641,0
              174.855175,-36.990452,0
              174.85513,-36.990376,0
              174.853967,-36.990779,0
              174.85535,-36.992746,0
              174.855302,-36.992921,0
              174.853193,-36.993905,0
              174.852386,-36.994103,0
              174.851912,-36.993338,0
              174.851607,-36.99303,0
              174.850758,-36.991532,0
              174.850539,-36.991608,0
              174.850203,-36.991642,0
              174.849153,-36.992006,0
              174.848906,-36.991549,0
              174.848468,-36.991701,0
              174.848553,-36.991731,0
              174.848715,-36.992109,0
              174.847666,-36.992448,0
              174.847729,-36.992549,0
              174.847449,-36.992647,0
              174.847404,-36.992564,0
              174.845813,-36.993116,0
              174.84623,-36.994411,0
              174.846279,-36.994401,0
              174.846421,-36.99484,0
              174.844244,-36.99337,0
              174.84436,-36.993126,0
              174.844653,-36.992827,0
              174.844248,-36.992874,0
              174.840716,-36.990775,0
              174.838912,-36.989484,0
              174.838856,-36.989547,0
              174.838168,-36.98913,0
              174.838048,-36.988956,0
              174.838129,-36.98887,0
              174.837028,-36.987995,0
              174.836731,-36.987527,0
              174.836297,-36.987816,0
              174.836079,-36.988403,0
              174.835981,-36.988514,0
              174.835795,-36.98844,0
              174.835365,-36.988775,0
              174.835144,-36.988804,0
              174.834897,-36.988743,0
              174.8346,-36.988896,0
              174.834219,-36.988987,0
              174.833427,-36.988867,0
              174.833217,-36.988924,0
              174.833013,-36.989083,0
              174.832841,-36.989138,0
              174.832706,-36.989288,0
              174.832768,-36.989424,0
              174.832712,-36.989632,0
              174.832751,-36.989691,0
              174.833055,-36.989823,0
              174.833861,-36.989932,0
              174.834436,-36.98989,0
              174.834718,-36.98996,0
              174.83488,-36.990077,0
              174.835324,-36.990259,0
              174.835875,-36.990225,0
              174.836042,-36.990268,0
              174.836062,-36.990319,0
              174.835977,-36.990371,0
              174.835557,-36.990381,0
              174.835362,-36.99046,0
              174.835308,-36.990528,0
              174.835304,-36.990606,0
              174.835408,-36.990764,0
              174.835408,-36.991104,0
              174.8355,-36.991127,0
              174.835542,-36.991201,0
              174.835497,-36.991281,0
              174.835629,-36.991462,0
              174.835506,-36.991667,0
              174.835483,-36.99147,0
              174.835307,-36.991247,0
              174.835344,-36.991203,0
              174.835253,-36.991086,0
              174.835232,-36.990765,0
              174.835106,-36.990549,0
              174.834609,-36.990387,0
              174.834324,-36.990223,0
              174.834131,-36.990252,0
              174.833836,-36.990218,0
              174.833681,-36.990115,0
              174.833469,-36.990057,0
              174.833084,-36.99012,0
              174.832946,-36.990196,0
              174.832952,-36.990332,0
              174.83277,-36.990504,0
              174.832991,-36.99066,0
              174.833019,-36.990769,0
              174.832949,-36.990894,0
              174.832608,-36.991146,0
              174.832406,-36.991364,0
              174.83214,-36.99147,0
              174.831673,-36.991558,0
              174.831206,-36.991779,0
              174.830895,-36.992538,0
              174.830676,-36.992745,0
              174.830602,-36.993053,0
              174.830195,-36.993386,0
              174.82976,-36.994065,0
              174.829614,-36.994102,0
              174.829396,-36.99407,0
              174.82905,-36.994175,0
              174.82848,-36.994237,0
              174.828128,-36.994136,0
              174.827669,-36.994219,0
              174.827675,-36.994282,0
              174.827841,-36.994427,0
              174.828739,-36.994972,0
              174.829075,-36.994855,0
              174.829474,-36.995019,0
              174.829576,-36.995013,0
              174.829751,-36.994957,0
              174.829882,-36.99483,0
              174.829737,-36.995085,0
              174.829601,-36.99521,0
              174.829313,-36.995382,0
              174.829037,-36.995446,0
              174.829202,-36.995546,0
              174.829501,-36.995514,0
              174.829881,-36.995309,0
              174.830183,-36.995345,0
              174.830459,-36.995509,0
              174.830861,-36.995561,0
              174.83135,-36.995734,0
              174.83187,-36.996048,0
              174.833187,-36.996713,0
              174.832568,-36.996638,0
              174.831836,-36.996187,0
              174.831259,-36.99593,0
              174.830556,-36.995816,0
              174.830152,-36.995678,0
              174.829913,-36.995728,0
              174.82979,-36.995797,0
              174.829757,-36.995876,0
              174.829659,-36.996246,0
              174.829686,-36.996574,0
              174.830089,-36.997259,0
              174.83054,-36.997666,0
              174.830044,-36.997865,0
              174.829543,-36.997399,0
              174.829253,-36.996761,0
              174.828978,-36.996541,0
              174.828872,-36.996135,0
              174.828716,-36.995819,0
              174.828343,-36.995447,0
              174.82814,-36.995401,0
              174.827904,-36.99551,0
              174.827828,-36.995644,0
              174.827903,-36.995917,0
              174.827899,-36.996856,0
              174.828186,-36.997634,0
              174.828246,-36.998039,0
              174.827805,-36.997639,0
              174.827289,-36.997373,0
              174.827385,-36.996967,0
              174.82736,-36.996886,0
              174.82711,-36.99675,0
              174.827185,-36.996584,0
              174.827144,-36.996483,0
              174.826885,-36.996369,0
              174.827042,-36.996128,0
              174.827098,-36.995903,0
              174.826919,-36.995298,0
              174.827061,-36.994781,0
              174.826978,-36.994232,0
              174.827008,-36.993807,0
              174.826843,-36.993515,0
              174.826852,-36.993389,0
              174.826952,-36.99329,0
              174.826949,-36.99314,0
              174.82685,-36.993102,0
              174.826599,-36.993208,0
              174.826457,-36.993146,0
              174.825917,-36.993107,0
              174.825212,-36.992937,0
              174.824647,-36.992629,0
              174.824343,-36.992539,0
              174.823881,-36.992536,0
              174.823635,-36.992655,0
              174.823602,-36.992593,0
              174.823671,-36.99236,0
              174.823351,-36.992006,0
              174.82316,-36.991925,0
              174.822703,-36.991976,0
              174.82243,-36.9921,0
              174.821911,-36.992542,0
              174.821696,-36.992578,0
              174.821519,-36.99269,0
              174.821165,-36.992755,0
              174.820723,-36.992988,0
              174.820594,-36.992999,0
              174.820174,-36.992768,0
              174.819899,-36.992816,0
              174.819471,-36.993149,0
              174.819176,-36.993721,0
              174.8196,-36.994072,0
              174.819808,-36.994599,0
              174.820488,-36.994709,0
              174.820864,-36.995022,0
              174.821123,-36.995051,0
              174.821559,-36.994759,0
              174.821631,-36.994661,0
              174.821861,-36.994666,0
              174.821882,-36.994782,0
              174.821693,-36.995044,0
              174.821713,-36.995254,0
              174.822092,-36.995467,0
              174.822451,-36.995777,0
              174.823046,-36.995926,0
              174.82302,-36.996078,0
              174.822273,-36.996247,0
              174.8222,-36.996201,0
              174.822117,-36.996016,0
              174.821557,-36.995746,0
              174.821048,-36.995648,0
              174.820572,-36.995661,0
              174.820295,-36.995544,0
              174.819791,-36.995482,0
              174.819467,-36.99527,0
              174.819255,-36.99527,0
              174.819152,-36.995393,0
              174.81928,-36.995721,0
              174.819891,-36.995921,0
              174.820156,-36.996173,0
              174.820262,-36.996439,0
              174.820508,-36.996593,0
              174.820278,-36.99675,0
              174.82021,-36.997078,0
              174.820051,-36.997303,0
              174.820049,-36.996841,0
              174.819928,-36.996637,0
              174.819523,-36.996366,0
              174.819111,-36.996317,0
              174.818795,-36.996049,0
              174.818533,-36.996054,0
              174.818407,-36.995988,0
              174.81813,-36.996094,0
              174.81785,-36.996697,0
              174.817819,-36.996455,0
              174.817724,-36.996341,0
              174.817552,-36.996283,0
              174.817387,-36.996303,0
              174.817476,-36.996198,0
              174.81749,-36.996065,0
              174.817197,-36.995648,0
              174.81667,-36.995704,0
              174.816511,-36.995602,0
              174.816036,-36.995719,0
              174.815836,-36.99581,0
              174.81576,-36.995931,0
              174.815558,-36.995975,0
              174.815432,-36.996094,0
              174.815294,-36.996146,0
              174.815177,-36.996284,0
              174.814791,-36.996373,0
              174.814818,-36.996658,0
              174.814931,-36.996885,0
              174.814585,-36.99672,0
              174.814246,-36.9969,0
              174.814191,-36.997053,0
              174.814384,-36.997335,0
              174.813728,-36.996987,0
              174.81349,-36.996767,0
              174.813058,-36.996831,0
              174.812941,-36.996909,0
              174.812619,-36.997343,0
              174.812792,-36.997509,0
              174.812848,-36.997917,0
              174.812687,-36.99825,0
              174.812595,-36.998722,0
              174.812662,-36.998963,0
              174.812868,-36.999145,0
              174.812851,-36.999261,0
              174.812718,-36.999186,0
              174.812597,-36.999033,0
              174.812409,-36.998285,0
              174.812312,-36.998164,0
              174.812019,-36.998256,0
              174.811761,-36.998215,0
              174.810862,-36.998367,0
              174.809928,-36.999011,0
              174.809888,-36.999104,0
              174.810048,-36.999281,0
              174.809907,-36.999462,0
              174.809878,-36.999631,0
              174.809473,-36.999841,0
              174.809361,-36.999954,0
              174.809314,-37.000046,0
              174.809326,-37.000399,0
              174.809461,-37.000743,0
              174.808901,-37.000601,0
              174.808829,-37.000347,0
              174.808593,-37.000575,0
              174.808545,-37.000735,0
              174.808716,-37.000763,0
              174.808836,-37.000834,0
              174.808901,-37.001121,0
              174.808876,-37.00125,0
              174.805805,-37.001196,0
              174.806144,-37.001641,0
              174.808888,-37.001668,0
              174.808978,-37.001715,0
              174.808937,-37.001895,0
              174.809063,-37.002109,0
              174.809142,-37.002037,0
              174.809334,-37.002143,0
              174.809521,-37.002114,0
              174.80973,-37.002252,0
              174.809871,-37.002265,0
              174.810262,-37.002196,0
              174.810286,-37.002244,0
              174.810109,-37.002503,0
              174.810074,-37.00273,0
              174.810114,-37.002852,0
              174.810412,-37.003116,0
              174.810699,-37.003166,0
              174.810763,-37.003335,0
              174.811055,-37.00355,0
              174.811206,-37.003585,0
              174.811302,-37.003777,0
              174.812126,-37.003413,0
              174.812351,-37.003183,0
              174.812473,-37.003169,0
              174.812394,-37.003363,0
              174.812232,-37.003496,0
              174.812358,-37.003713,0
              174.812252,-37.00413,0
              174.81231,-37.004557,0
              174.810402,-37.005074,0
              174.810789,-37.005654,0
              174.812822,-37.005134,0
              174.813101,-37.005362,0
              174.813342,-37.005486,0
              174.813453,-37.005615,0
              174.813517,-37.005617,0
              174.813645,-37.005472,0
              174.814025,-37.005304,0
              174.814185,-37.005154,0
              174.814739,-37.005034,0
              174.815078,-37.004889,0
              174.815803,-37.004287,0
              174.816123,-37.004213,0
              174.816708,-37.004197,0
              174.816813,-37.004043,0
              174.816973,-37.003962,0
              174.817028,-37.003825,0
              174.817497,-37.003591,0
              174.817951,-37.003192,0
              174.818313,-37.003207,0
              174.818419,-37.003137,0
              174.818772,-37.003097,0
              174.819067,-37.003009,0
              174.819171,-37.003015,0
              174.819362,-37.003137,0
              174.81981,-37.003587,0
              174.819695,-37.003614,0
              174.819464,-37.003545,0
              174.819316,-37.003568,0
              174.818924,-37.003897,0
              174.818832,-37.004322,0
              174.818287,-37.004269,0
              174.818156,-37.004485,0
              174.817589,-37.004834,0
              174.817394,-37.004883,0
              174.817234,-37.004994,0
              174.816976,-37.005262,0
              174.817196,-37.005378,0
              174.817328,-37.005548,0
              174.817339,-37.005642,0
              174.817068,-37.00551,0
              174.816265,-37.005549,0
              174.815845,-37.006129,0
              174.815696,-37.006205,0
              174.815544,-37.006399,0
              174.81508,-37.006617,0
              174.815101,-37.007635,0
              174.815266,-37.008012,0
              174.815485,-37.008051,0
              174.815511,-37.008135,0
              174.8154,-37.008314,0
              174.815386,-37.008467,0
              174.81487,-37.008825,0
              174.814773,-37.009422,0
              174.814613,-37.00956,0
              174.814668,-37.009705,0
              174.814592,-37.009831,0
              174.81502,-37.009834,0
              174.815294,-37.010001,0
              174.81569,-37.010337,0
              174.816173,-37.010344,0
              174.816407,-37.01042,0
              174.817281,-37.010424,0
              174.81773,-37.01028,0
              174.818357,-37.010308,0
              174.819112,-37.010212,0
              174.819318,-37.010115,0
              174.81948,-37.009812,0
              174.819756,-37.009709,0
              174.819902,-37.009579,0
              174.819858,-37.009503,0
              174.819658,-37.009408,0
              174.819458,-37.009061,0
              174.819793,-37.009081,0
              174.819993,-37.009045,0
              174.82074,-37.008585,0
              174.821168,-37.007904,0
              174.821573,-37.007744,0
              174.821957,-37.007331,0
              174.822516,-37.006927,0
              174.82255,-37.00695,0
              174.822499,-37.007029,0
              174.821948,-37.007491,0
              174.821838,-37.007875,0
              174.821373,-37.00818,0
              174.821308,-37.008295,0
              174.821264,-37.008641,0
              174.821197,-37.008766,0
              174.820986,-37.008948,0
              174.82082,-37.009235,0
              174.820819,-37.009305,0
              174.821078,-37.009456,0
              174.821745,-37.009673,0
              174.822553,-37.009676,0
              174.82332,-37.009293,0
              174.823453,-37.009266,0
              174.823722,-37.009299,0
              174.824199,-37.009533,0
              174.824801,-37.009596,0
              174.825007,-37.009563,0
              174.825972,-37.009217,0
              174.826282,-37.009049,0
              174.826883,-37.008593,0
              174.827378,-37.008323,0
              174.82821,-37.008072,0
              174.828264,-37.008231,0
              174.828141,-37.008214,0
              174.827889,-37.00828,0
              174.827255,-37.00859,0
              174.827066,-37.008776,0
              174.826826,-37.009177,0
              174.826246,-37.009608,0
              174.825369,-37.010044,0
              174.824853,-37.010099,0
              174.824359,-37.010265,0
              174.823886,-37.010326,0
              174.823674,-37.010246,0
              174.823641,-37.010128,0
              174.824009,-37.009972,0
              174.824099,-37.00986,0
              174.823594,-37.009993,0
              174.82354,-37.010214,0
              174.823615,-37.010489,0
              174.823594,-37.010657,0
              174.823256,-37.010957,0
              174.823674,-37.011196,0
              174.824234,-37.011777,0
              174.824829,-37.012168,0
              174.824937,-37.012624,0
              174.825373,-37.012676,0
              174.825628,-37.012773,0
              174.826175,-37.012778,0
              174.826538,-37.012863,0
              174.827021,-37.012867,0
              174.827156,-37.012911,0
              174.827337,-37.013153,0
              174.827591,-37.013373,0
              174.828065,-37.014152,0
              174.828465,-37.014492,0
              174.828749,-37.014904,0
              174.829845,-37.015643,0
              174.830355,-37.016081,0
              174.831171,-37.016597,0
              174.831401,-37.016869,0
              174.831797,-37.017198,0
              174.832087,-37.017571,0
              174.832302,-37.017712,0
              174.832433,-37.017865,0
              174.832707,-37.01786,0
              174.83282,-37.017923,0
              174.833042,-37.018435,0
              174.83341,-37.018871,0
              174.833536,-37.018977,0
              174.833976,-37.019153,0
              174.83426,-37.019476,0
              174.834227,-37.019653,0
              174.834272,-37.019764,0
              174.834546,-37.01982,0
              174.834734,-37.019928,0
              174.834833,-37.020097,0
              174.83494,-37.020511,0
              174.835287,-37.02098,0
              174.835689,-37.021229,0
              174.83634,-37.021194,0
              174.836542,-37.021251,0
              174.837063,-37.021755,0
              174.837357,-37.022406,0
              174.837699,-37.022566,0
              174.837766,-37.022688,0
              174.837722,-37.022879,0
              174.837769,-37.023007,0
              174.837914,-37.023027,0
              174.838396,-37.022941,0
              174.838556,-37.022984,0
              174.838621,-37.023151,0
              174.838475,-37.023428,0
              174.838486,-37.023524,0
              174.839111,-37.024087,0
              174.839343,-37.024474,0
              174.839533,-37.024598,0
              174.839535,-37.024669,0
              174.839396,-37.024758,0
              174.839407,-37.024816,0
              174.83977,-37.02479,0
              174.839893,-37.024827,0
              174.840003,-37.024933,0
              174.84015,-37.025148,0
              174.839933,-37.02528,0
              174.839924,-37.025391,0
              174.840216,-37.025465,0
              174.840145,-37.025598,0
              174.840188,-37.025725,0
              174.840475,-37.025806,0
              174.840374,-37.025549,0
              174.840484,-37.025486,0
              174.840614,-37.02563,0
              174.840764,-37.025665,0
              174.840722,-37.0259,0
              174.840902,-37.026177,0
              174.841092,-37.02634,0
              174.841043,-37.026704,0
              174.841067,-37.026802,0
              174.841234,-37.026961,0
              174.841065,-37.027217,0
              174.841128,-37.027236,0
              174.841331,-37.027141,0
              174.841528,-37.027219,0
              174.841709,-37.027201,0
              174.841797,-37.027252,0
              174.841921,-37.027455,0
              174.842482,-37.027924,0
              174.842964,-37.027971,0
              174.842984,-37.028082,0
              174.842789,-37.028204,0
              174.842939,-37.028514,0
              174.843322,-37.028522,0
              174.843383,-37.028675,0
              174.843774,-37.028858,0
              174.844181,-37.029297,0
              174.844196,-37.029477,0
              174.844315,-37.029559,0
              174.844531,-37.029582,0
              174.844899,-37.029466,0
              174.844968,-37.029317,0
              174.844887,-37.029055,0
              174.844908,-37.028913,0
              174.844986,-37.028827,0
              174.845229,-37.028784,0
              174.845546,-37.028838,0
              174.845709,-37.028942,0
              174.845977,-37.028838,0
              174.846678,-37.028867,0
              174.847119,-37.02901,0
              174.847859,-37.029448,0
              174.848751,-37.029292,0
              174.849417,-37.029498,0
              174.849684,-37.029519,0
              174.849971,-37.029443,0
              174.849704,-37.029245,0
              174.849713,-37.029171,0
              174.849841,-37.029056,0
              174.850164,-37.029218,0
              174.850799,-37.029223,0
              174.851367,-37.029154,0
              174.851837,-37.028977,0
              174.8521,-37.028981,0
              174.852316,-37.028911,0
              174.852659,-37.028883,0
              174.852918,-37.028652,0
              174.852937,-37.028499,0
              174.853427,-37.028053,0
              174.853532,-37.027811,0
              174.853513,-37.027485,0
              174.853728,-37.027221,0
              174.853714,-37.027163,0
              174.853626,-37.027126,0
              174.853175,-37.02716,0
              174.853062,-37.026992,0
              174.852958,-37.026946,0
              174.852837,-37.026973,0
              174.852736,-37.026944,0
              174.852712,-37.027036,0
              174.852663,-37.027036,0
              174.852441,-37.026837,0
              174.852539,-37.026672,0
              174.85274,-37.02655,0
              174.85288,-37.026525,0
              174.852902,-37.026693,0
              174.853031,-37.02673,0
              174.853282,-37.026594,0
              174.853377,-37.026479,0
              174.853519,-37.026159,0
              174.853569,-37.025708,0
              174.85357,-37.025444,0
              174.853476,-37.025267,0
              174.853468,-37.024977,0
              174.853289,-37.024984,0
              174.853192,-37.024938,0
              174.853267,-37.024773,0
              174.853247,-37.024649,0
              174.852883,-37.023994,0
              174.852792,-37.023943,0
              174.852627,-37.024019,0
              174.852362,-37.024273,0
              174.852019,-37.024897,0
              174.85184,-37.02494,0
              174.851541,-37.024892,0
              174.851452,-37.024944,0
              174.851377,-37.025081,0
              174.851045,-37.025174,0
              174.851128,-37.024945,0
              174.851065,-37.024763,0
              174.851216,-37.024437,0
              174.85104,-37.024284,0
              174.850483,-37.024169,0
              174.850495,-37.024029,0
              174.850246,-37.023941,0
              174.850156,-37.023577,0
              174.850147,-37.023162,0
              174.849865,-37.02278,0
              174.849866,-37.022675,0
              174.850193,-37.021976,0
              174.85016,-37.021812,0
              174.850031,-37.021692,0
              174.84982,-37.021711,0
              174.849767,-37.021877,0
              174.849048,-37.022403,0
              174.84882,-37.02267,0
              174.848607,-37.022769,0
              174.848377,-37.02281,0
              174.847575,-37.023212,0
              174.84745,-37.023197,0
              174.847553,-37.022957,0
              174.847304,-37.022505,0
              174.847285,-37.022103,0
              174.847357,-37.021719,0
              174.847242,-37.021225,0
              174.84699,-37.020813,0
              174.846877,-37.020705,0
              174.846748,-37.020673,0
              174.84666,-37.020566,0
              174.846735,-37.020089,0
              174.846454,-37.01985,0
              174.846337,-37.019807,0
              174.845815,-37.019855,0
              174.845319,-37.020154,0
              174.844924,-37.020204,0
              174.844508,-37.020068,0
              174.843982,-37.019995,0
              174.842916,-37.019959,0
              174.84248,-37.019998,0
              174.841501,-37.019988,0
              174.841467,-37.01993,0
              174.841508,-37.019888,0
              174.841715,-37.019828,0
              174.841779,-37.019765,0
              174.841723,-37.019579,0
              174.841318,-37.019246,0
              174.841351,-37.018995,0
              174.841101,-37.01863,0
              174.841102,-37.01857,0
              174.841211,-37.018479,0
              174.840989,-37.018484,0
              174.840786,-37.018611,0
              174.840652,-37.018605,0
              174.840393,-37.018422,0
              174.840228,-37.018143,0
              174.839472,-37.017892,0
              174.839329,-37.017529,0
              174.838943,-37.017528,0
              174.838526,-37.017401,0
              174.838412,-37.017189,0
              174.838561,-37.01652,0
              174.838609,-37.016749,0
              174.838485,-37.017124,0
              174.838545,-37.017233,0
              174.838783,-37.017378,0
              174.839098,-37.017359,0
              174.839429,-37.017433,0
              174.839595,-37.017724,0
              174.840186,-37.018003,0
              174.840572,-37.018252,0
              174.84052,-37.0183,0
              174.840601,-37.01843,0
              174.840724,-37.018418,0
              174.840778,-37.018327,0
              174.840919,-37.018266,0
              174.841239,-37.018286,0
              174.841356,-37.018511,0
              174.841348,-37.018647,0
              174.841605,-37.0191,0
              174.84172,-37.019229,0
              174.841928,-37.019324,0
              174.843501,-37.01954,0
              174.843928,-37.019379,0
              174.844819,-37.018852,0
              174.84506,-37.018765,0
              174.845379,-37.018897,0
              174.845546,-37.019109,0
              174.845774,-37.019275,0
              174.846383,-37.019202,0
              174.846667,-37.019068,0
              174.846943,-37.0191,0
              174.847203,-37.019321,0
              174.847055,-37.019457,0
              174.847066,-37.019501,0
              174.84744,-37.020005,0
              174.847447,-37.020414,0
              174.847945,-37.021213,0
              174.848188,-37.021227,0
              174.848402,-37.02095,0
              174.848504,-37.020891,0
              174.848579,-37.020944,0
              174.848655,-37.021155,0
              174.849119,-37.021384,0
              174.849212,-37.021339,0
              174.849149,-37.021206,0
              174.849379,-37.021155,0
              174.849323,-37.021008,0
              174.849835,-37.021038,0
              174.850302,-37.020963,0
              174.850317,-37.021196,0
              174.850376,-37.021198,0
              174.850484,-37.021022,0
              174.85057,-37.021015,0
              174.850626,-37.021222,0
              174.850968,-37.021218,0
              174.850875,-37.021338,0
              174.850967,-37.021436,0
              174.851083,-37.021426,0
              174.851167,-37.021361,0
              174.8511,-37.02112,0
              174.851191,-37.020947,0
              174.851149,-37.020891,0
              174.850962,-37.020978,0
              174.850923,-37.020548,0
              174.85084,-37.020515,0
              174.850728,-37.020549,0
              174.850784,-37.020784,0
              174.850661,-37.020891,0
              174.850579,-37.020882,0
              174.850531,-37.020645,0
              174.850619,-37.020552,0
              174.850606,-37.020474,0
              174.850255,-37.020513,0
              174.850248,-37.020353,0
              174.850088,-37.020323,0
              174.84971,-37.020075,0
              174.849822,-37.019764,0
              174.850317,-37.019634,0
              174.850663,-37.019444,0
              174.850755,-37.019279,0
              174.850904,-37.019307,0
              174.851007,-37.019253,0
              174.850989,-37.019153,0
              174.850859,-37.019004,0
              174.850857,-37.018765,0
              174.850758,-37.018369,0
              174.851016,-37.018006,0
              174.851086,-37.017969,0
              174.851157,-37.017995,0
              174.851134,-37.0183,0
              174.851194,-37.018524,0
              174.85165,-37.018708,0
              174.851725,-37.018994,0
              174.851892,-37.019309,0
              174.852244,-37.019579,0
              174.852583,-37.019715,0
              174.8528,-37.019691,0
              174.85296,-37.019612,0
              174.853376,-37.019187,0
              174.853488,-37.018987,0
              174.853419,-37.018848,0
              174.853574,-37.018513,0
              174.854476,-37.018082,0
              174.854515,-37.018212,0
              174.854329,-37.018329,0
              174.854169,-37.018567,0
              174.854192,-37.018651,0
              174.854324,-37.0186,0
              174.854525,-37.018431,0
              174.8549,-37.017807,0
              174.855105,-37.017563,0
              174.855926,-37.017014,0
              174.856363,-37.01645,0
              174.856476,-37.016403,0
              174.856601,-37.016434,0
              174.856821,-37.016597,0
              174.856424,-37.016642,0
              174.856028,-37.017282,0
              174.855615,-37.017597,0
              174.855243,-37.018166,0
              174.854753,-37.018552,0
              174.854827,-37.019084,0
              174.855604,-37.019216,0
              174.85635,-37.018866,0
              174.856699,-37.018931,0
              174.856972,-37.01908,0
              174.857325,-37.01914,0
              174.857495,-37.0193,0
              174.857659,-37.019564,0
              174.857723,-37.019777,0
              174.857881,-37.019867,0
              174.858211,-37.019936,0
              174.858328,-37.020283,0
              174.858168,-37.020389,0
              174.858389,-37.020421,0
              174.858792,-37.020257,0
              174.858881,-37.020155,0
              174.859089,-37.020096,0
              174.859312,-37.020565,0
              174.859513,-37.020747,0
              174.859992,-37.020982,0
              174.859825,-37.020975,0
              174.859463,-37.020781,0
              174.859137,-37.020534,0
              174.858935,-37.020471,0
              174.858853,-37.020506,0
              174.858812,-37.020708,0
              174.858638,-37.020906,0
              174.858735,-37.021177,0
              174.85855,-37.021279,0
              174.858505,-37.021182,0
              174.858313,-37.021094,0
              174.857938,-37.020811,0
              174.857603,-37.02082,0
              174.857297,-37.020749,0
              174.856574,-37.020877,0
              174.855886,-37.021072,0
              174.855314,-37.021411,0
              174.854609,-37.022117,0
              174.853981,-37.022379,0
              174.854235,-37.022421,0
              174.854454,-37.022554,0
              174.854462,-37.022659,0
              174.854323,-37.022793,0
              174.854431,-37.022826,0
              174.85434,-37.022982,0
              174.854493,-37.022942,0
              174.854976,-37.023225,0
              174.855148,-37.023551,0
              174.855633,-37.023885,0
              174.85589,-37.024319,0
              174.85619,-37.024643,0
              174.856173,-37.024694,0
              174.856035,-37.024742,0
              174.856029,-37.0248,0
              174.856173,-37.024844,0
              174.856205,-37.025234,0
              174.85626,-37.025314,0
              174.85623,-37.02538,0
              174.856336,-37.025788,0
              174.856631,-37.026175,0
              174.85649,-37.026383,0
              174.856395,-37.026706,0
              174.856455,-37.026783,0
              174.85637,-37.026837,0
              174.856343,-37.027,0
              174.856127,-37.027239,0
              174.856078,-37.027531,0
              174.855986,-37.027601,0
              174.855997,-37.027713,0
              174.855855,-37.027788,0
              174.855759,-37.027932,0
              174.85541,-37.028245,0
              174.855314,-37.028522,0
              174.855381,-37.028616,0
              174.855233,-37.028734,0
              174.855327,-37.02903,0
              174.854938,-37.029465,0
              174.854536,-37.029808,0
              174.854505,-37.030028,0
              174.854427,-37.030147,0
              174.854488,-37.03071,0
              174.854805,-37.031076,0
              174.854913,-37.031353,0
              174.855062,-37.03156,0
              174.855049,-37.031841,0
              174.855248,-37.032169,0
              174.855149,-37.03225,0
              174.854979,-37.032278,0
              174.854655,-37.032136,0
              174.854645,-37.032009,0
              174.854495,-37.032097,0
              174.854603,-37.032254,0
              174.854833,-37.032333,0
              174.855261,-37.032604,0
              174.855197,-37.032733,0
              174.855267,-37.032827,0
              174.855416,-37.032823,0
              174.855575,-37.032959,0
              174.855697,-37.032977,0
              174.85601,-37.033171,0
              174.85658,-37.033742,0
              174.856481,-37.033728,0
              174.856465,-37.033911,0
              174.856353,-37.034016,0
              174.856399,-37.034057,0
              174.856303,-37.034348,0
              174.856115,-37.034609,0
              174.856264,-37.035004,0
              174.856244,-37.035319,0
              174.856434,-37.035733,0
              174.856378,-37.035878,0
              174.856435,-37.035991,0
              174.856401,-37.036109,0
              174.85617,-37.036274,0
              174.855996,-37.036516,0
              174.855969,-37.036856,0
              174.85586,-37.037156,0
              174.855382,-37.037518,0
              174.855316,-37.037712,0
              174.855386,-37.037937,0
              174.855248,-37.038167,0
              174.855397,-37.038244,0
              174.855492,-37.038457,0
              174.855695,-37.03851,0
              174.855759,-37.03859,0
              174.855897,-37.038633,0
              174.856255,-37.039085,0
              174.856565,-37.039558,0
              174.856959,-37.040366,0
              174.8576,-37.04189,0
              174.857911,-37.042158,0
              174.857781,-37.042146,0
              174.857666,-37.042242,0
              174.857464,-37.042781,0
              174.857088,-37.042871,0
              174.856822,-37.043047,0
              174.856701,-37.043379,0
              174.856672,-37.043789,0
              174.856805,-37.043964,0
              174.856537,-37.044395,0
              174.856457,-37.044676,0
              174.856496,-37.044863,0
              174.856449,-37.045015,0
              174.856626,-37.045339,0
              174.856613,-37.045681,0
              174.856815,-37.046423,0
              174.85694,-37.047504,0
              174.857103,-37.048,0
              174.857123,-37.048298,0
              174.857325,-37.04859,0
              174.857652,-37.050604,0
              174.857629,-37.051054,0
              174.857835,-37.051217,0
              174.858054,-37.051217,0
              174.858374,-37.051438,0
              174.858649,-37.051513,0
              174.859027,-37.051809,0
              174.859215,-37.051824,0
              174.859586,-37.051627,0
              174.859922,-37.05157,0
              174.860244,-37.051269,0
              174.860427,-37.051171,0
              174.860524,-37.05119,0
              174.860846,-37.05113,0
              174.860895,-37.051544,0
              174.861233,-37.051684,0
              174.861528,-37.05194,0
              174.861795,-37.052305,0
              174.861948,-37.052422,0
              174.862088,-37.05246,0
              174.86233,-37.052433,0
              174.862531,-37.052523,0
              174.862803,-37.052878,0
              174.863037,-37.05306,0
              174.863339,-37.053067,0
              174.864321,-37.052843,0
              174.86449,-37.052621,0
              174.864947,-37.052224,0
              174.865038,-37.052064,0
              174.865226,-37.051901,0
              174.865244,-37.051544,0
              174.865361,-37.051362,0
              174.866072,-37.050784,0
              174.865675,-37.050546,0
              174.865725,-37.05039,0
              174.865835,-37.050294,0
              174.865647,-37.050273,0
              174.865907,-37.050116,0
              174.866107,-37.049898,0
              174.86623,-37.049654,0
              174.866576,-37.049271,0
              174.866745,-37.049241,0
              174.867209,-37.049328,0
              174.867321,-37.049246,0
              174.867403,-37.048982,0
              174.867275,-37.048587,0
              174.867458,-37.048655,0
              174.86763,-37.048621,0
              174.867868,-37.048472,0
              174.867974,-37.048503,0
              174.868171,-37.048283,0
              174.868013,-37.048032,0
              174.86816,-37.047925,0
              174.868383,-37.047878,0
              174.868617,-37.047736,0
              174.868524,-37.047484,0
              174.868753,-37.047426,0
              174.868867,-37.047242,0
              174.868651,-37.046702,0
              174.868795,-37.046843,0
              174.869067,-37.046952,0
              174.869189,-37.047074,0
              174.869392,-37.047093,0
              174.869551,-37.046936,0
              174.869461,-37.046409,0
              174.86998,-37.046038,0
              174.870922,-37.045531,0
              174.870997,-37.045631,0
              174.871138,-37.045689,0
              174.871562,-37.04562,0
              174.872133,-37.045308,0
              174.872375,-37.045081,0
              174.872478,-37.044841,0
              174.872516,-37.044457,0
              174.872309,-37.042911,0
              174.87234,-37.042586,0
              174.872504,-37.042082,0
              174.872276,-37.041601,0
              174.872256,-37.041402,0
              174.872368,-37.041189,0
              174.872615,-37.041056,0
              174.872678,-37.040784,0
              174.873023,-37.040589,0
              174.87315,-37.04046,0
              174.873217,-37.040701,0
              174.873242,-37.041163,0
              174.87336,-37.041404,0
              174.873954,-37.04197,0
              174.874345,-37.04217,0
              174.874834,-37.042181,0
              174.875561,-37.042,0
              174.875946,-37.042148,0
              174.876164,-37.042151,0
              174.876475,-37.041973,0
              174.876767,-37.041528,0
              174.877449,-37.04136,0
              174.877872,-37.041061,0
              174.878076,-37.041143,0
              174.87847,-37.041017,0
              174.878962,-37.041092,0
              174.879292,-37.041029,0
              174.88021,-37.041353,0
              174.880277,-37.041503,0
              174.880414,-37.041601,0
              174.88074,-37.04158,0
              174.880881,-37.042017,0
              174.881044,-37.042125,0
              174.881395,-37.042153,0
              174.88148,-37.042482,0
              174.881606,-37.042587,0
              174.881874,-37.042624,0
              174.882208,-37.042505,0
              174.88259,-37.042454,0
              174.883034,-37.042701,0
              174.883187,-37.042732,0
              174.883387,-37.042883,0
              174.88351,-37.042887,0
              174.883662,-37.042853,0
              174.883971,-37.042686,0
              174.884491,-37.042197,0
              174.884909,-37.041908,0
              174.885032,-37.041603,0
              174.884991,-37.041352,0
              174.885222,-37.041028,0
              174.885933,-37.04062,0
              174.88615,-37.040407,0
              174.886333,-37.040339,0
              174.886859,-37.039795,0
              174.887491,-37.039524,0
              174.887751,-37.039361,0
              174.888226,-37.039516,0
              174.888216,-37.039696,0
              174.888137,-37.039824,0
              174.888248,-37.039894,0
              174.888292,-37.040121,0
              174.88854,-37.040468,0
              174.888948,-37.040867,0
              174.889244,-37.041412,0
              174.889377,-37.041534,0
              174.889612,-37.041635,0
              174.889827,-37.041549,0
              174.890311,-37.041207,0
              174.890387,-37.040488,0
              174.890467,-37.040112,0
              174.890553,-37.039978,0
              174.891199,-37.039467,0
              174.891506,-37.039573,0
              174.891843,-37.039584,0
              174.892223,-37.03991,0
              174.892431,-37.040287,0
              174.892636,-37.040502,0
              174.892708,-37.040901,0
              174.89297,-37.041276,0
              174.892883,-37.041499,0
              174.892949,-37.041795,0
              174.892389,-37.041988,0
              174.892041,-37.042207,0
              174.891541,-37.042021,0
              174.891453,-37.042275,0
              174.891259,-37.042518,0
              174.890859,-37.042584,0
              174.890509,-37.04286,0
              174.89042,-37.042896,0
              174.890354,-37.042852,0
              174.890223,-37.04299,0
              174.889922,-37.042989,0
              174.889775,-37.043056,0
              174.88966,-37.043048,0
              174.889445,-37.042675,0
              174.88897,-37.042227,0
              174.888755,-37.041643,0
              174.888666,-37.041024,0
              174.888405,-37.040747,0
              174.887714,-37.040414,0
              174.887653,-37.04044,0
              174.887616,-37.040623,0
              174.887321,-37.040794,0
              174.887263,-37.041068,0
              174.887352,-37.041253,0
              174.887366,-37.04165,0
              174.887492,-37.041845,0
              174.887517,-37.042077,0
              174.887501,-37.042188,0
              174.887244,-37.042271,0
              174.887357,-37.042353,0
              174.887329,-37.042534,0
              174.887454,-37.042717,0
              174.887723,-37.042946,0
              174.887832,-37.043111,0
              174.88805,-37.043143,0
              174.888118,-37.043203,0
              174.888206,-37.043603,0
              174.888159,-37.043695,0
              174.888196,-37.043831,0
              174.887789,-37.044243,0
              174.887699,-37.044281,0
              174.887519,-37.044218,0
              174.887458,-37.044239,0
              174.887463,-37.044629,0
              174.886853,-37.045098,0
              174.886655,-37.04538,0
              174.886613,-37.045543,0
              174.886532,-37.045562,0
              174.88631,-37.046123,0
              174.886336,-37.046331,0
              174.886204,-37.046451,0
              174.886231,-37.046541,0
              174.886175,-37.046642,0
              174.885954,-37.046707,0
              174.88576,-37.046706,0
              174.885568,-37.046638,0
              174.884956,-37.046723,0
              174.884336,-37.047076,0
              174.884158,-37.0472,0
              174.883943,-37.04755,0
              174.883766,-37.047643,0
              174.882833,-37.048426,0
              174.882613,-37.048497,0
              174.882461,-37.048634,0
              174.882369,-37.048832,0
              174.882148,-37.04905,0
              174.882142,-37.049143,0
              174.881961,-37.048985,0
              174.881656,-37.048861,0
              174.881434,-37.048574,0
              174.881774,-37.048169,0
              174.881825,-37.047758,0
              174.881703,-37.047514,0
              174.881219,-37.047249,0
              174.881051,-37.047088,0
              174.881164,-37.046703,0
              174.881097,-37.046213,0
              174.880628,-37.045723,0
              174.88026,-37.045483,0
              174.880156,-37.045146,0
              174.879948,-37.045018,0
              174.87966,-37.04493,0
              174.879468,-37.044907,0
              174.879222,-37.044967,0
              174.879072,-37.045068,0
              174.878591,-37.045806,0
              174.87837,-37.045915,0
              174.878302,-37.046047,0
              174.878109,-37.046086,0
              174.877898,-37.046243,0
              174.877737,-37.046301,0
              174.8773,-37.046346,0
              174.87711,-37.046638,0
              174.876998,-37.046674,0
              174.876881,-37.046804,0
              174.87645,-37.046818,0
              174.876249,-37.046881,0
              174.876053,-37.046997,0
              174.87598,-37.047128,0
              174.87579,-37.047226,0
              174.875757,-37.047294,0
              174.875539,-37.047321,0
              174.875208,-37.047455,0
              174.875125,-37.047527,0
              174.875041,-37.047787,0
              174.874655,-37.048389,0
              174.87343,-37.048415,0
              174.873094,-37.048519,0
              174.872829,-37.048496,0
              174.872735,-37.048547,0
              174.872045,-37.048647,0
              174.871604,-37.048779,0
              174.871393,-37.049157,0
              174.871458,-37.049402,0
              174.8716,-37.049608,0
              174.871603,-37.049747,0
              174.871401,-37.050088,0
              174.871338,-37.050506,0
              174.871146,-37.050768,0
              174.870637,-37.051213,0
              174.870578,-37.051333,0
              174.87064,-37.051829,0
              174.870461,-37.052119,0
              174.870217,-37.052272,0
              174.870025,-37.052494,0
              174.869969,-37.052743,0
              174.870154,-37.053207,0
              174.870135,-37.053406,0
              174.870037,-37.053487,0
              174.869458,-37.053616,0
              174.869349,-37.053687,0
              174.869364,-37.053786,0
              174.869465,-37.053864,0
              174.869887,-37.053907,0
              174.870636,-37.054113,0
              174.870839,-37.054308,0
              174.871352,-37.054518,0
              174.871723,-37.054483,0
              174.871823,-37.054521,0
              174.871911,-37.054569,0
              174.87213,-37.054873,0
              174.872521,-37.055155,0
              174.872682,-37.055142,0
              174.872849,-37.054921,0
              174.872983,-37.05483,0
              174.873638,-37.054749,0
              174.874048,-37.054792,0
              174.874405,-37.054697,0
              174.875363,-37.05485,0
              174.875738,-37.054983,0
              174.875973,-37.05495,0
              174.876376,-37.054715,0
              174.876557,-37.054533,0
              174.876523,-37.054186,0
              174.876718,-37.054054,0
              174.877198,-37.053927,0
              174.877713,-37.05371,0
              174.878085,-37.053723,0
              174.878713,-37.053832,0
              174.878951,-37.05363,0
              174.879193,-37.053632,0
              174.879464,-37.053806,0
              174.879542,-37.053984,0
              174.87974,-37.054136,0
              174.879915,-37.054211,0
              174.880039,-37.054187,0
              174.880007,-37.054253,0
              174.880069,-37.05438,0
              174.880227,-37.054443,0
              174.880407,-37.054632,0
              174.880463,-37.054859,0
              174.880349,-37.055226,0
              174.881248,-37.055546,0
              174.881367,-37.055644,0
              174.881389,-37.055911,0
              174.881917,-37.056062,0
              174.882224,-37.056727,0
              174.882258,-37.056962,0
              174.882531,-37.057206,0
              174.882645,-37.057238,0
              174.882893,-37.057189,0
              174.883281,-37.057294,0
              174.883779,-37.057197,0
              174.883971,-37.057246,0
              174.884276,-37.05745,0
              174.884679,-37.057462,0
              174.884794,-37.057629,0
              174.884886,-37.057631,0
              174.884994,-37.057716,0
              174.885515,-37.057828,0
              174.885844,-37.058333,0
              174.886044,-37.058494,0
              174.88663,-37.058677,0
              174.886883,-37.058935,0
              174.887255,-37.059018,0
              174.887416,-37.059002,0
              174.887785,-37.058817,0
              174.887933,-37.058328,0
              174.88792,-37.056985,0
              174.887969,-37.056739,0
              174.887674,-37.056091,0
              174.887661,-37.055816,0
              174.887724,-37.05558,0
              174.888086,-37.054999,0
              174.888519,-37.054759,0
              174.888987,-37.054372,0
              174.889042,-37.054274,0
              174.889053,-37.053916,0
              174.889193,-37.053776,0
              174.889481,-37.053718,0
              174.889983,-37.053335,0
              174.890405,-37.053223,0
              174.89065,-37.053211,0
              174.891009,-37.053025,0
              174.891048,-37.052665,0
              174.890962,-37.052295,0
              174.891249,-37.051152,0
              174.891202,-37.05105,0
              174.891275,-37.05097,0
              174.891645,-37.050736,0
              174.892041,-37.050767,0
              174.89233,-37.050696,0
              174.892564,-37.050711,0
              174.892729,-37.050588,0
              174.892838,-37.050357,0
              174.893026,-37.050206,0
              174.893078,-37.050031,0
              174.893753,-37.049656,0
              174.894312,-37.049591,0
              174.895006,-37.049787,0
              174.895379,-37.049944,0
              174.895606,-37.04997,0
              174.895897,-37.049883,0
              174.895917,-37.049793,0
              174.89573,-37.049471,0
              174.895667,-37.049161,0
              174.895327,-37.048663,0
              174.895327,-37.048491,0
              174.895428,-37.048376,0
              174.895748,-37.048259,0
              174.896134,-37.04801,0
              174.896508,-37.047912,0
              174.897333,-37.047821,0
              174.89761,-37.047734,0
              174.898758,-37.04689,0
              174.899592,-37.046655,0
              174.899993,-37.046471,0
              174.900469,-37.046106,0
              174.900627,-37.045808,0
              174.900815,-37.04576,0
              174.900649,-37.04525,0
              174.90072,-37.044792,0
              174.900673,-37.044574,0
              174.900269,-37.044238,0
              174.900354,-37.044178,0
              174.900236,-37.044089,0
              174.900181,-37.043769,0
              174.899911,-37.043439,0
              174.899574,-37.042661,0
              174.899579,-37.041828,0
              174.899779,-37.041532,0
              174.899728,-37.041316,0
              174.899906,-37.041011,0
            </coordinates>
          </LinearRing>
        </outerBoundaryIs>
      </Polygon>
    </Placemark>
  </Document>
</kml>
