<?xml version="1.0" encoding="UTF-8"?>
<kml xmlns="http://www.opengis.net/kml/2.2">
  <Document>
    <name>Meadowbank.final</name>
    <Style id="poly-FF0000-1000-0-nodesc-normal">
      <LineStyle>
        <color>ff0000ff</color>
        <width>1</width>
      </LineStyle>
      <PolyStyle>
        <color>000000ff</color>
        <fill>1</fill>
        <outline>1</outline>
      </PolyStyle>
      <BalloonStyle>
        <text><![CDATA[<h3>$[name]</h3>]]></text>
      </BalloonStyle>
    </Style>
    <Style id="poly-FF0000-1000-0-nodesc-highlight">
      <LineStyle>
        <color>ff0000ff</color>
        <width>1.5</width>
      </LineStyle>
      <PolyStyle>
        <color>000000ff</color>
        <fill>1</fill>
        <outline>1</outline>
      </PolyStyle>
      <BalloonStyle>
        <text><![CDATA[<h3>$[name]</h3>]]></text>
      </BalloonStyle>
    </Style>
    <StyleMap id="poly-FF0000-1000-0-nodesc">
      <Pair>
        <key>normal</key>
        <styleUrl>#poly-FF0000-1000-0-nodesc-normal</styleUrl>
      </Pair>
      <Pair>
        <key>highlight</key>
        <styleUrl>#poly-FF0000-1000-0-nodesc-highlight</styleUrl>
      </Pair>
    </StyleMap>
    <Placemark>
      <name>Meadowbank (polygon: official_shp)</name>
      <styleUrl>#poly-FF0000-1000-0-nodesc</styleUrl>
      <Polygon>
        <outerBoundaryIs>
          <LinearRing>
            <tessellate>1</tessellate>
            <coordinates>
              174.832282,-36.865336,0
              174.831781,-36.865227,0
              174.831057,-36.864922,0
              174.830405,-36.864848,0
              174.828102,-36.864806,0
              174.825978,-36.865019,0
              174.822937,-36.865908,0
              174.821362,-36.86601,0
              174.819107,-36.865506,0
              174.818651,-36.865503,0
              174.81837,-36.865585,0
              174.818191,-36.865764,0
              174.818226,-36.866034,0
              174.818548,-36.866478,0
              174.818608,-36.866635,0
              174.818551,-36.867627,0
              174.819037,-36.868993,0
              174.819058,-36.869759,0
              174.819338,-36.870791,0
              174.819379,-36.871263,0
              174.819636,-36.871394,0
              174.820001,-36.871433,0
              174.82091,-36.871868,0
              174.822008,-36.872006,0
              174.822392,-36.872138,0
              174.821824,-36.87246,0
              174.821979,-36.872864,0
              174.822101,-36.872848,0
              174.82225,-36.873283,0
              174.822395,-36.87329,0
              174.822794,-36.873153,0
              174.823234,-36.874019,0
              174.823055,-36.874081,0
              174.823122,-36.874188,0
              174.822635,-36.874309,0
              174.82253,-36.874113,0
              174.822089,-36.874265,0
              174.822446,-36.874936,0
              174.823205,-36.874675,0
              174.823471,-36.875211,0
              174.824006,-36.875027,0
              174.824263,-36.875166,0
              174.82456,-36.875582,0
              174.824772,-36.876637,0
              174.825114,-36.876425,0
              174.825564,-36.876451,0
              174.825795,-36.876386,0
              174.825812,-36.876217,0
              174.826218,-36.875997,0
              174.826146,-36.875864,0
              174.826544,-36.87563,0
              174.826669,-36.875766,0
              174.826847,-36.875659,0
              174.826963,-36.875783,0
              174.827372,-36.875618,0
              174.827023,-36.875243,0
              174.827428,-36.874999,0
              174.827119,-36.874654,0
              174.827295,-36.874548,0
              174.827507,-36.874631,0
              174.82786,-36.874102,0
              174.827592,-36.874002,0
              174.827646,-36.873422,0
              174.828043,-36.87357,0
              174.828328,-36.873079,0
              174.828876,-36.873521,0
              174.82904,-36.873483,0
              174.82908,-36.873417,0
              174.829258,-36.873376,0
              174.829197,-36.873252,0
              174.829397,-36.873207,0
              174.829319,-36.872989,0
              174.831034,-36.872592,0
              174.831138,-36.871762,0
              174.831025,-36.870576,0
              174.831711,-36.870533,0
              174.831505,-36.872472,0
              174.831988,-36.87232,0
              174.83209,-36.87268,0
              174.832211,-36.872642,0
              174.832628,-36.872711,0
              174.832661,-36.872385,0
              174.833006,-36.872414,0
              174.833042,-36.872132,0
              174.836072,-36.872383,0
              174.836042,-36.872614,0
              174.835811,-36.872992,0
              174.835867,-36.873095,0
              174.836297,-36.873131,0
              174.836272,-36.873064,0
              174.836573,-36.872867,0
              174.837006,-36.872903,0
              174.837063,-36.872465,0
              174.837399,-36.872493,0
              174.837793,-36.872408,0
              174.837884,-36.872533,0
              174.838317,-36.87153,0
              174.839567,-36.871901,0
              174.839409,-36.872189,0
              174.839561,-36.872236,0
              174.839801,-36.87212,0
              174.839772,-36.872006,0
              174.840275,-36.871484,0
              174.840468,-36.871311,0
              174.841047,-36.870978,0
              174.841124,-36.870464,0
              174.841695,-36.870446,0
              174.841676,-36.870625,0
              174.841931,-36.870664,0
              174.842102,-36.870824,0
              174.8424,-36.872079,0
              174.842936,-36.87179,0
              174.843371,-36.8721,0
              174.843633,-36.871863,0
              174.843877,-36.872023,0
              174.844009,-36.87188,0
              174.844091,-36.871863,0
              174.844179,-36.871629,0
              174.843273,-36.871034,0
              174.842915,-36.870183,0
              174.842955,-36.869629,0
              174.843509,-36.869845,0
              174.843935,-36.869125,0
              174.840934,-36.867964,0
              174.840798,-36.868151,0
              174.837828,-36.866731,0
              174.835159,-36.865769,0
              174.832282,-36.865336,0
            </coordinates>
          </LinearRing>
        </outerBoundaryIs>
      </Polygon>
    </Placemark>
  </Document>
</kml>
