<?xml version="1.0" encoding="UTF-8"?>
<kml xmlns="http://www.opengis.net/kml/2.2">
  <Document>
    <name>Mellons_Bay.final</name>
    <Style id="poly-FF0000-1000-0-nodesc-normal">
      <LineStyle>
        <color>ff0000ff</color>
        <width>1</width>
      </LineStyle>
      <PolyStyle>
        <color>000000ff</color>
        <fill>1</fill>
        <outline>1</outline>
      </PolyStyle>
      <BalloonStyle>
        <text><![CDATA[<h3>$[name]</h3>]]></text>
      </BalloonStyle>
    </Style>
    <Style id="poly-FF0000-1000-0-nodesc-highlight">
      <LineStyle>
        <color>ff0000ff</color>
        <width>1.5</width>
      </LineStyle>
      <PolyStyle>
        <color>000000ff</color>
        <fill>1</fill>
        <outline>1</outline>
      </PolyStyle>
      <BalloonStyle>
        <text><![CDATA[<h3>$[name]</h3>]]></text>
      </BalloonStyle>
    </Style>
    <StyleMap id="poly-FF0000-1000-0-nodesc">
      <Pair>
        <key>normal</key>
        <styleUrl>#poly-FF0000-1000-0-nodesc-normal</styleUrl>
      </Pair>
      <Pair>
        <key>highlight</key>
        <styleUrl>#poly-FF0000-1000-0-nodesc-highlight</styleUrl>
      </Pair>
    </StyleMap>
    <Placemark>
      <name>Mellons Bay (polygon: official_shp)</name>
      <styleUrl>#poly-FF0000-1000-0-nodesc</styleUrl>
      <Polygon>
        <outerBoundaryIs>
          <LinearRing>
            <tessellate>1</tessellate>
            <coordinates>
              174.922021,-36.878733,0
              174.921769,-36.878771,0
              174.921652,-36.878867,0
              174.921428,-36.878894,0
              174.921243,-36.878859,0
              174.921016,-36.879658,0
              174.920707,-36.879718,0
              174.920177,-36.87943,0
              174.920026,-36.879609,0
              174.919568,-36.879883,0
              174.918912,-36.879763,0
              174.918805,-36.88014,0
              174.91888,-36.880339,0
              174.91878,-36.88069,0
              174.919764,-36.880871,0
              174.919929,-36.881053,0
              174.920585,-36.881173,0
              174.920325,-36.88209,0
              174.919606,-36.881886,0
              174.918873,-36.881751,0
              174.91842,-36.883341,0
              174.91926,-36.883903,0
              174.91916,-36.884254,0
              174.919266,-36.884529,0
              174.919615,-36.884594,0
              174.919499,-36.885004,0
              174.919719,-36.885044,0
              174.919861,-36.884544,0
              174.920726,-36.884992,0
              174.920465,-36.885317,0
              174.921136,-36.885665,0
              174.920904,-36.885953,0
              174.921144,-36.886122,0
              174.920969,-36.886341,0
              174.921193,-36.886458,0
              174.9213,-36.88645,0
              174.921549,-36.886543,0
              174.922025,-36.886783,0
              174.922196,-36.886537,0
              174.922667,-36.886218,0
              174.923203,-36.886672,0
              174.924174,-36.885931,0
              174.924462,-36.886233,0
              174.925248,-36.885755,0
              174.926216,-36.886793,0
              174.926454,-36.886798,0
              174.926802,-36.886995,0
              174.926421,-36.887291,0
              174.926227,-36.887377,0
              174.925999,-36.887707,0
              174.925945,-36.888248,0
              174.925774,-36.888259,0
              174.927917,-36.889786,0
              174.928163,-36.889533,0
              174.928483,-36.889734,0
              174.928845,-36.889738,0
              174.929376,-36.890384,0
              174.928539,-36.891119,0
              174.928855,-36.891872,0
              174.929048,-36.891699,0
              174.929244,-36.891838,0
              174.929445,-36.891658,0
              174.929625,-36.891786,0
              174.930202,-36.891316,0
              174.930639,-36.891627,0
              174.930948,-36.891352,0
              174.931569,-36.891798,0
              174.930993,-36.892613,0
              174.931455,-36.892947,0
              174.930976,-36.893387,0
              174.930896,-36.893391,0
              174.931106,-36.893542,0
              174.931424,-36.89325,0
              174.931607,-36.893377,0
              174.931731,-36.893199,0
              174.931888,-36.89327,0
              174.931715,-36.893862,0
              174.932075,-36.894093,0
              174.932997,-36.89408,0
              174.933053,-36.894481,0
              174.933328,-36.894535,0
              174.933359,-36.894651,0
              174.933743,-36.894636,0
              174.933755,-36.894686,0
              174.93408,-36.894655,0
              174.934087,-36.894546,0
              174.934413,-36.894515,0
              174.93484,-36.894364,0
              174.934773,-36.89429,0
              174.934984,-36.894207,0
              174.935017,-36.894303,0
              174.936591,-36.893719,0
              174.936861,-36.893727,0
              174.936808,-36.893032,0
              174.936928,-36.892877,0
              174.937194,-36.891923,0
              174.937472,-36.891933,0
              174.937715,-36.892045,0
              174.938252,-36.89217,0
              174.938566,-36.892429,0
              174.938892,-36.892574,0
              174.939005,-36.892533,0
              174.939131,-36.89257,0
              174.939339,-36.892532,0
              174.939634,-36.892762,0
              174.939749,-36.892467,0
              174.939954,-36.89237,0
              174.940054,-36.892239,0
              174.940618,-36.892235,0
              174.940774,-36.89218,0
              174.940669,-36.891211,0
              174.940685,-36.890918,0
              174.940603,-36.890688,0
              174.940659,-36.890508,0
              174.94056,-36.890163,0
              174.940474,-36.890051,0
              174.940495,-36.889718,0
              174.940398,-36.889287,0
              174.940312,-36.889238,0
              174.940071,-36.889302,0
              174.939988,-36.889223,0
              174.939564,-36.888645,0
              174.93938,-36.88813,0
              174.939091,-36.887821,0
              174.938165,-36.887223,0
              174.936951,-36.886576,0
              174.936604,-36.886324,0
              174.936486,-36.886043,0
              174.936344,-36.885956,0
              174.934541,-36.885407,0
              174.932945,-36.884825,0
              174.931663,-36.88415,0
              174.929976,-36.883032,0
              174.929459,-36.882636,0
              174.929191,-36.8821,0
              174.928485,-36.88152,0
              174.928008,-36.88095,0
              174.92689,-36.880092,0
              174.926148,-36.879678,0
              174.925487,-36.879126,0
              174.924913,-36.878167,0
              174.924672,-36.878083,0
              174.924331,-36.878093,0
              174.924029,-36.878443,0
              174.923701,-36.878375,0
              174.923138,-36.878155,0
              174.922646,-36.87807,0
              174.922501,-36.878188,0
              174.922229,-36.878611,0
              174.922021,-36.878733,0
            </coordinates>
          </LinearRing>
        </outerBoundaryIs>
      </Polygon>
    </Placemark>
  </Document>
</kml>
