<?xml version="1.0" encoding="UTF-8"?>
<kml xmlns="http://www.opengis.net/kml/2.2">
  <Document>
    <name>Mount_Wellington.final</name>
    <Style id="poly-FF0000-1000-0-nodesc-normal">
      <LineStyle>
        <color>ff0000ff</color>
        <width>1</width>
      </LineStyle>
      <PolyStyle>
        <color>000000ff</color>
        <fill>1</fill>
        <outline>1</outline>
      </PolyStyle>
      <BalloonStyle>
        <text><![CDATA[<h3>$[name]</h3>]]></text>
      </BalloonStyle>
    </Style>
    <Style id="poly-FF0000-1000-0-nodesc-highlight">
      <LineStyle>
        <color>ff0000ff</color>
        <width>1.5</width>
      </LineStyle>
      <PolyStyle>
        <color>000000ff</color>
        <fill>1</fill>
        <outline>1</outline>
      </PolyStyle>
      <BalloonStyle>
        <text><![CDATA[<h3>$[name]</h3>]]></text>
      </BalloonStyle>
    </Style>
    <StyleMap id="poly-FF0000-1000-0-nodesc">
      <Pair>
        <key>normal</key>
        <styleUrl>#poly-FF0000-1000-0-nodesc-normal</styleUrl>
      </Pair>
      <Pair>
        <key>highlight</key>
        <styleUrl>#poly-FF0000-1000-0-nodesc-highlight</styleUrl>
      </Pair>
    </StyleMap>
    <Placemark>
      <name>Mount Wellington (polygon: official_shp)</name>
      <styleUrl>#poly-FF0000-1000-0-nodesc</styleUrl>
      <Polygon>
        <outerBoundaryIs>
          <LinearRing>
            <tessellate>1</tessellate>
            <coordinates>
              174.855056,-36.905775,0
              174.85478,-36.905791,0
              174.854468,-36.90598,0
              174.853904,-36.906069,0
              174.853303,-36.906326,0
              174.853032,-36.906391,0
              174.852809,-36.906571,0
              174.852695,-36.906782,0
              174.852334,-36.907174,0
              174.85125,-36.907616,0
              174.850545,-36.907797,0
              174.850336,-36.907806,0
              174.850043,-36.907912,0
              174.849839,-36.907912,0
              174.84929,-36.90819,0
              174.848895,-36.908308,0
              174.848135,-36.908336,0
              174.847379,-36.908507,0
              174.847074,-36.908453,0
              174.846558,-36.908212,0
              174.846222,-36.90794,0
              174.845981,-36.907864,0
              174.845369,-36.907484,0
              174.844794,-36.907402,0
              174.844512,-36.907275,0
              174.844213,-36.906999,0
              174.844118,-36.906714,0
              174.843899,-36.90642,0
              174.843735,-36.906402,0
              174.844103,-36.906318,0
              174.844243,-36.906132,0
              174.844184,-36.905844,0
              174.844362,-36.905552,0
              174.844419,-36.905511,0
              174.844648,-36.905517,0
              174.844827,-36.905417,0
              174.84494,-36.905282,0
              174.845003,-36.905081,0
              174.84513,-36.905018,0
              174.845157,-36.904845,0
              174.845466,-36.904689,0
              174.845397,-36.904496,0
              174.84541,-36.904082,0
              174.845565,-36.903778,0
              174.846058,-36.903559,0
              174.846431,-36.903128,0
              174.84705,-36.90287,0
              174.847186,-36.902933,0
              174.847352,-36.902888,0
              174.847525,-36.902786,0
              174.847644,-36.902558,0
              174.847874,-36.902534,0
              174.848156,-36.902395,0
              174.848741,-36.902309,0
              174.848999,-36.902105,0
              174.84955,-36.902042,0
              174.849774,-36.901825,0
              174.849931,-36.901821,0
              174.850379,-36.901969,0
              174.850466,-36.901913,0
              174.850233,-36.901489,0
              174.849603,-36.900773,0
              174.849885,-36.900618,0
              174.849712,-36.900421,0
              174.849934,-36.900287,0
              174.849638,-36.900079,0
              174.849549,-36.900075,0
              174.849384,-36.899921,0
              174.849275,-36.899982,0
              174.848518,-36.899082,0
              174.848258,-36.899304,0
              174.848164,-36.899232,0
              174.848896,-36.898548,0
              174.84928,-36.898333,0
              174.849646,-36.898012,0
              174.850207,-36.897486,0
              174.851049,-36.896543,0
              174.852238,-36.895,0
              174.852723,-36.894213,0
              174.853091,-36.893447,0
              174.852715,-36.893349,0
              174.85299,-36.89323,0
              174.852326,-36.893054,0
              174.852107,-36.893098,0
              174.852038,-36.89287,0
              174.851309,-36.893029,0
              174.85119,-36.892632,0
              174.85041,-36.892783,0
              174.850356,-36.892294,0
              174.850064,-36.891546,0
              174.846657,-36.889909,0
              174.845317,-36.890359,0
              174.84429,-36.890794,0
              174.843838,-36.891359,0
              174.843092,-36.891108,0
              174.842539,-36.891372,0
              174.842308,-36.891128,0
              174.842345,-36.890932,0
              174.841874,-36.890887,0
              174.841813,-36.891289,0
              174.842121,-36.891606,0
              174.841969,-36.891897,0
              174.841782,-36.891936,0
              174.841608,-36.891875,0
              174.841333,-36.892171,0
              174.841022,-36.89236,0
              174.84077,-36.892156,0
              174.840643,-36.892228,0
              174.839214,-36.891263,0
              174.83905,-36.891291,0
              174.83847,-36.892182,0
              174.838389,-36.892122,0
              174.837981,-36.89256,0
              174.836901,-36.89182,0
              174.835353,-36.890921,0
              174.834982,-36.890754,0
              174.834574,-36.890399,0
              174.834467,-36.890208,0
              174.833799,-36.889681,0
              174.833832,-36.889659,0
              174.833697,-36.889281,0
              174.83387,-36.887775,0
              174.833197,-36.887076,0
              174.833177,-36.886828,0
              174.831622,-36.887813,0
              174.83144,-36.887854,0
              174.831302,-36.888169,0
              174.831085,-36.888315,0
              174.831703,-36.888906,0
              174.83149,-36.88905,0
              174.831347,-36.889029,0
              174.831127,-36.889176,0
              174.830519,-36.889064,0
              174.830361,-36.88962,0
              174.830231,-36.889708,0
              174.830123,-36.890087,0
              174.829792,-36.890634,0
              174.829937,-36.890773,0
              174.829764,-36.89089,0
              174.829927,-36.891045,0
              174.830093,-36.890933,0
              174.829826,-36.89187,0
              174.829282,-36.891753,0
              174.829234,-36.891921,0
              174.82593,-36.891215,0
              174.825612,-36.891874,0
              174.8256,-36.891997,0
              174.825117,-36.892091,0
              174.825462,-36.892157,0
              174.825332,-36.892613,0
              174.825552,-36.892654,0
              174.825446,-36.893025,0
              174.825336,-36.893005,0
              174.825052,-36.894007,0
              174.825577,-36.894103,0
              174.825282,-36.894932,0
              174.825381,-36.895022,0
              174.825331,-36.895127,0
              174.825387,-36.895216,0
              174.825746,-36.895428,0
              174.825993,-36.895429,0
              174.826096,-36.895523,0
              174.825803,-36.895827,0
              174.825686,-36.896083,0
              174.82536,-36.895987,0
              174.825145,-36.896441,0
              174.824918,-36.896238,0
              174.824749,-36.896401,0
              174.82518,-36.89669,0
              174.823206,-36.897731,0
              174.823249,-36.89785,0
              174.823007,-36.897889,0
              174.822918,-36.897801,0
              174.822576,-36.898194,0
              174.822606,-36.898228,0
              174.822184,-36.898328,0
              174.822319,-36.898496,0
              174.819516,-36.901775,0
              174.819971,-36.902027,0
              174.819584,-36.904653,0
              174.818777,-36.904831,0
              174.818757,-36.905212,0
              174.818577,-36.905204,0
              174.818397,-36.90549,0
              174.818523,-36.905836,0
              174.81869,-36.906103,0
              174.817271,-36.906143,0
              174.817194,-36.9062,0
              174.818514,-36.90677,0
              174.818498,-36.906815,0
              174.81929,-36.907325,0
              174.819368,-36.907336,0
              174.819807,-36.907775,0
              174.819871,-36.907865,0
              174.819834,-36.907884,0
              174.823527,-36.912459,0
              174.823967,-36.912916,0
              174.825242,-36.913874,0
              174.826599,-36.91475,0
              174.828316,-36.91517,0
              174.829398,-36.9155,0
              174.834783,-36.916778,0
              174.834563,-36.917177,0
              174.834423,-36.9173,0
              174.833702,-36.91755,0
              174.833141,-36.91756,0
              174.833693,-36.922825,0
              174.832235,-36.925009,0
              174.832027,-36.925232,0
              174.832442,-36.925876,0
              174.832648,-36.92609,0
              174.831844,-36.926535,0
              174.831416,-36.926825,0
              174.831007,-36.927183,0
              174.830668,-36.927571,0
              174.830404,-36.92797,0
              174.83019,-36.928421,0
              174.830057,-36.928865,0
              174.829846,-36.928959,0
              174.829182,-36.928623,0
              174.828253,-36.93021,0
              174.82983,-36.938195,0
              174.831166,-36.938015,0
              174.831305,-36.937691,0
              174.831822,-36.937454,0
              174.835008,-36.93623,0
              174.83563,-36.935911,0
              174.835972,-36.935874,0
              174.836614,-36.935628,0
              174.836556,-36.934557,0
              174.840511,-36.934419,0
              174.840895,-36.934145,0
              174.840926,-36.934989,0
              174.841364,-36.934898,0
              174.841299,-36.935054,0
              174.841511,-36.935134,0
              174.841411,-36.935484,0
              174.842571,-36.935743,0
              174.842493,-36.93548,0
              174.84269,-36.935443,0
              174.842719,-36.935542,0
              174.843173,-36.935327,0
              174.843506,-36.935264,0
              174.84364,-36.935966,0
              174.843974,-36.936036,0
              174.843835,-36.93598,0
              174.843988,-36.935971,0
              174.844232,-36.936075,0
              174.844433,-36.936012,0
              174.844595,-36.936087,0
              174.844742,-36.935853,0
              174.845058,-36.935731,0
              174.845181,-36.93547,0
              174.845155,-36.93529,0
              174.845315,-36.935124,0
              174.845658,-36.935054,0
              174.846232,-36.935124,0
              174.846339,-36.935102,0
              174.846626,-36.935196,0
              174.846932,-36.934932,0
              174.847087,-36.934862,0
              174.847202,-36.934865,0
              174.847512,-36.934988,0
              174.847766,-36.934995,0
              174.848034,-36.934898,0
              174.848341,-36.934927,0
              174.848499,-36.934641,0
              174.848641,-36.934595,0
              174.849174,-36.934558,0
              174.849506,-36.934386,0
              174.849567,-36.934288,0
              174.849583,-36.933948,0
              174.849717,-36.933804,0
              174.849928,-36.933679,0
              174.850059,-36.933416,0
              174.850329,-36.933548,0
              174.850637,-36.933613,0
              174.850966,-36.933752,0
              174.851736,-36.933476,0
              174.852112,-36.933246,0
              174.852136,-36.933113,0
              174.852029,-36.933033,0
              174.852102,-36.932849,0
              174.851909,-36.932432,0
              174.851883,-36.932259,0
              174.8519,-36.932136,0
              174.852057,-36.932007,0
              174.851784,-36.931793,0
              174.851752,-36.931519,0
              174.851879,-36.93128,0
              174.852033,-36.931149,0
              174.852033,-36.931076,0
              174.852286,-36.930891,0
              174.853108,-36.930485,0
              174.853237,-36.930342,0
              174.853227,-36.930099,0
              174.852669,-36.930104,0
              174.852545,-36.929845,0
              174.852826,-36.929609,0
              174.853479,-36.929456,0
              174.853473,-36.929291,0
              174.853595,-36.929261,0
              174.853661,-36.929181,0
              174.853761,-36.928918,0
              174.853733,-36.928757,0
              174.853625,-36.92864,0
              174.853814,-36.928688,0
              174.853959,-36.928513,0
              174.854002,-36.928523,0
              174.854171,-36.928859,0
              174.854307,-36.928983,0
              174.855011,-36.929166,0
              174.855307,-36.929359,0
              174.855502,-36.929375,0
              174.855696,-36.929332,0
              174.855905,-36.929439,0
              174.856388,-36.929316,0
              174.85644,-36.929265,0
              174.856404,-36.929109,0
              174.856699,-36.929014,0
              174.857051,-36.92902,0
              174.85722,-36.929105,0
              174.857514,-36.929057,0
              174.857582,-36.92899,0
              174.857919,-36.929072,0
              174.858017,-36.929023,0
              174.85882,-36.929105,0
              174.858849,-36.929166,0
              174.858925,-36.929168,0
              174.859518,-36.928959,0
              174.859667,-36.928772,0
              174.859927,-36.928592,0
              174.859976,-36.928506,0
              174.85988,-36.928241,0
              174.859929,-36.928136,0
              174.860022,-36.928121,0
              174.860489,-36.92827,0
              174.860651,-36.928238,0
              174.860862,-36.928124,0
              174.861019,-36.927902,0
              174.860937,-36.92766,0
              174.860983,-36.927463,0
              174.861093,-36.927405,0
              174.861474,-36.927373,0
              174.861629,-36.927412,0
              174.861731,-36.927357,0
              174.861825,-36.92726,0
              174.861861,-36.92709,0
              174.861755,-36.926816,0
              174.86181,-36.926672,0
              174.8619,-36.926623,0
              174.862205,-36.926671,0
              174.862288,-36.926593,0
              174.862497,-36.926526,0
              174.862587,-36.926287,0
              174.862783,-36.92615,0
              174.86273,-36.925861,0
              174.862869,-36.925626,0
              174.862582,-36.924885,0
              174.862418,-36.924796,0
              174.861959,-36.924734,0
              174.861816,-36.924558,0
              174.86193,-36.924466,0
              174.861932,-36.924323,0
              174.862098,-36.924245,0
              174.862109,-36.92418,0
              174.861795,-36.923956,0
              174.861275,-36.923922,0
              174.861129,-36.923777,0
              174.860941,-36.923729,0
              174.86081,-36.923381,0
              174.860425,-36.923018,0
              174.860185,-36.922928,0
              174.86014,-36.922844,0
              174.859977,-36.9228,0
              174.859981,-36.922554,0
              174.859877,-36.922415,0
              174.859888,-36.922243,0
              174.859701,-36.921824,0
              174.859565,-36.921747,0
              174.859474,-36.921482,0
              174.859319,-36.92141,0
              174.859114,-36.921391,0
              174.858963,-36.921463,0
              174.858907,-36.921401,0
              174.85876,-36.921386,0
              174.858769,-36.921341,0
              174.859516,-36.921213,0
              174.857732,-36.918745,0
              174.857605,-36.918767,0
              174.857312,-36.918575,0
              174.857386,-36.918386,0
              174.857343,-36.918296,0
              174.857097,-36.918061,0
              174.857036,-36.918151,0
              174.856902,-36.918177,0
              174.856666,-36.918049,0
              174.856585,-36.917922,0
              174.856432,-36.917842,0
              174.856013,-36.917885,0
              174.85548,-36.917716,0
              174.85534,-36.917806,0
              174.855183,-36.917823,0
              174.855144,-36.91766,0
              174.855207,-36.917601,0
              174.855126,-36.917357,0
              174.854996,-36.91726,0
              174.854289,-36.917115,0
              174.854035,-36.917146,0
              174.853943,-36.917205,0
              174.853731,-36.917033,0
              174.853722,-36.916926,0
              174.853798,-36.916766,0
              174.854066,-36.916638,0
              174.854324,-36.915134,0
              174.854258,-36.914937,0
              174.854199,-36.914944,0
              174.85387,-36.915273,0
              174.85347,-36.915377,0
              174.853335,-36.915245,0
              174.853097,-36.915322,0
              174.853091,-36.915193,0
              174.852998,-36.91513,0
              174.852632,-36.915173,0
              174.852525,-36.915051,0
              174.852473,-36.915162,0
              174.852332,-36.915049,0
              174.852204,-36.915075,0
              174.852022,-36.915221,0
              174.851928,-36.915415,0
              174.851589,-36.915765,0
              174.851197,-36.91632,0
              174.851054,-36.91638,0
              174.850835,-36.916397,0
              174.851093,-36.916334,0
              174.851175,-36.916265,0
              174.851232,-36.916059,0
              174.851394,-36.915786,0
              174.851845,-36.915242,0
              174.851666,-36.915022,0
              174.851325,-36.914844,0
              174.851236,-36.914709,0
              174.851254,-36.914623,0
              174.851512,-36.91448,0
              174.851528,-36.914521,0
              174.85179,-36.914438,0
              174.852594,-36.914374,0
              174.852689,-36.913799,0
              174.852845,-36.91348,0
              174.853204,-36.913156,0
              174.853291,-36.912972,0
              174.853701,-36.912465,0
              174.854059,-36.912226,0
              174.854312,-36.912169,0
              174.854219,-36.912071,0
              174.854094,-36.912044,0
              174.853779,-36.912089,0
              174.853531,-36.912046,0
              174.85341,-36.912184,0
              174.853236,-36.912258,0
              174.85337,-36.91252,0
              174.853269,-36.91277,0
              174.852897,-36.912987,0
              174.85264,-36.912979,0
              174.852389,-36.913034,0
              174.852416,-36.912705,0
              174.852647,-36.91265,0
              174.852793,-36.912547,0
              174.852876,-36.912407,0
              174.852935,-36.91211,0
              174.853073,-36.911971,0
              174.853327,-36.911865,0
              174.853361,-36.911774,0
              174.853466,-36.91173,0
              174.853867,-36.911692,0
              174.854029,-36.911631,0
              174.854193,-36.911675,0
              174.854108,-36.911602,0
              174.854133,-36.911546,0
              174.854372,-36.91137,0
              174.854615,-36.91146,0
              174.854644,-36.911611,0
              174.854827,-36.911758,0
              174.854826,-36.911993,0
              174.855171,-36.912137,0
              174.855857,-36.912331,0
              174.856084,-36.912315,0
              174.856491,-36.912111,0
              174.856562,-36.911986,0
              174.856522,-36.911238,0
              174.856487,-36.911106,0
              174.856434,-36.911089,0
              174.856559,-36.910562,0
              174.85647,-36.910325,0
              174.856276,-36.910209,0
              174.856183,-36.910019,0
              174.856519,-36.909958,0
              174.856609,-36.909725,0
              174.856577,-36.909386,0
              174.856624,-36.909142,0
              174.856932,-36.908899,0
              174.856973,-36.908749,0
              174.856738,-36.90838,0
              174.856669,-36.908061,0
              174.856743,-36.907908,0
              174.856611,-36.907836,0
              174.856558,-36.907664,0
              174.856435,-36.907571,0
              174.856317,-36.907306,0
              174.855927,-36.906909,0
              174.855642,-36.906448,0
              174.855494,-36.906011,0
              174.855311,-36.905838,0
              174.855056,-36.905775,0
            </coordinates>
          </LinearRing>
        </outerBoundaryIs>
      </Polygon>
    </Placemark>
  </Document>
</kml>
