<?xml version="1.0" encoding="UTF-8"?>
<kml xmlns="http://www.opengis.net/kml/2.2">
  <Document>
    <name>Northpark.final</name>
    <Style id="poly-FF0000-1000-0-nodesc-normal">
      <LineStyle>
        <color>ff0000ff</color>
        <width>1</width>
      </LineStyle>
      <PolyStyle>
        <color>000000ff</color>
        <fill>1</fill>
        <outline>1</outline>
      </PolyStyle>
      <BalloonStyle>
        <text><![CDATA[<h3>$[name]</h3>]]></text>
      </BalloonStyle>
    </Style>
    <Style id="poly-FF0000-1000-0-nodesc-highlight">
      <LineStyle>
        <color>ff0000ff</color>
        <width>1.5</width>
      </LineStyle>
      <PolyStyle>
        <color>000000ff</color>
        <fill>1</fill>
        <outline>1</outline>
      </PolyStyle>
      <BalloonStyle>
        <text><![CDATA[<h3>$[name]</h3>]]></text>
      </BalloonStyle>
    </Style>
    <StyleMap id="poly-FF0000-1000-0-nodesc">
      <Pair>
        <key>normal</key>
        <styleUrl>#poly-FF0000-1000-0-nodesc-normal</styleUrl>
      </Pair>
      <Pair>
        <key>highlight</key>
        <styleUrl>#poly-FF0000-1000-0-nodesc-highlight</styleUrl>
      </Pair>
    </StyleMap>
    <Placemark>
      <name>Northpark (polygon: official_shp)</name>
      <styleUrl>#poly-FF0000-1000-0-nodesc</styleUrl>
      <Polygon>
        <outerBoundaryIs>
          <LinearRing>
            <tessellate>1</tessellate>
            <coordinates>
              174.927983,-36.918743,0
              174.928065,-36.918686,0
              174.928132,-36.918463,0
              174.927479,-36.918159,0
              174.927719,-36.917818,0
              174.927782,-36.916947,0
              174.927899,-36.916951,0
              174.92791,-36.916573,0
              174.927865,-36.916571,0
              174.927945,-36.915183,0
              174.927856,-36.914917,0
              174.927505,-36.914512,0
              174.927546,-36.914488,0
              174.927467,-36.914495,0
              174.927311,-36.914363,0
              174.926868,-36.913888,0
              174.926784,-36.913715,0
              174.926801,-36.913639,0
              174.926555,-36.913414,0
              174.926498,-36.913391,0
              174.926419,-36.913535,0
              174.926256,-36.913628,0
              174.925415,-36.913356,0
              174.925129,-36.91309,0
              174.92426,-36.912722,0
              174.923717,-36.913256,0
              174.923528,-36.913156,0
              174.923061,-36.913036,0
              174.921338,-36.914335,0
              174.92108,-36.914376,0
              174.920334,-36.914323,0
              174.92008,-36.914124,0
              174.919856,-36.914098,0
              174.919307,-36.914189,0
              174.918529,-36.914081,0
              174.918307,-36.913902,0
              174.918149,-36.913604,0
              174.917997,-36.913595,0
              174.917562,-36.913733,0
              174.917105,-36.913742,0
              174.916738,-36.913608,0
              174.91664,-36.913618,0
              174.916772,-36.913836,0
              174.916679,-36.914135,0
              174.916708,-36.914609,0
              174.916572,-36.914813,0
              174.915755,-36.915486,0
              174.915475,-36.915879,0
              174.915323,-36.91639,0
              174.915492,-36.916465,0
              174.915431,-36.916735,0
              174.915432,-36.917167,0
              174.915208,-36.917834,0
              174.915215,-36.918125,0
              174.915384,-36.918643,0
              174.916259,-36.919737,0
              174.915899,-36.919802,0
              174.915846,-36.919999,0
              174.915585,-36.92001,0
              174.915493,-36.920949,0
              174.915275,-36.921264,0
              174.915105,-36.92188,0
              174.915547,-36.923184,0
              174.916372,-36.923338,0
              174.916074,-36.924611,0
              174.913194,-36.924073,0
              174.913271,-36.926041,0
              174.913345,-36.926094,0
              174.913337,-36.926329,0
              174.913251,-36.926392,0
              174.912822,-36.928661,0
              174.912326,-36.929832,0
              174.912019,-36.930448,0
              174.911693,-36.930934,0
              174.912418,-36.931133,0
              174.914245,-36.931182,0
              174.915331,-36.931604,0
              174.915547,-36.929794,0
              174.915489,-36.92965,0
              174.915758,-36.929268,0
              174.915949,-36.929213,0
              174.917386,-36.92822,0
              174.917785,-36.927882,0
              174.91872,-36.926877,0
              174.918983,-36.926593,0
              174.918673,-36.926407,0
              174.918976,-36.925994,0
              174.919005,-36.925856,0
              174.919321,-36.925882,0
              174.919325,-36.925705,0
              174.919466,-36.925784,0
              174.919606,-36.925637,0
              174.919777,-36.925739,0
              174.920078,-36.925414,0
              174.919808,-36.925254,0
              174.919862,-36.925136,0
              174.921089,-36.923837,0
              174.921245,-36.923611,0
              174.921352,-36.923675,0
              174.921982,-36.923014,0
              174.922189,-36.923138,0
              174.923297,-36.921948,0
              174.923587,-36.921761,0
              174.923352,-36.92163,0
              174.923504,-36.921445,0
              174.923533,-36.921426,0
              174.923634,-36.921526,0
              174.923875,-36.921386,0
              174.923752,-36.921286,0
              174.923959,-36.921152,0
              174.924072,-36.921264,0
              174.925292,-36.920467,0
              174.925172,-36.920348,0
              174.925251,-36.920297,0
              174.925097,-36.920173,0
              174.925306,-36.92005,0
              174.925184,-36.919937,0
              174.925285,-36.919707,0
              174.926014,-36.919912,0
              174.926171,-36.920097,0
              174.926869,-36.919648,0
              174.926527,-36.919495,0
              174.927076,-36.919142,0
              174.927218,-36.918995,0
              174.927323,-36.919071,0
              174.927563,-36.918768,0
              174.927825,-36.918959,0
              174.927983,-36.918743,0
            </coordinates>
          </LinearRing>
        </outerBoundaryIs>
      </Polygon>
    </Placemark>
  </Document>
</kml>
