<?xml version="1.0" encoding="UTF-8"?>
<kml xmlns="http://www.opengis.net/kml/2.2">
  <Document>
    <name>Orakei_Mission_Bay.final</name>
    <Style id="poly-FF0000-1000-0-nodesc-normal">
      <LineStyle>
        <color>ff0000ff</color>
        <width>1</width>
      </LineStyle>
      <PolyStyle>
        <color>000000ff</color>
        <fill>1</fill>
        <outline>1</outline>
      </PolyStyle>
      <BalloonStyle>
        <text><![CDATA[<h3>$[name]</h3>]]></text>
      </BalloonStyle>
    </Style>
    <Style id="poly-FF0000-1000-0-nodesc-highlight">
      <LineStyle>
        <color>ff0000ff</color>
        <width>1.5</width>
      </LineStyle>
      <PolyStyle>
        <color>000000ff</color>
        <fill>1</fill>
        <outline>1</outline>
      </PolyStyle>
      <BalloonStyle>
        <text><![CDATA[<h3>$[name]</h3>]]></text>
      </BalloonStyle>
    </Style>
    <StyleMap id="poly-FF0000-1000-0-nodesc">
      <Pair>
        <key>normal</key>
        <styleUrl>#poly-FF0000-1000-0-nodesc-normal</styleUrl>
      </Pair>
      <Pair>
        <key>highlight</key>
        <styleUrl>#poly-FF0000-1000-0-nodesc-highlight</styleUrl>
      </Pair>
    </StyleMap>
    <Placemark>
      <name>Joined Boundary</name>
      <styleUrl>#poly-FF0000-1000-0-nodesc</styleUrl>
      <Polygon>
        <outerBoundaryIs>
          <LinearRing>
            <tessellate>1</tessellate>
            <coordinates>
              174.826951,-36.863872,0
              174.827834,-36.863596,0
              174.828523,-36.863574,0
              174.828814,-36.863804,0
              174.828959,-36.863991,0
              174.829361,-36.864129,0
              174.8297,-36.864329,0
              174.830064,-36.864443,0
              174.830125,-36.8645,0
              174.830535,-36.864426,0
              174.831175,-36.864652,0
              174.831395,-36.864602,0
              174.831331,-36.864733,0
              174.831554,-36.865035,0
              174.832036,-36.865278,0
              174.832277,-36.865296,0
              174.832486,-36.865256,0
              174.832627,-36.865161,0
              174.833019,-36.865098,0
              174.833141,-36.865011,0
              174.833487,-36.865054,0
              174.833579,-36.8646,0
              174.834939,-36.864839,0
              174.835151,-36.864061,0
              174.835509,-36.863374,0
              174.835757,-36.862385,0
              174.835819,-36.861884,0
              174.83553,-36.861567,0
              174.835216,-36.860949,0
              174.836188,-36.860647,0
              174.83702,-36.86071,0
              174.837124,-36.86064,0
              174.837146,-36.860317,0
              174.836479,-36.859963,0
              174.836431,-36.859377,0
              174.836179,-36.859392,0
              174.836105,-36.85893,0
              174.835382,-36.858974,0
              174.835542,-36.858421,0
              174.835487,-36.858433,0
              174.835519,-36.858321,0
              174.835559,-36.85836,0
              174.836322,-36.858313,0
              174.836328,-36.857963,0
              174.836019,-36.857778,0
              174.836025,-36.857424,0
              174.835818,-36.857464,0
              174.836045,-36.856499,0
              174.835636,-36.856471,0
              174.835763,-36.855846,0
              174.835591,-36.855835,0
              174.835522,-36.855555,0
              174.835695,-36.855567,0
              174.835762,-36.855336,0
              174.835893,-36.85536,0
              174.835947,-36.855173,0
              174.836129,-36.855207,0
              174.836186,-36.85501,0
              174.83607,-36.854772,0
              174.836213,-36.854504,0
              174.836304,-36.853969,0
              174.836137,-36.853954,0
              174.83633,-36.853003,0
              174.836711,-36.851662,0
              174.837478,-36.851683,0
              174.83791,-36.850209,0
              174.838027,-36.850231,0
              174.838067,-36.850095,0
              174.838128,-36.850065,0
              174.838455,-36.850127,0
              174.838517,-36.849915,0
              174.839059,-36.849786,0
              174.83891,-36.8495,0
              174.838844,-36.848971,0
              174.83852,-36.84868,0
              174.837612,-36.848316,0
              174.837622,-36.84763,0
              174.836361,-36.847051,0
              174.836114,-36.846996,0
              174.835807,-36.847034,0
              174.835166,-36.847613,0
              174.834897,-36.847776,0
              174.834275,-36.847902,0
              174.833292,-36.847852,0
              174.831455,-36.847366,0
              174.828963,-36.846396,0
              174.82842,-36.846023,0
              174.828283,-36.845753,0
              174.828127,-36.84563,0
              174.827401,-36.845271,0
              174.826158,-36.844806,0
              174.825677,-36.844705,0
              174.82477,-36.844375,0
              174.824542,-36.844343,0
              174.824343,-36.843898,0
              174.824164,-36.843894,0
              174.823957,-36.844117,0
              174.823428,-36.844524,0
              174.823666,-36.844773,0
              174.823609,-36.844886,0
              174.823661,-36.844962,0
              174.823554,-36.845057,0
              174.823432,-36.845128,0
              174.821918,-36.845574,0
              174.820708,-36.845577,0
              174.819297,-36.845467,0
              174.817666,-36.845261,0
              174.817544,-36.845294,0
              174.817349,-36.845243,0
              174.817095,-36.84531,0
              174.817063,-36.84528,0
              174.817065,-36.845353,0
              174.816981,-36.845407,0
              174.816849,-36.845655,0
              174.816811,-36.84582,0
              174.817097,-36.847251,0
              174.818334,-36.849256,0
              174.818337,-36.849384,0
              174.817937,-36.849949,0
              174.817551,-36.850328,0
              174.8168,-36.850842,0
              174.815979,-36.851308,0
              174.815121,-36.851638,0
              174.814419,-36.851836,0
              174.814173,-36.851706,0
              174.814041,-36.851696,0
              174.813366,-36.851307,0
              174.810806,-36.849694,0
              174.810849,-36.8496,0
              174.810409,-36.84929,0
              174.808449,-36.851608,0
              174.80819,-36.851746,0
              174.805827,-36.852337,0
              174.805321,-36.852553,0
              174.805033,-36.852523,0
              174.805164,-36.852882,0
              174.805455,-36.852854,0
              174.805665,-36.853089,0
              174.805594,-36.853576,0
              174.805397,-36.8536,0
              174.805516,-36.854045,0
              174.805848,-36.854406,0
              174.806015,-36.854502,0
              174.806057,-36.854455,0
              174.806639,-36.854795,0
              174.80712,-36.854976,0
              174.80756,-36.854936,0
              174.808075,-36.854774,0
              174.808337,-36.854792,0
              174.809272,-36.855548,0
              174.809596,-36.856142,0
              174.809456,-36.856316,0
              174.809424,-36.856441,0
              174.80951,-36.85713,0
              174.80932,-36.857583,0
              174.80923,-36.858191,0
              174.809257,-36.858459,0
              174.809348,-36.858656,0
              174.809679,-36.858907,0
              174.809774,-36.859102,0
              174.810985,-36.860045,0
              174.81116,-36.860159,0
              174.811265,-36.860172,0
              174.811381,-36.860275,0
              174.811633,-36.860344,0
              174.811702,-36.860471,0
              174.811815,-36.860547,0
              174.811993,-36.860602,0
              174.812315,-36.860796,0
              174.812626,-36.861067,0
              174.812524,-36.861225,0
              174.812722,-36.861306,0
              174.812753,-36.861253,0
              174.813081,-36.861261,0
              174.813158,-36.861301,0
              174.813176,-36.861377,0
              174.813846,-36.861828,0
              174.814336,-36.861865,0
              174.814744,-36.862018,0
              174.814905,-36.862014,0
              174.814965,-36.862177,0
              174.8154,-36.86243,0
              174.815532,-36.862773,0
              174.816203,-36.86341,0
              174.816389,-36.863476,0
              174.817078,-36.863373,0
              174.817305,-36.863393,0
              174.817383,-36.863643,0
              174.817856,-36.863816,0
              174.818058,-36.863843,0
              174.818104,-36.863962,0
              174.818532,-36.864402,0
              174.818929,-36.864629,0
              174.819432,-36.865059,0
              174.81966,-36.86511,0
              174.819827,-36.865081,0
              174.820164,-36.865166,0
              174.820339,-36.865143,0
              174.820741,-36.865336,0
              174.820891,-36.865364,0
              174.821469,-36.865237,0
              174.821541,-36.865264,0
              174.821972,-36.865223,0
              174.822229,-36.865265,0
              174.822392,-36.865179,0
              174.822957,-36.865054,0
              174.823155,-36.864613,0
              174.823955,-36.864784,0
              174.824473,-36.864368,0
              174.824666,-36.864275,0
              174.825607,-36.864041,0
              174.826119,-36.863819,0
              174.826217,-36.863872,0
              174.826951,-36.863872,0
            </coordinates>
          </LinearRing>
        </outerBoundaryIs>
      </Polygon>
    </Placemark>
  </Document>
</kml>
