<?xml version="1.0" encoding="UTF-8"?>
<kml xmlns="http://www.opengis.net/kml/2.2">
  <Document>
    <name>Otahuhu.final</name>
    <Style id="poly-FF0000-1000-0-nodesc-normal">
      <LineStyle>
        <color>ff0000ff</color>
        <width>1</width>
      </LineStyle>
      <PolyStyle>
        <color>000000ff</color>
        <fill>1</fill>
        <outline>1</outline>
      </PolyStyle>
      <BalloonStyle>
        <text><![CDATA[<h3>$[name]</h3>]]></text>
      </BalloonStyle>
    </Style>
    <Style id="poly-FF0000-1000-0-nodesc-highlight">
      <LineStyle>
        <color>ff0000ff</color>
        <width>1.5</width>
      </LineStyle>
      <PolyStyle>
        <color>000000ff</color>
        <fill>1</fill>
        <outline>1</outline>
      </PolyStyle>
      <BalloonStyle>
        <text><![CDATA[<h3>$[name]</h3>]]></text>
      </BalloonStyle>
    </Style>
    <StyleMap id="poly-FF0000-1000-0-nodesc">
      <Pair>
        <key>normal</key>
        <styleUrl>#poly-FF0000-1000-0-nodesc-normal</styleUrl>
      </Pair>
      <Pair>
        <key>highlight</key>
        <styleUrl>#poly-FF0000-1000-0-nodesc-highlight</styleUrl>
      </Pair>
    </StyleMap>
    <Placemark>
      <name>Otahuhu (polygon: official_shp)</name>
      <styleUrl>#poly-FF0000-1000-0-nodesc</styleUrl>
      <Polygon>
        <outerBoundaryIs>
          <LinearRing>
            <tessellate>1</tessellate>
            <coordinates>
              174.857299,-36.944242,0
              174.857373,-36.94346,0
              174.857027,-36.942559,0
              174.856745,-36.942102,0
              174.856578,-36.941954,0
              174.856346,-36.94184,0
              174.85619,-36.94204,0
              174.855734,-36.942178,0
              174.855528,-36.942166,0
              174.855433,-36.941967,0
              174.855637,-36.941873,0
              174.855847,-36.941846,0
              174.855928,-36.941768,0
              174.855976,-36.941552,0
              174.856438,-36.941574,0
              174.856399,-36.941638,0
              174.856638,-36.941612,0
              174.856786,-36.94136,0
              174.857059,-36.941267,0
              174.857303,-36.941002,0
              174.857312,-36.940463,0
              174.857504,-36.940413,0
              174.857497,-36.940337,0
              174.857629,-36.940336,0
              174.857622,-36.940082,0
              174.857438,-36.940082,0
              174.857318,-36.939921,0
              174.8573,-36.939795,0
              174.857317,-36.939597,0
              174.857381,-36.939495,0
              174.857365,-36.939276,0
              174.857632,-36.938966,0
              174.857553,-36.938696,0
              174.857676,-36.938905,0
              174.857717,-36.938591,0
              174.857954,-36.938206,0
              174.858061,-36.938124,0
              174.858221,-36.938083,0
              174.858516,-36.937865,0
              174.85875,-36.937567,0
              174.859092,-36.937423,0
              174.859107,-36.937351,0
              174.859239,-36.93725,0
              174.859444,-36.937252,0
              174.859583,-36.937058,0
              174.860065,-36.936755,0
              174.86015,-36.936657,0
              174.860084,-36.936629,0
              174.860232,-36.936503,0
              174.860866,-36.936111,0
              174.861255,-36.935928,0
              174.861638,-36.935659,0
              174.862137,-36.935418,0
              174.862172,-36.935335,0
              174.862451,-36.935191,0
              174.862764,-36.934721,0
              174.862761,-36.934398,0
              174.8635,-36.93394,0
              174.864702,-36.934345,0
              174.864849,-36.934312,0
              174.865811,-36.93367,0
              174.866305,-36.933037,0
              174.866336,-36.932765,0
              174.866185,-36.932212,0
              174.86448,-36.931131,0
              174.863307,-36.930482,0
              174.863054,-36.930517,0
              174.861819,-36.930897,0
              174.859338,-36.931788,0
              174.85924,-36.931934,0
              174.859152,-36.932477,0
              174.858777,-36.933191,0
              174.85879,-36.933553,0
              174.858962,-36.93381,0
              174.856867,-36.933997,0
              174.856841,-36.933902,0
              174.856792,-36.933947,0
              174.856757,-36.933832,0
              174.856897,-36.933584,0
              174.857782,-36.933063,0
              174.857529,-36.932956,0
              174.857307,-36.932673,0
              174.856514,-36.932152,0
              174.856369,-36.931995,0
              174.855687,-36.932179,0
              174.854839,-36.931375,0
              174.854657,-36.93129,0
              174.854351,-36.931289,0
              174.854224,-36.931404,0
              174.854169,-36.931693,0
              174.854015,-36.931932,0
              174.853774,-36.932598,0
              174.853747,-36.93301,0
              174.853579,-36.933426,0
              174.853715,-36.933864,0
              174.853458,-36.933656,0
              174.853057,-36.93368,0
              174.852717,-36.933796,0
              174.852431,-36.933966,0
              174.852281,-36.934221,0
              174.852021,-36.934266,0
              174.851736,-36.933476,0
              174.850956,-36.933753,0
              174.850059,-36.933416,0
              174.849928,-36.933679,0
              174.849717,-36.933804,0
              174.849583,-36.933948,0
              174.849557,-36.934324,0
              174.849329,-36.934496,0
              174.849131,-36.934567,0
              174.848641,-36.934595,0
              174.848499,-36.934641,0
              174.848335,-36.934929,0
              174.848034,-36.934898,0
              174.847766,-36.934995,0
              174.847512,-36.934988,0
              174.847202,-36.934865,0
              174.847087,-36.934862,0
              174.846932,-36.934932,0
              174.846626,-36.935196,0
              174.846339,-36.935102,0
              174.846232,-36.935124,0
              174.845658,-36.935054,0
              174.845315,-36.935124,0
              174.845155,-36.93529,0
              174.845181,-36.93547,0
              174.845058,-36.935731,0
              174.844742,-36.935853,0
              174.844595,-36.936087,0
              174.844433,-36.936012,0
              174.844232,-36.936075,0
              174.843988,-36.935971,0
              174.843835,-36.93598,0
              174.843974,-36.936036,0
              174.84364,-36.935966,0
              174.843506,-36.935264,0
              174.843173,-36.935327,0
              174.842719,-36.935542,0
              174.84269,-36.935443,0
              174.842493,-36.93548,0
              174.842571,-36.935743,0
              174.841411,-36.935484,0
              174.841511,-36.935134,0
              174.841299,-36.935054,0
              174.841364,-36.934898,0
              174.840926,-36.934989,0
              174.840895,-36.934145,0
              174.840511,-36.934419,0
              174.836556,-36.934557,0
              174.836614,-36.935628,0
              174.835972,-36.935874,0
              174.83563,-36.935911,0
              174.835008,-36.93623,0
              174.831822,-36.937454,0
              174.831706,-36.937535,0
              174.832335,-36.941531,0
              174.832046,-36.941298,0
              174.832636,-36.9451,0
              174.832407,-36.946581,0
              174.832631,-36.946558,0
              174.832934,-36.948552,0
              174.833248,-36.948521,0
              174.833478,-36.949047,0
              174.833016,-36.949092,0
              174.833041,-36.949254,0
              174.833525,-36.949225,0
              174.833669,-36.950169,0
              174.833802,-36.950521,0
              174.834528,-36.955339,0
              174.834677,-36.956058,0
              174.834728,-36.956233,0
              174.834935,-36.955985,0
              174.835061,-36.95616,0
              174.835333,-36.956024,0
              174.835615,-36.957267,0
              174.835981,-36.957895,0
              174.837442,-36.960088,0
              174.839681,-36.958364,0
              174.84151,-36.955739,0
              174.841482,-36.955538,0
              174.842205,-36.955378,0
              174.842414,-36.955146,0
              174.842635,-36.955132,0
              174.842817,-36.955334,0
              174.843128,-36.955403,0
              174.84341,-36.955637,0
              174.843991,-36.955709,0
              174.844017,-36.956008,0
              174.844272,-36.956266,0
              174.844392,-36.956534,0
              174.844824,-36.956416,0
              174.845066,-36.956425,0
              174.845253,-36.956373,0
              174.845235,-36.956473,0
              174.845514,-36.956657,0
              174.845881,-36.956694,0
              174.846529,-36.956471,0
              174.846644,-36.956272,0
              174.847128,-36.956383,0
              174.847386,-36.956343,0
              174.847469,-36.95629,0
              174.847659,-36.956064,0
              174.847735,-36.955876,0
              174.847629,-36.955822,0
              174.847178,-36.955781,0
              174.847297,-36.955698,0
              174.84746,-36.955682,0
              174.847595,-36.955525,0
              174.8476,-36.95539,0
              174.84746,-36.955285,0
              174.847084,-36.955241,0
              174.847341,-36.95525,0
              174.847564,-36.955191,0
              174.847766,-36.955335,0
              174.847781,-36.955081,0
              174.847988,-36.955239,0
              174.84818,-36.955546,0
              174.848525,-36.955691,0
              174.848491,-36.955923,0
              174.848605,-36.956066,0
              174.848836,-36.956105,0
              174.84892,-36.955945,0
              174.848967,-36.955415,0
              174.848932,-36.955191,0
              174.849029,-36.95494,0
              174.849187,-36.954813,0
              174.849237,-36.954695,0
              174.849573,-36.954466,0
              174.850304,-36.954217,0
              174.850256,-36.954186,0
              174.850417,-36.954065,0
              174.851007,-36.953796,0
              174.851206,-36.953763,0
              174.851175,-36.9536,0
              174.850456,-36.953039,0
              174.850194,-36.952995,0
              174.849651,-36.953011,0
              174.849595,-36.952977,0
              174.849478,-36.952863,0
              174.849501,-36.952711,0
              174.849423,-36.952451,0
              174.849204,-36.952217,0
              174.849148,-36.951897,0
              174.849102,-36.951844,0
              174.848933,-36.951843,0
              174.849129,-36.951816,0
              174.849312,-36.951867,0
              174.849373,-36.951793,0
              174.849323,-36.951361,0
              174.849238,-36.951261,0
              174.849274,-36.951071,0
              174.849214,-36.950998,0
              174.849302,-36.950882,0
              174.849389,-36.950866,0
              174.849303,-36.950942,0
              174.849309,-36.951051,0
              174.849508,-36.9513,0
              174.849582,-36.951547,0
              174.84966,-36.951598,0
              174.849824,-36.951578,0
              174.850168,-36.951302,0
              174.850206,-36.951244,0
              174.850158,-36.950703,0
              174.850801,-36.95037,0
              174.850868,-36.950294,0
              174.850848,-36.950164,0
              174.850747,-36.950047,0
              174.850779,-36.949941,0
              174.850974,-36.949951,0
              174.851159,-36.949831,0
              174.85096,-36.949557,0
              174.850958,-36.94945,0
              174.850979,-36.949519,0
              174.851079,-36.9496,0
              174.851178,-36.949615,0
              174.851205,-36.949703,0
              174.851402,-36.949851,0
              174.851304,-36.949974,0
              174.851291,-36.950132,0
              174.851808,-36.950479,0
              174.852521,-36.949888,0
              174.852674,-36.94968,0
              174.852827,-36.949175,0
              174.852773,-36.948706,0
              174.852804,-36.948497,0
              174.852703,-36.948394,0
              174.852694,-36.948249,0
              174.852954,-36.948364,0
              174.853642,-36.948363,0
              174.853987,-36.948438,0
              174.854236,-36.948576,0
              174.854306,-36.948527,0
              174.854369,-36.948217,0
              174.854525,-36.947981,0
              174.854415,-36.94754,0
              174.854201,-36.947495,0
              174.853882,-36.947574,0
              174.853681,-36.947555,0
              174.853432,-36.947424,0
              174.853178,-36.947359,0
              174.853546,-36.947342,0
              174.853726,-36.947412,0
              174.854085,-36.947244,0
              174.854278,-36.94697,0
              174.854233,-36.946798,0
              174.853549,-36.946246,0
              174.853482,-36.946079,0
              174.853203,-36.945826,0
              174.852574,-36.945512,0
              174.852441,-36.945076,0
              174.852592,-36.945417,0
              174.852711,-36.945502,0
              174.853142,-36.945576,0
              174.85337,-36.945865,0
              174.853454,-36.945822,0
              174.853608,-36.945852,0
              174.853912,-36.946156,0
              174.854464,-36.946356,0
              174.854705,-36.946619,0
              174.854767,-36.946865,0
              174.854828,-36.946915,0
              174.854976,-36.946888,0
              174.855122,-36.946575,0
              174.855359,-36.946406,0
              174.855397,-36.946436,0
              174.855431,-36.946832,0
              174.855772,-36.946935,0
              174.855816,-36.946872,0
              174.856515,-36.94831,0
              174.857409,-36.949958,0
              174.857458,-36.948828,0
              174.855982,-36.946185,0
              174.856203,-36.946127,0
              174.856353,-36.94581,0
              174.856293,-36.945508,0
              174.856123,-36.945254,0
              174.856124,-36.94498,0
              174.856175,-36.944658,0
              174.856424,-36.944093,0
              174.856479,-36.944053,0
              174.856915,-36.944061,0
              174.857299,-36.944242,0
            </coordinates>
          </LinearRing>
        </outerBoundaryIs>
      </Polygon>
    </Placemark>
  </Document>
</kml>
