<?xml version="1.0" encoding="UTF-8"?>
<kml xmlns="http://www.opengis.net/kml/2.2">
  <Document>
    <name>Otara.final</name>
    <Style id="poly-FF0000-1000-0-nodesc-normal">
      <LineStyle>
        <color>ff0000ff</color>
        <width>1</width>
      </LineStyle>
      <PolyStyle>
        <color>000000ff</color>
        <fill>1</fill>
        <outline>1</outline>
      </PolyStyle>
      <BalloonStyle>
        <text><![CDATA[<h3>$[name]</h3>]]></text>
      </BalloonStyle>
    </Style>
    <Style id="poly-FF0000-1000-0-nodesc-highlight">
      <LineStyle>
        <color>ff0000ff</color>
        <width>1.5</width>
      </LineStyle>
      <PolyStyle>
        <color>000000ff</color>
        <fill>1</fill>
        <outline>1</outline>
      </PolyStyle>
      <BalloonStyle>
        <text><![CDATA[<h3>$[name]</h3>]]></text>
      </BalloonStyle>
    </Style>
    <StyleMap id="poly-FF0000-1000-0-nodesc">
      <Pair>
        <key>normal</key>
        <styleUrl>#poly-FF0000-1000-0-nodesc-normal</styleUrl>
      </Pair>
      <Pair>
        <key>highlight</key>
        <styleUrl>#poly-FF0000-1000-0-nodesc-highlight</styleUrl>
      </Pair>
    </StyleMap>
    <Placemark>
      <name>Ōtara (polygon: official_shp)</name>
      <styleUrl>#poly-FF0000-1000-0-nodesc</styleUrl>
      <Polygon>
        <outerBoundaryIs>
          <LinearRing>
            <tessellate>1</tessellate>
            <coordinates>
              174.891646,-36.951524,0
              174.891396,-36.951246,0
              174.891024,-36.951255,0
              174.891018,-36.950622,0
              174.890303,-36.950571,0
              174.889818,-36.950119,0
              174.889145,-36.949935,0
              174.888687,-36.950529,0
              174.888607,-36.950489,0
              174.888233,-36.95058,0
              174.887942,-36.950427,0
              174.887868,-36.950508,0
              174.887704,-36.950529,0
              174.887304,-36.950346,0
              174.887103,-36.950058,0
              174.886989,-36.95009,0
              174.886948,-36.950158,0
              174.886858,-36.950148,0
              174.886744,-36.950213,0
              174.886585,-36.95018,0
              174.886428,-36.950205,0
              174.886214,-36.950063,0
              174.885893,-36.949991,0
              174.885378,-36.949654,0
              174.885274,-36.949285,0
              174.884738,-36.949262,0
              174.884477,-36.949324,0
              174.884345,-36.949244,0
              174.88412,-36.949203,0
              174.883783,-36.949209,0
              174.883135,-36.949108,0
              174.882689,-36.949251,0
              174.881899,-36.949108,0
              174.881647,-36.949112,0
              174.881287,-36.9493,0
              174.880952,-36.949396,0
              174.880644,-36.949401,0
              174.880361,-36.949316,0
              174.8803,-36.949082,0
              174.880273,-36.949529,0
              174.880707,-36.950179,0
              174.880806,-36.950439,0
              174.880171,-36.950532,0
              174.88009,-36.95085,0
              174.879913,-36.951073,0
              174.87985,-36.950919,0
              174.879698,-36.950817,0
              174.879789,-36.950681,0
              174.879746,-36.950558,0
              174.879809,-36.950314,0
              174.879715,-36.950152,0
              174.879703,-36.949945,0
              174.879429,-36.949708,0
              174.879518,-36.949511,0
              174.879455,-36.948796,0
              174.879801,-36.947909,0
              174.879668,-36.947686,0
              174.879491,-36.947539,0
              174.879326,-36.947472,0
              174.879185,-36.947489,0
              174.879023,-36.947595,0
              174.878993,-36.947714,0
              174.879171,-36.947956,0
              174.879009,-36.948184,0
              174.878972,-36.948507,0
              174.878825,-36.948542,0
              174.878902,-36.948423,0
              174.878838,-36.948235,0
              174.878535,-36.948151,0
              174.878225,-36.948245,0
              174.878439,-36.947984,0
              174.878316,-36.947882,0
              174.878005,-36.947389,0
              174.877582,-36.94723,0
              174.877458,-36.947239,0
              174.877232,-36.947057,0
              174.877106,-36.947023,0
              174.876873,-36.947075,0
              174.876789,-36.947166,0
              174.876728,-36.947123,0
              174.876563,-36.947121,0
              174.876273,-36.947446,0
              174.876385,-36.947206,0
              174.876386,-36.946961,0
              174.876287,-36.946767,0
              174.87629,-36.946617,0
              174.876069,-36.946468,0
              174.875923,-36.946443,0
              174.875791,-36.946493,0
              174.875742,-36.946584,0
              174.875563,-36.946516,0
              174.875456,-36.946539,0
              174.874284,-36.94721,0
              174.874196,-36.947333,0
              174.874187,-36.9476,0
              174.874291,-36.947765,0
              174.874217,-36.947856,0
              174.873584,-36.947923,0
              174.873191,-36.948035,0
              174.873005,-36.948184,0
              174.872679,-36.948058,0
              174.872338,-36.948055,0
              174.872224,-36.948134,0
              174.871591,-36.948346,0
              174.870363,-36.948098,0
              174.869905,-36.948077,0
              174.869806,-36.94802,0
              174.869306,-36.948018,0
              174.868331,-36.948634,0
              174.868208,-36.948761,0
              174.867633,-36.948925,0
              174.867689,-36.949108,0
              174.868055,-36.949179,0
              174.86857,-36.949435,0
              174.869032,-36.950208,0
              174.869611,-36.950392,0
              174.869058,-36.950551,0
              174.868919,-36.950643,0
              174.869007,-36.950804,0
              174.86898,-36.951048,0
              174.868622,-36.951487,0
              174.868595,-36.951585,0
              174.868665,-36.951716,0
              174.86882,-36.951779,0
              174.868756,-36.951802,0
              174.868493,-36.951745,0
              174.868104,-36.951792,0
              174.867901,-36.95188,0
              174.867876,-36.95198,0
              174.86794,-36.952128,0
              174.867868,-36.952362,0
              174.867868,-36.952725,0
              174.867717,-36.952619,0
              174.86764,-36.952433,0
              174.867732,-36.952039,0
              174.868275,-36.951489,0
              174.868495,-36.951044,0
              174.868407,-36.950934,0
              174.868222,-36.950886,0
              174.868151,-36.950903,0
              174.867945,-36.951107,0
              174.867862,-36.9511,0
              174.868209,-36.950746,0
              174.868474,-36.950581,0
              174.868598,-36.950407,0
              174.86859,-36.950126,0
              174.868429,-36.949893,0
              174.868044,-36.9497,0
              174.867442,-36.949496,0
              174.867209,-36.949494,0
              174.866962,-36.949553,0
              174.866745,-36.949445,0
              174.866405,-36.94912,0
              174.866026,-36.94897,0
              174.865992,-36.948884,0
              174.865575,-36.949133,0
              174.865621,-36.949235,0
              174.865354,-36.949358,0
              174.865293,-36.949563,0
              174.865175,-36.949616,0
              174.865008,-36.949611,0
              174.864768,-36.949457,0
              174.863609,-36.948937,0
              174.863166,-36.948427,0
              174.862793,-36.947758,0
              174.862549,-36.947459,0
              174.862471,-36.947413,0
              174.862349,-36.947425,0
              174.861536,-36.946701,0
              174.861263,-36.946309,0
              174.861191,-36.945964,0
              174.861082,-36.94595,0
              174.861028,-36.946,0
              174.860884,-36.945906,0
              174.860354,-36.946053,0
              174.860009,-36.94601,0
              174.859883,-36.9462,0
              174.859502,-36.946414,0
              174.859472,-36.946822,0
              174.859283,-36.947077,0
              174.858989,-36.947816,0
              174.858957,-36.948017,0
              174.858842,-36.948211,0
              174.858615,-36.948361,0
              174.8584,-36.948594,0
              174.858257,-36.948212,0
              174.858005,-36.948273,0
              174.858158,-36.948682,0
              174.857458,-36.948828,0
              174.857409,-36.949958,0
              174.857063,-36.949937,0
              174.856892,-36.94996,0
              174.856769,-36.950049,0
              174.856614,-36.950039,0
              174.856503,-36.950152,0
              174.856166,-36.950263,0
              174.854685,-36.951114,0
              174.85432,-36.951115,0
              174.854199,-36.951182,0
              174.854159,-36.951264,0
              174.853637,-36.951409,0
              174.853405,-36.95154,0
              174.852857,-36.952021,0
              174.852402,-36.95224,0
              174.852337,-36.952537,0
              174.852473,-36.952766,0
              174.852473,-36.952856,0
              174.852322,-36.953381,0
              174.852436,-36.953532,0
              174.852525,-36.95352,0
              174.852778,-36.953676,0
              174.852958,-36.953686,0
              174.85335,-36.953386,0
              174.853316,-36.953247,0
              174.853485,-36.953111,0
              174.85369,-36.953017,0
              174.854009,-36.952759,0
              174.854428,-36.95262,0
              174.854617,-36.952651,0
              174.85482,-36.952568,0
              174.855096,-36.952656,0
              174.855401,-36.952834,0
              174.855625,-36.952874,0
              174.855702,-36.952983,0
              174.855504,-36.953034,0
              174.855419,-36.953198,0
              174.855524,-36.953623,0
              174.85518,-36.953988,0
              174.855133,-36.954232,0
              174.855139,-36.954412,0
              174.855372,-36.954895,0
              174.85556,-36.954975,0
              174.855717,-36.955136,0
              174.856372,-36.955102,0
              174.856482,-36.955179,0
              174.856711,-36.955527,0
              174.856928,-36.955406,0
              174.857387,-36.954846,0
              174.857575,-36.954784,0
              174.85774,-36.954814,0
              174.857431,-36.954945,0
              174.857237,-36.955231,0
              174.857078,-36.955741,0
              174.856257,-36.955939,0
              174.856471,-36.956227,0
              174.856652,-36.956856,0
              174.856968,-36.956661,0
              174.856773,-36.956942,0
              174.856555,-36.957068,0
              174.856913,-36.957423,0
              174.857249,-36.95759,0
              174.857358,-36.957729,0
              174.857368,-36.957781,0
              174.85726,-36.957784,0
              174.857145,-36.958206,0
              174.857135,-36.958697,0
              174.857204,-36.959085,0
              174.857347,-36.959122,0
              174.857393,-36.959035,0
              174.857503,-36.959005,0
              174.85773,-36.959143,0
              174.858049,-36.959534,0
              174.859179,-36.95974,0
              174.859525,-36.958531,0
              174.859597,-36.958544,0
              174.859563,-36.958664,0
              174.861688,-36.959054,0
              174.861851,-36.958485,0
              174.862006,-36.958514,0
              174.862736,-36.959882,0
              174.863487,-36.960851,0
              174.864533,-36.96179,0
              174.865782,-36.96272,0
              174.865727,-36.963517,0
              174.866718,-36.964179,0
              174.866861,-36.964303,0
              174.866843,-36.964394,0
              174.867377,-36.963915,0
              174.867451,-36.96402,0
              174.868409,-36.964711,0
              174.868307,-36.964877,0
              174.86986,-36.965811,0
              174.875427,-36.970067,0
              174.87756,-36.971643,0
              174.878101,-36.972126,0
              174.878796,-36.972862,0
              174.879286,-36.973659,0
              174.879874,-36.975058,0
              174.879869,-36.975236,0
              174.880062,-36.975897,0
              174.881185,-36.979247,0
              174.881516,-36.980075,0
              174.882068,-36.979834,0
              174.881682,-36.979115,0
              174.882247,-36.97898,0
              174.883158,-36.97915,0
              174.883834,-36.976587,0
              174.883413,-36.976512,0
              174.883475,-36.976284,0
              174.883726,-36.976256,0
              174.883818,-36.975955,0
              174.884224,-36.976041,0
              174.884307,-36.975742,0
              174.88447,-36.975771,0
              174.884503,-36.975591,0
              174.884626,-36.975529,0
              174.88485,-36.975555,0
              174.884927,-36.975654,0
              174.885283,-36.975664,0
              174.885384,-36.975303,0
              174.885832,-36.975314,0
              174.885915,-36.974364,0
              174.886152,-36.973945,0
              174.886557,-36.974018,0
              174.886436,-36.974324,0
              174.886584,-36.974024,0
              174.886884,-36.974216,0
              174.887002,-36.974519,0
              174.886988,-36.974889,0
              174.886861,-36.975086,0
              174.886848,-36.975416,0
              174.886729,-36.975413,0
              174.886718,-36.975699,0
              174.887926,-36.975728,0
              174.88794,-36.975349,0
              174.888129,-36.975353,0
              174.88814,-36.975065,0
              174.888611,-36.975077,0
              174.888598,-36.975421,0
              174.889858,-36.975451,0
              174.889867,-36.975209,0
              174.890161,-36.97512,0
              174.890148,-36.975458,0
              174.891082,-36.97548,0
              174.89134,-36.975196,0
              174.891589,-36.97535,0
              174.891481,-36.97549,0
              174.892233,-36.975508,0
              174.89227,-36.975477,0
              174.892915,-36.975663,0
              174.892908,-36.975847,0
              174.892992,-36.975849,0
              174.89323,-36.975587,0
              174.893391,-36.975681,0
              174.893406,-36.975758,0
              174.894084,-36.975861,0
              174.89601,-36.968916,0
              174.895459,-36.968888,0
              174.894482,-36.968612,0
              174.893287,-36.968358,0
              174.894935,-36.962567,0
              174.8956,-36.962684,0
              174.895669,-36.962343,0
              174.895756,-36.962282,0
              174.895919,-36.961745,0
              174.893549,-36.961325,0
              174.895268,-36.955083,0
              174.890862,-36.954389,0
              174.891283,-36.952987,0
              174.891792,-36.953079,0
              174.891859,-36.953043,0
              174.892016,-36.953072,0
              174.892151,-36.952586,0
              174.891998,-36.952388,0
              174.891477,-36.952298,0
              174.891646,-36.951524,0
            </coordinates>
          </LinearRing>
        </outerBoundaryIs>
      </Polygon>
    </Placemark>
  </Document>
</kml>
