<?xml version="1.0" encoding="UTF-8"?>
<kml xmlns="http://www.opengis.net/kml/2.2">
  <Document>
    <name>Pakuranga.final</name>
    <Style id="poly-FF0000-1000-0-nodesc-normal">
      <LineStyle>
        <color>ff0000ff</color>
        <width>1</width>
      </LineStyle>
      <PolyStyle>
        <color>000000ff</color>
        <fill>1</fill>
        <outline>1</outline>
      </PolyStyle>
      <BalloonStyle>
        <text><![CDATA[<h3>$[name]</h3>]]></text>
      </BalloonStyle>
    </Style>
    <Style id="poly-FF0000-1000-0-nodesc-highlight">
      <LineStyle>
        <color>ff0000ff</color>
        <width>1.5</width>
      </LineStyle>
      <PolyStyle>
        <color>000000ff</color>
        <fill>1</fill>
        <outline>1</outline>
      </PolyStyle>
      <BalloonStyle>
        <text><![CDATA[<h3>$[name]</h3>]]></text>
      </BalloonStyle>
    </Style>
    <StyleMap id="poly-FF0000-1000-0-nodesc">
      <Pair>
        <key>normal</key>
        <styleUrl>#poly-FF0000-1000-0-nodesc-normal</styleUrl>
      </Pair>
      <Pair>
        <key>highlight</key>
        <styleUrl>#poly-FF0000-1000-0-nodesc-highlight</styleUrl>
      </Pair>
    </StyleMap>
    <Placemark>
      <name>Pakuranga (polygon: official_shp)</name>
      <styleUrl>#poly-FF0000-1000-0-nodesc</styleUrl>
      <Polygon>
        <outerBoundaryIs>
          <LinearRing>
            <tessellate>1</tessellate>
            <coordinates>
              174.885113,-36.907628,0
              174.884869,-36.907657,0
              174.884848,-36.90773,0
              174.884642,-36.907896,0
              174.884428,-36.907577,0
              174.884239,-36.907659,0
              174.88423,-36.907578,0
              174.883711,-36.907608,0
              174.883737,-36.907533,0
              174.883518,-36.90749,0
              174.883535,-36.907433,0
              174.882734,-36.907273,0
              174.88283,-36.90686,0
              174.88251,-36.906805,0
              174.882404,-36.907217,0
              174.88206,-36.907149,0
              174.88208,-36.907059,0
              174.881698,-36.907002,0
              174.88176,-36.906687,0
              174.880548,-36.906495,0
              174.880688,-36.906016,0
              174.87598,-36.905083,0
              174.875932,-36.905306,0
              174.875587,-36.905443,0
              174.87426,-36.905428,0
              174.873897,-36.905497,0
              174.872779,-36.905853,0
              174.872385,-36.906087,0
              174.871997,-36.906427,0
              174.87138,-36.906775,0
              174.870791,-36.907533,0
              174.869994,-36.907883,0
              174.869549,-36.90798,0
              174.869693,-36.908493,0
              174.86957,-36.908762,0
              174.869578,-36.908977,0
              174.869651,-36.909075,0
              174.869959,-36.909187,0
              174.869935,-36.909394,0
              174.870019,-36.909532,0
              174.869835,-36.909793,0
              174.869854,-36.909935,0
              174.870043,-36.91018,0
              174.870578,-36.910357,0
              174.870519,-36.910394,0
              174.869976,-36.910438,0
              174.869786,-36.910706,0
              174.869738,-36.910697,0
              174.869612,-36.910462,0
              174.869267,-36.910042,0
              174.868738,-36.910019,0
              174.868243,-36.910222,0
              174.868338,-36.910094,0
              174.868705,-36.909867,0
              174.868862,-36.909567,0
              174.868847,-36.909342,0
              174.868728,-36.909201,0
              174.868554,-36.909115,0
              174.868717,-36.908984,0
              174.868758,-36.908803,0
              174.869346,-36.908624,0
              174.869487,-36.908527,0
              174.868968,-36.908605,0
              174.868146,-36.908421,0
              174.8674,-36.908142,0
              174.866462,-36.907646,0
              174.866355,-36.907552,0
              174.866385,-36.90747,0
              174.866287,-36.907413,0
              174.866116,-36.907454,0
              174.865806,-36.907307,0
              174.865438,-36.907262,0
              174.864826,-36.907008,0
              174.864288,-36.907029,0
              174.863751,-36.907281,0
              174.863313,-36.907173,0
              174.863171,-36.907084,0
              174.863016,-36.907205,0
              174.862612,-36.907298,0
              174.862405,-36.907466,0
              174.862337,-36.907595,0
              174.86241,-36.9079,0
              174.862228,-36.908172,0
              174.862289,-36.908361,0
              174.862271,-36.908544,0
              174.862349,-36.908535,0
              174.86236,-36.908197,0
              174.862607,-36.90771,0
              174.862732,-36.908487,0
              174.863136,-36.908963,0
              174.863315,-36.909104,0
              174.863495,-36.909148,0
              174.864045,-36.908842,0
              174.864174,-36.908819,0
              174.864216,-36.908859,0
              174.864237,-36.909115,0
              174.864118,-36.909327,0
              174.86419,-36.909556,0
              174.864069,-36.909725,0
              174.864015,-36.909999,0
              174.864113,-36.910086,0
              174.864349,-36.910134,0
              174.864896,-36.910417,0
              174.864782,-36.910635,0
              174.86456,-36.910674,0
              174.864335,-36.910781,0
              174.864111,-36.910716,0
              174.863631,-36.910757,0
              174.863402,-36.910714,0
              174.863112,-36.910842,0
              174.862953,-36.910578,0
              174.863068,-36.910102,0
              174.862996,-36.909868,0
              174.862836,-36.909729,0
              174.862719,-36.909729,0
              174.862551,-36.909811,0
              174.862436,-36.909976,0
              174.862399,-36.910211,0
              174.86252,-36.91057,0
              174.862466,-36.910761,0
              174.862071,-36.910752,0
              174.861975,-36.910578,0
              174.861693,-36.910453,0
              174.861799,-36.910294,0
              174.861768,-36.91011,0
              174.861859,-36.90959,0
              174.861782,-36.909149,0
              174.861844,-36.908717,0
              174.861622,-36.908278,0
              174.861721,-36.907927,0
              174.861657,-36.90733,0
              174.861552,-36.90716,0
              174.861391,-36.907037,0
              174.861085,-36.907015,0
              174.860946,-36.906871,0
              174.860772,-36.906948,0
              174.860798,-36.907009,0
              174.860729,-36.907131,0
              174.860638,-36.907162,0
              174.860575,-36.90712,0
              174.860589,-36.90729,0
              174.860333,-36.907406,0
              174.860227,-36.907628,0
              174.860051,-36.907798,0
              174.859646,-36.908368,0
              174.859615,-36.908405,0
              174.859554,-36.908364,0
              174.859418,-36.908568,0
              174.859284,-36.908621,0
              174.859213,-36.90851,0
              174.859168,-36.908529,0
              174.859204,-36.908591,0
              174.859079,-36.90865,0
              174.858939,-36.908493,0
              174.858838,-36.908542,0
              174.858919,-36.908644,0
              174.858322,-36.909312,0
              174.858324,-36.909527,0
              174.858254,-36.909588,0
              174.858432,-36.909779,0
              174.858563,-36.909706,0
              174.858612,-36.910075,0
              174.859082,-36.910707,0
              174.859598,-36.911265,0
              174.860237,-36.912191,0
              174.856559,-36.910604,0
              174.856434,-36.911089,0
              174.856487,-36.911106,0
              174.856518,-36.911221,0
              174.860326,-36.912926,0
              174.860338,-36.913297,0
              174.860281,-36.913621,0
              174.860137,-36.913943,0
              174.859901,-36.914203,0
              174.859841,-36.914368,0
              174.859571,-36.914485,0
              174.858925,-36.914662,0
              174.858771,-36.914755,0
              174.85862,-36.91564,0
              174.858433,-36.916138,0
              174.85853,-36.916264,0
              174.85887,-36.916314,0
              174.859224,-36.916434,0
              174.85939,-36.916553,0
              174.859542,-36.916983,0
              174.859423,-36.917359,0
              174.859448,-36.917557,0
              174.859544,-36.917637,0
              174.86,-36.917719,0
              174.860371,-36.917584,0
              174.860491,-36.917265,0
              174.860508,-36.916939,0
              174.86085,-36.916805,0
              174.860973,-36.916659,0
              174.860959,-36.91644,0
              174.861207,-36.916343,0
              174.861354,-36.916171,0
              174.861366,-36.916028,0
              174.861241,-36.915812,0
              174.861241,-36.915698,0
              174.861364,-36.915789,0
              174.861542,-36.915706,0
              174.862122,-36.915616,0
              174.86274,-36.915584,0
              174.863032,-36.915644,0
              174.863251,-36.915633,0
              174.863911,-36.915234,0
              174.864093,-36.914901,0
              174.864156,-36.91501,0
              174.864497,-36.914922,0
              174.864753,-36.914991,0
              174.865322,-36.915232,0
              174.86548,-36.915353,0
              174.865965,-36.915587,0
              174.866177,-36.915511,0
              174.866425,-36.915565,0
              174.866728,-36.915507,0
              174.86713,-36.915714,0
              174.867027,-36.915811,0
              174.867222,-36.915952,0
              174.867829,-36.915989,0
              174.867938,-36.91622,0
              174.868279,-36.916211,0
              174.868594,-36.916338,0
              174.868281,-36.91634,0
              174.867328,-36.916072,0
              174.867047,-36.916109,0
              174.866895,-36.91622,0
              174.866853,-36.91603,0
              174.866665,-36.915893,0
              174.865863,-36.915826,0
              174.865732,-36.915746,0
              174.865642,-36.915586,0
              174.865469,-36.915586,0
              174.865153,-36.915377,0
              174.864906,-36.915435,0
              174.864696,-36.915599,0
              174.864317,-36.916169,0
              174.864047,-36.91648,0
              174.864048,-36.916709,0
              174.864215,-36.91694,0
              174.864542,-36.917045,0
              174.86423,-36.917035,0
              174.864034,-36.916914,0
              174.863732,-36.916601,0
              174.863422,-36.9165,0
              174.863145,-36.916546,0
              174.862945,-36.916655,0
              174.862558,-36.917264,0
              174.862562,-36.917486,0
              174.862934,-36.917883,0
              174.862907,-36.918045,0
              174.862774,-36.918284,0
              174.862774,-36.918404,0
              174.862834,-36.918496,0
              174.86325,-36.918502,0
              174.863498,-36.918633,0
              174.863551,-36.918734,0
              174.863462,-36.918849,0
              174.862406,-36.91964,0
              174.86228,-36.919813,0
              174.861835,-36.919793,0
              174.861666,-36.920098,0
              174.861775,-36.920208,0
              174.861764,-36.920625,0
              174.862001,-36.920973,0
              174.862492,-36.921302,0
              174.862915,-36.921662,0
              174.863039,-36.92183,0
              174.863512,-36.92205,0
              174.864031,-36.92217,0
              174.864328,-36.922296,0
              174.864465,-36.922292,0
              174.86462,-36.922132,0
              174.864967,-36.922098,0
              174.86501,-36.921996,0
              174.864891,-36.921768,0
              174.864433,-36.921585,0
              174.864424,-36.921545,0
              174.864459,-36.921477,0
              174.864869,-36.921454,0
              174.864994,-36.92131,0
              174.865024,-36.921226,0
              174.864951,-36.920741,0
              174.864996,-36.920596,0
              174.865135,-36.920467,0
              174.865176,-36.92048,0
              174.865093,-36.92068,0
              174.865105,-36.920782,0
              174.865254,-36.920915,0
              174.865443,-36.920993,0
              174.865776,-36.921417,0
              174.866386,-36.921413,0
              174.866899,-36.921137,0
              174.867186,-36.921057,0
              174.867477,-36.920687,0
              174.867649,-36.920645,0
              174.868073,-36.920301,0
              174.868299,-36.91997,0
              174.8684,-36.919918,0
              174.868638,-36.919916,0
              174.869173,-36.919749,0
              174.869516,-36.919701,0
              174.869644,-36.919615,0
              174.86978,-36.919364,0
              174.869868,-36.919313,0
              174.870677,-36.919349,0
              174.871505,-36.91926,0
              174.871848,-36.919147,0
              174.872067,-36.91929,0
              174.872077,-36.919501,0
              174.872132,-36.91959,0
              174.872562,-36.919766,0
              174.87277,-36.919614,0
              174.872836,-36.919458,0
              174.873161,-36.919129,0
              174.873256,-36.918857,0
              174.873327,-36.918295,0
              174.873066,-36.917948,0
              174.873277,-36.918119,0
              174.873371,-36.918311,0
              174.873375,-36.918958,0
              174.873247,-36.919579,0
              174.873328,-36.919972,0
              174.87345,-36.920153,0
              174.873883,-36.920333,0
              174.874024,-36.920332,0
              174.874118,-36.920227,0
              174.874281,-36.919722,0
              174.874446,-36.919559,0
              174.874425,-36.919353,0
              174.874488,-36.919535,0
              174.874302,-36.919734,0
              174.874306,-36.919892,0
              174.874466,-36.92014,0
              174.874654,-36.920165,0
              174.874921,-36.919988,0
              174.875074,-36.920032,0
              174.875366,-36.919993,0
              174.87561,-36.920024,0
              174.875248,-36.920042,0
              174.875103,-36.920121,0
              174.87504,-36.920215,0
              174.875229,-36.92099,0
              174.87504,-36.921014,0
              174.874624,-36.920932,0
              174.874077,-36.921209,0
              174.874005,-36.921723,0
              174.873722,-36.921944,0
              174.87366,-36.92219,0
              174.873303,-36.921872,0
              174.873011,-36.921467,0
              174.872913,-36.921431,0
              174.872654,-36.92151,0
              174.872209,-36.921989,0
              174.871828,-36.922501,0
              174.871789,-36.922609,0
              174.871847,-36.922722,0
              174.871663,-36.922875,0
              174.871471,-36.923486,0
              174.871347,-36.923453,0
              174.871042,-36.923758,0
              174.870663,-36.923977,0
              174.87098,-36.924648,0
              174.870951,-36.924726,0
              174.87111,-36.924775,0
              174.87124,-36.924893,0
              174.871313,-36.92501,0
              174.87128,-36.925069,0
              174.871429,-36.925032,0
              174.871785,-36.925102,0
              174.872168,-36.92534,0
              174.87239,-36.925411,0
              174.872437,-36.925364,0
              174.872401,-36.92502,0
              174.872473,-36.924751,0
              174.872571,-36.924568,0
              174.872701,-36.924547,0
              174.872818,-36.924407,0
              174.872911,-36.924547,0
              174.872988,-36.924529,0
              174.872988,-36.924675,0
              174.873772,-36.924962,0
              174.873831,-36.925235,0
              174.87417,-36.925687,0
              174.874633,-36.925942,0
              174.875297,-36.926111,0
              174.876279,-36.925686,0
              174.876784,-36.925642,0
              174.877051,-36.925668,0
              174.877594,-36.925997,0
              174.877747,-36.926174,0
              174.877957,-36.926281,0
              174.878309,-36.926683,0
              174.878435,-36.926712,0
              174.879364,-36.926206,0
              174.879698,-36.926105,0
              174.879817,-36.925966,0
              174.879813,-36.92528,0
              174.879739,-36.925165,0
              174.879601,-36.925092,0
              174.879576,-36.924968,0
              174.880146,-36.924356,0
              174.880329,-36.924224,0
              174.880405,-36.92406,0
              174.880393,-36.923979,0
              174.880261,-36.923956,0
              174.879726,-36.924064,0
              174.879721,-36.92352,0
              174.879913,-36.923431,0
              174.879967,-36.923356,0
              174.879803,-36.923017,0
              174.879961,-36.923003,0
              174.879984,-36.922715,0
              174.880222,-36.92229,0
              174.880473,-36.922083,0
              174.880393,-36.921985,0
              174.880358,-36.92182,0
              174.880268,-36.921766,0
              174.880701,-36.921295,0
              174.881473,-36.920733,0
              174.881582,-36.920564,0
              174.881847,-36.920465,0
              174.881765,-36.920163,0
              174.881886,-36.920102,0
              174.882233,-36.919334,0
              174.882947,-36.91947,0
              174.883048,-36.919117,0
              174.88295,-36.919098,0
              174.883136,-36.918445,0
              174.884447,-36.918682,0
              174.884761,-36.918461,0
              174.884471,-36.91818,0
              174.884157,-36.918295,0
              174.884209,-36.917755,0
              174.88274,-36.917489,0
              174.882789,-36.917314,0
              174.882417,-36.917247,0
              174.882571,-36.916946,0
              174.882713,-36.916972,0
              174.882804,-36.916644,0
              174.883013,-36.916682,0
              174.883403,-36.91528,0
              174.882984,-36.915205,0
              174.883065,-36.914915,0
              174.883146,-36.914876,0
              174.883134,-36.914666,0
              174.883222,-36.914356,0
              174.883764,-36.914386,0
              174.883899,-36.913489,0
              174.883487,-36.913414,0
              174.883563,-36.913145,0
              174.883643,-36.91311,0
              174.883683,-36.912965,0
              174.883631,-36.912919,0
              174.883659,-36.912803,0
              174.884099,-36.912883,0
              174.884224,-36.912441,0
              174.884309,-36.912457,0
              174.884361,-36.912272,0
              174.884258,-36.912253,0
              174.884431,-36.91164,0
              174.884613,-36.911673,0
              174.884659,-36.911512,0
              174.884543,-36.911491,0
              174.884616,-36.91123,0
              174.884578,-36.911222,0
              174.885036,-36.909582,0
              174.884888,-36.909555,0
              174.884951,-36.90933,0
              174.884714,-36.909288,0
              174.884739,-36.908949,0
              174.88518,-36.909028,0
              174.885233,-36.908835,0
              174.885498,-36.908882,0
              174.885591,-36.908546,0
              174.885479,-36.908135,0
              174.885129,-36.908216,0
              174.884976,-36.908099,0
              174.885213,-36.907689,0
              174.885113,-36.907628,0
            </coordinates>
          </LinearRing>
        </outerBoundaryIs>
      </Polygon>
    </Placemark>
  </Document>
</kml>
