<?xml version="1.0" encoding="UTF-8"?>
<kml xmlns="http://www.opengis.net/kml/2.2">
  <Document>
    <name>Pakuranga_Heights.final</name>
    <Style id="poly-FF0000-1000-0-nodesc-normal">
      <LineStyle>
        <color>ff0000ff</color>
        <width>1</width>
      </LineStyle>
      <PolyStyle>
        <color>000000ff</color>
        <fill>1</fill>
        <outline>1</outline>
      </PolyStyle>
      <BalloonStyle>
        <text><![CDATA[<h3>$[name]</h3>]]></text>
      </BalloonStyle>
    </Style>
    <Style id="poly-FF0000-1000-0-nodesc-highlight">
      <LineStyle>
        <color>ff0000ff</color>
        <width>1.5</width>
      </LineStyle>
      <PolyStyle>
        <color>000000ff</color>
        <fill>1</fill>
        <outline>1</outline>
      </PolyStyle>
      <BalloonStyle>
        <text><![CDATA[<h3>$[name]</h3>]]></text>
      </BalloonStyle>
    </Style>
    <StyleMap id="poly-FF0000-1000-0-nodesc">
      <Pair>
        <key>normal</key>
        <styleUrl>#poly-FF0000-1000-0-nodesc-normal</styleUrl>
      </Pair>
      <Pair>
        <key>highlight</key>
        <styleUrl>#poly-FF0000-1000-0-nodesc-highlight</styleUrl>
      </Pair>
    </StyleMap>
    <Placemark>
      <name>Pakuranga Heights (polygon: official_shp)</name>
      <styleUrl>#poly-FF0000-1000-0-nodesc</styleUrl>
      <Polygon>
        <outerBoundaryIs>
          <LinearRing>
            <tessellate>1</tessellate>
            <coordinates>
              174.880393,-36.921985,0
              174.880473,-36.922083,0
              174.880222,-36.92229,0
              174.879984,-36.922715,0
              174.879961,-36.923003,0
              174.880383,-36.923236,0
              174.881098,-36.923812,0
              174.881254,-36.923807,0
              174.881295,-36.923604,0
              174.881392,-36.923639,0
              174.881842,-36.923597,0
              174.881871,-36.923622,0
              174.881729,-36.923709,0
              174.88176,-36.923832,0
              174.882215,-36.92413,0
              174.881789,-36.924158,0
              174.881723,-36.924214,0
              174.881791,-36.924601,0
              174.881671,-36.924632,0
              174.881315,-36.924579,0
              174.881131,-36.924691,0
              174.881177,-36.925159,0
              174.881503,-36.925359,0
              174.881916,-36.925523,0
              174.882244,-36.925537,0
              174.8829,-36.92576,0
              174.883138,-36.925466,0
              174.883024,-36.925181,0
              174.883727,-36.925079,0
              174.884052,-36.925405,0
              174.884211,-36.925486,0
              174.884466,-36.925523,0
              174.884843,-36.925751,0
              174.885145,-36.92556,0
              174.885191,-36.925203,0
              174.885458,-36.925552,0
              174.885953,-36.925726,0
              174.886338,-36.925721,0
              174.886438,-36.925852,0
              174.886556,-36.925888,0
              174.886763,-36.925887,0
              174.887013,-36.925798,0
              174.88717,-36.92561,0
              174.887386,-36.925474,0
              174.887725,-36.925105,0
              174.887576,-36.925073,0
              174.888891,-36.923361,0
              174.889809,-36.92199,0
              174.889804,-36.92181,0
              174.889563,-36.921228,0
              174.889559,-36.921093,0
              174.889698,-36.921023,0
              174.890286,-36.920989,0
              174.8907,-36.920734,0
              174.891342,-36.92061,0
              174.891506,-36.920426,0
              174.891431,-36.919774,0
              174.891514,-36.919728,0
              174.89171,-36.919724,0
              174.89202,-36.919764,0
              174.892517,-36.919485,0
              174.893065,-36.919024,0
              174.893397,-36.91886,0
              174.894567,-36.918546,0
              174.89476,-36.918407,0
              174.895053,-36.917883,0
              174.895025,-36.916783,0
              174.894665,-36.916043,0
              174.894633,-36.915787,0
              174.894279,-36.915306,0
              174.894245,-36.915081,0
              174.894071,-36.914881,0
              174.894037,-36.914702,0
              174.89415,-36.913994,0
              174.89405,-36.913657,0
              174.893835,-36.913371,0
              174.893242,-36.912008,0
              174.892759,-36.911418,0
              174.89278,-36.911178,0
              174.893255,-36.910772,0
              174.893283,-36.910808,0
              174.89309,-36.911039,0
              174.893044,-36.911339,0
              174.893341,-36.911875,0
              174.893712,-36.912116,0
              174.893824,-36.912114,0
              174.893963,-36.912044,0
              174.895011,-36.911416,0
              174.895461,-36.911348,0
              174.894631,-36.911851,0
              174.894412,-36.912058,0
              174.894254,-36.912445,0
              174.894397,-36.913524,0
              174.89471,-36.913675,0
              174.894887,-36.913965,0
              174.894921,-36.91419,0
              174.894717,-36.914892,0
              174.894956,-36.915406,0
              174.895232,-36.916235,0
              174.895579,-36.916612,0
              174.896508,-36.91673,0
              174.897475,-36.917163,0
              174.898244,-36.917577,0
              174.898475,-36.917753,0
              174.898793,-36.918108,0
              174.898882,-36.918287,0
              174.898851,-36.919144,0
              174.898749,-36.919551,0
              174.898759,-36.919866,0
              174.899076,-36.920176,0
              174.899217,-36.920174,0
              174.899656,-36.919805,0
              174.900196,-36.919097,0
              174.90026,-36.918397,0
              174.900443,-36.917897,0
              174.901075,-36.917458,0
              174.901561,-36.916727,0
              174.901666,-36.916477,0
              174.902188,-36.916108,0
              174.902522,-36.916012,0
              174.903169,-36.916067,0
              174.903362,-36.915928,0
              174.90347,-36.915791,0
              174.903574,-36.915474,0
              174.9042,-36.914809,0
              174.904277,-36.914559,0
              174.904494,-36.914263,0
              174.904485,-36.914176,0
              174.904716,-36.914211,0
              174.904804,-36.914052,0
              174.904669,-36.914045,0
              174.904644,-36.91388,0
              174.904563,-36.913843,0
              174.904456,-36.913884,0
              174.904526,-36.913733,0
              174.904407,-36.913556,0
              174.904378,-36.913261,0
              174.904427,-36.913158,0
              174.904588,-36.913028,0
              174.904898,-36.912916,0
              174.904909,-36.91272,0
              174.904387,-36.911881,0
              174.904357,-36.91159,0
              174.904448,-36.911435,0
              174.9049,-36.911197,0
              174.905132,-36.910951,0
              174.904685,-36.910696,0
              174.904672,-36.910503,0
              174.904766,-36.910309,0
              174.904542,-36.910198,0
              174.904276,-36.909943,0
              174.903886,-36.909845,0
              174.903785,-36.909777,0
              174.903726,-36.909655,0
              174.903757,-36.909478,0
              174.903984,-36.909208,0
              174.903905,-36.909139,0
              174.903675,-36.909119,0
              174.9035,-36.909018,0
              174.90341,-36.9089,0
              174.903493,-36.908519,0
              174.90386,-36.907831,0
              174.903994,-36.907676,0
              174.904263,-36.907544,0
              174.904456,-36.90724,0
              174.904384,-36.90706,0
              174.904208,-36.906876,0
              174.904245,-36.906475,0
              174.904119,-36.906231,0
              174.90394,-36.90545,0
              174.904092,-36.905026,0
              174.904179,-36.904437,0
              174.904424,-36.903792,0
              174.904364,-36.903364,0
              174.904185,-36.902812,0
              174.904184,-36.902631,0
              174.904005,-36.902193,0
              174.904086,-36.901211,0
              174.904258,-36.900814,0
              174.903998,-36.9005,0
              174.903397,-36.900818,0
              174.902188,-36.899341,0
              174.898816,-36.901121,0
              174.898771,-36.900815,0
              174.898495,-36.900473,0
              174.898121,-36.900666,0
              174.89839,-36.901011,0
              174.897873,-36.90134,0
              174.897355,-36.901038,0
              174.897173,-36.900778,0
              174.897105,-36.900569,0
              174.896167,-36.899939,0
              174.895972,-36.900008,0
              174.895199,-36.900793,0
              174.896335,-36.901544,0
              174.896429,-36.901481,0
              174.896618,-36.901671,0
              174.896129,-36.901982,0
              174.896044,-36.90213,0
              174.895192,-36.902724,0
              174.895742,-36.902824,0
              174.895371,-36.903082,0
              174.894018,-36.90284,0
              174.894284,-36.90338,0
              174.893366,-36.903832,0
              174.892946,-36.903641,0
              174.892566,-36.903566,0
              174.892943,-36.904131,0
              174.892614,-36.904271,0
              174.892679,-36.904367,0
              174.892407,-36.904483,0
              174.892365,-36.904594,0
              174.892241,-36.904647,0
              174.892072,-36.904391,0
              174.891964,-36.904437,0
              174.89181,-36.904203,0
              174.891261,-36.904436,0
              174.890749,-36.90366,0
              174.890396,-36.90497,0
              174.889601,-36.905264,0
              174.888296,-36.905153,0
              174.887378,-36.905167,0
              174.886947,-36.905048,0
              174.886737,-36.905303,0
              174.886983,-36.90552,0
              174.886308,-36.90581,0
              174.886657,-36.906333,0
              174.886286,-36.906463,0
              174.886249,-36.906407,0
              174.885974,-36.906526,0
              174.886231,-36.906912,0
              174.885618,-36.907176,0
              174.885334,-36.907372,0
              174.885192,-36.907346,0
              174.885113,-36.907628,0
              174.885213,-36.907689,0
              174.884976,-36.908099,0
              174.885129,-36.908216,0
              174.885479,-36.908135,0
              174.885591,-36.908546,0
              174.885498,-36.908882,0
              174.885233,-36.908835,0
              174.88518,-36.909028,0
              174.884739,-36.908949,0
              174.884714,-36.909288,0
              174.884951,-36.90933,0
              174.884888,-36.909555,0
              174.885036,-36.909582,0
              174.884578,-36.911222,0
              174.884616,-36.91123,0
              174.884543,-36.911491,0
              174.884659,-36.911512,0
              174.884613,-36.911673,0
              174.884431,-36.91164,0
              174.884258,-36.912253,0
              174.884361,-36.912272,0
              174.884309,-36.912457,0
              174.884224,-36.912441,0
              174.884099,-36.912883,0
              174.883659,-36.912803,0
              174.883631,-36.912919,0
              174.883683,-36.912965,0
              174.883643,-36.91311,0
              174.883563,-36.913145,0
              174.883487,-36.913414,0
              174.883899,-36.913489,0
              174.883764,-36.914386,0
              174.883222,-36.914356,0
              174.883134,-36.914666,0
              174.883146,-36.914876,0
              174.883065,-36.914915,0
              174.882984,-36.915205,0
              174.883403,-36.91528,0
              174.883013,-36.916682,0
              174.882804,-36.916644,0
              174.882713,-36.916972,0
              174.882571,-36.916946,0
              174.882417,-36.917247,0
              174.882789,-36.917314,0
              174.88274,-36.917489,0
              174.884209,-36.917755,0
              174.884157,-36.918295,0
              174.884471,-36.91818,0
              174.884761,-36.918461,0
              174.884447,-36.918682,0
              174.883136,-36.918445,0
              174.88295,-36.919098,0
              174.883048,-36.919117,0
              174.882947,-36.91947,0
              174.882233,-36.919334,0
              174.881886,-36.920102,0
              174.881765,-36.920163,0
              174.881847,-36.920465,0
              174.881582,-36.920564,0
              174.881473,-36.920733,0
              174.880701,-36.921295,0
              174.880268,-36.921766,0
              174.880358,-36.92182,0
              174.880393,-36.921985,0
            </coordinates>
          </LinearRing>
        </outerBoundaryIs>
      </Polygon>
    </Placemark>
  </Document>
</kml>
