<?xml version="1.0" encoding="UTF-8"?>
<kml xmlns="http://www.opengis.net/kml/2.2">
  <Document>
    <name>Panmure.final</name>
    <Style id="poly-FF0000-1000-0-nodesc-normal">
      <LineStyle>
        <color>ff0000ff</color>
        <width>1</width>
      </LineStyle>
      <PolyStyle>
        <color>000000ff</color>
        <fill>1</fill>
        <outline>1</outline>
      </PolyStyle>
      <BalloonStyle>
        <text><![CDATA[<h3>$[name]</h3>]]></text>
      </BalloonStyle>
    </Style>
    <Style id="poly-FF0000-1000-0-nodesc-highlight">
      <LineStyle>
        <color>ff0000ff</color>
        <width>1.5</width>
      </LineStyle>
      <PolyStyle>
        <color>000000ff</color>
        <fill>1</fill>
        <outline>1</outline>
      </PolyStyle>
      <BalloonStyle>
        <text><![CDATA[<h3>$[name]</h3>]]></text>
      </BalloonStyle>
    </Style>
    <StyleMap id="poly-FF0000-1000-0-nodesc">
      <Pair>
        <key>normal</key>
        <styleUrl>#poly-FF0000-1000-0-nodesc-normal</styleUrl>
      </Pair>
      <Pair>
        <key>highlight</key>
        <styleUrl>#poly-FF0000-1000-0-nodesc-highlight</styleUrl>
      </Pair>
    </StyleMap>
    <Placemark>
      <name>Panmure (polygon: official_shp)</name>
      <styleUrl>#poly-FF0000-1000-0-nodesc</styleUrl>
      <Polygon>
        <outerBoundaryIs>
          <LinearRing>
            <tessellate>1</tessellate>
            <coordinates>
              174.867642,-36.891068,0
              174.867679,-36.890821,0
              174.866748,-36.890652,0
              174.866946,-36.890109,0
              174.866797,-36.889931,0
              174.866712,-36.889969,0
              174.866655,-36.890127,0
              174.866257,-36.890033,0
              174.866111,-36.890433,0
              174.864567,-36.890139,0
              174.864663,-36.889858,0
              174.864411,-36.8898,0
              174.864351,-36.89,0
              174.864012,-36.889913,0
              174.864013,-36.889315,0
              174.863621,-36.889469,0
              174.863706,-36.889945,0
              174.863065,-36.890287,0
              174.862152,-36.890427,0
              174.862099,-36.890696,0
              174.861175,-36.890545,0
              174.861217,-36.890327,0
              174.860838,-36.890194,0
              174.860436,-36.889975,0
              174.859149,-36.888961,0
              174.85877,-36.888802,0
              174.858959,-36.888441,0
              174.858834,-36.888396,0
              174.858648,-36.88875,0
              174.857276,-36.888756,0
              174.857241,-36.888879,0
              174.856975,-36.888839,0
              174.856907,-36.888874,0
              174.855916,-36.888694,0
              174.856075,-36.887634,0
              174.855284,-36.887519,0
              174.85476,-36.889014,0
              174.854364,-36.890477,0
              174.853868,-36.891887,0
              174.853826,-36.89188,0
              174.853224,-36.893291,0
              174.85299,-36.89323,0
              174.852715,-36.893349,0
              174.853091,-36.893447,0
              174.852723,-36.894213,0
              174.852238,-36.895,0
              174.851674,-36.895782,0
              174.850207,-36.897486,0
              174.84928,-36.898333,0
              174.848896,-36.898548,0
              174.848164,-36.899232,0
              174.848258,-36.899304,0
              174.848518,-36.899082,0
              174.849275,-36.899982,0
              174.849384,-36.899921,0
              174.849549,-36.900075,0
              174.849638,-36.900079,0
              174.849934,-36.900287,0
              174.849712,-36.900421,0
              174.849885,-36.900618,0
              174.849603,-36.900773,0
              174.850233,-36.901489,0
              174.850455,-36.901924,0
              174.851277,-36.901908,0
              174.851676,-36.902081,0
              174.852096,-36.902051,0
              174.852434,-36.902091,0
              174.85274,-36.901994,0
              174.853302,-36.90203,0
              174.85373,-36.902293,0
              174.854194,-36.902847,0
              174.854632,-36.904484,0
              174.855247,-36.905398,0
              174.855308,-36.905457,0
              174.855422,-36.905313,0
              174.855679,-36.905558,0
              174.855815,-36.905787,0
              174.855996,-36.905935,0
              174.856207,-36.906515,0
              174.856357,-36.906619,0
              174.856579,-36.906933,0
              174.856699,-36.906926,0
              174.856976,-36.907179,0
              174.857061,-36.90735,0
              174.857499,-36.907809,0
              174.857587,-36.907834,0
              174.858048,-36.907301,0
              174.858398,-36.907036,0
              174.858495,-36.906672,0
              174.858694,-36.90656,0
              174.858867,-36.906675,0
              174.858937,-36.906624,0
              174.859049,-36.906319,0
              174.859339,-36.906176,0
              174.859575,-36.905871,0
              174.859612,-36.905673,0
              174.859965,-36.905377,0
              174.860217,-36.905305,0
              174.86065,-36.904786,0
              174.860616,-36.904727,0
              174.860866,-36.904827,0
              174.861226,-36.904868,0
              174.861391,-36.904838,0
              174.862001,-36.904546,0
              174.862225,-36.904543,0
              174.862595,-36.904426,0
              174.862887,-36.904208,0
              174.862938,-36.904029,0
              174.863185,-36.903943,0
              174.863334,-36.903801,0
              174.863505,-36.903534,0
              174.863813,-36.903743,0
              174.863997,-36.904024,0
              174.864576,-36.903877,0
              174.865205,-36.903586,0
              174.865966,-36.903146,0
              174.86622,-36.902956,0
              174.866416,-36.902696,0
              174.866991,-36.90265,0
              174.86748,-36.902764,0
              174.868301,-36.902476,0
              174.868269,-36.902438,0
              174.868579,-36.902298,0
              174.868875,-36.90209,0
              174.868568,-36.901787,0
              174.868555,-36.901471,0
              174.867964,-36.900357,0
              174.867864,-36.899862,0
              174.867903,-36.898951,0
              174.868043,-36.898546,0
              174.868089,-36.898217,0
              174.868429,-36.897523,0
              174.868533,-36.896931,0
              174.868399,-36.896196,0
              174.868256,-36.895848,0
              174.868211,-36.895439,0
              174.868089,-36.895223,0
              174.868057,-36.894995,0
              174.867821,-36.894422,0
              174.867654,-36.893479,0
              174.867743,-36.892666,0
              174.867951,-36.892076,0
              174.867903,-36.89168,0
              174.867642,-36.891068,0
            </coordinates>
          </LinearRing>
        </outerBoundaryIs>
      </Polygon>
    </Placemark>
  </Document>
</kml>
