<?xml version="1.0" encoding="UTF-8"?>
<kml xmlns="http://www.opengis.net/kml/2.2">
  <Document>
    <name>Papakura.final</name>
    <Style id="poly-FF0000-1000-0-nodesc-normal">
      <LineStyle>
        <color>ff0000ff</color>
        <width>1</width>
      </LineStyle>
      <PolyStyle>
        <color>000000ff</color>
        <fill>1</fill>
        <outline>1</outline>
      </PolyStyle>
      <BalloonStyle>
        <text><![CDATA[<h3>$[name]</h3>]]></text>
      </BalloonStyle>
    </Style>
    <Style id="poly-FF0000-1000-0-nodesc-highlight">
      <LineStyle>
        <color>ff0000ff</color>
        <width>1.5</width>
      </LineStyle>
      <PolyStyle>
        <color>000000ff</color>
        <fill>1</fill>
        <outline>1</outline>
      </PolyStyle>
      <BalloonStyle>
        <text><![CDATA[<h3>$[name]</h3>]]></text>
      </BalloonStyle>
    </Style>
    <StyleMap id="poly-FF0000-1000-0-nodesc">
      <Pair>
        <key>normal</key>
        <styleUrl>#poly-FF0000-1000-0-nodesc-normal</styleUrl>
      </Pair>
      <Pair>
        <key>highlight</key>
        <styleUrl>#poly-FF0000-1000-0-nodesc-highlight</styleUrl>
      </Pair>
    </StyleMap>
    <Placemark>
      <name>Joined Boundary</name>
      <styleUrl>#poly-FF0000-1000-0-nodesc</styleUrl>
      <Polygon>
        <outerBoundaryIs>
          <LinearRing>
            <tessellate>1</tessellate>
            <coordinates>
              174.987436,-37.066331,0
              174.987315,-37.065916,0
              174.990916,-37.064667,0
              174.991421,-37.067328,0
              174.991818,-37.068667,0
              174.991967,-37.069444,0
              174.992634,-37.072026,0
              175.009329,-37.071398,0
              175.005435,-37.066258,0
              175.004689,-37.065145,0
              175.001495,-37.060911,0
              174.99856,-37.057274,0
              175.004496,-37.055333,0
              175.00239,-37.050877,0
              175.000161,-37.051584,0
              174.999205,-37.051842,0
              174.996713,-37.046858,0
              174.991463,-37.048476,0
              174.985806,-37.0505,0
              174.982559,-37.049414,0
              174.98269,-37.044248,0
              174.979276,-37.045323,0
              174.97783,-37.043792,0
              174.977202,-37.044833,0
              174.976662,-37.045516,0
              174.976424,-37.045534,0
              174.97629,-37.045365,0
              174.976025,-37.045467,0
              174.975577,-37.045306,0
              174.975232,-37.045526,0
              174.974944,-37.046269,0
              174.975042,-37.046469,0
              174.974178,-37.046742,0
              174.973389,-37.045137,0
              174.969151,-37.046473,0
              174.967509,-37.043317,0
              174.963231,-37.044695,0
              174.963184,-37.044595,0
              174.961107,-37.045099,0
              174.959484,-37.041803,0
              174.952862,-37.043435,0
              174.952591,-37.042892,0
              174.952406,-37.04301,0
              174.953169,-37.04455,0
              174.948693,-37.045947,0
              174.947918,-37.044351,0
              174.937951,-37.047469,0
              174.938428,-37.048446,0
              174.937586,-37.04871,0
              174.93711,-37.047732,0
              174.935538,-37.048225,0
              174.935483,-37.048331,0
              174.935182,-37.048337,0
              174.934708,-37.048485,0
              174.935123,-37.049332,0
              174.934691,-37.04947,0
              174.934482,-37.049042,0
              174.934275,-37.049107,0
              174.934484,-37.049536,0
              174.93316,-37.049976,0
              174.934431,-37.051015,0
              174.935443,-37.051964,0
              174.935519,-37.051938,0
              174.935626,-37.052102,0
              174.937311,-37.05377,0
              174.937012,-37.05389,0
              174.934372,-37.054584,0
              174.934142,-37.054109,0
              174.933857,-37.05419,0
              174.933704,-37.053874,0
              174.933373,-37.053974,0
              174.932874,-37.054351,0
              174.932542,-37.054068,0
              174.930783,-37.054655,0
              174.930968,-37.054722,0
              174.931287,-37.054758,0
              174.931504,-37.054944,0
              174.931822,-37.055071,0
              174.932904,-37.054907,0
              174.932795,-37.05509,0
              174.931943,-37.05543,0
              174.931583,-37.055674,0
              174.930858,-37.055841,0
              174.930513,-37.055989,0
              174.930004,-37.056083,0
              174.929827,-37.056179,0
              174.929575,-37.056205,0
              174.929145,-37.056366,0
              174.92872,-37.056623,0
              174.928517,-37.056571,0
              174.928242,-37.05658,0
              174.92818,-37.056631,0
              174.928205,-37.056766,0
              174.927687,-37.057061,0
              174.928386,-37.058012,0
              174.929449,-37.058528,0
              174.930025,-37.060068,0
              174.930837,-37.060724,0
              174.932285,-37.061036,0
              174.932428,-37.060948,0
              174.932612,-37.060985,0
              174.932698,-37.060955,0
              174.932911,-37.060734,0
              174.933158,-37.060217,0
              174.933285,-37.060075,0
              174.933469,-37.060318,0
              174.933533,-37.060329,0
              174.933727,-37.060213,0
              174.934142,-37.059602,0
              174.935203,-37.059476,0
              174.935573,-37.059162,0
              174.935742,-37.059189,0
              174.936059,-37.059128,0
              174.936218,-37.059153,0
              174.937146,-37.059433,0
              174.937519,-37.059613,0
              174.937528,-37.05969,0
              174.937289,-37.059881,0
              174.936989,-37.059938,0
              174.936899,-37.060179,0
              174.936762,-37.060283,0
              174.93664,-37.060489,0
              174.936475,-37.060487,0
              174.935958,-37.060733,0
              174.935789,-37.060861,0
              174.935754,-37.060812,0
              174.935576,-37.061056,0
              174.935312,-37.061115,0
              174.93486,-37.06132,0
              174.934639,-37.061491,0
              174.934156,-37.061644,0
              174.933901,-37.06179,0
              174.933693,-37.062221,0
              174.933698,-37.062532,0
              174.933336,-37.063078,0
              174.933195,-37.063193,0
              174.933116,-37.063408,0
              174.933353,-37.064083,0
              174.933502,-37.064263,0
              174.933494,-37.064423,0
              174.934046,-37.064623,0
              174.934139,-37.064808,0
              174.934188,-37.065087,0
              174.93396,-37.065197,0
              174.934017,-37.065364,0
              174.933898,-37.065587,0
              174.934104,-37.065909,0
              174.933983,-37.065949,0
              174.933866,-37.066082,0
              174.933685,-37.066141,0
              174.933698,-37.066304,0
              174.933824,-37.066486,0
              174.935728,-37.065564,0
              174.936183,-37.065981,0
              174.935447,-37.066345,0
              174.93553,-37.066561,0
              174.935726,-37.066577,0
              174.935619,-37.06739,0
              174.93591,-37.068216,0
              174.936196,-37.068831,0
              174.936676,-37.068754,0
              174.93691,-37.068615,0
              174.937152,-37.068626,0
              174.937419,-37.068912,0
              174.937537,-37.068836,0
              174.938519,-37.068995,0
              174.938599,-37.069115,0
              174.939578,-37.069273,0
              174.939612,-37.069135,0
              174.939758,-37.069023,0
              174.939788,-37.069308,0
              174.940597,-37.069439,0
              174.940613,-37.06959,0
              174.941704,-37.069555,0
              174.942266,-37.06963,0
              174.942717,-37.0696,0
              174.942721,-37.069639,0
              174.943206,-37.069681,0
              174.943121,-37.07051,0
              174.94361,-37.070727,0
              174.944075,-37.071014,0
              174.94398,-37.071024,0
              174.943739,-37.071333,0
              174.943774,-37.071401,0
              174.944779,-37.072021,0
              174.944728,-37.072074,0
              174.94467,-37.07243,0
              174.944839,-37.072444,0
              174.945072,-37.072202,0
              174.945365,-37.072383,0
              174.945244,-37.07251,0
              174.946383,-37.072751,0
              174.946426,-37.072995,0
              174.946655,-37.072969,0
              174.946713,-37.072643,0
              174.947331,-37.073076,0
              174.947542,-37.07345,0
              174.947727,-37.073336,0
              174.947813,-37.073488,0
              174.94822,-37.073302,0
              174.948351,-37.073501,0
              174.949064,-37.073175,0
              174.94916,-37.07331,0
              174.951002,-37.073315,0
              174.950447,-37.072537,0
              174.950829,-37.072227,0
              174.951111,-37.07225,0
              174.951294,-37.072101,0
              174.95144,-37.072217,0
              174.951607,-37.072082,0
              174.951182,-37.071704,0
              174.951362,-37.071622,0
              174.951655,-37.071344,0
              174.952558,-37.072041,0
              174.954395,-37.073277,0
              174.955263,-37.074034,0
              174.955917,-37.074749,0
              174.956501,-37.075549,0
              174.956977,-37.076384,0
              174.956968,-37.076564,0
              174.957256,-37.077286,0
              174.957612,-37.078445,0
              174.958769,-37.078441,0
              174.959063,-37.07822,0
              174.95925,-37.078166,0
              174.96072,-37.078187,0
              174.961457,-37.07809,0
              174.961968,-37.07795,0
              174.962126,-37.077949,0
              174.962132,-37.078,0
              174.962198,-37.078014,0
              174.963282,-37.077877,0
              174.964142,-37.077665,0
              174.964845,-37.077586,0
              174.965378,-37.077329,0
              174.966021,-37.077149,0
              174.96627,-37.077027,0
              174.966561,-37.077131,0
              174.967411,-37.077748,0
              174.967672,-37.077883,0
              174.967885,-37.078119,0
              174.968202,-37.078147,0
              174.968518,-37.077964,0
              174.968682,-37.077931,0
              174.968851,-37.077992,0
              174.96904,-37.078182,0
              174.969253,-37.078284,0
              174.970114,-37.078376,0
              174.97011,-37.078298,0
              174.970717,-37.078174,0
              174.971865,-37.078028,0
              174.973062,-37.077434,0
              174.973801,-37.077273,0
              174.973962,-37.077301,0
              174.975086,-37.076925,0
              174.975075,-37.076854,0
              174.975308,-37.07675,0
              174.975757,-37.076161,0
              174.976202,-37.075851,0
              174.976314,-37.075941,0
              174.976778,-37.075434,0
              174.976867,-37.075416,0
              174.97737,-37.075075,0
              174.977809,-37.075097,0
              174.977938,-37.074892,0
              174.97804,-37.074535,0
              174.97833,-37.074335,0
              174.978413,-37.074335,0
              174.978705,-37.074496,0
              174.978931,-37.074733,0
              174.979066,-37.074804,0
              174.979266,-37.074878,0
              174.979614,-37.074917,0
              174.97977,-37.074995,0
              174.979936,-37.074974,0
              174.980233,-37.074771,0
              174.980424,-37.074445,0
              174.980464,-37.074071,0
              174.980335,-37.073816,0
              174.98021,-37.073721,0
              174.980049,-37.073676,0
              174.979095,-37.073752,0
              174.978774,-37.073737,0
              174.978382,-37.073608,0
              174.978337,-37.073512,0
              174.978366,-37.073376,0
              174.978453,-37.073168,0
              174.978881,-37.072632,0
              174.979357,-37.072127,0
              174.979898,-37.071705,0
              174.980372,-37.071605,0
              174.980888,-37.071599,0
              174.981934,-37.071469,0
              174.982158,-37.071321,0
              174.982248,-37.071194,0
              174.982172,-37.071184,0
              174.981624,-37.071376,0
              174.981399,-37.071365,0
              174.98104,-37.070713,0
              174.981093,-37.070378,0
              174.981623,-37.069959,0
              174.981286,-37.069377,0
              174.981849,-37.068814,0
              174.982235,-37.068189,0
              174.982905,-37.067827,0
              174.984408,-37.067994,0
              174.984354,-37.068129,0
              174.984405,-37.068518,0
              174.984551,-37.06898,0
              174.984594,-37.068867,0
              174.984733,-37.068793,0
              174.984994,-37.068811,0
              174.985127,-37.068776,0
              174.985365,-37.068599,0
              174.985967,-37.068412,0
              174.98616,-37.068195,0
              174.986622,-37.068228,0
              174.986777,-37.068151,0
              174.986636,-37.067736,0
              174.986709,-37.06754,0
              174.986884,-37.06743,0
              174.987137,-37.067539,0
              174.987245,-37.067533,0
              174.987331,-37.067512,0
              174.987395,-37.067409,0
              174.987413,-37.067307,0
              174.987317,-37.067157,0
              174.987331,-37.067085,0
              174.987456,-37.066999,0
              174.987389,-37.066961,0
              174.987132,-37.06696,0
              174.986989,-37.066847,0
              174.987025,-37.066785,0
              174.987344,-37.066674,0
              174.987319,-37.066553,0
              174.987436,-37.066331,0
            </coordinates>
          </LinearRing>
        </outerBoundaryIs>
      </Polygon>
    </Placemark>
  </Document>
</kml>
