<?xml version="1.0" encoding="UTF-8"?>
<kml xmlns="http://www.opengis.net/kml/2.2">
  <Document>
    <name>Papatoetoe.final</name>
    <Style id="poly-FF0000-1000-0-nodesc-normal">
      <LineStyle>
        <color>ff0000ff</color>
        <width>1</width>
      </LineStyle>
      <PolyStyle>
        <color>000000ff</color>
        <fill>1</fill>
        <outline>1</outline>
      </PolyStyle>
      <BalloonStyle>
        <text><![CDATA[<h3>$[name]</h3>]]></text>
      </BalloonStyle>
    </Style>
    <Style id="poly-FF0000-1000-0-nodesc-highlight">
      <LineStyle>
        <color>ff0000ff</color>
        <width>1.5</width>
      </LineStyle>
      <PolyStyle>
        <color>000000ff</color>
        <fill>1</fill>
        <outline>1</outline>
      </PolyStyle>
      <BalloonStyle>
        <text><![CDATA[<h3>$[name]</h3>]]></text>
      </BalloonStyle>
    </Style>
    <StyleMap id="poly-FF0000-1000-0-nodesc">
      <Pair>
        <key>normal</key>
        <styleUrl>#poly-FF0000-1000-0-nodesc-normal</styleUrl>
      </Pair>
      <Pair>
        <key>highlight</key>
        <styleUrl>#poly-FF0000-1000-0-nodesc-highlight</styleUrl>
      </Pair>
    </StyleMap>
    <Placemark>
      <name>Papatoetoe (polygon: official_shp)</name>
      <styleUrl>#poly-FF0000-1000-0-nodesc</styleUrl>
      <Polygon>
        <outerBoundaryIs>
          <LinearRing>
            <tessellate>1</tessellate>
            <coordinates>
              174.841586,-36.965561,0
              174.841517,-36.965481,0
              174.841439,-36.965494,0
              174.841483,-36.96589,0
              174.841215,-36.966071,0
              174.841431,-36.966395,0
              174.841277,-36.96663,0
              174.840948,-36.96657,0
              174.840512,-36.966696,0
              174.840755,-36.966895,0
              174.839749,-36.967686,0
              174.839782,-36.96779,0
              174.839961,-36.967754,0
              174.840315,-36.967777,0
              174.840273,-36.968183,0
              174.840418,-36.968154,0
              174.840816,-36.96818,0
              174.840797,-36.968361,0
              174.840319,-36.968361,0
              174.840267,-36.968866,0
              174.839845,-36.968952,0
              174.835265,-36.972563,0
              174.835573,-36.972814,0
              174.835315,-36.973243,0
              174.835733,-36.973405,0
              174.835707,-36.973345,0
              174.83596,-36.97294,0
              174.8365,-36.973185,0
              174.836751,-36.97339,0
              174.836551,-36.973722,0
              174.837243,-36.97399,0
              174.837489,-36.973582,0
              174.837618,-36.973632,0
              174.837526,-36.974074,0
              174.837075,-36.974198,0
              174.836862,-36.974557,0
              174.836501,-36.974417,0
              174.836256,-36.974825,0
              174.836454,-36.974902,0
              174.836281,-36.975036,0
              174.835805,-36.974852,0
              174.834047,-36.976601,0
              174.833804,-36.976952,0
              174.833438,-36.977315,0
              174.833417,-36.977504,0
              174.833141,-36.97778,0
              174.833065,-36.977731,0
              174.83293,-36.977866,0
              174.832795,-36.977891,0
              174.831623,-36.979063,0
              174.831383,-36.978909,0
              174.831121,-36.979258,0
              174.830765,-36.979614,0
              174.83099,-36.97978,0
              174.830338,-36.980493,0
              174.830201,-36.980507,0
              174.829673,-36.981035,0
              174.829911,-36.981188,0
              174.82977,-36.981329,0
              174.830222,-36.981188,0
              174.829585,-36.981825,0
              174.829734,-36.981971,0
              174.829945,-36.981759,0
              174.83059,-36.982183,0
              174.830746,-36.982679,0
              174.831842,-36.983351,0
              174.831954,-36.983253,0
              174.833945,-36.985013,0
              174.834074,-36.98533,0
              174.836176,-36.987011,0
              174.836286,-36.987152,0
              174.83634,-36.987334,0
              174.836566,-36.987322,0
              174.836589,-36.9876,0
              174.836731,-36.987527,0
              174.837028,-36.987995,0
              174.838129,-36.98887,0
              174.838048,-36.988956,0
              174.838168,-36.98913,0
              174.838856,-36.989547,0
              174.838912,-36.989484,0
              174.840716,-36.990775,0
              174.844248,-36.992874,0
              174.844653,-36.992827,0
              174.84436,-36.993126,0
              174.844244,-36.99337,0
              174.846421,-36.99484,0
              174.846279,-36.994401,0
              174.84623,-36.994411,0
              174.845813,-36.993116,0
              174.847404,-36.992564,0
              174.847449,-36.992647,0
              174.847729,-36.992549,0
              174.847666,-36.992448,0
              174.848715,-36.992109,0
              174.848553,-36.991731,0
              174.848468,-36.991701,0
              174.848906,-36.991549,0
              174.849153,-36.992006,0
              174.850203,-36.991642,0
              174.850539,-36.991608,0
              174.850758,-36.991532,0
              174.851607,-36.99303,0
              174.851912,-36.993338,0
              174.852386,-36.994103,0
              174.853193,-36.993905,0
              174.855302,-36.992921,0
              174.85535,-36.992746,0
              174.853967,-36.990779,0
              174.85513,-36.990376,0
              174.855175,-36.990452,0
              174.855092,-36.990641,0
              174.855453,-36.9905,0
              174.855338,-36.990304,0
              174.85604,-36.99006,0
              174.857521,-36.992518,0
              174.859021,-36.994392,0
              174.859454,-36.99503,0
              174.860143,-36.996374,0
              174.860294,-36.997136,0
              174.860602,-36.99772,0
              174.860885,-36.997621,0
              174.860815,-36.99745,0
              174.86126,-36.997254,0
              174.861395,-36.997036,0
              174.861486,-36.996621,0
              174.862,-36.996435,0
              174.862209,-36.996156,0
              174.862227,-36.995688,0
              174.862152,-36.995086,0
              174.862053,-36.994772,0
              174.862045,-36.994281,0
              174.86193,-36.993814,0
              174.861991,-36.993612,0
              174.862192,-36.993469,0
              174.862701,-36.993448,0
              174.862965,-36.993371,0
              174.86383,-36.992853,0
              174.864166,-36.992769,0
              174.864421,-36.992619,0
              174.864282,-36.992355,0
              174.864689,-36.992146,0
              174.864801,-36.99187,0
              174.864999,-36.991737,0
              174.865018,-36.991589,0
              174.865094,-36.9915,0
              174.865299,-36.991429,0
              174.866025,-36.991477,0
              174.866835,-36.991392,0
              174.867291,-36.991478,0
              174.867776,-36.991724,0
              174.86807,-36.991772,0
              174.868075,-36.991705,0
              174.867936,-36.991674,0
              174.867285,-36.990476,0
              174.868059,-36.990316,0
              174.869737,-36.99017,0
              174.873072,-36.989487,0
              174.87323,-36.989516,0
              174.873313,-36.989628,0
              174.873687,-36.989636,0
              174.873757,-36.989436,0
              174.873965,-36.989337,0
              174.873886,-36.989074,0
              174.874551,-36.988983,0
              174.87397,-36.987852,0
              174.874972,-36.987506,0
              174.874815,-36.987212,0
              174.873835,-36.98755,0
              174.873647,-36.987165,0
              174.874611,-36.986832,0
              174.874251,-36.986161,0
              174.874481,-36.986081,0
              174.874106,-36.985346,0
              174.872948,-36.985728,0
              174.87276,-36.985342,0
              174.874169,-36.984856,0
              174.873721,-36.984021,0
              174.87397,-36.983935,0
              174.873809,-36.983634,0
              174.872994,-36.983915,0
              174.873035,-36.98399,0
              174.872469,-36.9842,0
              174.872164,-36.983586,0
              174.871929,-36.983667,0
              174.872138,-36.984088,0
              174.870617,-36.984613,0
              174.870421,-36.984247,0
              174.870457,-36.984175,0
              174.869943,-36.984007,0
              174.870209,-36.983716,0
              174.869831,-36.983501,0
              174.870133,-36.983157,0
              174.869809,-36.982975,0
              174.869858,-36.98292,0
              174.869587,-36.982765,0
              174.86969,-36.982648,0
              174.869673,-36.98258,0
              174.869928,-36.982361,0
              174.870181,-36.982504,0
              174.870351,-36.982308,0
              174.870211,-36.982224,0
              174.870383,-36.982029,0
              174.8705,-36.9821,0
              174.870681,-36.981907,0
              174.870117,-36.981566,0
              174.870232,-36.981438,0
              174.86989,-36.981231,0
              174.870231,-36.980842,0
              174.870649,-36.981077,0
              174.870779,-36.980929,0
              174.871065,-36.981091,0
              174.871296,-36.980829,0
              174.871035,-36.980681,0
              174.871417,-36.980246,0
              174.871912,-36.980523,0
              174.872073,-36.980399,0
              174.871563,-36.980111,0
              174.871673,-36.979986,0
              174.87229,-36.979838,0
              174.872645,-36.979562,0
              174.872504,-36.979445,0
              174.872392,-36.979422,0
              174.872621,-36.979267,0
              174.872629,-36.979351,0
              174.872896,-36.979572,0
              174.873142,-36.979461,0
              174.872886,-36.979296,0
              174.873152,-36.978924,0
              174.873048,-36.978876,0
              174.873526,-36.978231,0
              174.874434,-36.978649,0
              174.874556,-36.978504,0
              174.874978,-36.978731,0
              174.875166,-36.978505,0
              174.875301,-36.97867,0
              174.875763,-36.978918,0
              174.875518,-36.979211,0
              174.876149,-36.979664,0
              174.876047,-36.979755,0
              174.876493,-36.980075,0
              174.876309,-36.980241,0
              174.876212,-36.980245,0
              174.876482,-36.980439,0
              174.876479,-36.980389,0
              174.876753,-36.980143,0
              174.876923,-36.980265,0
              174.876969,-36.980224,0
              174.877114,-36.980328,0
              174.877509,-36.980104,0
              174.877844,-36.979804,0
              174.87823,-36.980081,0
              174.878456,-36.979879,0
              174.878764,-36.980458,0
              174.879411,-36.980235,0
              174.879483,-36.980356,0
              174.879961,-36.980189,0
              174.879923,-36.980108,0
              174.880266,-36.97999,0
              174.880284,-36.980031,0
              174.880772,-36.979792,0
              174.881345,-36.979645,0
              174.880062,-36.975897,0
              174.879869,-36.975236,0
              174.879874,-36.975058,0
              174.879269,-36.97363,0
              174.878796,-36.972862,0
              174.878302,-36.972312,0
              174.87756,-36.971643,0
              174.875427,-36.970067,0
              174.86986,-36.965811,0
              174.868307,-36.964877,0
              174.868409,-36.964711,0
              174.867451,-36.96402,0
              174.867377,-36.963915,0
              174.866843,-36.964394,0
              174.866861,-36.964303,0
              174.866718,-36.964179,0
              174.865727,-36.963517,0
              174.865782,-36.96272,0
              174.864533,-36.96179,0
              174.863487,-36.960851,0
              174.862736,-36.959882,0
              174.862006,-36.958514,0
              174.861851,-36.958485,0
              174.861688,-36.959054,0
              174.859563,-36.958664,0
              174.859597,-36.958544,0
              174.859525,-36.958531,0
              174.859179,-36.95974,0
              174.858049,-36.959534,0
              174.85773,-36.959143,0
              174.857503,-36.959005,0
              174.857393,-36.959035,0
              174.857347,-36.959122,0
              174.857204,-36.959085,0
              174.857135,-36.958697,0
              174.857145,-36.958206,0
              174.85726,-36.957784,0
              174.857143,-36.957703,0
              174.856925,-36.957655,0
              174.856532,-36.95733,0
              174.856327,-36.95731,0
              174.856083,-36.957212,0
              174.856019,-36.957248,0
              174.856037,-36.957404,0
              174.855936,-36.957334,0
              174.855983,-36.957205,0
              174.856252,-36.957121,0
              174.856346,-36.956867,0
              174.856203,-36.9567,0
              174.856122,-36.956427,0
              174.855834,-36.956436,0
              174.856041,-36.956293,0
              174.855947,-36.956152,0
              174.855734,-36.956028,0
              174.855703,-36.955667,0
              174.85538,-36.955558,0
              174.855196,-36.955586,0
              174.854845,-36.955322,0
              174.854545,-36.955338,0
              174.854417,-36.955438,0
              174.854046,-36.955484,0
              174.854064,-36.955385,0
              174.854683,-36.954872,0
              174.854691,-36.954631,0
              174.854602,-36.954433,0
              174.854441,-36.954199,0
              174.854327,-36.954156,0
              174.85399,-36.954141,0
              174.853521,-36.954266,0
              174.852874,-36.954708,0
              174.851963,-36.954679,0
              174.851646,-36.954749,0
              174.850122,-36.955314,0
              174.849889,-36.955472,0
              174.849901,-36.955831,0
              174.849988,-36.956,0
              174.850199,-36.95619,0
              174.850509,-36.956338,0
              174.850674,-36.956375,0
              174.850927,-36.956353,0
              174.851092,-36.956443,0
              174.851115,-36.956504,0
              174.850831,-36.956601,0
              174.850771,-36.956697,0
              174.850652,-36.956639,0
              174.850371,-36.956841,0
              174.850269,-36.956817,0
              174.850107,-36.956914,0
              174.85003,-36.957494,0
              174.850226,-36.958309,0
              174.850058,-36.958449,0
              174.849888,-36.958709,0
              174.849861,-36.959091,0
              174.849792,-36.959095,0
              174.849473,-36.959313,0
              174.849448,-36.959426,0
              174.849267,-36.959559,0
              174.849216,-36.959747,0
              174.8493,-36.960196,0
              174.849566,-36.960489,0
              174.849451,-36.960576,0
              174.849198,-36.960536,0
              174.84903,-36.960561,0
              174.847861,-36.961279,0
              174.84755,-36.961894,0
              174.847502,-36.962211,0
              174.847766,-36.962589,0
              174.84784,-36.962926,0
              174.848016,-36.962959,0
              174.848209,-36.963095,0
              174.848473,-36.963196,0
              174.848781,-36.963226,0
              174.848935,-36.963193,0
              174.849143,-36.96299,0
              174.849443,-36.963051,0
              174.850321,-36.963057,0
              174.850432,-36.963112,0
              174.850676,-36.963584,0
              174.850528,-36.963594,0
              174.850437,-36.9635,0
              174.849997,-36.963311,0
              174.849843,-36.963351,0
              174.849555,-36.963303,0
              174.849293,-36.963355,0
              174.848806,-36.963571,0
              174.848727,-36.963673,0
              174.848644,-36.963995,0
              174.848508,-36.96414,0
              174.848353,-36.964201,0
              174.848391,-36.963762,0
              174.848507,-36.963639,0
              174.848493,-36.963597,0
              174.848128,-36.963414,0
              174.847656,-36.96338,0
              174.847151,-36.963682,0
              174.846849,-36.963935,0
              174.846606,-36.964322,0
              174.846331,-36.964593,0
              174.845531,-36.965018,0
              174.845543,-36.965491,0
              174.845631,-36.965968,0
              174.845382,-36.965764,0
              174.84532,-36.965562,0
              174.845175,-36.965384,0
              174.844604,-36.965034,0
              174.843902,-36.965024,0
              174.843675,-36.964938,0
              174.843472,-36.964716,0
              174.843159,-36.964587,0
              174.842963,-36.96459,0
              174.842852,-36.964637,0
              174.842605,-36.964867,0
              174.84234,-36.965412,0
              174.842203,-36.965527,0
              174.841701,-36.965672,0
              174.841587,-36.965629,0
              174.841586,-36.965561,0
            </coordinates>
          </LinearRing>
        </outerBoundaryIs>
      </Polygon>
    </Placemark>
  </Document>
</kml>
