<?xml version="1.0" encoding="UTF-8"?>
<kml xmlns="http://www.opengis.net/kml/2.2">
  <Document>
    <name>Remuera (Polygon: Official_Shp) Section 3 Section 1</name>
    <Style id="poly-0000FF-2000-102-nodesc-normal">
      <LineStyle>
        <color>ffff0000</color>
        <width>2</width>
      </LineStyle>
      <PolyStyle>
        <color>66ff0000</color>
        <fill>1</fill>
        <outline>1</outline>
      </PolyStyle>
      <BalloonStyle>
        <text><![CDATA[<h3>$[name]</h3>]]></text>
      </BalloonStyle>
    </Style>
    <Style id="poly-0000FF-2000-102-nodesc-highlight">
      <LineStyle>
        <color>ffff0000</color>
        <width>3</width>
      </LineStyle>
      <PolyStyle>
        <color>66ff0000</color>
        <fill>1</fill>
        <outline>1</outline>
      </PolyStyle>
      <BalloonStyle>
        <text><![CDATA[<h3>$[name]</h3>]]></text>
      </BalloonStyle>
    </Style>
    <StyleMap id="poly-0000FF-2000-102-nodesc">
      <Pair>
        <key>normal</key>
        <styleUrl>#poly-0000FF-2000-102-nodesc-normal</styleUrl>
      </Pair>
      <Pair>
        <key>highlight</key>
        <styleUrl>#poly-0000FF-2000-102-nodesc-highlight</styleUrl>
      </Pair>
    </StyleMap>
    <Placemark>
      <name>Remuera (Polygon: Official_Shp) Section 3 Section 1</name>
      <styleUrl>#poly-0000FF-2000-102-nodesc</styleUrl>
      <Polygon>
        <outerBoundaryIs>
          <LinearRing>
            <tessellate>1</tessellate>
            <coordinates>
              174.806502,-36.865968,0
              174.806468,-36.865966,0
              174.806453,-36.865979,0
              174.806355,-36.866152,0
              174.806388,-36.866177,0
              174.806346,-36.866168,0
              174.80533,-36.867962,0
              174.803228,-36.873112,0
              174.802884,-36.877437,0
              174.802326,-36.880527,0
              174.80091,-36.885916,0
              174.796581,-36.888248,0
              174.796794,-36.888354,0
              174.797222,-36.888419,0
              174.797278,-36.888349,0
              174.797521,-36.888475,0
              174.797298,-36.888637,0
              174.797358,-36.88866,0
              174.796775,-36.889004,0
              174.796937,-36.889134,0
              174.796864,-36.889177,0
              174.799335,-36.890636,0
              174.800425,-36.891362,0
              174.801429,-36.891957,0
              174.801626,-36.891753,0
              174.800996,-36.891689,0
              174.800888,-36.891621,0
              174.800887,-36.891567,0
              174.80049,-36.891313,0
              174.800697,-36.890939,0
              174.801257,-36.891245,0
              174.801293,-36.891425,0
              174.801547,-36.891416,0
              174.801885,-36.891493,0
              174.802408,-36.890954,0
              174.807836,-36.892842,0
              174.808204,-36.892159,0
              174.809496,-36.892021,0
              174.809469,-36.891235,0
              174.809761,-36.891336,0
              174.810558,-36.891272,0
              174.810938,-36.891066,0
              174.812452,-36.889934,0
              174.812832,-36.890316,0
              174.813122,-36.890157,0
              174.813563,-36.889823,0
              174.812782,-36.889159,0
              174.813678,-36.888945,0
              174.81369,-36.888978,0
              174.814887,-36.888741,0
              174.814789,-36.889149,0
              174.815233,-36.889218,0
              174.815155,-36.888773,0
              174.815706,-36.888677,0
              174.81577,-36.888936,0
              174.816285,-36.888846,0
              174.816162,-36.888343,0
              174.816603,-36.888266,0
              174.816922,-36.88957,0
              174.817147,-36.889552,0
              174.816872,-36.888427,0
              174.817533,-36.888311,0
              174.817557,-36.888399,0
              174.819755,-36.888015,0
              174.819746,-36.887844,0
              174.82009,-36.887848,0
              174.824578,-36.887308,0
              174.827045,-36.890122,0
              174.826655,-36.890374,0
              174.827219,-36.890242,0
              174.826029,-36.891012,0
              174.82593,-36.891215,0
              174.829234,-36.891921,0
              174.829282,-36.891753,0
              174.829826,-36.89187,0
              174.830093,-36.890933,0
              174.829927,-36.891045,0
              174.829764,-36.89089,0
              174.829937,-36.890773,0
              174.829792,-36.890634,0
              174.830123,-36.890087,0
              174.830231,-36.889708,0
              174.830361,-36.88962,0
              174.830519,-36.889064,0
              174.831127,-36.889176,0
              174.831347,-36.889029,0
              174.83149,-36.88905,0
              174.831703,-36.888906,0
              174.831085,-36.888315,0
              174.831302,-36.888169,0
              174.83144,-36.887854,0
              174.831622,-36.887813,0
              174.834145,-36.886217,0
              174.835402,-36.88473,0
              174.836876,-36.883651,0
              174.83735,-36.883181,0
              174.83734,-36.883104,0
              174.836915,-36.882827,0
              174.836761,-36.882961,0
              174.836271,-36.883099,0
              174.834717,-36.883308,0
              174.833876,-36.883483,0
              174.833244,-36.883758,0
              174.832177,-36.884838,0
              174.831828,-36.884981,0
              174.831607,-36.884995,0
              174.831143,-36.884294,0
              174.831867,-36.882923,0
              174.832119,-36.882127,0
              174.832349,-36.880875,0
              174.832651,-36.880514,0
              174.834599,-36.880636,0
              174.835131,-36.880787,0
              174.834721,-36.881531,0
              174.835033,-36.882103,0
              174.835566,-36.882169,0
              174.836241,-36.881733,0
              174.837422,-36.880322,0
              174.8385,-36.877986,0
              174.837219,-36.877686,0
              174.836045,-36.878403,0
              174.835569,-36.879554,0
              174.835343,-36.879782,0
              174.83477,-36.879827,0
              174.834299,-36.879628,0
              174.832871,-36.878778,0
              174.833123,-36.878244,0
              174.83327,-36.878332,0
              174.833922,-36.877603,0
              174.834833,-36.876873,0
              174.835381,-36.876689,0
              174.835695,-36.876192,0
              174.833705,-36.875446,0
              174.833152,-36.875909,0
              174.832512,-36.876623,0
              174.831961,-36.877017,0
              174.831486,-36.877068,0
              174.83138,-36.876983,0
              174.830785,-36.877532,0
              174.830496,-36.87767,0
              174.830244,-36.87733,0
              174.830056,-36.87742,0
              174.83009,-36.877066,0
              174.830058,-36.877026,0
              174.829772,-36.877066,0
              174.829713,-36.876799,0
              174.828553,-36.876994,0
              174.82854,-36.876931,0
              174.828339,-36.876821,0
              174.827443,-36.876968,0
              174.827512,-36.877133,0
              174.827381,-36.877228,0
              174.826545,-36.877592,0
              174.826235,-36.87762,0
              174.825626,-36.877058,0
              174.825959,-36.876865,0
              174.825801,-36.876712,0
              174.825975,-36.876619,0
              174.825899,-36.876434,0
              174.825828,-36.876436,0
              174.825795,-36.876386,0
              174.825564,-36.876451,0
              174.825114,-36.876425,0
              174.824772,-36.876637,0
              174.82456,-36.875582,0
              174.824263,-36.875166,0
              174.824006,-36.875027,0
              174.823471,-36.875211,0
              174.823205,-36.874675,0
              174.822446,-36.874936,0
              174.822089,-36.874265,0
              174.82253,-36.874113,0
              174.822635,-36.874309,0
              174.823122,-36.874188,0
              174.823055,-36.874081,0
              174.823234,-36.874019,0
              174.822794,-36.873153,0
              174.822395,-36.87329,0
              174.82225,-36.873283,0
              174.822101,-36.872848,0
              174.821979,-36.872864,0
              174.821824,-36.87246,0
              174.821684,-36.872462,0
              174.821561,-36.872424,0
              174.821557,-36.872426,0
              174.821522,-36.872441,0
              174.821416,-36.872437,0
              174.8213,-36.872433,0
              174.820967,-36.872207,0
              174.820963,-36.872205,0
              174.820379,-36.871944,0
              174.819956,-36.87184,0
              174.819598,-36.871665,0
              174.819563,-36.871668,0
              174.819345,-36.871688,0
              174.818887,-36.871868,0
              174.818825,-36.871942,0
              174.818802,-36.87197,0
              174.818731,-36.87199,0
              174.818513,-36.872051,0
              174.818118,-36.872345,0
              174.817931,-36.872663,0
              174.817701,-36.874052,0
              174.817651,-36.874013,0
              174.817459,-36.873867,0
              174.817457,-36.873867,0
              174.81718,-36.873916,0
              174.817095,-36.873895,0
              174.817078,-36.873877,0
              174.817009,-36.873806,0
              174.817008,-36.873765,0
              174.817007,-36.873739,0
              174.817008,-36.873737,0
              174.817294,-36.872946,0
              174.817411,-36.872667,0
              174.817416,-36.872665,0
              174.817444,-36.872654,0
              174.817635,-36.872304,0
              174.817636,-36.87229,0
              174.817733,-36.872078,0
              174.817754,-36.872033,0
              174.817845,-36.87196,0
              174.817945,-36.87188,0
              174.81815,-36.871771,0
              174.818164,-36.871763,0
              174.818167,-36.871763,0
              174.818179,-36.871765,0
              174.818297,-36.871666,0
              174.818454,-36.871303,0
              174.818456,-36.871301,0
              174.818754,-36.870982,0
              174.818777,-36.870755,0
              174.818723,-36.870619,0
              174.818675,-36.870557,0
              174.818639,-36.87044,0
              174.818592,-36.870286,0
              174.818565,-36.870219,0
              174.818388,-36.86887,0
              174.817514,-36.867668,0
              174.817263,-36.867518,0
              174.817192,-36.867553,0
              174.817174,-36.867609,0
              174.817147,-36.867689,0
              174.817048,-36.867832,0
              174.817002,-36.868085,0
              174.817022,-36.868151,0
              174.817008,-36.868196,0
              174.816947,-36.868397,0
              174.816946,-36.8684,0
              174.816619,-36.868766,0
              174.816521,-36.868821,0
              174.81648,-36.86885,0
              174.816335,-36.868952,0
              174.816048,-36.869099,0
              174.816,-36.869189,0
              174.815861,-36.869278,0
              174.815679,-36.869414,0
              174.815669,-36.86942,0
              174.815668,-36.869421,0
              174.815164,-36.869918,0
              174.814943,-36.870079,0
              174.814307,-36.870406,0
              174.813859,-36.870437,0
              174.813457,-36.870575,0
              174.813342,-36.870624,0
              174.813274,-36.870653,0
              174.812819,-36.870705,0
              174.812798,-36.870702,0
              174.812613,-36.870671,0
              174.812421,-36.870651,0
              174.812207,-36.870628,0
              174.811921,-36.870539,0
              174.811723,-36.870441,0
              174.811526,-36.870252,0
              174.811201,-36.870082,0
              174.81113,-36.870044,0
              174.810986,-36.869969,0
              174.810974,-36.869965,0
              174.810618,-36.86984,0
              174.810362,-36.869732,0
              174.809868,-36.8695,0
              174.809679,-36.869308,0
              174.809621,-36.86925,0
              174.80962,-36.869249,0
              174.809557,-36.869183,0
              174.809043,-36.868651,0
              174.808868,-36.868406,0
              174.80878,-36.86825,0
              174.808767,-36.868212,0
              174.808749,-36.868161,0
              174.808749,-36.86816,0
              174.808749,-36.868159,0
              174.808699,-36.867808,0
              174.80879,-36.867596,0
              174.809001,-36.867121,0
              174.809001,-36.86712,0
              174.809066,-36.86642,0
              174.80903,-36.866105,0
              174.809081,-36.865901,0
              174.809185,-36.865651,0
              174.809744,-36.864946,0
              174.809754,-36.864922,0
              174.809759,-36.864909,0
              174.809783,-36.864896,0
              174.809891,-36.86476,0
              174.810012,-36.864256,0
              174.810012,-36.864252,0
              174.810022,-36.864214,0
              174.810092,-36.863923,0
              174.810257,-36.863762,0
              174.810426,-36.863727,0
              174.810571,-36.863669,0
              174.810704,-36.863616,0
              174.811209,-36.863456,0
              174.811463,-36.863382,0
              174.811553,-36.863356,0
              174.811611,-36.863339,0
              174.812317,-36.863601,0
              174.812792,-36.863302,0
              174.81267,-36.86326,0
              174.812335,-36.863211,0
              174.812119,-36.863116,0
              174.812124,-36.863074,0
              174.812137,-36.862969,0
              174.812167,-36.86294,0
              174.812184,-36.862923,0
              174.812044,-36.862871,0
              174.812232,-36.862784,0
              174.812827,-36.862738,0
              174.813029,-36.862546,0
              174.812956,-36.86252,0
              174.812954,-36.862453,0
              174.812779,-36.862276,0
              174.812553,-36.862109,0
              174.81226,-36.862014,0
              174.812364,-36.861855,0
              174.812173,-36.861782,0
              174.812081,-36.861928,0
              174.811905,-36.861877,0
              174.811881,-36.861807,0
              174.811566,-36.861563,0
              174.811294,-36.861523,0
              174.810664,-36.86159,0
              174.810349,-36.861468,0
              174.810182,-36.861566,0
              174.809733,-36.861663,0
              174.809729,-36.861666,0
              174.809725,-36.861668,0
              174.809455,-36.862051,0
              174.809318,-36.862023,0
              174.809302,-36.862037,0
              174.809155,-36.862073,0
              174.809092,-36.862064,0
              174.809025,-36.862054,0
              174.80877,-36.861946,0
              174.80875,-36.861937,0
              174.808645,-36.861884,0
              174.808247,-36.861682,0
              174.808022,-36.861889,0
              174.808244,-36.861969,0
              174.808074,-36.862024,0
              174.808071,-36.862262,0
              174.80839,-36.862511,0
              174.808338,-36.862806,0
              174.80859,-36.863255,0
              174.808946,-36.86357,0
              174.808624,-36.863958,0
              174.808354,-36.864164,0
              174.80836,-36.864257,0
              174.808178,-36.864375,0
              174.808171,-36.864384,0
              174.80816,-36.864398,0
              174.808215,-36.864601,0
              174.808073,-36.864794,0
              174.80803,-36.864894,0
              174.808027,-36.864912,0
              174.808018,-36.864973,0
              174.807962,-36.8651,0
              174.807938,-36.865155,0
              174.807891,-36.865217,0
              174.807746,-36.865554,0
              174.807316,-36.865627,0
              174.807315,-36.865627,0
              174.806531,-36.86599,0
              174.806502,-36.865968,0
            </coordinates>
          </LinearRing>
        </outerBoundaryIs>
      </Polygon>
    </Placemark>
  </Document>
</kml>
