<?xml version="1.0" encoding="UTF-8"?>
<kml xmlns="http://www.opengis.net/kml/2.2">
  <Document>
    <name>Saint_Heliers.final</name>
    <Style id="poly-FF0000-1000-0-nodesc-normal">
      <LineStyle>
        <color>ff0000ff</color>
        <width>1</width>
      </LineStyle>
      <PolyStyle>
        <color>000000ff</color>
        <fill>1</fill>
        <outline>1</outline>
      </PolyStyle>
      <BalloonStyle>
        <text><![CDATA[<h3>$[name]</h3>]]></text>
      </BalloonStyle>
    </Style>
    <Style id="poly-FF0000-1000-0-nodesc-highlight">
      <LineStyle>
        <color>ff0000ff</color>
        <width>1.5</width>
      </LineStyle>
      <PolyStyle>
        <color>000000ff</color>
        <fill>1</fill>
        <outline>1</outline>
      </PolyStyle>
      <BalloonStyle>
        <text><![CDATA[<h3>$[name]</h3>]]></text>
      </BalloonStyle>
    </Style>
    <StyleMap id="poly-FF0000-1000-0-nodesc">
      <Pair>
        <key>normal</key>
        <styleUrl>#poly-FF0000-1000-0-nodesc-normal</styleUrl>
      </Pair>
      <Pair>
        <key>highlight</key>
        <styleUrl>#poly-FF0000-1000-0-nodesc-highlight</styleUrl>
      </Pair>
    </StyleMap>
    <Placemark>
      <name>Saint Heliers (polygon: official_shp)</name>
      <styleUrl>#poly-FF0000-1000-0-nodesc</styleUrl>
      <Polygon>
        <outerBoundaryIs>
          <LinearRing>
            <tessellate>1</tessellate>
            <coordinates>
              174.850712,-36.849795,0
              174.849067,-36.850112,0
              174.848643,-36.850285,0
              174.848084,-36.8506,0
              174.84771,-36.850722,0
              174.847704,-36.851002,0
              174.847246,-36.851282,0
              174.846731,-36.852029,0
              174.84667,-36.852223,0
              174.846796,-36.852337,0
              174.846782,-36.853415,0
              174.847001,-36.853484,0
              174.847051,-36.853644,0
              174.847103,-36.853585,0
              174.847909,-36.853798,0
              174.847102,-36.856708,0
              174.846971,-36.856685,0
              174.846836,-36.857047,0
              174.846971,-36.85718,0
              174.846757,-36.857953,0
              174.846932,-36.857985,0
              174.846839,-36.858415,0
              174.846626,-36.858424,0
              174.846444,-36.859081,0
              174.84594,-36.858991,0
              174.845911,-36.859094,0
              174.845963,-36.85916,0
              174.845911,-36.859347,0
              174.845829,-36.859389,0
              174.8458,-36.859496,0
              174.846304,-36.859586,0
              174.845516,-36.862426,0
              174.844972,-36.862659,0
              174.84463,-36.863039,0
              174.844261,-36.863284,0
              174.843365,-36.86348,0
              174.843182,-36.863616,0
              174.843131,-36.863338,0
              174.842886,-36.863474,0
              174.842803,-36.86327,0
              174.842532,-36.863342,0
              174.842068,-36.8636,0
              174.841999,-36.86352,0
              174.841578,-36.863755,0
              174.841221,-36.86366,0
              174.840758,-36.863918,0
              174.840959,-36.864151,0
              174.841227,-36.864062,0
              174.841299,-36.86419,0
              174.841141,-36.864247,0
              174.841263,-36.864463,0
              174.841013,-36.86455,0
              174.84106,-36.864632,0
              174.840802,-36.864722,0
              174.840971,-36.864953,0
              174.840569,-36.865093,0
              174.840449,-36.864845,0
              174.83939,-36.865216,0
              174.838379,-36.865745,0
              174.837828,-36.866731,0
              174.840798,-36.868151,0
              174.840934,-36.867964,0
              174.843935,-36.869125,0
              174.843509,-36.869845,0
              174.844139,-36.869704,0
              174.845558,-36.870238,0
              174.84508,-36.871005,0
              174.845372,-36.87113,0
              174.845671,-36.870764,0
              174.847769,-36.872056,0
              174.848639,-36.872367,0
              174.848903,-36.872525,0
              174.851058,-36.872897,0
              174.850413,-36.872401,0
              174.849111,-36.871736,0
              174.847586,-36.871385,0
              174.848129,-36.870487,0
              174.846874,-36.869893,0
              174.846715,-36.870091,0
              174.846277,-36.869879,0
              174.845985,-36.869827,0
              174.845782,-36.869156,0
              174.846373,-36.869081,0
              174.846301,-36.868717,0
              174.847861,-36.868547,0
              174.848317,-36.868785,0
              174.848705,-36.868268,0
              174.848929,-36.868416,0
              174.849296,-36.868175,0
              174.849388,-36.868203,0
              174.85042,-36.867524,0
              174.851682,-36.868324,0
              174.852927,-36.867113,0
              174.853816,-36.867382,0
              174.853852,-36.867305,0
              174.854302,-36.867441,0
              174.854423,-36.867184,0
              174.854595,-36.867236,0
              174.854547,-36.867339,0
              174.85477,-36.867408,0
              174.854699,-36.867561,0
              174.854923,-36.867628,0
              174.854851,-36.867783,0
              174.855107,-36.86786,0
              174.855831,-36.868955,0
              174.856112,-36.868803,0
              174.856244,-36.86896,0
              174.856151,-36.869011,0
              174.856411,-36.86932,0
              174.856757,-36.869135,0
              174.856859,-36.869267,0
              174.856753,-36.869323,0
              174.8569,-36.869481,0
              174.856756,-36.869602,0
              174.856898,-36.869785,0
              174.856796,-36.869898,0
              174.85763,-36.870073,0
              174.858284,-36.87008,0
              174.858455,-36.869858,0
              174.858872,-36.869931,0
              174.85892,-36.86965,0
              174.859191,-36.869359,0
              174.859434,-36.869391,0
              174.859515,-36.869325,0
              174.859807,-36.869403,0
              174.85984,-36.869323,0
              174.860074,-36.869389,0
              174.860139,-36.869231,0
              174.860375,-36.869293,0
              174.860492,-36.869257,0
              174.860611,-36.86875,0
              174.860761,-36.868577,0
              174.861238,-36.86832,0
              174.861128,-36.868187,0
              174.860795,-36.868179,0
              174.860626,-36.867683,0
              174.860389,-36.86742,0
              174.860208,-36.867507,0
              174.860126,-36.867421,0
              174.860002,-36.867493,0
              174.859893,-36.867372,0
              174.860062,-36.867275,0
              174.85992,-36.86712,0
              174.86012,-36.867004,0
              174.859799,-36.866648,0
              174.859661,-36.866728,0
              174.859521,-36.866573,0
              174.859292,-36.866706,0
              174.859172,-36.866572,0
              174.859469,-36.866399,0
              174.859189,-36.866087,0
              174.859272,-36.866039,0
              174.858999,-36.865737,0
              174.85911,-36.865672,0
              174.859626,-36.865748,0
              174.86023,-36.865397,0
              174.860331,-36.865494,0
              174.860718,-36.864062,0
              174.860919,-36.863774,0
              174.861003,-36.863462,0
              174.861386,-36.863529,0
              174.861427,-36.86338,0
              174.861044,-36.863313,0
              174.861089,-36.863145,0
              174.861032,-36.862903,0
              174.861706,-36.860411,0
              174.860593,-36.859907,0
              174.860671,-36.859651,0
              174.860602,-36.859451,0
              174.861134,-36.859556,0
              174.861881,-36.859287,0
              174.861932,-36.859387,0
              174.862692,-36.859168,0
              174.862632,-36.858954,0
              174.86816,-36.852813,0
              174.86785,-36.85275,0
              174.868151,-36.852415,0
              174.868489,-36.852297,0
              174.868756,-36.85194,0
              174.870198,-36.852236,0
              174.870287,-36.851933,0
              174.871032,-36.852087,0
              174.87117,-36.851657,0
              174.870941,-36.851049,0
              174.871136,-36.850064,0
              174.870561,-36.849879,0
              174.870697,-36.849569,0
              174.870576,-36.848864,0
              174.870235,-36.848508,0
              174.870148,-36.848526,0
              174.870093,-36.84835,0
              174.870414,-36.848285,0
              174.870297,-36.847958,0
              174.870466,-36.847919,0
              174.869919,-36.846388,0
              174.869377,-36.846513,0
              174.869361,-36.84647,0
              174.869706,-36.84639,0
              174.869684,-36.84614,0
              174.869845,-36.846059,0
              174.87014,-36.846178,0
              174.87009,-36.845775,0
              174.869538,-36.845677,0
              174.86958,-36.845584,0
              174.869172,-36.845452,0
              174.868171,-36.84527,0
              174.867057,-36.844886,0
              174.866737,-36.844711,0
              174.866404,-36.844651,0
              174.86555,-36.844347,0
              174.864946,-36.844186,0
              174.864663,-36.844064,0
              174.864432,-36.843889,0
              174.864192,-36.843852,0
              174.86388,-36.843644,0
              174.863724,-36.843736,0
              174.863296,-36.844211,0
              174.863071,-36.844301,0
              174.862798,-36.84431,0
              174.862749,-36.844351,0
              174.862697,-36.844416,0
              174.862678,-36.844713,0
              174.862406,-36.845111,0
              174.862072,-36.845397,0
              174.861674,-36.846203,0
              174.861555,-36.846784,0
              174.861122,-36.847332,0
              174.860752,-36.848173,0
              174.860703,-36.848753,0
              174.859597,-36.849137,0
              174.859485,-36.849019,0
              174.85936,-36.849029,0
              174.858047,-36.849715,0
              174.857417,-36.849933,0
              174.855838,-36.850329,0
              174.854954,-36.850485,0
              174.853411,-36.850583,0
              174.85249,-36.850516,0
              174.851408,-36.849917,0
              174.851156,-36.849834,0
              174.850712,-36.849795,0
            </coordinates>
          </LinearRing>
        </outerBoundaryIs>
      </Polygon>
    </Placemark>
  </Document>
</kml>
