<?xml version="1.0" encoding="UTF-8"?>
<kml xmlns="http://www.opengis.net/kml/2.2">
  <Document>
    <name>Somerville.final</name>
    <Style id="poly-FF0000-1000-0-nodesc-normal">
      <LineStyle>
        <color>ff0000ff</color>
        <width>1</width>
      </LineStyle>
      <PolyStyle>
        <color>000000ff</color>
        <fill>1</fill>
        <outline>1</outline>
      </PolyStyle>
      <BalloonStyle>
        <text><![CDATA[<h3>$[name]</h3>]]></text>
      </BalloonStyle>
    </Style>
    <Style id="poly-FF0000-1000-0-nodesc-highlight">
      <LineStyle>
        <color>ff0000ff</color>
        <width>1.5</width>
      </LineStyle>
      <PolyStyle>
        <color>000000ff</color>
        <fill>1</fill>
        <outline>1</outline>
      </PolyStyle>
      <BalloonStyle>
        <text><![CDATA[<h3>$[name]</h3>]]></text>
      </BalloonStyle>
    </Style>
    <StyleMap id="poly-FF0000-1000-0-nodesc">
      <Pair>
        <key>normal</key>
        <styleUrl>#poly-FF0000-1000-0-nodesc-normal</styleUrl>
      </Pair>
      <Pair>
        <key>highlight</key>
        <styleUrl>#poly-FF0000-1000-0-nodesc-highlight</styleUrl>
      </Pair>
    </StyleMap>
    <Placemark>
      <name>Somerville (polygon: official_shp)</name>
      <styleUrl>#poly-FF0000-1000-0-nodesc</styleUrl>
      <Polygon>
        <outerBoundaryIs>
          <LinearRing>
            <tessellate>1</tessellate>
            <coordinates>
              174.942639,-36.911642,0
              174.941644,-36.909273,0
              174.940827,-36.90842,0
              174.938883,-36.909661,0
              174.936622,-36.907382,0
              174.936875,-36.907242,0
              174.934991,-36.905904,0
              174.932714,-36.907933,0
              174.931312,-36.906937,0
              174.930557,-36.907615,0
              174.930495,-36.907571,0
              174.930053,-36.907939,0
              174.930184,-36.908032,0
              174.9296,-36.908623,0
              174.929019,-36.909114,0
              174.928665,-36.909589,0
              174.928352,-36.909394,0
              174.92822,-36.909533,0
              174.928512,-36.909736,0
              174.927747,-36.910381,0
              174.927812,-36.910431,0
              174.927645,-36.91057,0
              174.927608,-36.910536,0
              174.926848,-36.911155,0
              174.926536,-36.911692,0
              174.926586,-36.911903,0
              174.9262,-36.912017,0
              174.926083,-36.91201,0
              174.926106,-36.912285,0
              174.925374,-36.912373,0
              174.924626,-36.912318,0
              174.924509,-36.912365,0
              174.92426,-36.912722,0
              174.925129,-36.91309,0
              174.925415,-36.913356,0
              174.926256,-36.913628,0
              174.926419,-36.913535,0
              174.926498,-36.913391,0
              174.926607,-36.913443,0
              174.926801,-36.913639,0
              174.926784,-36.913715,0
              174.926868,-36.913888,0
              174.927311,-36.914363,0
              174.927467,-36.914495,0
              174.927546,-36.914488,0
              174.927505,-36.914512,0
              174.927856,-36.914917,0
              174.927945,-36.915183,0
              174.927865,-36.916571,0
              174.92791,-36.916573,0
              174.927899,-36.916951,0
              174.927782,-36.916947,0
              174.927719,-36.917818,0
              174.927479,-36.918159,0
              174.928132,-36.918463,0
              174.928065,-36.918686,0
              174.927983,-36.918743,0
              174.928422,-36.918752,0
              174.928364,-36.918577,0
              174.928794,-36.919111,0
              174.929065,-36.91888,0
              174.928983,-36.918778,0
              174.929035,-36.918776,0
              174.929217,-36.919002,0
              174.929193,-36.919031,0
              174.930963,-36.920002,0
              174.931379,-36.919473,0
              174.931726,-36.919794,0
              174.931413,-36.920292,0
              174.932724,-36.921082,0
              174.932589,-36.921249,0
              174.932765,-36.921385,0
              174.932778,-36.921349,0
              174.93596,-36.922357,0
              174.936343,-36.921712,0
              174.93647,-36.921109,0
              174.936521,-36.920289,0
              174.93664,-36.919936,0
              174.936989,-36.919301,0
              174.93729,-36.918923,0
              174.937693,-36.918571,0
              174.938291,-36.917741,0
              174.938908,-36.917171,0
              174.93965,-36.916633,0
              174.940077,-36.916163,0
              174.940477,-36.915904,0
              174.940687,-36.915544,0
              174.940765,-36.915282,0
              174.940699,-36.915176,0
              174.93909,-36.913977,0
              174.93874,-36.914092,0
              174.936546,-36.912515,0
              174.937283,-36.911856,0
              174.938648,-36.911125,0
              174.940041,-36.912801,0
              174.941399,-36.912073,0
              174.942467,-36.911743,0
              174.942639,-36.911642,0
            </coordinates>
          </LinearRing>
        </outerBoundaryIs>
      </Polygon>
    </Placemark>
  </Document>
</kml>
