<?xml version="1.0" encoding="UTF-8"?>
<kml xmlns="http://www.opengis.net/kml/2.2">
  <Document>
    <name>St_Johns_Stonefields.final</name>
    <Style id="poly-FF0000-1000-0-nodesc-normal">
      <LineStyle>
        <color>ff0000ff</color>
        <width>1</width>
      </LineStyle>
      <PolyStyle>
        <color>000000ff</color>
        <fill>1</fill>
        <outline>1</outline>
      </PolyStyle>
      <BalloonStyle>
        <text><![CDATA[<h3>$[name]</h3>]]></text>
      </BalloonStyle>
    </Style>
    <Style id="poly-FF0000-1000-0-nodesc-highlight">
      <LineStyle>
        <color>ff0000ff</color>
        <width>1.5</width>
      </LineStyle>
      <PolyStyle>
        <color>000000ff</color>
        <fill>1</fill>
        <outline>1</outline>
      </PolyStyle>
      <BalloonStyle>
        <text><![CDATA[<h3>$[name]</h3>]]></text>
      </BalloonStyle>
    </Style>
    <StyleMap id="poly-FF0000-1000-0-nodesc">
      <Pair>
        <key>normal</key>
        <styleUrl>#poly-FF0000-1000-0-nodesc-normal</styleUrl>
      </Pair>
      <Pair>
        <key>highlight</key>
        <styleUrl>#poly-FF0000-1000-0-nodesc-highlight</styleUrl>
      </Pair>
    </StyleMap>
    <Placemark>
      <name>Joined Boundary</name>
      <styleUrl>#poly-FF0000-1000-0-nodesc</styleUrl>
      <Polygon>
        <outerBoundaryIs>
          <LinearRing>
            <tessellate>1</tessellate>
            <coordinates>
              174.845984,-36.890135,0
              174.846657,-36.889909,0
              174.850064,-36.891546,0
              174.850356,-36.892294,0
              174.85041,-36.892783,0
              174.85119,-36.892632,0
              174.851309,-36.893029,0
              174.852038,-36.89287,0
              174.852107,-36.893098,0
              174.852326,-36.893054,0
              174.853224,-36.893291,0
              174.853826,-36.89188,0
              174.853868,-36.891887,0
              174.854364,-36.890477,0
              174.85476,-36.889014,0
              174.855393,-36.887236,0
              174.855711,-36.885736,0
              174.855765,-36.88458,0
              174.855732,-36.883939,0
              174.855446,-36.88238,0
              174.855063,-36.881165,0
              174.855134,-36.880931,0
              174.852236,-36.880411,0
              174.852622,-36.880392,0
              174.852792,-36.880303,0
              174.852893,-36.879959,0
              174.852935,-36.878834,0
              174.85277,-36.877576,0
              174.852122,-36.875331,0
              174.850904,-36.873921,0
              174.850173,-36.873284,0
              174.848639,-36.872367,0
              174.847769,-36.872056,0
              174.845671,-36.870764,0
              174.845372,-36.87113,0
              174.84508,-36.871005,0
              174.845558,-36.870238,0
              174.844139,-36.869704,0
              174.843509,-36.869845,0
              174.842955,-36.869629,0
              174.842915,-36.870183,0
              174.843273,-36.871034,0
              174.844179,-36.871629,0
              174.844091,-36.871863,0
              174.844009,-36.87188,0
              174.843877,-36.872023,0
              174.843633,-36.871863,0
              174.843371,-36.8721,0
              174.842936,-36.87179,0
              174.8424,-36.872079,0
              174.842102,-36.870824,0
              174.841931,-36.870664,0
              174.841676,-36.870625,0
              174.841695,-36.870446,0
              174.841124,-36.870464,0
              174.841047,-36.870978,0
              174.840468,-36.871311,0
              174.840275,-36.871484,0
              174.839772,-36.872006,0
              174.839801,-36.87212,0
              174.839561,-36.872236,0
              174.839409,-36.872189,0
              174.839567,-36.871901,0
              174.838317,-36.87153,0
              174.837884,-36.872533,0
              174.837793,-36.872408,0
              174.837399,-36.872493,0
              174.837063,-36.872465,0
              174.837006,-36.872903,0
              174.836573,-36.872867,0
              174.836272,-36.873064,0
              174.836297,-36.873131,0
              174.835867,-36.873095,0
              174.835811,-36.872992,0
              174.836042,-36.872614,0
              174.836072,-36.872383,0
              174.833042,-36.872132,0
              174.833006,-36.872414,0
              174.832661,-36.872385,0
              174.832628,-36.872711,0
              174.832211,-36.872642,0
              174.83209,-36.87268,0
              174.831988,-36.87232,0
              174.831505,-36.872472,0
              174.831711,-36.870533,0
              174.831025,-36.870576,0
              174.831138,-36.871762,0
              174.831034,-36.872592,0
              174.829319,-36.872989,0
              174.829397,-36.873207,0
              174.829197,-36.873252,0
              174.829258,-36.873376,0
              174.82908,-36.873417,0
              174.82904,-36.873483,0
              174.828876,-36.873521,0
              174.828328,-36.873079,0
              174.828043,-36.87357,0
              174.827646,-36.873422,0
              174.827592,-36.874002,0
              174.82786,-36.874102,0
              174.827507,-36.874631,0
              174.827295,-36.874548,0
              174.827119,-36.874654,0
              174.827428,-36.874999,0
              174.827023,-36.875243,0
              174.827372,-36.875618,0
              174.826963,-36.875783,0
              174.826847,-36.875659,0
              174.826669,-36.875766,0
              174.826544,-36.87563,0
              174.826146,-36.875864,0
              174.826218,-36.875997,0
              174.825812,-36.876217,0
              174.825798,-36.876406,0
              174.825899,-36.876434,0
              174.825975,-36.876619,0
              174.825801,-36.876712,0
              174.825959,-36.876865,0
              174.825626,-36.877058,0
              174.826235,-36.87762,0
              174.826545,-36.877592,0
              174.827381,-36.877228,0
              174.827512,-36.877133,0
              174.827443,-36.876968,0
              174.828339,-36.876821,0
              174.82854,-36.876931,0
              174.828553,-36.876994,0
              174.829713,-36.876799,0
              174.829772,-36.877066,0
              174.830058,-36.877026,0
              174.83009,-36.877066,0
              174.830056,-36.87742,0
              174.830244,-36.87733,0
              174.830496,-36.87767,0
              174.830785,-36.877532,0
              174.83138,-36.876983,0
              174.831486,-36.877068,0
              174.831961,-36.877017,0
              174.832512,-36.876623,0
              174.833152,-36.875909,0
              174.833705,-36.875446,0
              174.835695,-36.876192,0
              174.835381,-36.876689,0
              174.834833,-36.876873,0
              174.833922,-36.877603,0
              174.83327,-36.878332,0
              174.833123,-36.878244,0
              174.832871,-36.878778,0
              174.834299,-36.879628,0
              174.83477,-36.879827,0
              174.835343,-36.879782,0
              174.835569,-36.879554,0
              174.836045,-36.878403,0
              174.837219,-36.877686,0
              174.8385,-36.877986,0
              174.837422,-36.880322,0
              174.836241,-36.881733,0
              174.835566,-36.882169,0
              174.835033,-36.882103,0
              174.834721,-36.881531,0
              174.835131,-36.880787,0
              174.834599,-36.880636,0
              174.832651,-36.880514,0
              174.832349,-36.880875,0
              174.832119,-36.882127,0
              174.831867,-36.882923,0
              174.831143,-36.884294,0
              174.831607,-36.884995,0
              174.831828,-36.884981,0
              174.832177,-36.884838,0
              174.833244,-36.883758,0
              174.833876,-36.883483,0
              174.834717,-36.883308,0
              174.836271,-36.883099,0
              174.836761,-36.882961,0
              174.836915,-36.882827,0
              174.83734,-36.883104,0
              174.83735,-36.883181,0
              174.836876,-36.883651,0
              174.835402,-36.88473,0
              174.834145,-36.886217,0
              174.833177,-36.886828,0
              174.833197,-36.887076,0
              174.83387,-36.887775,0
              174.833697,-36.889281,0
              174.833832,-36.889659,0
              174.833799,-36.889681,0
              174.834467,-36.890208,0
              174.834574,-36.890399,0
              174.834982,-36.890754,0
              174.835353,-36.890921,0
              174.836901,-36.89182,0
              174.837981,-36.89256,0
              174.838389,-36.892122,0
              174.83847,-36.892182,0
              174.83905,-36.891291,0
              174.839214,-36.891263,0
              174.840643,-36.892228,0
              174.84077,-36.892156,0
              174.841022,-36.89236,0
              174.841333,-36.892171,0
              174.841608,-36.891875,0
              174.841782,-36.891936,0
              174.841969,-36.891897,0
              174.842121,-36.891606,0
              174.841813,-36.891289,0
              174.841874,-36.890887,0
              174.842345,-36.890932,0
              174.842308,-36.891128,0
              174.842539,-36.891372,0
              174.843092,-36.891108,0
              174.843838,-36.891359,0
              174.84429,-36.890794,0
              174.845317,-36.890359,0
              174.845984,-36.890135,0
            </coordinates>
          </LinearRing>
        </outerBoundaryIs>
      </Polygon>
    </Placemark>
  </Document>
</kml>
