<?xml version="1.0" encoding="UTF-8"?>
<kml xmlns="http://www.opengis.net/kml/2.2">
  <Document>
    <name>Takanini.final</name>
    <Style id="poly-FF0000-1000-0-nodesc-normal">
      <LineStyle>
        <color>ff0000ff</color>
        <width>1</width>
      </LineStyle>
      <PolyStyle>
        <color>000000ff</color>
        <fill>1</fill>
        <outline>1</outline>
      </PolyStyle>
      <BalloonStyle>
        <text><![CDATA[<h3>$[name]</h3>]]></text>
      </BalloonStyle>
    </Style>
    <Style id="poly-FF0000-1000-0-nodesc-highlight">
      <LineStyle>
        <color>ff0000ff</color>
        <width>1.5</width>
      </LineStyle>
      <PolyStyle>
        <color>000000ff</color>
        <fill>1</fill>
        <outline>1</outline>
      </PolyStyle>
      <BalloonStyle>
        <text><![CDATA[<h3>$[name]</h3>]]></text>
      </BalloonStyle>
    </Style>
    <StyleMap id="poly-FF0000-1000-0-nodesc">
      <Pair>
        <key>normal</key>
        <styleUrl>#poly-FF0000-1000-0-nodesc-normal</styleUrl>
      </Pair>
      <Pair>
        <key>highlight</key>
        <styleUrl>#poly-FF0000-1000-0-nodesc-highlight</styleUrl>
      </Pair>
    </StyleMap>
    <Placemark>
      <name>Joined Boundary</name>
      <styleUrl>#poly-FF0000-1000-0-nodesc</styleUrl>
      <Polygon>
        <outerBoundaryIs>
          <LinearRing>
            <tessellate>1</tessellate>
            <coordinates>
              174.917762,-37.052002,0
              174.917829,-37.052102,0
              174.917765,-37.052206,0
              174.918466,-37.053238,0
              174.918318,-37.05337,0
              174.918258,-37.053551,0
              174.918279,-37.054112,0
              174.918381,-37.054345,0
              174.918384,-37.054516,0
              174.918597,-37.054603,0
              174.918607,-37.054911,0
              174.918781,-37.055526,0
              174.918872,-37.055626,0
              174.919069,-37.055705,0
              174.919261,-37.055852,0
              174.919729,-37.056041,0
              174.919912,-37.056177,0
              174.92011,-37.056162,0
              174.920349,-37.056267,0
              174.922563,-37.059578,0
              174.922764,-37.059533,0
              174.92285,-37.05963,0
              174.923215,-37.059495,0
              174.923162,-37.059418,0
              174.923271,-37.059258,0
              174.921591,-37.056942,0
              174.921738,-37.05687,0
              174.921574,-37.056661,0
              174.922125,-37.057175,0
              174.922321,-37.057276,0
              174.922842,-37.057166,0
              174.923174,-37.056826,0
              174.923525,-37.056201,0
              174.924033,-37.05555,0
              174.924045,-37.055432,0
              174.92388,-37.055219,0
              174.923917,-37.05503,0
              174.924026,-37.054942,0
              174.924698,-37.05473,0
              174.92485,-37.054578,0
              174.924874,-37.054444,0
              174.924774,-37.054038,0
              174.924816,-37.05391,0
              174.925275,-37.053612,0
              174.925855,-37.053519,0
              174.926056,-37.053363,0
              174.926215,-37.052939,0
              174.926342,-37.052824,0
              174.926519,-37.052801,0
              174.926882,-37.054084,0
              174.927706,-37.054397,0
              174.927975,-37.054558,0
              174.928182,-37.054447,0
              174.928384,-37.054432,0
              174.929456,-37.053867,0
              174.929634,-37.053929,0
              174.929685,-37.054049,0
              174.92998,-37.054315,0
              174.930214,-37.054454,0
              174.93038,-37.054495,0
              174.930574,-37.054636,0
              174.930731,-37.054671,0
              174.932542,-37.054068,0
              174.932874,-37.054351,0
              174.933373,-37.053974,0
              174.933704,-37.053874,0
              174.933857,-37.05419,0
              174.934142,-37.054109,0
              174.934372,-37.054584,0
              174.937012,-37.05389,0
              174.937311,-37.05377,0
              174.935626,-37.052102,0
              174.935519,-37.051938,0
              174.935443,-37.051964,0
              174.934431,-37.051015,0
              174.93316,-37.049976,0
              174.934484,-37.049536,0
              174.934275,-37.049107,0
              174.934482,-37.049042,0
              174.934691,-37.04947,0
              174.935123,-37.049332,0
              174.934708,-37.048485,0
              174.935182,-37.048337,0
              174.935483,-37.048331,0
              174.935538,-37.048225,0
              174.93711,-37.047732,0
              174.937586,-37.04871,0
              174.938428,-37.048446,0
              174.937951,-37.047469,0
              174.947918,-37.044351,0
              174.948693,-37.045947,0
              174.953169,-37.04455,0
              174.952406,-37.04301,0
              174.952591,-37.042892,0
              174.951635,-37.041,0
              174.951613,-37.040756,0
              174.951738,-37.04053,0
              174.95132,-37.040375,0
              174.94965,-37.037057,0
              174.951771,-37.036399,0
              174.950564,-37.033947,0
              174.948419,-37.034614,0
              174.94816,-37.034102,0
              174.948625,-37.033951,0
              174.948444,-37.033576,0
              174.948033,-37.033704,0
              174.947992,-37.033522,0
              174.949713,-37.032986,0
              174.948825,-37.030536,0
              174.95021,-37.030155,0
              174.949246,-37.027916,0
              174.962725,-37.023835,0
              174.961792,-37.021909,0
              174.968721,-37.019748,0
              174.966226,-37.016572,0
              174.962613,-37.018402,0
              174.961901,-37.016221,0
              174.959545,-37.016943,0
              174.960543,-37.019037,0
              174.960414,-37.019076,0
              174.958393,-37.014834,0
              174.954353,-37.015985,0
              174.956558,-37.020619,0
              174.951922,-37.021995,0
              174.949777,-37.017534,0
              174.947016,-37.01833,0
              174.945864,-37.016273,0
              174.945886,-37.01608,0
              174.944875,-37.014676,0
              174.944773,-37.014713,0
              174.945748,-37.016068,0
              174.941624,-37.01735,0
              174.941424,-37.016924,0
              174.9406,-37.017223,0
              174.94047,-37.016946,0
              174.939852,-37.017168,0
              174.939627,-37.01669,0
              174.939437,-37.0168,0
              174.939944,-37.017878,0
              174.931561,-37.020537,0
              174.932597,-37.022644,0
              174.932432,-37.022883,0
              174.932672,-37.023415,0
              174.932443,-37.023497,0
              174.931988,-37.023159,0
              174.932043,-37.022881,0
              174.931501,-37.022601,0
              174.929435,-37.023554,0
              174.928223,-37.023167,0
              174.928081,-37.023829,0
              174.927541,-37.023594,0
              174.926881,-37.023986,0
              174.926987,-37.024259,0
              174.927324,-37.024617,0
              174.927363,-37.024867,0
              174.927128,-37.025093,0
              174.926858,-37.025177,0
              174.926475,-37.02552,0
              174.926462,-37.025985,0
              174.926364,-37.026352,0
              174.926412,-37.02654,0
              174.926195,-37.026938,0
              174.9262,-37.027725,0
              174.925875,-37.027645,0
              174.925355,-37.02787,0
              174.925385,-37.027939,0
              174.92447,-37.028167,0
              174.923857,-37.02821,0
              174.923245,-37.028157,0
              174.922656,-37.028011,0
              174.922113,-37.027778,0
              174.920501,-37.026915,0
              174.919547,-37.026338,0
              174.919196,-37.02626,0
              174.918832,-37.026284,0
              174.918268,-37.026544,0
              174.917861,-37.026876,0
              174.914756,-37.030683,0
              174.914347,-37.031092,0
              174.913842,-37.031428,0
              174.912951,-37.031768,0
              174.910754,-37.032119,0
              174.910368,-37.032126,0
              174.909743,-37.031625,0
              174.909686,-37.033716,0
              174.909763,-37.034172,0
              174.909249,-37.033762,0
              174.909196,-37.033809,0
              174.908725,-37.033435,0
              174.908565,-37.033454,0
              174.908283,-37.033327,0
              174.908059,-37.033449,0
              174.907932,-37.033447,0
              174.907697,-37.033213,0
              174.907415,-37.033155,0
              174.906616,-37.033435,0
              174.9069,-37.033715,0
              174.906623,-37.033895,0
              174.906502,-37.034533,0
              174.905436,-37.03511,0
              174.905271,-37.035805,0
              174.905309,-37.036124,0
              174.905186,-37.036465,0
              174.90488,-37.036634,0
              174.904574,-37.036623,0
              174.904293,-37.036718,0
              174.903942,-37.036689,0
              174.90379,-37.036511,0
              174.903666,-37.036607,0
              174.903457,-37.037052,0
              174.90345,-37.037276,0
              174.9033,-37.037453,0
              174.903076,-37.037611,0
              174.902938,-37.037994,0
              174.902841,-37.038097,0
              174.901734,-37.03844,0
              174.901625,-37.038532,0
              174.90159,-37.038713,0
              174.901644,-37.038849,0
              174.902132,-37.039355,0
              174.901937,-37.039648,0
              174.901565,-37.039921,0
              174.900414,-37.040606,0
              174.900273,-37.040772,0
              174.899918,-37.040968,0
              174.899728,-37.041316,0
              174.899779,-37.041532,0
              174.899579,-37.041828,0
              174.89957,-37.042635,0
              174.899911,-37.043439,0
              174.900181,-37.043769,0
              174.900236,-37.044089,0
              174.900732,-37.044505,0
              174.900911,-37.044725,0
              174.900992,-37.045236,0
              174.90112,-37.045278,0
              174.901713,-37.044922,0
              174.902204,-37.044509,0
              174.902297,-37.044528,0
              174.902475,-37.044345,0
              174.902639,-37.044272,0
              174.90332,-37.044277,0
              174.903812,-37.04441,0
              174.904448,-37.04429,0
              174.90501,-37.043864,0
              174.905301,-37.043781,0
              174.905803,-37.043484,0
              174.906226,-37.043037,0
              174.906418,-37.042941,0
              174.906503,-37.042973,0
              174.906995,-37.042902,0
              174.907097,-37.042769,0
              174.907262,-37.042788,0
              174.907437,-37.042712,0
              174.907656,-37.042722,0
              174.90774,-37.042757,0
              174.907754,-37.042867,0
              174.907958,-37.042984,0
              174.908117,-37.043172,0
              174.908209,-37.043375,0
              174.908236,-37.043754,0
              174.908168,-37.043925,0
              174.908073,-37.044683,0
              174.907725,-37.045004,0
              174.907313,-37.045144,0
              174.907137,-37.045304,0
              174.907033,-37.045668,0
              174.907073,-37.045936,0
              174.907015,-37.046147,0
              174.907112,-37.046187,0
              174.907612,-37.046198,0
              174.907826,-37.046276,0
              174.907962,-37.046248,0
              174.907974,-37.046333,0
              174.908081,-37.04637,0
              174.908185,-37.046758,0
              174.908001,-37.047284,0
              174.90692,-37.047832,0
              174.906543,-37.047938,0
              174.906167,-37.047982,0
              174.905606,-37.048335,0
              174.905473,-37.04852,0
              174.904737,-37.048868,0
              174.904222,-37.049251,0
              174.904344,-37.049637,0
              174.904941,-37.050249,0
              174.904978,-37.050449,0
              174.904922,-37.050588,0
              174.905052,-37.050731,0
              174.905049,-37.050868,0
              174.905195,-37.05098,0
              174.905425,-37.051369,0
              174.905836,-37.051879,0
              174.906016,-37.05221,0
              174.906144,-37.05264,0
              174.905884,-37.052877,0
              174.905906,-37.052924,0
              174.90617,-37.052946,0
              174.906428,-37.052843,0
              174.906454,-37.052956,0
              174.906634,-37.052942,0
              174.906699,-37.052878,0
              174.907528,-37.053155,0
              174.907822,-37.053122,0
              174.908129,-37.053149,0
              174.908322,-37.053099,0
              174.908406,-37.053148,0
              174.909288,-37.053223,0
              174.909727,-37.053321,0
              174.909758,-37.053379,0
              174.909811,-37.053332,0
              174.911288,-37.053284,0
              174.911681,-37.052989,0
              174.912215,-37.052853,0
              174.912829,-37.052885,0
              174.913035,-37.05294,0
              174.913148,-37.053082,0
              174.913638,-37.052851,0
              174.914168,-37.052719,0
              174.914871,-37.05263,0
              174.915596,-37.052646,0
              174.91599,-37.052478,0
              174.916262,-37.052441,0
              174.916708,-37.052033,0
              174.916856,-37.051469,0
              174.917152,-37.051339,0
              174.91762,-37.052022,0
              174.917762,-37.052002,0
            </coordinates>
          </LinearRing>
        </outerBoundaryIs>
      </Polygon>
    </Placemark>
  </Document>
</kml>
