<?xml version="1.0" encoding="UTF-8"?>
<kml xmlns="http://www.opengis.net/kml/2.2">
  <Document>
    <name>Whitford.final</name>
    <Style id="poly-FF0000-1000-0-nodesc-normal">
      <LineStyle>
        <color>ff0000ff</color>
        <width>1</width>
      </LineStyle>
      <PolyStyle>
        <color>000000ff</color>
        <fill>1</fill>
        <outline>1</outline>
      </PolyStyle>
      <BalloonStyle>
        <text><![CDATA[<h3>$[name]</h3>]]></text>
      </BalloonStyle>
    </Style>
    <Style id="poly-FF0000-1000-0-nodesc-highlight">
      <LineStyle>
        <color>ff0000ff</color>
        <width>1.5</width>
      </LineStyle>
      <PolyStyle>
        <color>000000ff</color>
        <fill>1</fill>
        <outline>1</outline>
      </PolyStyle>
      <BalloonStyle>
        <text><![CDATA[<h3>$[name]</h3>]]></text>
      </BalloonStyle>
    </Style>
    <StyleMap id="poly-FF0000-1000-0-nodesc">
      <Pair>
        <key>normal</key>
        <styleUrl>#poly-FF0000-1000-0-nodesc-normal</styleUrl>
      </Pair>
      <Pair>
        <key>highlight</key>
        <styleUrl>#poly-FF0000-1000-0-nodesc-highlight</styleUrl>
      </Pair>
    </StyleMap>
    <Placemark>
      <name>Whitford (polygon: official_shp)</name>
      <styleUrl>#poly-FF0000-1000-0-nodesc</styleUrl>
      <Polygon>
        <outerBoundaryIs>
          <LinearRing>
            <tessellate>1</tessellate>
            <coordinates>
              175.05134,-36.93049,0
              175.038347,-36.928151,0
              175.035296,-36.936023,0
              175.016904,-36.932728,0
              175.015927,-36.925108,0
              175.009215,-36.924565,0
              175.008825,-36.928214,0
              175.001967,-36.927705,0
              175.002135,-36.927549,0
              175.002266,-36.927056,0
              175.002475,-36.926696,0
              175.002445,-36.92641,0
              175.00186,-36.926555,0
              175.001521,-36.9265,0
              175.001273,-36.926351,0
              175.001144,-36.926115,0
              175.000694,-36.9256,0
              175.00074,-36.925146,0
              174.999629,-36.924942,0
              174.998986,-36.924761,0
              174.999012,-36.924732,0
              174.998786,-36.924601,0
              174.9986,-36.924246,0
              174.998293,-36.923952,0
              174.997699,-36.924452,0
              174.997583,-36.924271,0
              174.997834,-36.923963,0
              174.997461,-36.923883,0
              174.996865,-36.923525,0
              174.996882,-36.923481,0
              174.997077,-36.923521,0
              174.997182,-36.923496,0
              174.997248,-36.923056,0
              174.997129,-36.922824,0
              174.997349,-36.922578,0
              174.996714,-36.921843,0
              174.996703,-36.921461,0
              174.997136,-36.920933,0
              174.997046,-36.920732,0
              174.996735,-36.920649,0
              174.996562,-36.920472,0
              174.996604,-36.92002,0
              174.996404,-36.919911,0
              174.996069,-36.919985,0
              174.995578,-36.920422,0
              174.99544,-36.920516,0
              174.99519,-36.920588,0
              174.994702,-36.920259,0
              174.994672,-36.920192,0
              174.994695,-36.920011,0
              174.99491,-36.919692,0
              174.994903,-36.919422,0
              174.994697,-36.919155,0
              174.994185,-36.918894,0
              174.993811,-36.918564,0
              174.993559,-36.918613,0
              174.993149,-36.918981,0
              174.992733,-36.91917,0
              174.992515,-36.919377,0
              174.992443,-36.919784,0
              174.992994,-36.920404,0
              174.993,-36.920584,0
              174.992863,-36.9207,0
              174.99264,-36.920749,0
              174.992559,-36.920864,0
              174.99276,-36.921018,0
              174.993016,-36.921125,0
              174.993105,-36.921281,0
              174.993111,-36.921506,0
              174.993287,-36.921728,0
              174.9934,-36.921771,0
              174.993821,-36.921763,0
              174.994272,-36.921845,0
              174.994413,-36.921842,0
              174.994663,-36.921747,0
              174.994859,-36.921743,0
              174.994917,-36.92181,0
              174.994122,-36.922456,0
              174.993842,-36.922484,0
              174.993335,-36.922448,0
              174.992381,-36.923368,0
              174.99222,-36.923641,0
              174.992202,-36.923957,0
              174.992463,-36.924245,0
              174.992975,-36.924484,0
              174.993034,-36.924595,0
              174.992897,-36.924711,0
              174.991854,-36.92455,0
              174.991348,-36.924515,0
              174.991146,-36.924316,0
              174.991214,-36.923796,0
              174.991051,-36.923437,0
              174.991114,-36.923235,0
              174.991463,-36.92271,0
              174.991981,-36.922181,0
              174.99214,-36.921863,0
              174.992134,-36.921683,0
              174.991927,-36.921326,0
              174.99194,-36.920785,0
              174.991795,-36.920652,0
              174.991983,-36.920356,0
              174.991715,-36.91982,0
              174.991673,-36.919393,0
              174.991695,-36.919325,0
              174.991778,-36.919315,0
              174.991867,-36.919015,0
              174.992131,-36.918757,0
              174.992146,-36.918722,0
              174.991992,-36.91874,0
              174.99242,-36.918072,0
              174.992413,-36.917802,0
              174.992322,-36.917578,0
              174.992592,-36.917234,0
              174.992688,-36.916691,0
              174.992988,-36.916371,0
              174.99298,-36.916145,0
              174.992631,-36.915701,0
              174.992595,-36.915409,0
              174.99273,-36.915271,0
              174.993592,-36.915007,0
              174.993839,-36.914799,0
              174.993909,-36.914302,0
              174.994038,-36.913939,0
              174.994031,-36.913691,0
              174.993855,-36.913447,0
              174.993756,-36.912953,0
              174.993553,-36.912731,0
              174.993018,-36.912674,0
              174.992848,-36.91261,0
              174.992304,-36.912237,0
              174.991939,-36.912222,0
              174.991852,-36.912156,0
              174.991629,-36.911214,0
              174.99154,-36.91108,0
              174.991286,-36.911062,0
              174.991008,-36.911135,0
              174.990699,-36.911141,0
              174.990425,-36.911304,0
              174.990284,-36.911307,0
              174.98997,-36.911132,0
              174.989634,-36.911184,0
              174.98931,-36.911595,0
              174.989245,-36.911572,0
              174.989324,-36.911122,0
              174.989711,-36.910934,0
              174.990661,-36.910781,0
              174.990797,-36.91062,0
              174.990681,-36.910487,0
              174.988732,-36.910097,0
              174.988226,-36.910039,0
              174.987003,-36.909476,0
              174.986554,-36.909462,0
              174.985803,-36.909702,0
              174.984096,-36.909869,0
              174.983197,-36.909841,0
              174.982892,-36.90996,0
              174.98222,-36.910018,0
              174.981916,-36.910204,0
              174.981522,-36.910166,0
              174.980926,-36.909907,0
              174.98073,-36.909911,0
              174.980145,-36.910079,0
              174.979813,-36.910244,0
              174.979256,-36.910412,0
              174.978808,-36.91042,0
              174.978072,-36.910209,0
              174.977901,-36.910122,0
              174.977269,-36.909638,0
              174.976807,-36.909174,0
              174.975986,-36.907995,0
              174.975615,-36.907777,0
              174.975305,-36.907738,0
              174.974859,-36.907836,0
              174.97373,-36.908292,0
              174.973149,-36.908266,0
              174.972778,-36.908385,0
              174.97241,-36.908592,0
              174.971757,-36.909247,0
              174.970087,-36.910653,0
              174.969508,-36.911002,0
              174.969042,-36.911394,0
              174.968879,-36.9116,0
              174.968829,-36.911759,0
              174.96874,-36.912594,0
              174.968751,-36.912932,0
              174.968987,-36.913333,0
              174.968921,-36.913965,0
              174.969124,-36.914187,0
              174.968963,-36.914438,0
              174.969023,-36.914621,0
              174.968943,-36.914731,0
              174.968691,-36.914758,0
              174.96838,-36.914675,0
              174.967704,-36.914735,0
              174.967676,-36.914575,0
              174.967396,-36.914602,0
              174.966821,-36.915064,0
              174.96668,-36.915067,0
              174.966362,-36.914757,0
              174.965912,-36.914744,0
              174.96558,-36.914908,0
              174.965188,-36.914915,0
              174.965156,-36.914954,0
              174.963249,-36.914535,0
              174.963135,-36.914532,0
              174.963006,-36.914693,0
              174.963036,-36.914793,0
              174.963829,-36.915458,0
              174.963836,-36.915706,0
              174.963409,-36.916171,0
              174.963138,-36.916779,0
              174.962966,-36.917638,0
              174.96298,-36.918134,0
              174.9631,-36.918402,0
              174.963273,-36.918534,0
              174.963839,-36.918703,0
              174.964508,-36.918533,0
              174.964817,-36.918528,0
              174.965072,-36.918635,0
              174.964976,-36.919201,0
              174.964985,-36.919471,0
              174.965299,-36.920614,0
              174.965388,-36.920792,0
              174.965795,-36.921281,0
              174.96631,-36.921609,0
              174.96687,-36.921553,0
              174.966768,-36.921916,0
              174.967131,-36.92281,0
              174.967415,-36.923887,0
              174.968057,-36.924731,0
              174.96839,-36.925537,0
              174.968627,-36.92596,0
              174.968801,-36.926182,0
              174.96961,-36.926956,0
              174.971352,-36.928929,0
              174.971955,-36.929412,0
              174.972132,-36.92968,0
              174.972084,-36.929951,0
              174.971391,-36.93028,0
              174.971199,-36.930441,0
              174.971147,-36.930577,0
              174.97125,-36.931206,0
              174.971718,-36.931829,0
              174.971841,-36.932209,0
              174.972075,-36.932542,0
              174.972181,-36.933262,0
              174.972645,-36.933749,0
              174.97283,-36.934354,0
              174.973232,-36.934662,0
              174.97426,-36.935228,0
              174.9749,-36.935207,0
              174.974353,-36.935565,0
              174.97368,-36.935577,0
              174.973544,-36.935715,0
              174.973527,-36.936075,0
              174.973418,-36.936191,0
              174.973047,-36.935972,0
              174.972655,-36.936002,0
              174.972448,-36.93569,0
              174.972333,-36.935602,0
              174.971965,-36.935497,0
              174.971713,-36.935502,0
              174.971518,-36.935573,0
              174.971111,-36.936031,0
              174.97094,-36.936914,0
              174.970972,-36.938408,0
              174.971049,-36.938715,0
              174.971138,-36.938893,0
              174.972084,-36.939529,0
              174.972317,-36.939817,0
              174.972461,-36.940573,0
              174.971866,-36.940727,0
              174.971663,-36.940505,0
              174.971543,-36.940215,0
              174.971136,-36.93975,0
              174.970936,-36.939641,0
              174.970852,-36.939642,0
              174.97077,-36.939734,0
              174.970783,-36.940162,0
              174.970703,-36.940276,0
              174.970592,-36.940345,0
              174.97048,-36.940347,0
              174.970308,-36.940215,0
              174.969809,-36.939482,0
              174.9698,-36.939166,0
              174.96998,-36.938644,0
              174.969973,-36.938374,0
              174.96968,-36.937974,0
              174.969427,-36.937956,0
              174.969262,-36.938095,0
              174.968451,-36.939169,0
              174.968223,-36.939985,0
              174.968055,-36.940957,0
              174.967696,-36.941189,0
              174.967135,-36.9412,0
              174.966801,-36.941296,0
              174.966582,-36.94148,0
              174.966423,-36.941776,0
              174.966472,-36.942519,0
              174.966769,-36.943077,0
              174.966773,-36.943189,0
              174.966611,-36.943418,0
              174.9659,-36.943093,0
              174.965449,-36.943056,0
              174.965145,-36.94322,0
              174.9651,-36.943627,0
              174.965254,-36.944051,0
              174.965494,-36.944336,0
              174.96541,-36.944436,0
              174.965233,-36.9443,0
              174.964736,-36.943634,0
              174.964567,-36.943637,0
              174.964051,-36.944187,0
              174.963967,-36.944205,0
              174.963962,-36.944031,0
              174.964096,-36.943803,0
              174.964143,-36.943532,0
              174.964307,-36.943371,0
              174.964438,-36.943031,0
              174.964908,-36.942774,0
              174.965069,-36.942545,0
              174.965061,-36.942252,0
              174.964797,-36.941875,0
              174.964655,-36.94181,0
              174.964207,-36.941841,0
              174.964148,-36.941751,0
              174.964661,-36.941066,0
              174.964864,-36.94034,0
              174.965209,-36.939636,0
              174.965692,-36.938861,0
              174.965821,-36.938475,0
              174.965825,-36.936694,0
              174.965871,-36.936333,0
              174.965999,-36.935947,0
              174.967117,-36.9348,0
              174.967,-36.934666,0
              174.966441,-36.934745,0
              174.965693,-36.935097,0
              174.965107,-36.935221,0
              174.96489,-36.93545,0
              174.964747,-36.93534,0
              174.964743,-36.935228,0
              174.965394,-36.93445,0
              174.966141,-36.934097,0
              174.966306,-36.933959,0
              174.966242,-36.93369,0
              174.96601,-36.933423,0
              174.966032,-36.933198,0
              174.966319,-36.932471,0
              174.967235,-36.931264,0
              174.967235,-36.931169,0
              174.967061,-36.93097,0
              174.966347,-36.930577,0
              174.965945,-36.930225,0
              174.965671,-36.929509,0
              174.965352,-36.929176,0
              174.96462,-36.929078,0
              174.964275,-36.928814,0
              174.964072,-36.928592,0
              174.963759,-36.92844,0
              174.963647,-36.928442,0
              174.963592,-36.928488,0
              174.963485,-36.928671,0
              174.962955,-36.928816,0
              174.962096,-36.929171,0
              174.961823,-36.929446,0
              174.961751,-36.929853,0
              174.961433,-36.930121,0
              174.961362,-36.930018,0
              174.961434,-36.929566,0
              174.961318,-36.929433,0
              174.96115,-36.929458,0
              174.960986,-36.929596,0
              174.960737,-36.930706,0
              174.960657,-36.930843,0
              174.960515,-36.930778,0
              174.960418,-36.930329,0
              174.960575,-36.929965,0
              174.960552,-36.929177,0
              174.960315,-36.928731,0
              174.959949,-36.928515,0
              174.960002,-36.928439,0
              174.959855,-36.928413,0
              174.959797,-36.928358,0
              174.959692,-36.928503,0
              174.959522,-36.928497,0
              174.959272,-36.92857,0
              174.958333,-36.929128,0
              174.95822,-36.929108,0
              174.958191,-36.929064,0
              174.95827,-36.928881,0
              174.958563,-36.928335,0
              174.958914,-36.927856,0
              174.959071,-36.927447,0
              174.959113,-36.926996,0
              174.959295,-36.926496,0
              174.959224,-36.926002,0
              174.958848,-36.925603,0
              174.958814,-36.925379,0
              174.959203,-36.925258,0
              174.960045,-36.924296,0
              174.960429,-36.923973,0
              174.96109,-36.923578,0
              174.961412,-36.923054,0
              174.961303,-36.921231,0
              174.961008,-36.92074,0
              174.960996,-36.920357,0
              174.960731,-36.919889,0
              174.960471,-36.919691,0
              174.960021,-36.919631,0
              174.959905,-36.919498,0
              174.960599,-36.919238,0
              174.960818,-36.919031,0
              174.960815,-36.917972,0
              174.960684,-36.917343,0
              174.960725,-36.915855,0
              174.960503,-36.914981,0
              174.959978,-36.914314,0
              174.958503,-36.913756,0
              174.957746,-36.913771,0
              174.957357,-36.913913,0
              174.956918,-36.914281,0
              174.956723,-36.914307,0
              174.956608,-36.91422,0
              174.956547,-36.914041,0
              174.955948,-36.913714,0
              174.95567,-36.913809,0
              174.95553,-36.913812,0
              174.954484,-36.913583,0
              174.95414,-36.913319,0
              174.95385,-36.912987,0
              174.952966,-36.912508,0
              174.95196,-36.912684,0
              174.951186,-36.91306,0
              174.950972,-36.913424,0
              174.950701,-36.914736,0
              174.950076,-36.915424,0
              174.950023,-36.915538,0
              174.950029,-36.915763,0
              174.950117,-36.915874,0
              174.950635,-36.916292,0
              174.950612,-36.916473,0
              174.950422,-36.916702,0
              174.949947,-36.916779,0
              174.949864,-36.916848,0
              174.949928,-36.917117,0
              174.949823,-36.917344,0
              174.94946,-36.917396,0
              174.948774,-36.917972,0
              174.948695,-36.918154,0
              174.948576,-36.918855,0
              174.94844,-36.919984,0
              174.948232,-36.920253,0
              174.948136,-36.920147,0
              174.948224,-36.919334,0
              174.948147,-36.918592,0
              174.948162,-36.918141,0
              174.947812,-36.917674,0
              174.948284,-36.917486,0
              174.948527,-36.917188,0
              174.948796,-36.916778,0
              174.948815,-36.916439,0
              174.948316,-36.915727,0
              174.948173,-36.915617,0
              174.947946,-36.915531,0
              174.947386,-36.915587,0
              174.946889,-36.915867,0
              174.945353,-36.916143,0
              174.944016,-36.916483,0
              174.943708,-36.916511,0
              174.94302,-36.916953,0
              174.942434,-36.917077,0
              174.942269,-36.917193,0
              174.942163,-36.917442,0
              174.942173,-36.917803,0
              174.942299,-36.918229,0
              174.942261,-36.919852,0
              174.942496,-36.920186,0
              174.942429,-36.920317,0
              174.941925,-36.91988,0
              174.941815,-36.918958,0
              174.941469,-36.918649,0
              174.941144,-36.91807,0
              174.940857,-36.917895,0
              174.940324,-36.917904,0
              174.939851,-36.918004,0
              174.938751,-36.918835,0
              174.937827,-36.919866,0
              174.93755,-36.919984,0
              174.937252,-36.920328,0
              174.936895,-36.921574,0
              174.936831,-36.922319,0
              174.936651,-36.922863,0
              174.936227,-36.923667,0
              174.936113,-36.924209,0
              174.935646,-36.924164,0
              174.935401,-36.924306,0
              174.935095,-36.924891,0
              174.934714,-36.92528,0
              174.934513,-36.925615,0
              174.934252,-36.925861,0
              174.934072,-36.926282,0
              174.934049,-36.926494,0
              174.934133,-36.92673,0
              174.934116,-36.926876,0
              174.933879,-36.927291,0
              174.933773,-36.927859,0
              174.933801,-36.928101,0
              174.933641,-36.928616,0
              174.93357,-36.928705,0
              174.93349,-36.929145,0
              174.932994,-36.930263,0
              174.932858,-36.931342,0
              174.933329,-36.931837,0
              174.933366,-36.932001,0
              174.933309,-36.932134,0
              174.933299,-36.933012,0
              174.933409,-36.933502,0
              174.933725,-36.934125,0
              174.93402,-36.934531,0
              174.934123,-36.934577,0
              174.934333,-36.934811,0
              174.934602,-36.935259,0
              174.934785,-36.935426,0
              174.935204,-36.93564,0
              174.93587,-36.935806,0
              174.936168,-36.936163,0
              174.936261,-36.936466,0
              174.936206,-36.936548,0
              174.936272,-36.936918,0
              174.936322,-36.937015,0
              174.93654,-36.93718,0
              174.936841,-36.937977,0
              174.936689,-36.939649,0
              174.937726,-36.939957,0
              174.937054,-36.94057,0
              174.936237,-36.941019,0
              174.936204,-36.941234,0
              174.936103,-36.941317,0
              174.93609,-36.941667,0
              174.936174,-36.942005,0
              174.935842,-36.942451,0
              174.935828,-36.942823,0
              174.935919,-36.942895,0
              174.935841,-36.94293,0
              174.935721,-36.943128,0
              174.935794,-36.943395,0
              174.935792,-36.943842,0
              174.935698,-36.944112,0
              174.935717,-36.944189,0
              174.935537,-36.944457,0
              174.935467,-36.944685,0
              174.935587,-36.944943,0
              174.935562,-36.945059,0
              174.935619,-36.945099,0
              174.935572,-36.945153,0
              174.935633,-36.945392,0
              174.935426,-36.945672,0
              174.935559,-36.945999,0
              174.935471,-36.947165,0
              174.935072,-36.947907,0
              174.934778,-36.948138,0
              174.934719,-36.948302,0
              174.934781,-36.948629,0
              174.934501,-36.948836,0
              174.934375,-36.949118,0
              174.937447,-36.95015,0
              174.937467,-36.950084,0
              174.937774,-36.950477,0
              174.938109,-36.951157,0
              174.93784,-36.951699,0
              174.938759,-36.952768,0
              174.939861,-36.953478,0
              174.940588,-36.953508,0
              174.941914,-36.948929,0
              174.94478,-36.949785,0
              174.946012,-36.950263,0
              174.944441,-36.955202,0
              174.946632,-36.955669,0
              174.949996,-36.956207,0
              174.949844,-36.95675,0
              174.949546,-36.956984,0
              174.948598,-36.957299,0
              174.949045,-36.957626,0
              174.949098,-36.95756,0
              174.956343,-36.965807,0
              174.953436,-36.967437,0
              174.951975,-36.971397,0
              174.946994,-36.970572,0
              174.946961,-36.970972,0
              174.947405,-36.971471,0
              174.947565,-36.971827,0
              174.947592,-36.972557,0
              174.947665,-36.972894,0
              174.947931,-36.973257,0
              174.94896,-36.97423,0
              174.949073,-36.974513,0
              174.949112,-36.974892,0
              174.949062,-36.975273,0
              174.948717,-36.975771,0
              174.948149,-36.976237,0
              174.948342,-36.976271,0
              174.948033,-36.977343,0
              174.948653,-36.977454,0
              174.949141,-36.977476,0
              174.949273,-36.978226,0
              174.949429,-36.978509,0
              174.949866,-36.97912,0
              174.951152,-36.980383,0
              174.951311,-36.98076,0
              174.955447,-36.981609,0
              174.955599,-36.981593,0
              174.956007,-36.981336,0
              174.956399,-36.98147,0
              174.956586,-36.981488,0
              174.956651,-36.980897,0
              174.95776,-36.980283,0
              174.958502,-36.979716,0
              174.958928,-36.979626,0
              174.959715,-36.979013,0
              174.960201,-36.978849,0
              174.960744,-36.977633,0
              174.961224,-36.976824,0
              174.961835,-36.977031,0
              174.96231,-36.976866,0
              174.962655,-36.976556,0
              174.968426,-36.982947,0
              174.977711,-36.977466,0
              174.985262,-36.972737,0
              174.985846,-36.973154,0
              174.986283,-36.973026,0
              174.986583,-36.972809,0
              174.986652,-36.972529,0
              174.987143,-36.973096,0
              174.989349,-36.973621,0
              174.992537,-36.974189,0
              174.993819,-36.976299,0
              174.994251,-36.976632,0
              174.994439,-36.976524,0
              174.994803,-36.976803,0
              174.995805,-36.977187,0
              174.996953,-36.977236,0
              174.997145,-36.976466,0
              174.997267,-36.974818,0
              174.998412,-36.973554,0
              174.999171,-36.972939,0
              175.001877,-36.972043,0
              175.00061,-36.97151,0
              174.999013,-36.970667,0
              174.998152,-36.970639,0
              174.996509,-36.969882,0
              174.997443,-36.968507,0
              174.999211,-36.967787,0
              174.999801,-36.967696,0
              175.000952,-36.966831,0
              175.00274,-36.968823,0
              175.00812,-36.965628,0
              175.009992,-36.967664,0
              175.010174,-36.967556,0
              175.012253,-36.969816,0
              175.012904,-36.969439,0
              175.014027,-36.968506,0
              175.014964,-36.967926,0
              175.01508,-36.967776,0
              175.015305,-36.967163,0
              175.01712,-36.965332,0
              175.016595,-36.964976,0
              175.0161,-36.964813,0
              175.015554,-36.963944,0
              175.0141,-36.963056,0
              175.0168,-36.960834,0
              175.017149,-36.960391,0
              175.021722,-36.95982,0
              175.023902,-36.953056,0
              175.026578,-36.944479,0
              175.038615,-36.94716,0
              175.039394,-36.945656,0
              175.037281,-36.94311,0
              175.037028,-36.943169,0
              175.037207,-36.943554,0
              175.036913,-36.943682,0
              175.0361,-36.943212,0
              175.036252,-36.942912,0
              175.036197,-36.942037,0
              175.035731,-36.941869,0
              175.035996,-36.941603,0
              175.035124,-36.940573,0
              175.05134,-36.93049,0
            </coordinates>
          </LinearRing>
        </outerBoundaryIs>
      </Polygon>
    </Placemark>
  </Document>
</kml>
