<?xml version="1.0" encoding="UTF-8"?>
<kml xmlns="http://www.opengis.net/kml/2.2">
<Document>
  <name>Bucklands Beach (Polygon: Official_Shp) Section 3</name>
  <Placemark>
    <name>Bucklands Beach (Polygon: Official_Shp) Section 3</name>
    <Style>
      <LineStyle><color>ffff0000</color><width>2</width></LineStyle>
      <PolyStyle><color>66ff0000</color></PolyStyle>
    </Style>
    <Polygon>
      <tessellate>1</tessellate>
      <outerBoundaryIs>
        <LinearRing>
          <coordinates>174.92029862623434,-36.8895289827659,100 174.920368,-36.889564,100 174.920094,-36.88971,100 174.920064,-36.889726,100 174.920093,-36.889748,100 174.920091,-36.889929,100 174.919995,-36.88998,100 174.920055,-36.890155,100 174.92007,-36.890197,100 174.920116,-36.890329,100 174.920177,-36.890504,100 174.920179,-36.890511,100 174.920005,-36.8906,100 174.919776,-36.890354,100 174.919701,-36.890394,100 174.919554,-36.890472,100 174.919532,-36.890484,100 174.919531,-36.890484,100 174.919412,-36.890548,100 174.919373,-36.890568,100 174.919291,-36.890612,100 174.919214,-36.890653,100 174.919167,-36.890678,100 174.919063,-36.890734,100 174.91901,-36.890762,100 174.919229,-36.890999,100 174.919098,-36.891063,100 174.91905,-36.891086,100 174.918862,-36.891177,100 174.918585,-36.89134,100 174.918408,-36.891443,100 174.918308,-36.891502,100 174.918099,-36.891651,100 174.918065,-36.891675,100 174.917965,-36.891747,100 174.917853,-36.891827,100 174.917772,-36.891885,100 174.917605,-36.892004,100 174.91748,-36.892094,100 174.917424,-36.892134,100 174.917371,-36.892074,100 174.917254,-36.891938,100 174.917144,-36.89181,100 174.917137,-36.891803,100 174.916967,-36.891904,100 174.916948,-36.891915,100 174.916792,-36.892007,100 174.916647,-36.892101,100 174.916485,-36.892197,100 174.91632,-36.892295,100 174.91621,-36.89236,100 174.916266,-36.89242,100 174.916279,-36.892435,100 174.916255,-36.892497,100 174.916227,-36.892571,100 174.916186,-36.892678,100 174.91618,-36.892696,100 174.915797,-36.892606,100 174.915678,-36.892709,100 174.915655,-36.89273,100 174.915536,-36.892834,100 174.915415,-36.892939,100 174.915277,-36.89306,100 174.915142,-36.893182,100 174.915139,-36.893184,100 174.915007,-36.893303,100 174.915002,-36.893308,100 174.914872,-36.893425,100 174.914866,-36.893431,100 174.914737,-36.893547,100 174.914729,-36.893554,100 174.914602,-36.893669,100 174.914593,-36.893677,100 174.914467,-36.893791,100 174.914456,-36.893801,100 174.914332,-36.893913,100 174.91432,-36.893924,100 174.914197,-36.894035,100 174.914159,-36.894069,100 174.914062,-36.894157,100 174.913996,-36.894216,100 174.913927,-36.894279,100 174.913883,-36.894318,100 174.913792,-36.894401,100 174.913771,-36.894419,100 174.91368,-36.894502,100 174.913658,-36.894521,100 174.913643,-36.894534,100 174.91372,-36.894588,100 174.913594,-36.894704,100 174.913551,-36.894743,100 174.913504,-36.89471,100 174.913424,-36.894784,100 174.91338,-36.894824,100 174.913298,-36.8949,100 174.913256,-36.894938,100 174.913174,-36.895014,100 174.913133,-36.895052,100 174.91305,-36.895127,100 174.913009,-36.895165,100 174.913005,-36.895169,100 174.912926,-36.895241,100 174.912885,-36.895279,100 174.912803,-36.895355,100 174.912761,-36.895393,100 174.912637,-36.895506,100 174.912625,-36.895518,100 174.912672,-36.89568,100 174.912701,-36.895779,100 174.912705,-36.895821,100 174.912717,-36.895971,100 174.912724,-36.896072,100 174.912726,-36.89609,100 174.912728,-36.896122,100 174.91274,-36.896273,100 174.91275,-36.896401,100 174.912752,-36.896424,100 174.912764,-36.896574,100 174.912778,-36.896755,100 174.912758,-36.896746,100 174.91265,-36.896788,100 174.912396,-36.896779,100 174.912358,-36.896778,100 174.91229,-36.896839,100 174.912138,-36.896975,100 174.912122,-36.89699,100 174.912102,-36.897008,100 174.911959,-36.897066,100 174.911879,-36.897099,100 174.911785,-36.897138,100 174.911707,-36.897124,100 174.911664,-36.897116,100 174.911468,-36.897081,100 174.911378,-36.897065,100 174.911147,-36.897286,100 174.910969,-36.897385,100 174.910791,-36.897484,100 174.910759,-36.897507,100 174.910618,-36.897611,100 174.910602,-36.897624,100 174.910542,-36.89776,100 174.910489,-36.89788,100 174.910328,-36.897959,100 174.910164,-36.898039,100 174.91016,-36.898132,100 174.910155,-36.898229,100 174.910154,-36.898254,100 174.909928,-36.898244,100 174.909703,-36.898235,100 174.909688,-36.898552,100 174.909527,-36.898545,100 174.909481,-36.898533,100 174.909409,-36.898877,100 174.90914,-36.898841,100 174.909086,-36.89877,100 174.909145,-36.898502,100 174.909258,-36.898284,100 174.909291,-36.898212,100 174.909292,-36.89821,100 174.909295,-36.898213,100 174.909512,-36.897793,100 174.909498,-36.897774,100 174.90996,-36.896881,100 174.90843,-36.896851,100 174.908419,-36.896851,100 174.908396,-36.89685,100 174.908412,-36.896826,100 174.908433,-36.896804,100 174.908443,-36.896782,100 174.908453,-36.89677,100 174.908455,-36.896765,100 174.908469,-36.896743,100 174.908474,-36.896733,100 174.908478,-36.896726,100 174.908482,-36.896712,100 174.908487,-36.896689,100 174.90849,-36.896674,100 174.90849,-36.896664,100 174.90849,-36.896658,100 174.908488,-36.896653,100 174.908484,-36.896648,100 174.90848,-36.896626,100 174.908481,-36.896618,100 174.90848,-36.896607,100 174.908477,-36.896599,100 174.908475,-36.896588,100 174.908476,-36.896569,100 174.90847,-36.896555,100 174.908463,-36.896545,100 174.908462,-36.896541,100 174.908448,-36.89651,100 174.908439,-36.896502,100 174.908433,-36.896498,100 174.908431,-36.896494,100 174.908405,-36.89648,100 174.908386,-36.896474,100 174.908367,-36.896473,100 174.908331,-36.896474,100 174.908294,-36.896471,100 174.908281,-36.896464,100 174.908274,-36.896462,100 174.908266,-36.896459,100 174.908252,-36.896454,100 174.90823,-36.896441,100 174.908214,-36.896435,100 174.908167,-36.896437,100 174.908158,-36.896437,100 174.908146,-36.896439,100 174.908136,-36.896442,100 174.908128,-36.896442,100 174.908121,-36.896443,100 174.908112,-36.896444,100 174.908097,-36.896448,100 174.908082,-36.89645,100 174.908071,-36.89645,100 174.908011,-36.896452,100 174.907999,-36.89645,100 174.907985,-36.896448,100 174.907977,-36.896445,100 174.907957,-36.89644,100 174.907949,-36.896435,100 174.907917,-36.896421,100 174.907911,-36.896415,100 174.907908,-36.896404,100 174.907906,-36.8964,100 174.907901,-36.896377,100 174.907901,-36.896373,100 174.907901,-36.896363,100 174.907904,-36.896355,100 174.907909,-36.896345,100 174.907911,-36.896343,100 174.907923,-36.896327,100 174.907943,-36.896306,100 174.907969,-36.896261,100 174.907977,-36.896245,100 174.90799,-36.896197,100 174.907989,-36.896115,100 174.90797,-36.896071,100 174.90797,-36.896064,100 174.907968,-36.896058,100 174.907968,-36.896038,100 174.90797,-36.896034,100 174.907971,-36.89603,100 174.907974,-36.896026,100 174.907976,-36.896023,100 174.907979,-36.89602,100 174.907981,-36.896018,100 174.907983,-36.896015,100 174.907994,-36.896003,100 174.907994,-36.896001,100 174.907999,-36.895992,100 174.908002,-36.895987,100 174.908004,-36.895985,100 174.908005,-36.895982,100 174.908007,-36.89598,100 174.908007,-36.895979,100 174.908012,-36.895968,100 174.908012,-36.895964,100 174.908013,-36.895962,100 174.908014,-36.895958,100 174.908015,-36.895956,100 174.908014,-36.895952,100 174.908014,-36.895944,100 174.908012,-36.89594,100 174.90801,-36.895939,100 174.908008,-36.895935,100 174.908007,-36.895932,100 174.908,-36.895924,100 174.907998,-36.895923,100 174.907996,-36.895921,100 174.907993,-36.895918,100 174.907988,-36.895915,100 174.907984,-36.895914,100 174.907973,-36.895909,100 174.907971,-36.895909,100 174.907967,-36.895908,100 174.907958,-36.895905,100 174.907954,-36.895903,100 174.907928,-36.895898,100 174.907912,-36.895897,100 174.907907,-36.895898,100 174.907887,-36.895902,100 174.907878,-36.895903,100 174.90785,-36.895912,100 174.907845,-36.895913,100 174.907838,-36.895917,100 174.907835,-36.895917,100 174.907814,-36.895925,100 174.90781,-36.895928,100 174.907807,-36.895928,100 174.907797,-36.895934,100 174.907787,-36.895939,100 174.907783,-36.89594,100 174.907763,-36.895955,100 174.907747,-36.895962,100 174.907744,-36.895965,100 174.907741,-36.895968,100 174.907737,-36.895971,100 174.907734,-36.895974,100 174.90773,-36.895977,100 174.907727,-36.89598,100 174.907723,-36.895983,100 174.90772,-36.895986,100 174.907716,-36.89599,100 174.907712,-36.895994,100 174.907708,-36.895997,100 174.907704,-36.896001,100 174.907701,-36.896006,100 174.907697,-36.89601,100 174.907693,-36.896014,100 174.907689,-36.896019,100 174.907684,-36.896023,100 174.907679,-36.896028,100 174.907673,-36.896033,100 174.907667,-36.896038,100 174.907661,-36.896043,100 174.907654,-36.896049,100 174.907647,-36.896054,100 174.907639,-36.89606,100 174.907631,-36.896066,100 174.907623,-36.896072,100 174.907614,-36.896078,100 174.907604,-36.896084,100 174.907594,-36.89609,100 174.907582,-36.896095,100 174.90757,-36.896101,100 174.907557,-36.896106,100 174.907543,-36.896112,100 174.907528,-36.896117,100 174.907513,-36.896123,100 174.907497,-36.896128,100 174.907481,-36.896134,100 174.907464,-36.896139,100 174.907448,-36.896144,100 174.907431,-36.89615,100 174.907414,-36.896155,100 174.907396,-36.89616,100 174.907378,-36.896166,100 174.907359,-36.896171,100 174.90734,-36.896177,100 174.907321,-36.896182,100 174.907303,-36.896187,100 174.907285,-36.896192,100 174.907268,-36.896196,100 174.907253,-36.8962,100 174.907238,-36.896203,100 174.907224,-36.896206,100 174.907211,-36.896209,100 174.907198,-36.896211,100 174.907186,-36.896213,100 174.907174,-36.896215,100 174.907163,-36.896217,100 174.907153,-36.896219,100 174.907143,-36.89622,100 174.907134,-36.896222,100 174.907126,-36.896224,100 174.907118,-36.896225,100 174.907112,-36.896227,100 174.907107,-36.896228,100 174.907101,-36.896229,100 174.907097,-36.896231,100 174.907092,-36.896232,100 174.907087,-36.896233,100 174.907082,-36.896234,100 174.907077,-36.896235,100 174.907071,-36.896235,100 174.907065,-36.896236,100 174.90706,-36.896236,100 174.907054,-36.896237,100 174.907048,-36.896237,100 174.907043,-36.896237,100 174.907037,-36.896237,100 174.907031,-36.896238,100 174.907025,-36.896238,100 174.90702,-36.896238,100 174.906843,-36.89681,100 174.906671,-36.897521,100 174.906597,-36.898127,100 174.906112,-36.898001,100 174.906323,-36.89744,100 174.905865,-36.897368,100 174.905839,-36.897351,100 174.905834,-36.89734,100 174.905836,-36.897332,100 174.905838,-36.897315,100 174.905836,-36.897311,100 174.905838,-36.897295,100 174.905856,-36.897254,100 174.905876,-36.897229,100 174.905888,-36.897223,100 174.90591,-36.897202,100 174.905921,-36.897198,100 174.905938,-36.897192,100 174.905975,-36.897173,100 174.90599,-36.897161,100 174.905994,-36.897157,100 174.906002,-36.897142,100 174.906006,-36.897126,100 174.906006,-36.897117,100 174.906009,-36.897083,100 174.906005,-36.897072,100 174.905997,-36.897056,100 174.905996,-36.897048,100 174.905989,-36.897027,100 174.905983,-36.897014,100 174.905974,-36.897,100 174.905973,-36.896998,100 174.905973,-36.896997,100 174.905967,-36.896988,100 174.905955,-36.896965,100 174.905953,-36.896954,100 174.905951,-36.896949,100 174.905949,-36.896911,100 174.905952,-36.896899,100 174.905955,-36.896892,100 174.905959,-36.896881,100 174.90598,-36.896795,100 174.905984,-36.896786,100 174.90599,-36.89676,100 174.905995,-36.896742,100 174.905996,-36.896722,100 174.906001,-36.896707,100 174.906004,-36.896696,100 174.90601,-36.896684,100 174.906016,-36.896681,100 174.906015,-36.896671,100 174.906009,-36.896661,100 174.906003,-36.896647,100 174.905997,-36.896641,100 174.90599,-36.896636,100 174.905986,-36.896634,100 174.905979,-36.89663,100 174.90595,-36.896604,100 174.905944,-36.896596,100 174.90593,-36.896584,100 174.905907,-36.896559,100 174.905856,-36.896507,100 174.905845,-36.896495,100 174.905843,-36.89649,100 174.905843,-36.896489,100 174.905841,-36.896484,100 174.90584,-36.896477,100 174.905836,-36.896468,100 174.905837,-36.896453,100 174.905838,-36.896447,100 174.905839,-36.896411,100 174.905836,-36.896403,100 174.905838,-36.896395,100 174.905841,-36.896379,100 174.905837,-36.896365,100 174.905835,-36.896354,100 174.905835,-36.896351,100 174.905833,-36.896348,100 174.905834,-36.896344,100 174.90583,-36.896322,100 174.905814,-36.896296,100 174.905809,-36.896291,100 174.905809,-36.896289,100 174.905772,-36.896254,100 174.905691,-36.896224,100 174.905663,-36.89622,100 174.905645,-36.896214,100 174.90561,-36.896207,100 174.905562,-36.896189,100 174.905544,-36.896184,100 174.905469,-36.896176,100 174.905448,-36.89617,100 174.90543,-36.896166,100 174.905422,-36.896163,100 174.905387,-36.896156,100 174.905367,-36.896148,100 174.905353,-36.896132,100 174.905341,-36.896113,100 174.905313,-36.89608,100 174.905307,-36.896075,100 174.905285,-36.896058,100 174.905281,-36.896054,100 174.905268,-36.896041,100 174.905223,-36.896002,100 174.905193,-36.895984,100 174.90519,-36.895979,100 174.905167,-36.895959,100 174.905163,-36.895957,100 174.905153,-36.895948,100 174.905151,-36.895943,100 174.905134,-36.895925,100 174.905133,-36.895922,100 174.905117,-36.895899,100 174.905117,-36.895896,100 174.905102,-36.895856,100 174.905103,-36.895854,100 174.905096,-36.895827,100 174.905098,-36.895825,100 174.905102,-36.895756,100 174.905112,-36.895737,100 174.905126,-36.89571,100 174.905162,-36.89564,100 174.905215,-36.895554,100 174.905215,-36.895553,100 174.905224,-36.895539,100 174.905227,-36.895532,100 174.905257,-36.895475,100 174.905258,-36.895468,100 174.905267,-36.895455,100 174.905268,-36.895448,100 174.905306,-36.895386,100 174.90531,-36.895375,100 174.905329,-36.89535,100 174.905344,-36.895326,100 174.905355,-36.895312,100 174.905356,-36.895307,100 174.905359,-36.895302,100 174.905389,-36.895235,100 174.905392,-36.895232,100 174.905395,-36.895224,100 174.905398,-36.895214,100 174.905439,-36.895188,100 174.905566,-36.895107,100 174.905724,-36.89487,100 174.905779,-36.894787,100 174.905795,-36.894762,100 174.90581,-36.894737,100 174.905823,-36.894711,100 174.905835,-36.894688,100 174.905845,-36.894664,100 174.905854,-36.89464,100 174.905862,-36.894616,100 174.90587,-36.894591,100 174.905876,-36.894567,100 174.905881,-36.894542,100 174.905923,-36.894328,100 174.905929,-36.894295,100 174.905934,-36.894261,100 174.905937,-36.894227,100 174.905939,-36.894193,100 174.90594,-36.894164,100 174.905939,-36.894136,100 174.905938,-36.894107,100 174.905936,-36.894079,100 174.905933,-36.894051,100 174.905929,-36.894022,100 174.905924,-36.893994,100 174.905918,-36.893966,100 174.905911,-36.893938,100 174.905899,-36.893894,100 174.906082,-36.893843,100 174.90626,-36.893793,100 174.906438,-36.893743,100 174.906616,-36.893693,100 174.906793,-36.893638,100 174.906973,-36.893581,100 174.907158,-36.893523,100 174.90723,-36.8935,100 174.907257,-36.893413,100 174.907305,-36.89326,100 174.907631,-36.893327,100 174.907686,-36.893338,100 174.907754,-36.893122,100 174.907783,-36.892831,100 174.907862,-36.89276,100 174.907505,-36.892567,100 174.90743,-36.892588,100 174.907374,-36.892603,100 174.907067,-36.892251,100 174.907105,-36.892232,100 174.907128,-36.892213,100 174.907296,-36.892075,100 174.907458,-36.891943,100 174.907794,-36.891553,100 174.907809,-36.8915,100 174.907822,-36.891454,100 174.907851,-36.891353,100 174.90788,-36.891251,100 174.907893,-36.891206,100 174.907935,-36.891059,100 174.907942,-36.891035,100 174.907977,-36.890911,100 174.907988,-36.890875,100 174.908017,-36.890774,100 174.908058,-36.890628,100 174.908061,-36.890617,100 174.908103,-36.89047,100 174.908145,-36.890323,100 174.90817,-36.890238,100 174.908139,-36.890167,100 174.908085,-36.890041,100 174.908164,-36.890019,100 174.908366,-36.890056,100 174.90845,-36.88976,100 174.9084371891668,-36.88969594583402,100 174.9104487,-36.8900706,100 174.9115001,-36.8903281,100 174.9164783,-36.8900535,100 174.9185597,-36.8901908,100 174.9188172,-36.8902766,100 174.92029862623434,-36.8895289827659,100</coordinates>
        </LinearRing>
      </outerBoundaryIs>
    </Polygon>
  </Placemark>
</Document>
</kml>