<?xml version="1.0" encoding="UTF-8"?>
<kml xmlns="http://www.opengis.net/kml/2.2">
<Document>
  <name>Bucklands Beach (Polygon: Official_Shp) Section 1</name>
  <Placemark>
    <name>Bucklands Beach (Polygon: Official_Shp) Section 1</name>
    <Style>
      <LineStyle><color>ffff0000</color><width>2</width></LineStyle>
      <PolyStyle><color>66ff0000</color></PolyStyle>
    </Style>
    <Polygon>
      <tessellate>1</tessellate>
      <outerBoundaryIs>
        <LinearRing>
          <coordinates>174.9057132687153,-36.87334345390419,100 174.905696,-36.873228,100 174.905589,-36.872779,100 174.904996,-36.871749,100 174.904934,-36.871689,100 174.904878,-36.871593,100 174.904686,-36.871366,100 174.904604,-36.87127,100 174.904551,-36.871226,100 174.904461,-36.871151,100 174.904191,-36.870927,100 174.904171,-36.870939,100 174.904141,-36.870956,100 174.904135,-36.870962,100 174.904131,-36.870969,100 174.904108,-36.870994,100 174.904077,-36.871018,100 174.904068,-36.871025,100 174.904039,-36.87104,100 174.904002,-36.871055,100 174.903961,-36.87107,100 174.903889,-36.871093,100 174.903877,-36.871098,100 174.903761999791,-36.87113548912621,100 174.90365001089404,-36.87117174943729,100 174.903654,-36.87108,100 174.90365358581204,-36.871079966865,100 174.9036535990001,-36.871079668999975,100 174.90362900151044,-36.87107798640611,100 174.90363,-36.871069,100 174.903628,-36.871066,100 174.903612,-36.871059,100 174.903584,-36.871054,100 174.90353425978873,-36.871054,100 174.90354611972913,-36.87094925093079,100 174.903548,-36.870933,100 174.90354797011432,-36.870932907983864,100 174.90354797600003,-36.87093285599998,100 174.90347208658991,-36.870698625933514,100 174.90348851001198,-36.8706276770585,100 174.90357272212506,-36.87026526690033,100 174.903582,-36.870243,100 174.903621,-36.870094,100 174.90361707674936,-36.87007438374688,100 174.90363328900003,-36.870004612999935,100 174.90349880795696,-36.86928524759818,100 174.903413,-36.868825,100 174.903191,-36.868417,100 174.903129,-36.86829,100 174.90308899971234,-36.86822951176152,100 174.9030367128045,-36.86813331892448,100 174.902482,-36.866998,100 174.901462,-36.865317,100 174.900833,-36.86454,100 174.900768,-36.86446,100 174.900709,-36.864387,100 174.90032,-36.863905,100 174.899814,-36.863212,100 174.899358,-36.862355,100 174.89895,-36.861499,100 174.898984,-36.86124,100 174.899793,-36.860332,100 174.899844,-36.860153,100 174.899859,-36.860107,100 174.899864,-36.860082,100 174.899871,-36.860045,100 174.899876,-36.86001,100 174.899884,-36.859974,100 174.899897,-36.859943,100 174.899914,-36.859909,100 174.899915,-36.859907,100 174.899926,-36.859873,100 174.899939,-36.859838,100 174.899951,-36.859812,100 174.899967,-36.859778,100 174.899973,-36.859764,100 174.899987,-36.85973,100 174.89999,-36.859722,100 174.899992,-36.859719,100 174.900011,-36.859662,100 174.900013,-36.859652,100 174.900014,-36.859648,100 174.900016,-36.859634,100 174.900018,-36.859628,100 174.900018,-36.859615,100 174.900022,-36.859596,100 174.900023,-36.859584,100 174.900028,-36.859548,100 174.900028,-36.859544,100 174.900032,-36.859533,100 174.900035,-36.85949,100 174.900038,-36.859479,100 174.900038,-36.859475,100 174.900039,-36.859473,100 174.90004,-36.859465,100 174.900052,-36.859425,100 174.900057,-36.859418,100 174.900059,-36.859416,100 174.900066,-36.859405,100 174.900069,-36.859402,100 174.900075,-36.859384,100 174.900077,-36.859381,100 174.900079,-36.859375,100 174.90008,-36.859373,100 174.900081,-36.859371,100 174.900092,-36.859322,100 174.900092,-36.859317,100 174.900094,-36.859309,100 174.900094,-36.859306,100 174.90011,-36.859269,100 174.900112,-36.859266,100 174.90012,-36.859247,100 174.900121,-36.859242,100 174.900131,-36.859223,100 174.900132,-36.85922,100 174.900133,-36.859217,100 174.900135,-36.859212,100 174.900144,-36.859196,100 174.90015,-36.859187,100 174.900153,-36.85918,100 174.900155,-36.859177,100 174.900156,-36.859175,100 174.900158,-36.859173,100 174.900159,-36.859169,100 174.900164,-36.859162,100 174.900202,-36.859121,100 174.900211,-36.859114,100 174.900213,-36.859113,100 174.90022,-36.859109,100 174.900222,-36.859107,100 174.900228,-36.859101,100 174.900238,-36.859091,100 174.900245,-36.859087,100 174.900248,-36.859085,100 174.90027,-36.859071,100 174.900282,-36.859064,100 174.900296,-36.859053,100 174.9003,-36.85905,100 174.900304,-36.859044,100 174.900305,-36.859042,100 174.900307,-36.859039,100 174.900308,-36.859037,100 174.90031,-36.85903,100 174.90031,-36.859027,100 174.900313,-36.85902,100 174.900313,-36.859009,100 174.900314,-36.859004,100 174.900311,-36.85898,100 174.900305,-36.858967,100 174.900304,-36.858965,100 174.900297,-36.858948,100 174.900296,-36.858946,100 174.900292,-36.858938,100 174.90029,-36.858935,100 174.900288,-36.858933,100 174.90028,-36.858921,100 174.900278,-36.858917,100 174.900276,-36.858914,100 174.900275,-36.858909,100 174.900274,-36.858906,100 174.900273,-36.858901,100 174.900272,-36.858889,100 174.900273,-36.858881,100 174.900272,-36.858862,100 174.900266,-36.858842,100 174.900265,-36.858822,100 174.900264,-36.858818,100 174.900269,-36.858794,100 174.90027,-36.858791,100 174.900271,-36.858788,100 174.900271,-36.858785,100 174.900272,-36.858778,100 174.90027,-36.858762,100 174.900272,-36.858741,100 174.900273,-36.858738,100 174.900276,-36.858721,100 174.900278,-36.858713,100 174.900278,-36.858694,100 174.900272,-36.858652,100 174.900273,-36.858648,100 174.900271,-36.85864,100 174.900272,-36.858637,100 174.900258,-36.85859,100 174.900257,-36.858586,100 174.900257,-36.858583,100 174.900256,-36.85858,100 174.900254,-36.858572,100 174.900252,-36.858568,100 174.900252,-36.858565,100 174.90025,-36.858561,100 174.900236,-36.858525,100 174.900236,-36.858522,100 174.900235,-36.858521,100 174.900229,-36.858491,100 174.900228,-36.858488,100 174.900227,-36.858484,100 174.900226,-36.85848,100 174.900226,-36.858477,100 174.900224,-36.858469,100 174.900221,-36.858458,100 174.900218,-36.85842,100 174.900223,-36.858409,100 174.900232,-36.858392,100 174.900235,-36.858387,100 174.900241,-36.858369,100 174.900244,-36.85836,100 174.900245,-36.858359,100 174.900247,-36.858354,100 174.900257,-36.858337,100 174.900259,-36.858332,100 174.900273,-36.858314,100 174.900279,-36.858303,100 174.900282,-36.858299,100 174.900287,-36.85829,100 174.900288,-36.858285,100 174.900293,-36.858277,100 174.90029863993811,-36.85826951427131,100 174.9003483350001,-36.858203854999935,100 174.9003708946913,-36.85812378959932,100 174.900373,-36.858118,100 174.900375,-36.858109,100 174.900376,-36.858106,100 174.900376,-36.858104,100 174.900377,-36.858103,100 174.90038,-36.858093,100 174.900382,-36.858088,100 174.900382,-36.858084,100 174.900387,-36.85807,100 174.900391,-36.858065,100 174.900398,-36.858046,100 174.900406,-36.858033,100 174.900416,-36.858011,100 174.900418,-36.858005,100 174.900432,-36.85797,100 174.900434,-36.857967,100 174.900436,-36.857962,100 174.900436,-36.857959,100 174.900438,-36.857935,100 174.90044,-36.857932,100 174.90044,-36.85793,100 174.900444,-36.85792,100 174.900445,-36.857917,100 174.900446,-36.857915,100 174.900446,-36.857912,100 174.900447,-36.857909,100 174.900451,-36.857894,100 174.900451,-36.85788,100 174.90045,-36.857878,100 174.900451,-36.85787,100 174.900449,-36.857862,100 174.900444,-36.857843,100 174.900443,-36.857841,100 174.900442,-36.857839,100 174.900441,-36.857828,100 174.90044,-36.857826,100 174.90044,-36.857819,100 174.900438,-36.857812,100 174.900437,-36.857774,100 174.900434,-36.857759,100 174.900432,-36.857756,100 174.900432,-36.857753,100 174.90043,-36.857749,100 174.900426,-36.857743,100 174.900421,-36.857734,100 174.900418,-36.857726,100 174.900416,-36.857724,100 174.900413,-36.857713,100 174.90041,-36.857709,100 174.900402,-36.857688,100 174.900401,-36.857685,100 174.900395,-36.85767,100 174.900392,-36.857663,100 174.900389,-36.857653,100 174.900386,-36.857648,100 174.900384,-36.857643,100 174.900382,-36.857641,100 174.900376,-36.857623,100 174.900376,-36.857622,100 174.900373,-36.857615,100 174.900368,-36.857584,100 174.900368,-36.857579,100 174.900365,-36.85757,100 174.900364,-36.857568,100 174.900364,-36.857565,100 174.900363,-36.857563,100 174.900361,-36.85755,100 174.90036,-36.857545,100 174.900359,-36.857541,100 174.900358,-36.857537,100 174.900356,-36.857508,100 174.900356,-36.857504,100 174.900355,-36.857495,100 174.900353,-36.857485,100 174.900353,-36.857482,100 174.900352,-36.857478,100 174.900352,-36.857469,100 174.900348,-36.857458,100 174.900347,-36.857435,100 174.900346,-36.857433,100 174.900344,-36.857402,100 174.900343,-36.857399,100 174.900343,-36.857396,100 174.900338,-36.857377,100 174.90033,-36.85736,100 174.900326,-36.857352,100 174.900322,-36.857348,100 174.900319,-36.857345,100 174.900313,-36.857333,100 174.900299,-36.857312,100 174.900296,-36.85731,100 174.90029,-36.857303,100 174.900288,-36.857301,100 174.900278,-36.85729,100 174.900275,-36.857288,100 174.900268,-36.857281,100 174.90026,-36.857276,100 174.900254,-36.857272,100 174.900252,-36.85727,100 174.900244,-36.857264,100 174.90024,-36.857259,100 174.900232,-36.857252,100 174.900229,-36.857249,100 174.900224,-36.857241,100 174.900215,-36.857227,100 174.900205,-36.857215,100 174.900201,-36.857212,100 174.900199,-36.85721,100 174.900196,-36.857208,100 174.900191,-36.857204,100 174.900175,-36.857181,100 174.900168,-36.857174,100 174.900163,-36.857168,100 174.90016,-36.857156,100 174.90016,-36.857154,100 174.900159,-36.857151,100 174.900159,-36.857143,100 174.900159,-36.85714,100 174.900162,-36.857121,100 174.900165,-36.857113,100 174.900178,-36.857094,100 174.90018,-36.857087,100 174.900193,-36.857062,100 174.900198,-36.857055,100 174.9002,-36.85705,100 174.900212,-36.857031,100 174.900219,-36.857021,100 174.900228,-36.857001,100 174.90023,-36.85699,100 174.90024,-36.856966,100 174.900241,-36.856939,100 174.900242,-36.856934,100 174.900243,-36.856914,100 174.900253,-36.856889,100 174.900264,-36.856872,100 174.900264,-36.85687,100 174.900266,-36.856869,100 174.900274,-36.856841,100 174.900279,-36.856831,100 174.900281,-36.856829,100 174.900283,-36.856826,100 174.900285,-36.856823,100 174.900286,-36.856821,100 174.900291,-36.856807,100 174.900306,-36.856786,100 174.900311,-36.85677,100 174.900313,-36.856768,100 174.90032,-36.856758,100 174.900323,-36.856753,100 174.900326,-36.85674,100 174.900329,-36.856676,100 174.900327,-36.856659,100 174.900325,-36.85663,100 174.900324,-36.85662,100 174.900326,-36.856614,100 174.900327,-36.856611,100 174.900327,-36.856597,100 174.90033,-36.856588,100 174.900331,-36.856565,100 174.900331,-36.856561,100 174.900331,-36.85653,100 174.900333,-36.856515,100 174.900335,-36.856513,100 174.900339,-36.856488,100 174.900344,-36.85648,100 174.900346,-36.856479,100 174.900351,-36.856471,100 174.900356,-36.856455,100 174.900356,-36.856454,100 174.900359,-36.856446,100 174.900364,-36.856437,100 174.900373,-36.856417,100 174.900377,-36.856409,100 174.90038,-36.856405,100 174.900383,-36.8564,100 174.900389,-36.856384,100 174.900389,-36.856381,100 174.900395,-36.856369,100 174.900396,-36.856365,100 174.900401,-36.856356,100 174.900404,-36.856341,100 174.900406,-36.856332,100 174.900413,-36.856319,100 174.90042,-36.856309,100 174.900421,-36.856307,100 174.900423,-36.856274,100 174.900422,-36.85627,100 174.900424,-36.856261,100 174.900425,-36.85626,100 174.900425,-36.856251,100 174.900426,-36.856248,100 174.900426,-36.856241,100 174.900431,-36.856218,100 174.900431,-36.8562,100 174.900431,-36.856197,100 174.90043,-36.856164,100 174.900426,-36.856149,100 174.900425,-36.85613,100 174.900423,-36.856126,100 174.900423,-36.856122,100 174.900421,-36.856117,100 174.900412,-36.8561,100 174.900411,-36.856097,100 174.900401,-36.856073,100 174.900398,-36.85604,100 174.900396,-36.856036,100 174.900396,-36.856034,100 174.900394,-36.856027,100 174.900392,-36.856006,100 174.900387,-36.855981,100 174.900387,-36.855978,100 174.900386,-36.85597,100 174.900383,-36.855965,100 174.900382,-36.855959,100 174.90038,-36.855942,100 174.900379,-36.855937,100 174.900379,-36.855931,100 174.900376,-36.855927,100 174.900374,-36.855916,100 174.900361,-36.85589,100 174.900361,-36.855887,100 174.900358,-36.855881,100 174.900356,-36.855875,100 174.900356,-36.855873,100 174.900351,-36.855852,100 174.900347,-36.855844,100 174.90034,-36.855824,100 174.900338,-36.85582,100 174.900337,-36.855814,100 174.900335,-36.855809,100 174.900334,-36.855806,100 174.900333,-36.855804,100 174.900326,-36.85579,100 174.900324,-36.855787,100 174.90032,-36.85577,100 174.900315,-36.855757,100 174.900313,-36.855754,100 174.900305,-36.855745,100 174.900302,-36.855738,100 174.900302,-36.855734,100 174.9003,-36.855732,100 174.900298,-36.855726,100 174.900288,-36.855708,100 174.900283,-36.855704,100 174.90028,-36.855693,100 174.900273,-36.855676,100 174.900266,-36.855666,100 174.90026,-36.855661,100 174.900256,-36.855656,100 174.900255,-36.855654,100 174.900253,-36.855652,100 174.90024,-36.855627,100 174.900231,-36.855608,100 174.900226,-36.855598,100 174.900224,-36.855596,100 174.900224,-36.855594,100 174.90021904338263,-36.85558507808876,100 174.90032034800004,-36.85520647699997,100 174.90031839074462,-36.85515168773133,100 174.900316,-36.855071,100 174.9002142783813,-36.85476018427732,100 174.90019004872178,-36.8546857076695,100 174.900191,-36.85468,100 174.900189,-36.854658,100 174.900189,-36.854649,100 174.900188,-36.85464,100 174.900189,-36.854622,100 174.90019,-36.854618,100 174.90019,-36.854608,100 174.900176,-36.854551,100 174.90017,-36.854538,100 174.900166,-36.854528,100 174.900165,-36.854526,100 174.900154,-36.854491,100 174.900153,-36.854485,100 174.900152,-36.854482,100 174.900152,-36.854475,100 174.90015,-36.854471,100 174.900147,-36.854461,100 174.900144,-36.854455,100 174.900142,-36.854446,100 174.90014,-36.854444,100 174.900132,-36.85442,100 174.900129,-36.854406,100 174.900128,-36.854404,100 174.900127,-36.8544,100 174.90012,-36.854387,100 174.900111,-36.854374,100 174.900106,-36.854369,100 174.900103,-36.854364,100 174.900102,-36.85436,100 174.900085,-36.854337,100 174.900082,-36.85433,100 174.900071,-36.854315,100 174.900069,-36.854312,100 174.900066,-36.854309,100 174.900061,-36.854299,100 174.900048,-36.85428,100 174.900047,-36.854276,100 174.900023,-36.854244,100 174.900021,-36.854241,100 174.900015,-36.854233,100 174.900014,-36.854229,100 174.899997,-36.854209,100 174.899995,-36.854208,100 174.899993,-36.854205,100 174.899988,-36.854201,100 174.899986,-36.854198,100 174.899985,-36.854196,100 174.899981,-36.854191,100 174.899973,-36.854179,100 174.89997,-36.854177,100 174.899956,-36.854156,100 174.899954,-36.854151,100 174.899944,-36.854139,100 174.899943,-36.854136,100 174.899939,-36.854131,100 174.899937,-36.854128,100 174.899936,-36.854126,100 174.899932,-36.854118,100 174.89993,-36.854116,100 174.899928,-36.854113,100 174.899921,-36.854103,100 174.899917,-36.854095,100 174.899915,-36.854091,100 174.899913,-36.854087,100 174.899911,-36.854082,100 174.899886,-36.854039,100 174.899884,-36.854034,100 174.899881,-36.85403,100 174.899881,-36.854029,100 174.899879,-36.854027,100 174.899873,-36.854016,100 174.899871,-36.854012,100 174.899842,-36.853972,100 174.899839,-36.853968,100 174.899816,-36.853932,100 174.899814,-36.853924,100 174.899809,-36.853911,100 174.899807,-36.853892,100 174.899803,-36.853886,100 174.899796,-36.853876,100 174.899793,-36.853873,100 174.899791,-36.853872,100 174.899786,-36.853867,100 174.899777,-36.853849,100 174.899758,-36.853795,100 174.899755,-36.853788,100 174.899755,-36.853787,100 174.899754,-36.853785,100 174.899752,-36.853772,100 174.899752,-36.853771,100 174.899744,-36.853745,100 174.89974,-36.853724,100 174.899738,-36.853694,100 174.899734,-36.853674,100 174.899733,-36.853657,100 174.899732,-36.853656,100 174.899725,-36.853624,100 174.899724,-36.853559,100 174.899725,-36.853525,100 174.899716,-36.85346,100 174.899713,-36.853453,100 174.899712,-36.853451,100 174.899711,-36.853439,100 174.899707,-36.853427,100 174.899707,-36.853424,100 174.899701,-36.853398,100 174.899692,-36.853376,100 174.89969,-36.853369,100 174.899688,-36.853365,100 174.899687,-36.853359,100 174.899682,-36.853347,100 174.899681,-36.853343,100 174.899676,-36.853323,100 174.899664,-36.853303,100 174.899659,-36.853293,100 174.899649,-36.853277,100 174.899642,-36.853262,100 174.899639,-36.853258,100 174.899634,-36.853244,100 174.89963,-36.853239,100 174.899607,-36.853197,100 174.89959,-36.853173,100 174.899587,-36.853171,100 174.899586,-36.853169,100 174.899574,-36.853158,100 174.899555,-36.853133,100 174.899552,-36.853127,100 174.899543,-36.85311,100 174.899537,-36.853102,100 174.899524,-36.853083,100 174.899522,-36.853079,100 174.899515,-36.853055,100 174.899508,-36.853041,100 174.899507,-36.853038,100 174.8995,-36.853024,100 174.899498,-36.853023,100 174.899495,-36.853003,100 174.899494,-36.853,100 174.899495,-36.852993,100 174.899493,-36.852981,100 174.899492,-36.852978,100 174.89949,-36.852971,100 174.89949,-36.852963,100 174.899494,-36.852949,100 174.899494,-36.852946,100 174.899495,-36.852942,100 174.899496,-36.852939,100 174.899499,-36.852925,100 174.899502,-36.85291,100 174.899504,-36.852904,100 174.899505,-36.852884,100 174.899506,-36.852882,100 174.899506,-36.85287,100 174.899506,-36.852854,100 174.899519,-36.852793,100 174.89952,-36.852783,100 174.899521,-36.852775,100 174.899523,-36.852771,100 174.899528,-36.852748,100 174.899539,-36.852718,100 174.899541,-36.852707,100 174.899545,-36.852693,100 174.899545,-36.852691,100 174.899545,-36.852689,100 174.899547,-36.852686,100 174.899547,-36.852684,100 174.89955,-36.852674,100 174.899559,-36.85264,100 174.899558,-36.852636,100 174.899559,-36.852629,100 174.89956,-36.852623,100 174.899561,-36.852582,100 174.899563,-36.852569,100 174.899563,-36.852556,100 174.899563,-36.852554,100 174.899564,-36.852525,100 174.899567,-36.852511,100 174.899567,-36.852509,100 174.89957,-36.852499,100 174.899571,-36.85248,100 174.899573,-36.852463,100 174.899573,-36.852456,100 174.899575,-36.852447,100 174.899576,-36.852437,100 174.899575,-36.852429,100 174.899573,-36.852421,100 174.899569,-36.852394,100 174.899569,-36.85238,100 174.899569,-36.852378,100 174.899568,-36.852347,100 174.899566,-36.852338,100 174.899565,-36.852317,100 174.899565,-36.852313,100 174.899566,-36.852289,100 174.899564,-36.852278,100 174.899563,-36.852275,100 174.899561,-36.852267,100 174.899559,-36.852265,100 174.899559,-36.852262,100 174.899557,-36.852259,100 174.899557,-36.852257,100 174.899555,-36.852252,100 174.899548,-36.852228,100 174.899548,-36.852225,100 174.899544,-36.852194,100 174.899543,-36.85214,100 174.899538,-36.852126,100 174.89953106061702,-36.85211311257452,100 174.89952978294042,-36.85206784743966,100 174.899521,-36.851742,100 174.899529,-36.851714,100 174.899544,-36.851688,100 174.899557,-36.851672,100 174.899558,-36.851669,100 174.899563,-36.851662,100 174.899567,-36.851655,100 174.899568,-36.851653,100 174.899579,-36.851634,100 174.899581,-36.851628,100 174.899584,-36.851624,100 174.899588,-36.851611,100 174.899592,-36.851605,100 174.899594,-36.851601,100 174.899596,-36.851598,100 174.899604,-36.851574,100 174.899617,-36.851553,100 174.899622,-36.85154,100 174.899629,-36.851527,100 174.899631,-36.851522,100 174.899631,-36.851487,100 174.899626,-36.851466,100 174.899627,-36.851455,100 174.899628,-36.851452,100 174.899627,-36.851419,100 174.899627,-36.851412,100 174.899625,-36.851372,100 174.899626,-36.85137,100 174.899624,-36.851333,100 174.899622,-36.851317,100 174.899619,-36.851311,100 174.899611,-36.85129,100 174.899609,-36.851278,100 174.899606,-36.851272,100 174.899604,-36.85126,100 174.899603,-36.851257,100 174.899602,-36.851252,100 174.899601,-36.851249,100 174.899601,-36.851224,100 174.8996,-36.851216,100 174.8996,-36.851213,100 174.899597,-36.8512,100 174.899596,-36.851183,100 174.899598,-36.851175,100 174.899603,-36.851106,100 174.899613,-36.851062,100 174.899613,-36.851058,100 174.899614,-36.851052,100 174.899614,-36.851044,100 174.899613,-36.851039,100 174.899612,-36.851025,100 174.899611,-36.85102,100 174.899612,-36.850853,100 174.899613,-36.850846,100 174.899613,-36.850825,100 174.899619,-36.850795,100 174.899624,-36.850788,100 174.899626,-36.850777,100 174.899615,-36.850699,100 174.899621,-36.850665,100 174.899631,-36.850649,100 174.899647,-36.850628,100 174.899662,-36.850597,100 174.899673,-36.850533,100 174.899665,-36.850503,100 174.899658,-36.850492,100 174.899659,-36.850485,100 174.89965,-36.850458,100 174.89966,-36.850359,100 174.899655,-36.850312,100 174.899636,-36.850281,100 174.899625,-36.850123,100 174.899628,-36.850114,100 174.899629,-36.850096,100 174.899634,-36.850084,100 174.899634,-36.850066,100 174.899676,-36.849962,100 174.899716,-36.849898,100 174.899739,-36.84981,100 174.89977,-36.849771,100 174.899802,-36.8497,100 174.899835,-36.849659,100 174.899856,-36.849638,100 174.899929,-36.849594,100 174.899938,-36.849585,100 174.899982,-36.849563,100 174.900007,-36.849553,100 174.900032,-36.849535,100 174.900065,-36.849495,100 174.90007,-36.84948,100 174.900071,-36.849466,100 174.900118,-36.849393,100 174.900343,-36.849212,100 174.900355,-36.849196,100 174.900357,-36.849178,100 174.900367,-36.849095,100 174.900382,-36.849036,100 174.900381,-36.848996,100 174.900362,-36.84896,100 174.900334,-36.848929,100 174.900332,-36.848921,100 174.900293,-36.848866,100 174.900292,-36.848836,100 174.900276,-36.848786,100 174.900276,-36.848777,100 174.900268,-36.848754,100 174.900254,-36.848699,100 174.900205,-36.848608,100 174.900205,-36.848597,100 174.900199,-36.84859,100 174.900193,-36.848575,100 174.900143,-36.848507,100 174.900098,-36.848429,100 174.90009,-36.848419,100 174.900085,-36.84841,100 174.900054,-36.848353,100 174.90005,-36.848319,100 174.90008,-36.848226,100 174.900142,-36.848137,100 174.900179,-36.848104,100 174.900184,-36.848095,100 174.900309,-36.847975,100 174.900362,-36.847949,100 174.900378,-36.847944,100 174.900412,-36.847925,100 174.900438,-36.847899,100 174.900488,-36.847813,100 174.900505,-36.847763,100 174.900639,-36.847456,100 174.900672,-36.847418,100 174.900716,-36.84738,100 174.900779,-36.847266,100 174.900781,-36.847246,100 174.900791,-36.84723,100 174.900743,-36.847048,100 174.900723,-36.847026,100 174.900712,-36.84702,100 174.900706,-36.847011,100 174.90062,-36.846941,100 174.900603,-36.84692,100 174.900526,-36.846861,100 174.900523,-36.846857,100 174.900446,-36.846713,100 174.900444,-36.8467,100 174.9004429756504,-36.846681049538645,100 174.90044237884374,-36.84666269692508,100 174.900452,-36.846655,100 174.90047,-36.846647,100 174.90056,-36.846586,100 174.900626,-36.846574,100 174.900651,-36.846573,100 174.900709,-36.846584,100 174.900753,-36.846604,100 174.900798,-36.846611,100 174.900863,-36.846605,100 174.900882,-36.8466,100 174.900918,-36.846579,100 174.900939,-36.84656,100 174.900951,-36.846533,100 174.900988,-36.846509,100 174.901007,-36.8465,100 174.901013,-36.846493,100 174.901077,-36.846466,100 174.901105,-36.846439,100 174.901134,-36.846395,100 174.901166,-36.846376,100 174.901186,-36.846374,100 174.901209,-36.84637,100 174.901227,-36.846375,100 174.901251,-36.846389,100 174.90126,-36.8464,100 174.901273,-36.846409,100 174.901292,-36.846438,100 174.901305,-36.846451,100 174.901322,-36.84649,100 174.90136,-36.846518,100 174.901389,-36.846524,100 174.9014,-36.846522,100 174.901453,-36.84648,100 174.901531,-36.846455,100 174.901542,-36.846455,100 174.901556,-36.846452,100 174.901583,-36.846452,100 174.901642,-36.846483,100 174.90168,-36.846516,100 174.901692,-36.846542,100 174.90174,-36.846604,100 174.901746,-36.846622,100 174.901752,-36.84663,100 174.901756,-36.846641,100 174.901795,-36.846708,100 174.901795,-36.846716,100 174.901836,-36.846754,100 174.901849,-36.846764,100 174.901878,-36.846792,100 174.902016,-36.846903,100 174.90203786905664,-36.84691393452834,100 174.90207403141275,-36.84695468067152,100 174.902131,-36.847019,100 174.90214602358398,-36.847031678478785,100 174.9023356040001,-36.84719227999995,100 174.902336,-36.84720599865769,100 174.902336,-36.847215,100 174.90233376031514,-36.84721689037934,100 174.90222654800004,-36.847306848999956,100 174.90220387089337,-36.84734554851453,100 174.9022,-36.847352,100 174.90220002684003,-36.84735210856236,100 174.90219984200007,-36.84735242399994,100 174.90226664700003,-36.84762259799993,100 174.90233350700012,-36.84786936799998,100 174.90252585100006,-36.84804634399995,100 174.90258934893927,-36.84809368936859,100 174.90263,-36.848174,100 174.902634,-36.848187,100 174.902661,-36.848216,100 174.902689,-36.848235,100 174.902718,-36.848248,100 174.902801,-36.848332,100 174.902873,-36.848389,100 174.902895,-36.848413,100 174.902986,-36.848578,100 174.903032,-36.84861,100 174.903044,-36.848612,100 174.90309,-36.848635,100 174.903114,-36.848669,100 174.903138,-36.848762,100 174.903176,-36.848833,100 174.90318,-36.848846,100 174.903208,-36.848892,100 174.903232,-36.848912,100 174.903343,-36.849007,100 174.903381,-36.849051,100 174.903453,-36.849171,100 174.90354700381698,-36.84932385846041,100 174.90356791300007,-36.84935807099998,100 174.9035699491235,-36.849400231134005,100 174.903577,-36.849553,100 174.903575,-36.849562,100 174.903572,-36.84959,100 174.903552,-36.849624,100 174.903549,-36.849644,100 174.903568,-36.849701,100 174.90362,-36.849765,100 174.90364,-36.849776,100 174.903671,-36.849782,100 174.903818,-36.849777,100 174.90387,-36.84977,100 174.903861,-36.849803,100 174.90385720240906,-36.84981502570577,100 174.90385466100008,-36.84982216699995,100 174.9038399902006,-36.84986339068522,100 174.903822,-36.849913,100 174.90372,-36.84999,100 174.9037199169336,-36.84999018090037,100 174.90371959800007,-36.849990420999966,100 174.90367493600002,-36.85008782399995,100 174.90368841323485,-36.85013789739992,100 174.90375,-36.850367,100 174.90375,-36.850389,100 174.90376,-36.850404,100 174.903774,-36.850456,100 174.903979,-36.850745,100 174.904009,-36.850812,100 174.90402058451758,-36.85086087224502,100 174.9040408730001,-36.850946971,100 174.904131,-36.85105101234437,100 174.904131,-36.851053,100 174.904133,-36.851057,100 174.904134,-36.851061,100 174.904139,-36.851077,100 174.90414,-36.85108,100 174.904143,-36.851084,100 174.904143,-36.851087,100 174.904145,-36.85109,100 174.904147,-36.851094,100 174.904152,-36.851105,100 174.904153,-36.851109,100 174.904154,-36.851113,100 174.90416,-36.851127,100 174.904169,-36.851141,100 174.904173,-36.851146,100 174.904178,-36.851155,100 174.904181,-36.851158,100 174.904191,-36.851173,100 174.904193,-36.85118,100 174.904196,-36.851182,100 174.904197,-36.851184,100 174.904203,-36.85119,100 174.904209,-36.851199,100 174.904212,-36.851202,100 174.904213,-36.851206,100 174.904216,-36.851211,100 174.90422,-36.851215,100 174.904228,-36.851227,100 174.904231,-36.851229,100 174.904233,-36.851233,100 174.904234,-36.851236,100 174.904242,-36.85125,100 174.90425,-36.851271,100 174.904255,-36.851289,100 174.904259,-36.851296,100 174.904263,-36.851311,100 174.904274,-36.851331,100 174.904276,-36.851335,100 174.904279,-36.851337,100 174.90429,-36.851358,100 174.904293,-36.85137,100 174.904294,-36.851372,100 174.904297,-36.851379,100 174.904314,-36.851409,100 174.904324,-36.851433,100 174.904326,-36.851437,100 174.904331,-36.851449,100 174.904334,-36.851459,100 174.904342,-36.851481,100 174.904343,-36.851484,100 174.904356,-36.851534,100 174.904358,-36.851536,100 174.90436,-36.851543,100 174.904361,-36.851552,100 174.904365,-36.851568,100 174.904367,-36.851579,100 174.904369,-36.851581,100 174.90437,-36.851587,100 174.90437,-36.851601,100 174.904375,-36.851617,100 174.904376,-36.851619,100 174.904379,-36.851633,100 174.904381,-36.851638,100 174.904384,-36.851643,100 174.904386,-36.851653,100 174.904389,-36.851659,100 174.904389,-36.851662,100 174.904397,-36.85168,100 174.904402,-36.851695,100 174.904408,-36.851704,100 174.904411,-36.851709,100 174.90442,-36.851727,100 174.90442,-36.851729,100 174.904426,-36.851739,100 174.904435,-36.851751,100 174.904442,-36.851757,100 174.904445,-36.85176,100 174.90445,-36.851766,100 174.904453,-36.85177,100 174.904457,-36.851774,100 174.90446,-36.851776,100 174.904462,-36.851778,100 174.904478,-36.851789,100 174.904481,-36.85179,100 174.904496,-36.851793,100 174.904499,-36.851794,100 174.904506,-36.851795,100 174.904587,-36.851794,100 174.904595,-36.851795,100 174.904597,-36.851794,100 174.904601,-36.851798,100 174.904603,-36.851797,100 174.904606,-36.851796,100 174.904628,-36.851799,100 174.904643,-36.851798,100 174.904647,-36.851799,100 174.904663,-36.851798,100 174.904678,-36.851798,100 174.904682,-36.851798,100 174.904685,-36.851799,100 174.904708,-36.851799,100 174.904713,-36.851801,100 174.904715,-36.8518,100 174.9047257221865,-36.8518,100 174.90482056969302,-36.85200379133545,100 174.904868,-36.852106,100 174.904863,-36.852115,100 174.904858,-36.852122,100 174.90485,-36.852141,100 174.904848,-36.852146,100 174.904846,-36.852149,100 174.904845,-36.852153,100 174.904845,-36.852156,100 174.90484,-36.852172,100 174.904838,-36.852203,100 174.904839,-36.852211,100 174.904841,-36.852213,100 174.904846,-36.852217,100 174.904849,-36.852219,100 174.904854,-36.852221,100 174.904866,-36.852226,100 174.904885,-36.852229,100 174.904908972216,-36.85223099768467,100 174.9049508590001,-36.852395569999935,100 174.90495280588473,-36.85240818972957,100 174.904959,-36.85245,100 174.904954,-36.852455,100 174.904948,-36.852475,100 174.904948,-36.852481,100 174.90495,-36.852485,100 174.904954,-36.85249,100 174.904961,-36.852494,100 174.904961,-36.852495,100 174.904966,-36.852498,100 174.90496666121373,-36.852498,100 174.9049848993882,-36.85261621951202,100 174.90501,-36.852782,100 174.905008,-36.852785,100 174.905007,-36.852789,100 174.905006,-36.852791,100 174.905004,-36.852803,100 174.905006,-36.852823,100 174.905011,-36.852839,100 174.90502,-36.852848,100 174.90502297455325,-36.85294616033244,100 174.90502391100006,-36.85298013999994,100 174.90498076331477,-36.85319039447538,100 174.904978,-36.853195,100 174.904976,-36.853201,100 174.904975,-36.853216,100 174.9049601695116,-36.853290745706744,100 174.90494965800008,-36.853341966999956,100 174.90512404800006,-36.85356418599996,100 174.90512861079256,-36.853574297445306,100 174.905154,-36.853631,100 174.905141,-36.853643,100 174.905134,-36.853651,100 174.90513,-36.853654,100 174.905116,-36.853673,100 174.905105,-36.853691,100 174.905101,-36.853694,100 174.905098,-36.8537,100 174.905095,-36.853712,100 174.905093,-36.85373,100 174.905102,-36.853748,100 174.905106,-36.853751,100 174.905119,-36.853769,100 174.905147,-36.8538,100 174.90515,-36.853803,100 174.905152,-36.853806,100 174.905159,-36.853816,100 174.905164,-36.853821,100 174.905166,-36.853823,100 174.905179,-36.853839,100 174.905184,-36.853846,100 174.9052,-36.853864,100 174.905203,-36.853873,100 174.905204,-36.853877,100 174.905205,-36.853885,100 174.905204,-36.853887,100 174.905203,-36.853966,100 174.905204,-36.853979,100 174.905202,-36.853986,100 174.905198,-36.854031,100 174.9052,-36.854062,100 174.905202,-36.854073,100 174.905203,-36.854075,100 174.905204,-36.854087,100 174.905211,-36.854101,100 174.905212,-36.854104,100 174.905216,-36.854112,100 174.905218,-36.854117,100 174.905219,-36.85412,100 174.90522,-36.854123,100 174.90524,-36.85414,100 174.905248,-36.854153,100 174.905255,-36.854165,100 174.905267,-36.854173,100 174.90527,-36.854175,100 174.905276,-36.854183,100 174.905279,-36.854185,100 174.905281,-36.854188,100 174.905307,-36.854213,100 174.90531,-36.854218,100 174.905314,-36.854223,100 174.90532,-36.854233,100 174.905322,-36.854235,100 174.905325,-36.854238,100 174.905328,-36.854243,100 174.905331,-36.854246,100 174.905334,-36.854249,100 174.905338,-36.854254,100 174.905339,-36.854257,100 174.905345,-36.854264,100 174.905352,-36.854274,100 174.905361,-36.854285,100 174.905381,-36.854313,100 174.905384,-36.854317,100 174.905384,-36.854318,100 174.905387,-36.854322,100 174.905389,-36.854328,100 174.9054,-36.854343,100 174.905403,-36.854345,100 174.905408,-36.854353,100 174.90542457554238,-36.85440552266222,100 174.90549050100006,-36.85461588899993,100 174.90552514850023,-36.85466799891869,100 174.905579,-36.85475,100 174.905632,-36.854794,100 174.905637,-36.854811,100 174.905639,-36.854825,100 174.90564,-36.854827,100 174.905641,-36.854836,100 174.905641,-36.85484,100 174.905642,-36.854844,100 174.905642,-36.85485,100 174.90565,-36.854877,100 174.90565,-36.854881,100 174.905652,-36.854884,100 174.905652,-36.854886,100 174.905653,-36.85489,100 174.905657,-36.854898,100 174.905661,-36.854905,100 174.905665,-36.854913,100 174.905667,-36.854916,100 174.905676,-36.854928,100 174.905677,-36.854931,100 174.905679,-36.854944,100 174.905683,-36.854956,100 174.905684,-36.854958,100 174.905687,-36.854964,100 174.905692,-36.854979,100 174.905692,-36.854988,100 174.905695,-36.854992,100 174.905695,-36.854994,100 174.905699,-36.855006,100 174.905703,-36.855029,100 174.905705,-36.85504,100 174.905711,-36.855059,100 174.905714,-36.855072,100 174.905724,-36.85509,100 174.905726,-36.855092,100 174.905728,-36.855093,100 174.90574,-36.855104,100 174.905758,-36.855116,100 174.905767,-36.855119,100 174.905784,-36.855127,100 174.905792,-36.855131,100 174.905795,-36.855134,100 174.905815,-36.855145,100 174.90582,-36.855149,100 174.905824,-36.85515,100 174.90584,-36.855154,100 174.905843,-36.855155,100 174.905848,-36.855156,100 174.905892,-36.855179,100 174.905901,-36.855186,100 174.905908,-36.855193,100 174.905915,-36.855197,100 174.90593,-36.855204,100 174.905936,-36.855206,100 174.90595,-36.855212,100 174.905953,-36.855214,100 174.905961,-36.855219,100 174.90597,-36.855222,100 174.905998,-36.855241,100 174.906,-36.855243,100 174.906008,-36.855249,100 174.906017,-36.855254,100 174.906028,-36.855264,100 174.906031,-36.855267,100 174.906043,-36.855275,100 174.906057,-36.855289,100 174.90606179512096,-36.8552928360968,100 174.90604699437444,-36.855311593938275,100 174.906016,-36.85535,100 174.905879,-36.855465,100 174.90586414621313,-36.85556703912157,100 174.9058556852116,-36.85562344692254,100 174.90585505587197,-36.85562434043092,100 174.90577472600012,-36.85573757599997,100 174.90566491000004,-36.85578457499996,100 174.90563642496843,-36.85589267087022,100 174.905631,-36.855899,100 174.905627,-36.855903,100 174.905624,-36.855908,100 174.905623,-36.855911,100 174.905618,-36.855919,100 174.905616,-36.85593,100 174.905619,-36.855942,100 174.90558,-36.856042,100 174.9055811889026,-36.85604688771304,100 174.90558888800012,-36.85607884499995,100 174.9055889911515,-36.856078963622814,100 174.905589,-36.856079,100 174.90559117331233,-36.8560814730822,100 174.90564677300006,-36.85614541199993,100 174.90565023437543,-36.856272757922966,100 174.905651,-36.856303,100 174.9056338662118,-36.856324893189516,100 174.9055969000001,-36.85637167699997,100 174.9056109634839,-36.856849133892396,100 174.905608,-36.85686,100 174.905608,-36.856866,100 174.905607,-36.856872,100 174.905608,-36.856875,100 174.905607,-36.856887,100 174.905614,-36.85692,100 174.905616,-36.856923,100 174.905619,-36.856931,100 174.905632,-36.856962,100 174.905642,-36.856977,100 174.905653,-36.85699,100 174.905657,-36.856994,100 174.905661,-36.857,100 174.905664,-36.857008,100 174.905666,-36.857009,100 174.905674,-36.857017,100 174.905848,-36.857314,100 174.905849,-36.857359,100 174.9058366708542,-36.85737236743138,100 174.90565871800004,-36.85756487699996,100 174.90562201769188,-36.857678080584655,100 174.905607,-36.857724,100 174.9055534771927,-36.85779574353053,100 174.90541855200001,-36.85797559299992,100 174.90523773573815,-36.85812339506058,100 174.90513,-36.858211,100 174.90512,-36.858213,100 174.905106,-36.858213,100 174.905105,-36.858213,100 174.905099,-36.858211,100 174.90509,-36.858207,100 174.905086,-36.858207,100 174.90508,-36.858207,100 174.905073,-36.858205,100 174.905068,-36.858204,100 174.905066,-36.858203,100 174.905061,-36.858202,100 174.905056,-36.858202,100 174.905051,-36.858201,100 174.90504,-36.858201,100 174.905034,-36.858202,100 174.905029,-36.858203,100 174.905014,-36.858211,100 174.905007,-36.858214,100 174.905004,-36.858216,100 174.905002,-36.858219,100 174.904998,-36.858223,100 174.904993,-36.858228,100 174.904983,-36.858258,100 174.904982,-36.858269,100 174.90498,-36.858273,100 174.904973,-36.858282,100 174.904961,-36.858295,100 174.904949,-36.858313,100 174.904939,-36.858323,100 174.904925,-36.858339,100 174.904902,-36.858361,100 174.904899,-36.858367,100 174.904897,-36.858368,100 174.904895,-36.858372,100 174.904893,-36.858374,100 174.904891,-36.858378,100 174.904875,-36.858396,100 174.904867,-36.858412,100 174.904851,-36.858439,100 174.904849,-36.858442,100 174.904838,-36.858464,100 174.904836,-36.85847,100 174.904834,-36.858474,100 174.904827,-36.858503,100 174.904828,-36.858507,100 174.904828,-36.85851,100 174.904829,-36.858515,100 174.904828,-36.858525,100 174.904825,-36.858543,100 174.904824,-36.85855,100 174.904823,-36.858556,100 174.904821,-36.858565,100 174.90482,-36.858585,100 174.904821,-36.858591,100 174.904818,-36.858613,100 174.904816,-36.858622,100 174.904817,-36.858644,100 174.904817,-36.858656,100 174.904819,-36.858662,100 174.904821,-36.858689,100 174.904825,-36.858703,100 174.904833,-36.858723,100 174.904833,-36.858731,100 174.904836,-36.858743,100 174.904837,-36.858749,100 174.904838,-36.858752,100 174.904841,-36.858763,100 174.904842,-36.858766,100 174.904845,-36.858772,100 174.904847,-36.858775,100 174.90485,-36.858784,100 174.904852,-36.858787,100 174.904852,-36.858789,100 174.904854,-36.85879,100 174.904854,-36.858793,100 174.904858,-36.858804,100 174.904858,-36.858807,100 174.904859,-36.85881,100 174.90486,-36.858815,100 174.904861,-36.858819,100 174.904877,-36.858817,100 174.905152,-36.859357,100 174.90515218303855,-36.859357257984215,100 174.90515223700004,-36.85935736399995,100 174.90527852800005,-36.85953646999996,100 174.90535872100008,-36.859699180999925,100 174.905403,-36.85974006480291,100 174.905403,-36.859742,100 174.905404,-36.859744,100 174.905406,-36.859748,100 174.905405,-36.85975,100 174.905407,-36.859755,100 174.905424,-36.85977,100 174.905427,-36.859774,100 174.90544,-36.859785,100 174.905442,-36.859787,100 174.905447,-36.859792,100 174.905458,-36.859799,100 174.905466,-36.859806,100 174.905481,-36.859822,100 174.905488,-36.859828,100 174.905499,-36.859835,100 174.905502,-36.859836,100 174.905504,-36.859838,100 174.905516,-36.859845,100 174.90553064707362,-36.859857923888995,100 174.90553320582748,-36.85986028643216,100 174.9055501023247,-36.85988379980455,100 174.9056762167906,-36.860059650371774,100 174.905677,-36.860062,100 174.905677,-36.860064,100 174.905677,-36.860065,100 174.905686,-36.860088,100 174.905686,-36.860089,100 174.9057,-36.860134,100 174.905704,-36.860142,100 174.905705,-36.860143,100 174.905767,-36.860323,100 174.905806,-36.860386,100 174.905806,-36.860387,100 174.905809,-36.860393,100 174.905814,-36.8604,100 174.905815,-36.860402,100 174.905816,-36.860404,100 174.905926,-36.86055,100 174.905941,-36.860574,100 174.905988,-36.860629,100 174.905988,-36.860631,100 174.906056,-36.86072,100 174.906063,-36.860725,100 174.906064,-36.860732,100 174.906105,-36.860783,100 174.906112,-36.860794,100 174.906133,-36.860818,100 174.906134,-36.860819,100 174.906151,-36.860849,100 174.90616,-36.86086,100 174.90616,-36.860862,100 174.906167,-36.86087,100 174.906168,-36.860872,100 174.90617,-36.860876,100 174.906198,-36.860912,100 174.906208,-36.860925,100 174.90633,-36.861077,100 174.906331,-36.861078,100 174.906335,-36.861085,100 174.906345,-36.861098,100 174.90642,-36.861201,100 174.906421,-36.861202,100 174.906467,-36.861307,100 174.906467,-36.861309,100 174.906471,-36.861327,100 174.906473,-36.861335,100 174.906476,-36.861339,100 174.906476,-36.861341,100 174.906477,-36.861343,100 174.906478,-36.861346,100 174.906479,-36.861351,100 174.906483,-36.86136,100 174.906484,-36.861363,100 174.906484,-36.861365,100 174.906493,-36.861386,100 174.906493,-36.861388,100 174.906493,-36.861389,100 174.906511,-36.861422,100 174.906511,-36.861424,100 174.906519,-36.861433,100 174.906519,-36.861435,100 174.906533,-36.861452,100 174.906534,-36.861453,100 174.906539,-36.86146,100 174.906551,-36.861473,100 174.906552,-36.861474,100 174.906553,-36.861476,100 174.906609,-36.861524,100 174.906652,-36.861554,100 174.906654,-36.861555,100 174.906712,-36.861617,100 174.906806,-36.861753,100 174.906819,-36.861781,100 174.90682,-36.861782,100 174.906822,-36.861789,100 174.906838,-36.861817,100 174.906839,-36.861819,100 174.906841,-36.861825,100 174.906897,-36.861935,100 174.906914,-36.861953,100 174.906915,-36.861955,100 174.906917,-36.86196,100 174.906923,-36.861965,100 174.906923,-36.861967,100 174.906942,-36.861998,100 174.906942,-36.861999,100 174.906943,-36.862002,100 174.906948,-36.862009,100 174.906949,-36.862011,100 174.90699,-36.862071,100 174.907034,-36.862118,100 174.907034,-36.862119,100 174.907089,-36.862185,100 174.907094,-36.862189,100 174.907095,-36.86219,100 174.907114,-36.862212,100 174.907122,-36.862218,100 174.907123,-36.86222,100 174.907129,-36.862229,100 174.90715,-36.862248,100 174.907196,-36.862315,100 174.90722689436348,-36.86234815493285,100 174.90723689300012,-36.86235911999995,100 174.9073361722081,-36.86246484727,100 174.9073409642862,-36.86246996188243,100 174.90766155200004,-36.862914073999946,100 174.90778152300004,-36.86315978099997,100 174.9078156930001,-36.863384516999936,100 174.90784557200004,-36.86345162199995,100 174.90789095138325,-36.86351400204368,100 174.907991,-36.863652,100 174.908193,-36.863851,100 174.9081957300759,-36.86385309823179,100 174.9084221710001,-36.86402729099996,100 174.90846492059515,-36.86407214078221,100 174.908654,-36.864271,100 174.908859,-36.864583,100 174.908889,-36.86465,100 174.908909,-36.864715,100 174.90903,-36.864848,100 174.909119,-36.864933,100 174.90914690058872,-36.865022680464214,100 174.9091390697549,-36.865060385483325,100 174.909119,-36.865155,100 174.909158,-36.865269,100 174.90916293478185,-36.865276527642955,100 174.90921673200012,-36.865358823999934,100 174.9092169869575,-36.865358980104645,100 174.909217,-36.865359,100 174.90922265358915,-36.86536244965659,100 174.90939351500003,-36.86546706399996,100 174.90948850900008,-36.86558073299994,100 174.90949065900008,-36.86566709499993,100 174.90947305300006,-36.86578257399997,100 174.90947306294936,-36.86578259432684,100 174.909473,-36.865783,100 174.909527,-36.865893,100 174.90956266373465,-36.86592464156066,100 174.90966018544992,-36.86601174179969,100 174.909661,-36.866015,100 174.909662,-36.866016,100 174.909663,-36.86602,100 174.909696,-36.866083,100 174.909697,-36.866086,100 174.909698,-36.866093,100 174.909701,-36.866098,100 174.909731,-36.866141,100 174.909732,-36.866143,100 174.909734,-36.866148,100 174.909744,-36.866163,100 174.909745,-36.866164,100 174.909746,-36.866167,100 174.909765,-36.86619,100 174.90978,-36.866202,100 174.909781,-36.866204,100 174.909781,-36.866205,100 174.909816,-36.866237,100 174.909821,-36.866239,100 174.909823,-36.86624,100 174.909833,-36.866246,100 174.909844,-36.866251,100 174.909846,-36.866253,100 174.909914,-36.866277,100 174.9099817117135,-36.866298906730954,100 174.9099922852032,-36.86630835018484,100 174.909993,-36.866309,100 174.910041,-36.866403,100 174.91000149332348,-36.86647928879172,100 174.90998283600004,-36.86651492199995,100 174.90997485200012,-36.86660556199996,100 174.90997502261317,-36.86660574277554,100 174.909975,-36.866606,100 174.910059,-36.866695,100 174.910122,-36.866722,100 174.910173,-36.866777,100 174.910227,-36.866857,100 174.910328,-36.867028,100 174.91049,-36.867149,100 174.9105550577711,-36.867175898902715,100 174.91059366500008,-36.867192159999945,100 174.91067361600005,-36.86731841199998,100 174.91068039302428,-36.867388904510534,100 174.910685,-36.86744,100 174.91067,-36.867464,100 174.91067,-36.867467,100 174.910666,-36.867474,100 174.910666,-36.867478,100 174.910646,-36.867509,100 174.910644,-36.867514,100 174.910543,-36.867634,100 174.910539,-36.867641,100 174.910523,-36.867669,100 174.910523,-36.867684,100 174.910521,-36.867691,100 174.91052,-36.867702,100 174.910517,-36.867708,100 174.910517,-36.867731,100 174.91051,-36.867761,100 174.910511,-36.867776,100 174.91051,-36.86778,100 174.91051,-36.867782,100 174.910513,-36.867791,100 174.910513,-36.867794,100 174.910517,-36.867805,100 174.91052,-36.867809,100 174.91053,-36.86783,100 174.910534,-36.867835,100 174.910542,-36.867848,100 174.910547,-36.867855,100 174.910553,-36.867869,100 174.910562,-36.867881,100 174.910588,-36.867909,100 174.910594,-36.867915,100 174.910607,-36.867945,100 174.91064558819858,-36.86800592884624,100 174.91072042900112,-36.86812534259939,100 174.910706,-36.868134,100 174.9105,-36.868256,100 174.910416,-36.868305,100 174.910068,-36.868281,100 174.909854,-36.868473,100 174.909817,-36.868506,100 174.910172,-36.869093,100 174.91047,-36.869586,100 174.910634,-36.869856,100 174.910596,-36.86987,100 174.910407,-36.869939,100 174.910402,-36.869941,100 174.910011,-36.870084,100 174.909806,-36.870159,100 174.909395,-36.870309,100 174.909359,-36.870322,100 174.908964,-36.870466,100 174.908943,-36.870474,100 174.90903,-36.870617,100 174.909082,-36.870703,100 174.909534,-36.870538,100 174.909586,-36.870625,100 174.909658,-36.870742,100 174.909673,-36.870768,100 174.909632,-36.870783,100 174.909462,-36.870845,100 174.909415,-36.870862,100 174.909243,-36.870925,100 174.909221,-36.870933,100 174.909057,-36.870993,100 174.90887,-36.871061,100 174.908671,-36.871134,100 174.908557,-36.871511,100 174.908167,-36.87159,100 174.90815,-36.871594,100 174.908088,-36.871402,100 174.907889,-36.871443,100 174.90769,-36.871483,100 174.907735,-36.871619,100 174.907782,-36.871765,100 174.907829,-36.871912,100 174.907887,-36.872087,100 174.907944,-36.872262,100 174.907931,-36.872265,100 174.907983,-36.872425,100 174.907996,-36.872422,100 174.908009,-36.872464,100 174.908029,-36.872524,100 174.908047,-36.872581,100 174.908095,-36.872728,100 174.908099,-36.872741,100 174.908151,-36.8729,100 174.908188,-36.873014,100 174.908203,-36.87306,100 174.908254,-36.873219,100 174.908279,-36.873295,100 174.908306,-36.873379,100 174.908358,-36.873538,100 174.908361,-36.873547,100 174.90841,-36.873698,100 174.908451,-36.873826,100 174.908461,-36.873857,100 174.908466,-36.87387,100 174.908407,-36.874041,100 174.908403,-36.874056,100 174.908408,-36.874087,100 174.908435,-36.874268,100 174.908436,-36.874272,100 174.90844,-36.874295,100 174.908465,-36.874459,100 174.90849,-36.874622,100 174.908495,-36.87465,100 174.908516,-36.874786,100 174.908524,-36.874842,100 174.908541,-36.874949,100 174.908566,-36.875113,100 174.908568,-36.875124,100 174.908592,-36.875276,100 174.908617,-36.87544,100 174.908641,-36.875603,100 174.908644,-36.87562,100 174.908666,-36.875766,100 174.908683,-36.875881,100 174.908691,-36.87593,100 174.908716,-36.876093,100 174.908718,-36.876111,100 174.908753,-36.876172,100 174.908831,-36.876308,100 174.908835,-36.876315,100 174.908917,-36.876458,100 174.908951,-36.876516,100 174.908999,-36.8766,100 174.909112,-36.876558,100 174.909103,-36.876744,100 174.909093,-36.876929,100 174.909081,-36.877157,100 174.909078,-36.877226,100 174.909055,-36.877677,100 174.909002,-36.877685,100 174.90905,-36.877768,100 174.909208,-36.877857,100 174.909269,-36.877892,100 174.909297,-36.877351,100 174.909529,-36.877484,100 174.909596,-36.877523,100 174.909763,-36.877618,100 174.909859,-36.877673,100 174.90993,-36.877714,100 174.910087,-36.877804,100 174.910097,-36.87781,100 174.910264,-36.877906,100 174.910315,-36.877935,100 174.910431,-36.878001,100 174.910544,-36.878066,100 174.910598,-36.878097,100 174.910765,-36.878193,100 174.910772,-36.878197,100 174.910932,-36.878288,100 174.911019,-36.878339,100 174.911099,-36.878384,100 174.911266,-36.87848,100 174.911433,-36.878576,100 174.911477,-36.878601,100 174.9116,-36.878671,100 174.911402,-36.878894,100 174.911272,-36.87904,100 174.911625,-36.879243,100 174.91178381066862,-36.87932585774015,100 174.9116472,-36.8798274,100 174.9113254,-36.8809516,100 174.9109928,-36.8821359,100 174.9107889,-36.8828482,100 174.910448,-36.883644,100 174.910215,-36.883602,100 174.910018,-36.883566,100 174.909821,-36.883529,100 174.909624,-36.883493,100 174.909604,-36.88349,100 174.909402,-36.883452,100 174.9092,-36.883415,100 174.908981,-36.883375,100 174.908762,-36.883335,100 174.908543,-36.883295,100 174.908325,-36.883255,100 174.908106,-36.883215,100 174.907899,-36.883177,100 174.907207,-36.88305,100 174.906769,-36.88297,100 174.906728,-36.882962,100 174.906334,-36.88289,100 174.905919,-36.882814,100 174.904945,-36.882636,100 174.904738,-36.882597,100 174.904765,-36.882499,100 174.904776,-36.882461,100 174.90499,-36.881708,100 174.905001,-36.881672,100 174.905084,-36.881379,100 174.905169,-36.881079,100 174.905223,-36.880891,100 174.905276,-36.880704,100 174.905294,-36.880639,100 174.905389,-36.880304,100 174.9054,-36.880265,100 174.90495,-36.880183,100 174.904867,-36.880167,100 174.905128,-36.879964,100 174.905021,-36.879822,100 174.904915,-36.879681,100 174.904702,-36.879399,100 174.904466,-36.87934,100 174.904337,-36.87917,100 174.904209,-36.878999,100 174.904289,-36.87896,100 174.904378,-36.878916,100 174.904548,-36.878834,100 174.904616,-36.878801,100 174.904717,-36.878751,100 174.904762,-36.878729,100 174.904887,-36.878669,100 174.904909,-36.878658,100 174.904759,-36.87846,100 174.904905,-36.878389,100 174.905052,-36.878317,100 174.904722,-36.87788,100 174.904596,-36.877729,100 174.904354,-36.877409,100 174.90435,-36.877404,100 174.904261,-36.877285,100 174.904127,-36.877108,100 174.904038,-36.876893,100 174.904041,-36.876891,100 174.90405,-36.876888,100 174.904055,-36.876885,100 174.904058,-36.876884,100 174.904062,-36.876881,100 174.904067,-36.87688,100 174.90407,-36.876878,100 174.904076,-36.876875,100 174.904083,-36.876872,100 174.904147,-36.876845,100 174.904152,-36.876844,100 174.904158,-36.876842,100 174.90417,-36.876837,100 174.904175,-36.876835,100 174.904193,-36.876826,100 174.9042,-36.876823,100 174.904207,-36.87682,100 174.904214,-36.876818,100 174.904254,-36.876797,100 174.904296,-36.87677,100 174.904312,-36.876757,100 174.904318,-36.876754,100 174.904347,-36.876738,100 174.904366,-36.87673,100 174.904377,-36.876727,100 174.904393,-36.876717,100 174.904402,-36.876709,100 174.90441,-36.876703,100 174.90443,-36.876684,100 174.904441,-36.876677,100 174.904444,-36.876675,100 174.904452,-36.876669,100 174.904454,-36.876667,100 174.904483,-36.876647,100 174.904489,-36.876642,100 174.904495,-36.876639,100 174.9045,-36.876635,100 174.904521,-36.876613,100 174.904526,-36.876609,100 174.904531,-36.876605,100 174.904547,-36.876586,100 174.904565,-36.876569,100 174.90457,-36.876566,100 174.904577,-36.876559,100 174.904581,-36.876554,100 174.904585,-36.87655,100 174.904611,-36.876528,100 174.904618,-36.876523,100 174.904623,-36.876521,100 174.90463,-36.876515,100 174.904634,-36.876513,100 174.904653,-36.876495,100 174.904658,-36.876488,100 174.904661,-36.87648,100 174.904677,-36.876457,100 174.904679,-36.876455,100 174.90468,-36.876451,100 174.904685,-36.876444,100 174.904686,-36.876441,100 174.904691,-36.876434,100 174.904698,-36.876421,100 174.904711,-36.876393,100 174.904716,-36.876383,100 174.904717,-36.87638,100 174.90472,-36.876378,100 174.904722,-36.876373,100 174.904727,-36.876367,100 174.904733,-36.876356,100 174.904737,-36.876343,100 174.904736,-36.87634,100 174.904736,-36.876335,100 174.904733,-36.876326,100 174.90473,-36.876318,100 174.904728,-36.876317,100 174.904726,-36.876311,100 174.904727,-36.876307,100 174.904727,-36.876302,100 174.904729,-36.876298,100 174.904732,-36.876295,100 174.904747,-36.876283,100 174.904777,-36.876267,100 174.90479,-36.87626,100 174.904807,-36.876254,100 174.904839,-36.876246,100 174.904869,-36.876238,100 174.904899,-36.876223,100 174.904926,-36.876211,100 174.904933,-36.876207,100 174.904941,-36.876202,100 174.904977,-36.876184,100 174.904989,-36.876179,100 174.905003,-36.876174,100 174.905081,-36.876135,100 174.905094,-36.876127,100 174.905108,-36.87612,100 174.905116,-36.876116,100 174.905173,-36.876086,100 174.905195,-36.876073,100 174.905202,-36.876069,100 174.905208,-36.876065,100 174.905225,-36.876052,100 174.905246,-36.876042,100 174.905269,-36.876024,100 174.905306,-36.876005,100 174.90532,-36.875994,100 174.905328,-36.875984,100 174.905332,-36.875982,100 174.905334,-36.875979,100 174.905351,-36.875967,100 174.905354,-36.875964,100 174.905374,-36.87595,100 174.90539,-36.875937,100 174.905395,-36.875934,100 174.9054,-36.875929,100 174.905404,-36.875927,100 174.905431,-36.875906,100 174.905437,-36.875903,100 174.905452,-36.875894,100 174.905468,-36.875882,100 174.905476,-36.875876,100 174.905481,-36.875871,100 174.905485,-36.87587,100 174.90549,-36.875868,100 174.905495,-36.875867,100 174.905515,-36.875868,100 174.905521,-36.875869,100 174.905571,-36.875866,100 174.905577,-36.875865,100 174.905587,-36.875865,100 174.905591,-36.875864,100 174.905603,-36.875863,100 174.905607,-36.875863,100 174.905618,-36.875862,100 174.905621,-36.875862,100 174.905676,-36.875862,100 174.90568,-36.875862,100 174.905694,-36.875859,100 174.90571,-36.875854,100 174.905719,-36.875848,100 174.905729,-36.875842,100 174.905733,-36.87584,100 174.905736,-36.875837,100 174.905744,-36.875832,100 174.905756,-36.875824,100 174.905759,-36.875822,100 174.905765,-36.875818,100 174.905776,-36.875809,100 174.90578,-36.875806,100 174.905807,-36.875783,100 174.905815,-36.875777,100 174.905818,-36.875775,100 174.905823,-36.875768,100 174.905831,-36.875761,100 174.905838,-36.875755,100 174.905845,-36.87575,100 174.905855,-36.875741,100 174.905867,-36.875729,100 174.905877,-36.875718,100 174.905879,-36.875714,100 174.905882,-36.875711,100 174.905886,-36.875704,100 174.905894,-36.875687,100 174.905896,-36.875684,100 174.905897,-36.875682,100 174.905903,-36.875674,100 174.905914,-36.875664,100 174.905927,-36.875645,100 174.905932,-36.875634,100 174.905932,-36.875632,100 174.905936,-36.875626,100 174.905938,-36.875618,100 174.905939,-36.875616,100 174.905941,-36.875612,100 174.905943,-36.875608,100 174.905946,-36.875599,100 174.905947,-36.875596,100 174.90595,-36.875567,100 174.905951,-36.875545,100 174.905952,-36.875532,100 174.905953,-36.87553,100 174.905953,-36.875523,100 174.905954,-36.87552,100 174.905954,-36.875515,100 174.905957,-36.875504,100 174.905959,-36.875501,100 174.905961,-36.875493,100 174.905965,-36.875488,100 174.905968,-36.875473,100 174.905982,-36.875434,100 174.905985,-36.875419,100 174.905985,-36.875377,100 174.905986,-36.875373,100 174.905985,-36.875369,100 174.905987,-36.875359,100 174.905986,-36.875356,100 174.90599,-36.875338,100 174.905991,-36.87533,100 174.905999,-36.875293,100 174.906008,-36.875268,100 174.906009,-36.87526,100 174.906009,-36.875259,100 174.906011,-36.875253,100 174.906012,-36.875251,100 174.906012,-36.875249,100 174.906013,-36.875246,100 174.906014,-36.875237,100 174.906017,-36.875225,100 174.906017,-36.875222,100 174.906023,-36.875199,100 174.906025,-36.875191,100 174.906025,-36.875186,100 174.906026,-36.875178,100 174.906026,-36.875172,100 174.906027,-36.875168,100 174.906026,-36.875161,100 174.906027,-36.875158,100 174.906027,-36.875152,100 174.906028,-36.875151,100 174.906027,-36.875144,100 174.906028,-36.875132,100 174.906016,-36.875042,100 174.905978,-36.874425,100 174.9057322294611,-36.87346679347192,100 174.9057132687153,-36.87334345390419,100</coordinates>
        </LinearRing>
      </outerBoundaryIs>
    </Polygon>
  </Placemark>
</Document>
</kml>