<?xml version="1.0" encoding="UTF-8"?>
<kml xmlns="http://www.opengis.net/kml/2.2">
<Document>
  <name>Bucklands Beach (Polygon: Official_Shp) Section 2</name>
  <Placemark>
    <name>Bucklands Beach (Polygon: Official_Shp) Section 2</name>
    <Style>
      <LineStyle><color>ffff0000</color><width>2</width></LineStyle>
      <PolyStyle><color>66ff0000</color></PolyStyle>
    </Style>
    <Polygon>
      <tessellate>1</tessellate>
      <outerBoundaryIs>
        <LinearRing>
          <coordinates>174.91178381066862,-36.87932585774015,100 174.911878,-36.879375,100 174.91197,-36.87943,100 174.913189,-36.880407,100 174.91332,-36.880511,100 174.913564,-36.881123,100 174.913802,-36.881724,100 174.913935,-36.882059,100 174.914509,-36.883699,100 174.915269,-36.88436,100 174.916103,-36.884555,100 174.917494,-36.884879,100 174.919357,-36.885505,100 174.919499,-36.885004,100 174.919591,-36.885021,100 174.919719,-36.885044,100 174.919853,-36.884571,100 174.919861,-36.884544,100 174.919927,-36.884578,100 174.919957,-36.884594,100 174.920224,-36.884732,100 174.920263,-36.884752,100 174.920521,-36.884886,100 174.920726,-36.884992,100 174.920553,-36.885208,100 174.920532,-36.885233,100 174.920465,-36.885317,100 174.920644,-36.88541,100 174.92079,-36.885485,100 174.920924,-36.885555,100 174.921136,-36.885665,100 174.921112,-36.885695,100 174.921105,-36.885703,100 174.920954,-36.885891,100 174.920931,-36.88592,100 174.920904,-36.885953,100 174.920992,-36.886015,100 174.921144,-36.886122,100 174.920969,-36.886341,100 174.921193,-36.886458,100 174.9213,-36.88645,100 174.92114,-36.886646,100 174.920958,-36.886552,100 174.920763,-36.886795,100 174.920804,-36.886806,100 174.920765,-36.886962,100 174.920757,-36.886994,100 174.920717,-36.887156,100 174.920667,-36.887203,100 174.920729,-36.887255,100 174.920712,-36.887323,100 174.920672,-36.887485,100 174.920664,-36.887517,100 174.920658,-36.887544,100 174.920632,-36.887648,100 174.920627,-36.887777,100 174.920571,-36.888002,100 174.920564,-36.888041,100 174.920341,-36.887951,100 174.920232,-36.887906,100 174.920158,-36.887877,100 174.920115,-36.887859,100 174.919906,-36.887911,100 174.919436,-36.887862,100 174.919426,-36.887878,100 174.919214,-36.887794,100 174.918966,-36.887965,100 174.918959,-36.88797,100 174.919071,-36.88803,100 174.919265,-36.888134,100 174.919206,-36.888229,100 174.91912,-36.888366,100 174.919071,-36.888443,100 174.919014,-36.888534,100 174.919361,-36.888719,100 174.919642,-36.888868,100 174.919727,-36.888927,100 174.919974,-36.889099,100 174.920306,-36.889213,100 174.920232,-36.889337,100 174.920214,-36.889367,100 174.920158,-36.889458,100 174.92029862623434,-36.8895289827659,100 174.9188172,-36.8902766,100 174.9185597,-36.8901908,100 174.9164783,-36.8900535,100 174.9115001,-36.8903281,100 174.9104487,-36.8900706,100 174.9084371891668,-36.88969594583402,100 174.908376,-36.88939,100 174.908242,-36.889065,100 174.908366,-36.889003,100 174.908482,-36.888945,100 174.908371,-36.88885,100 174.908229,-36.888728,100 174.908262,-36.888611,100 174.908279,-36.888549,100 174.908317,-36.888417,100 174.908323,-36.888395,100 174.908373,-36.888219,100 174.908471,-36.888237,100 174.908679,-36.888275,100 174.908772,-36.888292,100 174.908887,-36.888313,100 174.90897,-36.88802,100 174.908853,-36.887801,100 174.908907,-36.887612,100 174.908955,-36.887443,100 174.908957,-36.887437,100 174.909003,-36.887274,100 174.909006,-36.887261,100 174.90905,-36.887106,100 174.909056,-36.887085,100 174.909098,-36.886937,100 174.909105,-36.886914,100 174.909146,-36.886768,100 174.909152,-36.886747,100 174.909194,-36.886599,100 174.909207,-36.886554,100 174.909242,-36.88643,100 174.909254,-36.886384,100 174.90929,-36.886261,100 174.909337,-36.886092,100 174.909385,-36.885922,100 174.909401,-36.885925,100 174.909409,-36.885897,100 174.909452,-36.885744,100 174.9095,-36.885577,100 174.909547,-36.88541,100 174.90955,-36.885398,100 174.909594,-36.885243,100 174.909642,-36.885076,100 174.909689,-36.884909,100 174.909737,-36.884742,100 174.909784,-36.884575,100 174.909831,-36.884408,100 174.909879,-36.884241,100 174.910261,-36.884311,100 174.910298,-36.884178,100 174.910247,-36.884112,100 174.910296,-36.883935,100 174.910378,-36.883894,100 174.910448,-36.883644,100 174.9107889,-36.8828482,100 174.9109928,-36.8821359,100 174.9113254,-36.8809516,100 174.9116472,-36.8798274,100 174.91178381066862,-36.87932585774015,100</coordinates>
        </LinearRing>
      </outerBoundaryIs>
    </Polygon>
  </Placemark>
</Document>
</kml>