<?xml version="1.0" encoding="utf-8"?>
<kml xmlns="http://www.opengis.net/kml/2.2">
<Document>
  <name>East Tāmaki Heights (polygon: official_shp)</name>
  <open>1</open>

  <Placemark>
    <name>East Tāmaki Heights (polygon: official_shp)</name>
    <Style>
      <LineStyle><color>ffff0000</color><width>2</width></LineStyle>
      <PolyStyle><color>66ff0000</color><fill>1</fill><outline>1</outline></PolyStyle>
    </Style>
    <Polygon>
      <tessellate>1</tessellate>
      <altitudeMode>relativeToGround</altitudeMode>
      <outerBoundaryIs><LinearRing><coordinates>174.93386199252194,-36.92740100071767,100 174.93385300538043,-36.927428001617095,100 174.93385200004843,-36.92748400556143,100 174.9338480041889,-36.927517003603796,100 174.93384899721266,-36.92760699764824,100 174.93384500019448,-36.92762000104958,100 174.93384499533215,-36.9276410016499,100 174.93383199715595,-36.92768800574943,100 174.93382199201903,-36.92770200019844,100 174.93377299774752,-36.92785900324297,100 174.93377499164984,-36.927890996113696,100 174.93379199380672,-36.92794900242041,100 174.93380000448093,-36.92799900641838,100 174.9338120016157,-36.928019992713814,100 174.93381200561208,-36.92802699312251,100 174.93380200413137,-36.92804300013511,100 174.933801993758,-36.92807999997546,100 174.93380100211132,-36.92810100222448,100 174.93375499974633,-36.92821500641075,100 174.9337190023449,-36.92828199755734,100 174.9336899949033,-36.92843200086375,100 174.93367899796826,-36.92846699755059,100 174.9336559922414,-36.928573991746454,100 174.93365199449678,-36.9285819928828,100 174.93364100505278,-36.92861599890434,100 174.93356999175842,-36.92870500419485,100 174.9335600061217,-36.928834997777926,100 174.93349100202914,-36.92904499998476,100 174.93349000676722,-36.92914500389255,100 174.93341400079197,-36.92930899644229,100 174.93341300507254,-36.92932299827919,100 174.93336499741642,-36.92942900068727,100 174.93329399435717,-36.92965799527451,100 174.93316599276022,-36.9298559979472,100 174.9331659917833,-36.92989400258868,100 174.9331660003185,-36.92991300656505,100 174.9331569991174,-36.92994200403834,100 174.93305800738676,-36.93012099614279,100 174.93307699613044,-36.930154000307375,100 174.93307100524314,-36.930159992406786,100 174.93304300752325,-36.93017999221619,100 174.93301699595534,-36.93021799759567,100 174.93300999247268,-36.93023799360216,100 174.9329939969678,-36.93026299766081,100 174.93300199688585,-36.930302005895854,100 174.9329909927879,-36.930333007127274,100 174.9329789989658,-36.930347005039266,100 174.932966992702,-36.93039300144889,100 174.93295999761378,-36.93043199872619,100 174.93296499750969,-36.93045699897592,100 174.93296399891844,-36.93046400128376,100 174.93296500327102,-36.9304790061603,100 174.9329349943829,-36.930593002020835,100 174.9329309951161,-36.9306769997846,100 174.9329380011457,-36.93070199441535,100 174.9329370064773,-36.93071599713088,100 174.93293999187304,-36.93073200355916,100 174.93293100435847,-36.93080199685979,100 174.93292500238124,-36.93080199632486,100 174.93292400378323,-36.93080899863221,100 174.93292400770994,-36.93081599904016,100 174.93292400080654,-36.93082199286157,100 174.93292299776837,-36.93082699703773,100 174.9329239948991,-36.93083300425742,100 174.93292399570782,-36.93084299255753,100 174.93292399253178,-36.93085100074523,100 174.9329250064739,-36.93085700678991,100 174.93292499686225,-36.93086600472033,100 174.93292500854707,-36.93087700140877,100 174.93292399528747,-36.930886001256845,100 174.9329250061577,-36.9308949969955,100 174.932925006277,-36.93090500243161,100 174.93292499666563,-36.930914000361945,100 174.9329250077185,-36.93091999389095,100 174.93292500120236,-36.93092600302822,100 174.9329229925643,-36.930933998797784,100 174.93292300249487,-36.930939992345024,100 174.93292299595586,-36.93094600058134,100 174.93292300703146,-36.93095199501126,100 174.93291600766037,-36.93096900130026,100 174.93290900077366,-36.93098699915178,100 174.93290100157827,-36.9310010032303,100 174.93289200278275,-36.93101699204095,100 174.93288399584813,-36.93102700073886,100 174.93288100225357,-36.93105000672828,100 174.9328790003333,-36.93107200333101,100 174.93287500711457,-36.93109699315179,100 174.9328720026858,-36.93111899255435,100 174.9328690018684,-36.931133000887144,100 174.932867993039,-36.931143998865785,100 174.93286700767618,-36.93115899286909,100 174.93286499252974,-36.93117299867582,100 174.93286400445598,-36.93119099678803,100 174.93286499797523,-36.93120499507747,100 174.93286500642765,-36.93122399815112,100 174.93286400483663,-36.93124399468659,100 174.93286399470406,-36.93125799489321,100 174.93286299672553,-36.93127000035907,100 174.93286100822382,-36.9312799940029,100 174.93285899195183,-36.93129399982765,100 174.93285699805122,-36.93131000259018,100 174.9328570016772,-36.931326992216555,100 174.932858006005,-36.93134199619128,100 174.93286300253268,-36.931354993756955,100 174.9328709961701,-36.93136699255254,100 174.9328790077888,-36.93137899195612,100 174.93288800215552,-36.93138900599956,100 174.93289199774566,-36.93139900137242,100 174.9328990002258,-36.93140700727614,100 174.93291200602962,-36.93142199884181,100 174.93292299635152,-36.93143600383558,100 174.93293599616214,-36.93145200225875,100 174.93294699361795,-36.93146500037123,100 174.9329569934244,-36.93147699354027,100 174.93296600540504,-36.93148699286967,100 174.93297400599297,-36.931492998737504,100 174.93299000518044,-36.931507998344905,100 174.9330040080349,-36.93151899168246,100 174.93301900669042,-36.931531005312436,100 174.9330419925085,-36.93154600383257,100 174.93305700231068,-36.93155899159168,100 174.933075992663,-36.93157400017312,100 174.93309499726882,-36.93158699499393,100 174.9331120065446,-36.93160100111957,100 174.9331320065532,-36.93161500001046,100 174.93315099434486,-36.93162799509572,100 174.93316599265788,-36.93163999338967,100 174.9331780028992,-36.93164899300467,100 174.93318900020574,-36.93165700505187,100 174.93320100714934,-36.93166400741635,100 174.93321099621022,-36.93167499487638,100 174.93322400299948,-36.93168499944458,100 174.93323100884498,-36.93169500257457,100 174.93324100211808,-36.931703001221166,100 174.9332509926991,-36.93171400397514,100 174.9332659917016,-36.93173100541343,100 174.93327799507378,-36.93174599793623,100 174.9332899958037,-36.93176399636775,100 174.9332999930572,-36.93177899541473,100 174.93330999513012,-36.93179600700628,100 174.93331799333686,-36.93181000389809,100 174.93332499121576,-36.93182600085948,100 174.93332899772395,-36.93183700280081,100 174.9333309976704,-36.93184799415166,100 174.9333350074876,-36.93186099334053,100 174.9333389978048,-36.931876997812346,100 174.93334299745106,-36.93189399357244,100 174.93334400829352,-36.931908006895355,100 174.9333459947178,-36.93192099576762,100 174.9333469958698,-36.93193400338692,100 174.93334799902655,-36.931939002839414,100 174.9333489924919,-36.9319429965884,100 174.93334999564888,-36.931947996040854,100 174.93335199204103,-36.93195200320234,100 174.9333539917181,-36.931958006710644,100 174.93335500201786,-36.931962000185436,100 174.93335599436165,-36.9319659939526,100 174.93335800156856,-36.93197100679916,100 174.93335799134994,-36.931975001568844,100 174.93336000419015,-36.93197899314008,100 174.93336099804367,-36.931983002204866,100 174.93336300486445,-36.93198799973535,100 174.9333629946689,-36.93199199540595,100 174.93336500036781,-36.93199699295465,100 174.93336599422187,-36.93200100201937,100 174.93334900753447,-36.93200900283662,100 174.9333489940308,-36.93201100125946,100 174.933348997361,-36.93201299940817,100 174.9333360026139,-36.93201400595602,100 174.93330899714906,-36.93213400437234,100 174.93331000702332,-36.932190994846366,100 174.9333069986728,-36.93234499197818,100 174.93330299168312,-36.932457996693095,100 174.93330399153862,-36.93246099889775,100 174.93330200210997,-36.93249899444071,100 174.93329500371956,-36.93253599357672,100 174.93329899385907,-36.93301200198554,100 174.93333000524262,-36.933070004620454,100 174.93333199172633,-36.93308299439069,100 174.93333900410573,-36.93309200596384,100 174.93334100028397,-36.93310600143713,100 174.9333490064294,-36.933123994598276,100 174.93335799277997,-36.93317300567784,100 174.9333630057146,-36.93318100068285,100 174.9334130003132,-36.93341699928251,100 174.9334089944455,-36.933502003892016,100 174.93346400004748,-36.93363500036314,100 174.93347300123102,-36.93363900521531,100 174.93349200042263,-36.93367300055272,100 174.93350200482962,-36.933682005752374,100 174.9335560081848,-36.93377199630596,100 174.93356100722266,-36.93378699199547,100 174.93357799454512,-36.9338699936133,100 174.93359699985527,-36.93392599699761,100 174.9336110074588,-36.93395399517434,100 174.93372500803324,-36.93412499521821,100 174.9338539994332,-36.93431200428299,100 174.9339290053472,-36.934381005376544,100 174.93397599279962,-36.93444999683101,100 174.934000003142,-36.93450499657571,100 174.93401000769728,-36.93451400082553,100 174.93401299659072,-36.9345220008285,100 174.9340199919893,-36.93453099821244,100 174.9340419965353,-36.93454799628321,100 174.93407299242736,-36.934563007412386,100 174.93411300018974,-36.93457000330432,100 174.93412300104885,-36.93457699498159,100 174.93414799157267,-36.934643004438456,100 174.93416699924396,-36.93467100581324,100 174.93417899548888,-36.934682003745195,100 174.9341890005305,-36.934686006608004,100 174.93421999628634,-36.934720995211585,100 174.93430399880907,-36.934776995926136,100 174.9343329959171,-36.93481099858053,100 174.93434599397523,-36.934830000921146,100 174.93437599929638,-36.934923998986505,100 174.93439300319878,-36.9349389964364,100 174.93441700301815,-36.93494999616319,100 174.9344259983542,-36.93496499700283,100 174.93446000468086,-36.9349999941732,100 174.934469992867,-36.935019004078086,100 174.93448700685445,-36.935039994151865,100 174.93451200314863,-36.935090004294814,100 174.93455800176264,-36.93515199762564,100 174.9346019981669,-36.93525900157345,100 174.93461199879485,-36.93527099637584,100 174.93465800553219,-36.93530399713248,100 174.93467199285342,-36.93532499503541,100 174.93478500475814,-36.93542599371408,100 174.93479699561308,-36.935432996165915,100 174.93480899656495,-36.93544599215497,100 174.9348139914694,-36.935448999543496,100 174.93500800253975,-36.93556499711304,100 174.93501900244698,-36.93556500170769,100 174.93511100156798,-36.93559999718978,100 174.93511999971,-36.93560200466136,100 174.93520400527532,-36.93563999381047,100 174.93521499171845,-36.93564199590618,100 174.93527000111726,-36.93566100557925,100 174.93536299583153,-36.935681998127514,100 174.93546099731103,-36.935721997799504,100 174.93547399343782,-36.93572599325196,100 174.93556499336603,-36.93575800240551,100 174.93562199446504,-36.935763997896345,100 174.93564000611394,-36.93576799628631,100 174.9357449966722,-36.93577500564695,100 174.9357610016419,-36.93577899257083,100 174.9358070032425,-36.93578499966382,100 174.93587000696505,-36.93580600309668,100 174.93588200815574,-36.93581899896949,100 174.9358930014423,-36.93582499729216,100 174.93590399327005,-36.935833999698815,100 174.9359620010297,-36.935907996758104,100 174.9359680002451,-36.935921006666035,100 174.93599299636472,-36.935950992106804,100 174.93600800184512,-36.93597999398607,100 174.93608799210043,-36.93604899800094,100 174.9361190026599,-36.9360999993888,100 174.9361319934711,-36.936115006139524,100 174.93614799528598,-36.93614499761212,100 174.93615700114705,-36.936156002639855,100 174.93616800499282,-36.93616299220292,100 174.93619199724031,-36.9362159935574,100 174.93619099181421,-36.93622400275655,100 174.93620500743987,-36.93624600676825,100 174.9362100006916,-36.93629499707532,100 174.9362359915149,-36.936371998313334,100 174.9362439977444,-36.936417992203424,100 174.93624999733024,-36.936425999827456,100 174.9362500015847,-36.93643300022024,100 174.93625699289151,-36.93643999933018,100 174.93626100223273,-36.93646599257241,100 174.93625800780785,-36.93647899320756,100 174.93624400287896,-36.936490998999226,100 174.9362110073003,-36.93653100538485,100 174.93620599650825,-36.936548005559466,100 174.93622300125242,-36.936667001086356,100 174.93623199506303,-36.93668999370412,100 174.93623900693873,-36.93675499167066,100 174.93625000633384,-36.93677799484197,100 174.93626900323704,-36.93685600512218,100 174.93627200585357,-36.93691799320527,100 174.93630799423076,-36.93700000397999,100 174.93632200541336,-36.93701499316317,100 174.93638600714138,-36.93706500125214,100 174.93653299481696,-36.93717099610552,100 174.93654000757374,-36.93717999214601,100 174.93655899912784,-36.93723599521454,100 174.93660000158172,-36.93735900393178,100 174.93660700462615,-36.93736699426621,100 174.9366500078312,-36.93744000540681,100 174.93666599823308,-36.93748700196495,100 174.93671799270268,-36.93758599443532,100 174.9367650020819,-36.93777200657928,100 174.93677400784404,-36.93778299623331,100 174.93679199713787,-36.93785399264189,100 174.9367950018785,-36.93786499636682,100 174.9368409923919,-36.9379769979531,100 174.9368440016287,-36.93802800526066,100 174.93683400303675,-36.938196004551244,100 174.9368320033067,-36.938218002050775,100 174.93684100904076,-36.93825200569825,100 174.93683699477288,-36.93830299959556,100 174.9368280032454,-36.93832299939004,100 174.93682599896087,-36.93834299876352,100 174.93681899693507,-36.93836299404239,100 174.93682599679286,-36.938439995765975,100 174.93681999435677,-36.93848599189521,100 174.93680900624503,-36.93850700398077,100 174.93679999307352,-36.93854300324449,100 174.936789005816,-36.938597002285945,100 174.93678500881163,-36.93861000576572,100 174.9367919957515,-36.938666007223134,100 174.9367770076476,-36.93873099628315,100 174.9367900073534,-36.93881600559158,100 174.9367880062059,-36.93885599862674,100 174.93678099276772,-36.938870001292045,100 174.93675700736804,-36.939171999047076,100 174.93674399849053,-36.93921799770176,100 174.9367419950318,-36.93924299841591,100 174.9367209982519,-36.939392997701766,100 174.93671999439712,-36.939444000164045,100 174.93670700126347,-36.939535995002494,100 174.93670500576548,-36.93956499198439,100 174.9366899942013,-36.93964099359019,100 174.93668900565692,-36.93964900341528,100 174.93744200858293,-36.93987200322093,100 174.93772599751838,-36.93995700357382,100 174.93711300871215,-36.94051600496155,100 174.9370540051012,-36.94056999789841,100 174.93687599371262,-36.94066800001255,100 174.93626800091425,-36.94100200057971,100 174.93623999824402,-36.94101699897364,100 174.93623699258922,-36.9410190038302,100 174.93620399700123,-36.94123400091331,100 174.93613299241488,-36.94126200342582,100 174.93612999357603,-36.94126800456713,100 174.9361259916884,-36.941273992322856,100 174.93612299282577,-36.941279992563075,100 174.93611900818328,-36.94128599626088,100 174.93611599248382,-36.9412919967755,100 174.93611299364252,-36.941297997916415,100 174.93610900263184,-36.94130499225495,100 174.93610600378955,-36.9413109933957,100 174.93610300492398,-36.941316993635475,100 174.93610099188345,-36.94132299221952,100 174.93609899721133,-36.941329006727535,100 174.93609700212846,-36.94133500501866,100 174.9360950059229,-36.94134100332806,100 174.9360929940036,-36.941347001893696,100 174.9360920015588,-36.94135299735366,100 174.93608999600573,-36.941358005278204,100 174.9360890035606,-36.941364000738155,100 174.93608799425658,-36.941369995571705,100 174.93608700185678,-36.941375992833514,100 174.9360859918634,-36.941382004803124,100 174.9360850005401,-36.941388000244736,100 174.93608399762522,-36.94139300533816,100 174.93608299429977,-36.94139799421473,100 174.93608299512385,-36.94140299555789,100 174.93608199223146,-36.94140800155223,100 174.93608200357016,-36.94141399506373,100 174.93608099469841,-36.941420007015,100 174.93608100493745,-36.94142600144571,100 174.9360809923158,-36.94143300030604,100 174.93608100706754,-36.94144099196109,100 174.93608100761608,-36.94145099556657,100 174.93608099137438,-36.94146100124847,100 174.93608099309108,-36.9414710066375,100 174.93608099778766,-36.94148299305229,100 174.93608200555838,-36.9414949937538,100 174.93608199270741,-36.941506996678235,100 174.93608199781485,-36.941518999309785,100 174.93608300556366,-36.94153099911026,100 174.9360829938355,-36.941543002016324,100 174.9360840086636,-36.941553994940584,100 174.9360839958134,-36.94156599786489,100 174.93608499421666,-36.94157700728049,100 174.93608500528134,-36.941588003054065,100 174.93608599619606,-36.9416000031289,100 174.93608600726105,-36.941610998902426,100 174.9360870052778,-36.94162199300198,100 174.93608799507115,-36.94163399309502,100 174.93608800764667,-36.94164500416609,100 174.93608900454203,-36.941655998283856,100 174.93609000292497,-36.941667006798255,100 174.93609200358657,-36.94167799806646,100 174.9360930004831,-36.94168899218411,100 174.93609500153354,-36.94169999876811,100 174.93609700258463,-36.941711005352026,100 174.93609800653817,-36.941720991692485,100 174.9361000075904,-36.94173199827631,100 174.93610200864325,-36.941743004860044,100 174.9361039988167,-36.941753004860466,100 174.9361049957164,-36.941763998977805,100 174.936106996771,-36.94177500556136,100 174.93610800072707,-36.94178499190157,100 174.93610899167214,-36.94179699287659,100 174.93610899680868,-36.94180899640841,100 174.9361090018769,-36.94182099723739,100 174.93610999916632,-36.94183200667043,100 174.93611000389282,-36.941843993985344,100 174.93611100826104,-36.94185399654223,100 174.93611199574798,-36.94186399757177,100 174.93611399939377,-36.9418720009556,100 174.93611599211414,-36.9418789959543,100 174.93612000622622,-36.941884003953135,100 174.9361239986008,-36.941886999686325,100 174.93612900814247,-36.94188799325059,100 174.936134007237,-36.94188799734923,100 174.93613999211863,-36.941887997989575,100 174.93614599385904,-36.94188799925601,100 174.93615099290793,-36.941888001552044,100 174.93615600249555,-36.94188899691703,100 174.936159994849,-36.94189199174803,100 174.9361640078422,-36.94189699976358,100 174.93616700435916,-36.941903992811966,100 174.9361690020341,-36.941913002151445,100 174.93617100271507,-36.94192399341738,100 174.93617300378432,-36.94193499999914,100 174.93617399471975,-36.94194700007204,100 174.9361750024916,-36.94195899987034,100 174.93617500759407,-36.941971001599676,100 174.93617499478378,-36.94198300542373,100 174.9361750058641,-36.94199400119619,100 174.936173997461,-36.942005000075255,100 174.93617199866202,-36.94201400158482,100 174.93616899687285,-36.94202299241232,100 174.93616600181335,-36.9420310070138,100 174.9361620032844,-36.94203899201348,100 174.93615799921005,-36.94204800008762,100 174.93615400702228,-36.942054993545206,100 174.93614900625317,-36.94206299759318,100 174.93614500813138,-36.942070998809186,100 174.93614099205033,-36.94207900031793,100 174.93613699394976,-36.94208700243463,100 174.93612800010976,-36.94209699679438,100 174.93611799319422,-36.94210600542062,100 174.93610900047196,-36.94211599976074,100 174.9360990028763,-36.94212599786919,100 174.9360899996796,-36.94213500184162,100 174.93608000320143,-36.94214499993029,100 174.93607099890068,-36.94215400482062,100 174.93606199416456,-36.94216299259255,100 174.93605400112094,-36.94217100397303,100 174.9360460065428,-36.942178999154486,100 174.9360380025936,-36.94218600304982,100 174.93603000462244,-36.94219200098782,100 174.9360229935864,-36.94219799635077,100 174.9360160057298,-36.94220299989692,100 174.93600900103627,-36.94220800371723,100 174.93600199595417,-36.94221299222123,100 174.93599599390907,-36.942217993210164,100 174.9359900038873,-36.942224001664684,100 174.93598399437326,-36.94222999421321,100 174.93597899355262,-36.942237997353715,100 174.93597399163136,-36.942246001413274,100 174.93597000395047,-36.94225499299033,100 174.9359659923755,-36.942264992618824,100 174.93596300179672,-36.94227500443994,100 174.9359600033848,-36.94228599340617,100 174.93595700529127,-36.942296994985426,100 174.93595300346868,-36.94230800121507,100 174.9359490027674,-36.942319007426285,100 174.93594399785755,-36.94232999936809,100 174.93593799663986,-36.942340002597994,100 174.93593099240374,-36.942349994242754,100 174.93592199891714,-36.942360004804996,100 174.93591199492008,-36.94237099444081,100 174.935900994568,-36.94238099356196,100 174.93588999540384,-36.94239099536666,100 174.9358789950688,-36.94240099538684,100 174.9358689985062,-36.94241099255817,100 174.93586000502728,-36.94242100401699,100 174.93585199697546,-36.94243099760436,100 174.935845995761,-36.94244100173097,100 174.9358420020967,-36.94245100016197,100 174.93584000327186,-36.94246000256773,100 174.9358390082683,-36.942469003927656,100 174.9358389915903,-36.94247899339197,100 174.9358400022819,-36.942488004409064,100 174.93584099687246,-36.94249700036643,100 174.9358420011952,-36.94250700202439,100 174.93584400819537,-36.94251700175384,100 174.93584499570554,-36.942527004587184,100 174.935845006742,-36.94253800036011,100 174.93584500094238,-36.942548996407545,100 174.9358459993305,-36.94256000582405,100 174.93584600289836,-36.94257199315707,100 174.93584700467258,-36.94258499981597,100 174.93584699179223,-36.942597002739376,100 174.93584800067126,-36.94260900342307,100 174.9358479982581,-36.9426219967128,100 174.93584800333676,-36.942633999343315,100 174.93584800727027,-36.94264600109114,100 174.93584799551292,-36.94265800399613,100 174.93584699642545,-36.94266999415846,100 174.93584599770261,-36.942681998735736,100 174.93584399632294,-36.942694006142496,100 174.93584300811196,-36.94270700288797,100 174.93584100634368,-36.94271899497874,100 174.93583899408523,-36.94272999580216,100 174.93583799648317,-36.94274200036103,100 174.93583600816424,-36.94275199493477,100 174.93583500603094,-36.94276200136854,100 174.93583399304302,-36.942771002120026,100 174.93583300399533,-36.94277899662186,100 174.93583199468029,-36.94278499235394,100 174.93582999993103,-36.94279100595681,100 174.93582900747464,-36.94279700231528,100 174.93582900830904,-36.94280200455874,100 174.93582799448572,-36.94280600306669,100 174.9358269922515,-36.942810991922705,100 174.93582699947808,-36.94281500442621,100 174.93582799207067,-36.94281899635612,100 174.9358280000093,-36.94282299262447,100 174.93583000657088,-36.94282800542594,100 174.93583100030907,-36.942831998238454,100 174.93583300307523,-36.94283499758061,100 174.9358349999054,-36.94283900468141,100 174.93583800010637,-36.94284299271753,100 174.9358400028959,-36.94284599296049,100 174.9358440061665,-36.94284999438376,100 174.93584699628897,-36.94285300736918,100 174.93585100551903,-36.942856001934466,100 174.9358549919545,-36.94286000363186,100 174.93586000386688,-36.94286299626811,100 174.93586700689357,-36.94286599879851,100 174.93587399200777,-36.94286900342317,100 174.93588200813917,-36.94287299258822,100 174.93588999591356,-36.94287599438203,100 174.9358969989654,-36.942878997811505,100 174.93590400089533,-36.94288200125886,100 174.9359100001439,-36.94288500663497,100 174.93591499520096,-36.94288799864238,100 174.93591799240795,-36.94289000474987,100 174.9359189984777,-36.94289200006292,100 174.93591899593045,-36.94289500506384,100 174.93591799665896,-36.942897005136324,100 174.9359159995636,-36.942898001199595,100 174.93591399763272,-36.94290000410223,100 174.9359110083458,-36.94290199336187,100 174.93590700590877,-36.9429029941843,100 174.93590299639115,-36.942905001882615,100 174.9358990044444,-36.942906993972024,100 174.93589499492637,-36.942909001670074,100 174.9358909924659,-36.94291000159104,100 174.9358870005413,-36.94291199458101,100 174.93588100251716,-36.942914006762976,100 174.9358749932272,-36.94291499704556,100 174.93586999788482,-36.94291700729808,100 174.93586399947216,-36.94291900416329,100 174.9358580010592,-36.94292100102821,100 174.93585300530552,-36.94292299506319,100 174.93584799312575,-36.942925005589345,100 174.93584399407243,-36.94292800365206,100 174.93584100480535,-36.94292999381096,100 174.93583899576763,-36.942933002687475,100 174.9358369927114,-36.942935005607175,100 174.93583599343725,-36.942937005679035,100 174.93583600733547,-36.94293999508959,100 174.93583399829726,-36.94294300396602,100 174.93583300243137,-36.94294700218114,100 174.9358300035085,-36.94295300331584,100 174.93582700458515,-36.94295900445049,100 174.9358220021935,-36.9429669922877,100 174.935814998253,-36.94297699834169,100 174.93580699501234,-36.94298900356601,100 174.9357979985211,-36.94300200470651,100 174.93578800868718,-36.94301599815925,100 174.93577799493139,-36.94303099876175,100 174.93576699534682,-36.943046001917935,100 174.93575699207196,-36.94306199378611,100 174.93574600333247,-36.94307800262279,100 174.93573500373512,-36.943093005776284,100 174.93572499701918,-36.943106998597756,100 174.93572099639462,-36.94312799399127,100 174.93572500687378,-36.94313600702064,100 174.93573000276973,-36.94314400127883,100 174.93573400310936,-36.943150992390436,100 174.9357390065001,-36.94315799598901,100 174.93574300610655,-36.94316500243446,100 174.93574800200636,-36.94317299669175,100 174.9357519952442,-36.94318099377768,100 174.9357559923,-36.94319100522356,100 174.93575999233047,-36.94320299769473,100 174.9357640032617,-36.94321599764982,100 174.93576800074234,-36.94323099512153,100 174.93577099894512,-36.94324799266441,100 174.9357750036312,-36.943267001738086,100 174.93577799813997,-36.94328700339885,100 174.93578199648326,-36.943307004013825,100 174.9357849944035,-36.94332900381739,100 174.93578799943026,-36.94334999764573,100 174.93579100823158,-36.94337300403204,100 174.93579400615786,-36.94339500383499,100 174.93579600850157,-36.943415999591174,100 174.9357980037879,-36.943438003124086,100 174.935799991561,-36.94346099641501,100 174.93580199770477,-36.943484005629806,100 174.93580400234,-36.94350699954685,100 174.93580600807638,-36.94352999254449,100 174.93580700408782,-36.943553996148346,100 174.93580900276845,-36.94357799692256,100 174.93580899494557,-36.94360200157213,100 174.93580899424992,-36.943625001147566,100 174.9358090032869,-36.94364900642337,100 174.9358079924079,-36.94367299858632,100 174.93580699875264,-36.94369700579057,100 174.93580600473229,-36.94372099857976,100 174.9358040079956,-36.94374499239656,100 174.93580200419953,-36.94376999399008,100 174.93579900407798,-36.943794006871364,100 174.93579600356722,-36.94381800443663,100 174.93579200033764,-36.94384200302939,100 174.93578800308768,-36.94386499566536,100 174.93578300355097,-36.943888006446514,100 174.93577600309266,-36.943909999830105,100 174.93576900754854,-36.94393400665395,100 174.9357600051211,-36.94395800293741,100 174.93574999886948,-36.943982001166795,100 174.9357410027782,-36.94400500590729,100 174.93573099313082,-36.94402700689317,100 174.93572200075008,-36.94404700841537,100 174.93571400123972,-36.944065998704815,100 174.9357070073872,-36.94408199828213,100 174.93570299199345,-36.94409500202055,100 174.9357000009543,-36.94410499942021,100 174.93569799867188,-36.94411200367992,100 174.93569799950157,-36.944117005922585,100 174.93569799541493,-36.94411999472463,100 174.93569899213023,-36.94412099875339,100 174.93570099862623,-36.94412099397841,100 174.93570300553264,-36.94412100542023,100 174.93570500112935,-36.944119993161195,100 174.93570700166538,-36.944120995243665,100 174.93570799725836,-36.94412199929066,100 174.93571000828345,-36.94412399264022,100 174.9357120076744,-36.94412499383997,100 174.9357140070882,-36.944125995940624,100 174.93571599713542,-36.944126006755816,100 174.93571899922475,-36.94412700602743,100 174.93572099937353,-36.944127992793746,100 174.93572299878753,-36.944128994894236,100 174.93572499817876,-36.94412999609377,100 174.93572600577133,-36.94413200670533,100 174.93572699501743,-36.9441340022938,100 174.935727002954,-36.94413799856147,100 174.93572799599494,-36.944142007608825,100 174.93572700008784,-36.94414600492196,100 174.9357270005319,-36.94415099184863,100 174.93572599756536,-36.944155996938555,100 174.93572500508785,-36.94416199329561,100 174.9357240031979,-36.94416699656535,100 174.93572300025374,-36.94417200255618,100 174.93572099420018,-36.94417699425824,100 174.93571999829234,-36.94418099157134,100 174.93571799860857,-36.94418499263265,100 174.9357170031337,-36.944189007063486,100 174.9357150045492,-36.94419300720552,100 174.93571200177809,-36.94419699487885,100 174.93570999158166,-36.94420000377198,100 174.93570799301935,-36.944204004814836,100 174.93570600039396,-36.94420699809918,100 174.93570300399222,-36.9442099951316,100 174.93570100540646,-36.944213995273415,100 174.93569899635446,-36.944217005049005,100 174.93569700372836,-36.94421999833322,100 174.93569499316598,-36.94422299281113,100 174.93569300092722,-36.94422600141118,100 174.93569200165672,-36.94422800238296,100 174.93568999219357,-36.94423099594157,100 174.9356879999772,-36.94423400544248,100 174.93568599647392,-36.944235992143476,100 174.93568399790948,-36.94423999318597,100 174.93568100187042,-36.94424300463285,100 174.93567799313536,-36.944247999162954,100 174.93567400490724,-36.94425200470548,100 174.93567100208617,-36.944255990575996,100 174.93566699592114,-36.94425999731205,100 174.93566300022133,-36.94426499441418,100 174.93565900600825,-36.94427000591287,100 174.93565400760718,-36.9442750049423,100 174.935649001712,-36.944280994630546,100 174.9356429969311,-36.94428900060592,100 174.93563700263712,-36.94429799784815,100 174.9356289947575,-36.94430800673991,100 174.9356210007455,-36.944321004140406,100 174.9356119965815,-36.94433499592853,100 174.9356020005884,-36.94434999622621,100 174.93559100417139,-36.94436699661151,100 174.93557900507074,-36.94438399982378,100 174.93556800268232,-36.9444020070647,100 174.93555699281703,-36.94442100586467,100 174.93554699271047,-36.94443899496023,100 174.9355369929869,-36.94445699937092,100 174.93552900687158,-36.944473993033576,100 174.93552100315864,-36.94449100140352,100 174.9355139957957,-36.944508999388184,100 174.9355070063887,-36.9445269970797,100 174.93550099121398,-36.94454400096918,100 174.9354950045051,-36.944561996733704,100 174.93549000400324,-36.9445800043602,100 174.93548499377044,-36.94459700628607,100 174.93548100305418,-36.94461400511012,100 174.9354770014852,-36.944629998251905,100 174.935474000706,-36.94464400572104,100 174.93547099841578,-36.94465799789251,100 174.9354690003401,-36.94467200343537,100 174.93546699139,-36.94468500239513,100 174.93546599371768,-36.94469700694955,100 174.93546499455792,-36.94470899710728,100 174.93546500555414,-36.944719992878,100 174.93546600390727,-36.94473100139372,100 174.93546700824635,-36.94474100395281,100 174.9354679946267,-36.944751006804644,100 174.93547100545663,-36.94476100369114,100 174.9354740065587,-36.944769994877106,100 174.93547799873676,-36.944777991986946,100 174.93548299623234,-36.9447860015487,100 174.93548900242138,-36.94479300322727,100 174.93549499177487,-36.94480000517998,100 174.93550099794336,-36.94480700595692,100 174.9355079970683,-36.94481299820568,100 174.93551400438426,-36.94481999986453,100 174.93551999371942,-36.94482700091488,100 174.93552499723035,-36.94483400541894,100 174.93553100340432,-36.944841006194174,100 174.935536006484,-36.94484799357993,100 174.9355410028908,-36.944856004058074,100 174.93554600599523,-36.94486299234426,100 174.9355519953596,-36.94486999429372,100 174.93555599502298,-36.94487699984053,100 174.93556099851781,-36.94488400344187,100 174.93556599454212,-36.94489199860289,100 174.93556999533047,-36.944899004130825,100 174.93557400550768,-36.944907001844925,100 174.93557699501798,-36.94491500177879,100 174.93557999611645,-36.944923992060396,100 174.9355839992125,-36.94493299664982,100 174.935586993229,-36.944942993806954,100 174.93558900774545,-36.944952001976084,100 174.93559100506084,-36.94496099600469,100 174.93559300159635,-36.944970003565565,100 174.93559500640666,-36.94497800693512,100 174.93559499265487,-36.94498500671199,100 174.93559600667814,-36.94499099829389,100 174.93559500477124,-36.94499600156244,100 174.93559300510702,-36.94500000442379,100 174.9355909955982,-36.945002997080124,100 174.93558800665596,-36.94500500345137,100 174.93558500042084,-36.94500699207834,100 174.93558199347353,-36.94500899694037,100 174.93557800179812,-36.94501100433766,100 174.9355749956081,-36.94501299476626,100 174.93557299246987,-36.94501499678169,100 174.9355709938809,-36.94501899782254,100 174.93556899414648,-36.94502299798072,100 174.9355679982444,-36.94502699619348,100 174.9355660030132,-36.945032993575225,100 174.93556399731682,-36.945038000590806,100 174.93556300484101,-36.945043997847286,100 174.93556200185455,-36.94504900293576,100 174.9355620026781,-36.94505400517793,100 174.9355620031141,-36.94505899210421,100 174.93556300664827,-36.94506399241931,100 174.93556400675587,-36.94506699369063,100 174.93556699695824,-36.94507000667985,100 174.93557100629792,-36.94507300125049,100 174.93557599214645,-36.94507500288298,100 174.93558099483198,-36.94507700424074,100 174.93558700728923,-36.9450779958943,100 174.93559300332032,-36.94507900403891,100 174.93559800600653,-36.945081005395906,100 174.93560299781709,-36.945082000169776,100 174.93560800052654,-36.94508400242729,100 174.93561099628164,-36.945085992341035,100 174.93561399356972,-36.94508799845324,100 174.93561499370247,-36.945091000625,100 174.93561699652346,-36.94509399996828,100 174.9356179966564,-36.945097002139995,100 174.9356190038725,-36.94509899743597,100 174.93561900017204,-36.945102001553536,100 174.93561899761684,-36.94510500655373,100 174.93561899465126,-36.945107995337096,100 174.93561800509914,-36.94511100200865,100 174.93561799166784,-36.94511300042591,100 174.93561700211563,-36.94511600709746,100 174.93561600242214,-36.94511799185186,100 174.93561500311617,-36.945119991922155,100 174.93561299403848,-36.94512300169664,100 174.93561100775807,-36.94512500433915,100 174.9356090057633,-36.945127007237836,100 174.93560700223554,-36.94512899393796,100 174.9356049991181,-36.945130996854886,100 174.93560299600054,-36.94513299977178,100 174.93560000813056,-36.94513500432326,100 174.9355979941369,-36.94513600065714,100 174.93559500516702,-36.94513800612773,100 174.9355910026096,-36.94513900694265,100 174.93558800386336,-36.94514000491091,100 174.9355840013057,-36.9451410057256,100 174.9355810014596,-36.94514200461292,100 174.93557799524189,-36.945143994140764,100 174.9355759995717,-36.94514500459644,100 174.93557400243702,-36.94514600155637,100 174.9355720004179,-36.945148003553534,100 174.93557200382216,-36.94515000169633,100 174.9355720012652,-36.94515300669656,100 174.93557300735847,-36.94515500201121,100 174.9355740074906,-36.9451580041833,100 174.93557599347514,-36.945161003801736,100 174.9355770006911,-36.945162999098045,100 174.93557900465788,-36.94516599932455,100 174.93558099660396,-36.94516799208544,100 174.9355830069197,-36.945170000770325,100 174.9355850000112,-36.945171994413776,100 174.93558699942864,-36.945172995614726,100 174.93559000268058,-36.94517399487,100 174.93559199275518,-36.94517400568647,100 174.93559500196818,-36.94517399808417,100 174.93559699800363,-36.94517300204312,100 174.935600008339,-36.9451729944224,100 174.93560299365475,-36.945173994871084,100 174.93560499307245,-36.94517499607172,100 174.935607003389,-36.94517700475618,100 174.93560999320994,-36.94518000242818,100 174.93561200652167,-36.94518399303844,100 174.9356140067899,-36.94518999738182,100 174.93561600068745,-36.94519699236573,100 174.93561799387336,-36.94520400358473,100 174.93561900191875,-36.94521100112257,100 174.93562100559396,-36.94521900360849,100 174.93562299238727,-36.94522700456699,100 174.93562399298574,-36.94523499456549,100 174.93562499990975,-36.94524199212152,100 174.93562600836682,-36.945249005876065,100 174.93562599464175,-36.94525600655348,100 174.935626005936,-36.94526199916143,100 174.93562500295147,-36.94526700425023,100 174.93562499630926,-36.94527299805193,100 174.935623994447,-36.945278003122404,100 174.9356230019281,-36.94528399857725,100 174.93562199259503,-36.945289995207524,100 174.93562200317706,-36.94529600405059,100 174.935620993821,-36.94530199977991,100 174.93562099805493,-36.94530900016448,100 174.93562199901945,-36.94531700457783,100 174.93562300594468,-36.94532400213375,100 174.9356240069097,-36.94533200654706,100 174.9356250004273,-36.94534100342107,100 174.93562600137003,-36.94534900693339,100 174.93562699486534,-36.94535800290642,100 174.93562899217514,-36.945366996032426,100 174.93562999311877,-36.94537499954466,100 174.93563100347464,-36.94538399614401,100 174.93563300827887,-36.94539199861104,100 174.93553300204204,-36.94556800503084,100 174.9354359955775,-36.945605997559255,100 174.9354259974529,-36.945671996544995,100 174.93543300123744,-36.94568500359486,100 174.93544200333443,-36.94572199790408,100 174.93547199252467,-36.94577100517811,100 174.9354930082542,-36.945822000112,100 174.93549500352466,-36.94584400274135,100 174.93555499181636,-36.94596600628104,100 174.9355590046735,-36.9459989999023,100 174.9355489980687,-36.946210998175566,100 174.93555599945307,-36.94627999265322,100 174.93554200520848,-36.946374003624925,100 174.93555099533467,-36.94642800127462,100 174.93554899246416,-36.946495995190595,100 174.9354949966395,-36.946656991830146,100 174.93549300416157,-36.94672100540196,100 174.935501998832,-36.94677700117622,100 174.93550500635854,-36.946855994971656,100 174.93547100151682,-36.9471650018825,100 174.93546499776323,-36.94718299701771,100 174.9353120067527,-36.947449995055344,100 174.93529199984945,-36.94749199944727,100 174.93523699288338,-36.94758299531023,100 174.93522100654522,-36.94759599588459,100 174.93518299601013,-36.94767299766573,100 174.93515099140913,-36.94779000338642,100 174.93507200436423,-36.947906998901196,100 174.93505800771342,-36.94791999586381,100 174.93500300707328,-36.94794899601572,100 174.93492400286968,-36.94802800162339,100 174.9348530009176,-36.94805699392004,100 174.93481400198877,-36.94807599816694,100 174.93477799544408,-36.9481380027595,100 174.93476000382609,-36.948208993600666,100 174.93474799466455,-36.94823499464085,100 174.93474199780385,-36.94825700044362,100 174.93473000729557,-36.94827499486784,100 174.93471899487415,-36.948301999940426,100 174.93472799358412,-36.94833699524613,100 174.93477400172617,-36.9484189980286,100 174.93478799671374,-36.94857100339238,100 174.93478099247645,-36.948629003985175,100 174.93474299922624,-36.948687993625725,100 174.93461299593642,-36.94875200593026,100 174.934501000407,-36.94883599864998,100 174.9344119954622,-36.948967994294215,100 174.93437599133262,-36.94909800323727,100 174.93437600298188,-36.94911400214704,100 174.9343750069277,-36.94911799854866,100 174.93464999468594,-36.94921100641705,100 174.9374470032849,-36.9501499927784,100 174.9373912995659,-36.95032790222086,100 174.93715550883147,-36.95085971642879,100 174.9369625042162,-36.95167125275437,100 174.93671740805453,-36.952492767920184,100 174.93606860198523,-36.95457689154588,100 174.93483740432458,-36.954333894069656,100 174.93231130413147,-36.95383053692079,100 174.93009299944117,-36.95338449459531,100 174.92975639762912,-36.95331644281556,100 174.929527799433,-36.953270282198154,100 174.92706110022323,-36.95277213423605,100 174.92633570176824,-36.952625513681134,100 174.92592919997634,-36.952543706420236,100 174.92545939455132,-36.9524485739216,100 174.92367890210133,-36.9520889453972,100 174.92381499397615,-36.95161670238142,100 174.92383689185513,-36.951540208596995,100 174.923890900816,-36.9513530139868,100 174.924190794384,-36.95028596256616,100 174.9242267955253,-36.9501570886056,100 174.92427789196554,-36.949970966702544,100 174.9246306991618,-36.94871835034238,100 174.92358947494006,-36.948731543597056,100 174.92226746251555,-36.94849237190529,100 174.92186339232583,-36.94855221473587,100 174.92167010024053,-36.94866011370889,100 174.92159520207153,-36.94864716561773,100 174.92112139306698,-36.94856570179697,100 174.9205975988169,-36.948475708090534,100 174.9201934008646,-36.94840613734835,100 174.91953309812354,-36.948292654103184,100 174.91898659943584,-36.948198426366865,100 174.91872280652163,-36.94815359765304,100 174.91836709584874,-36.948093303688076,100 174.9180415924085,-36.948038124048146,100 174.9175337028508,-36.94794938385943,100 174.91688100802966,-36.947835457311676,100 174.9162063941593,-36.947717641182635,100 174.9161563034544,-36.94790699288626,100 174.9161047973407,-36.9481008613421,100 174.91605700855902,-36.9482814854167,100 174.9160086998021,-36.948462116059495,100 174.9160087057727,-36.94846293705631,100 174.91595869251506,-36.94865075428971,100 174.91588953554304,-36.948911716192356,100 174.91588047186093,-36.948945685916186,100 174.9158097585777,-36.949211693178896,100 174.9157332547013,-36.94949988764339,100 174.91565689166782,-36.94978758406024,100 174.91374110603968,-36.94945715432301,100 174.91337414330323,-36.94939476722465,100 174.91324430436308,-36.94937231805547,100 174.91331071597213,-36.94912566958055,100 174.9131762063823,-36.94910445018434,100 174.91313200463935,-36.94909806199886,100 174.91301890321526,-36.9490815889215,100 174.91296529174792,-36.94907267271028,100 174.91295050540177,-36.949070332327594,100 174.91276940498935,-36.94903883298095,100 174.9127467928462,-36.94903497377296,100 174.91258839344692,-36.94900742385761,100 174.912549493418,-36.94900067874445,100 174.91240729448495,-36.94897601586423,100 174.91235179565825,-36.94896638980192,100 174.91222579711265,-36.94894452207614,100 174.9121542024563,-36.948932098843315,100 174.91204440396473,-36.94891310384228,100 174.9119565914574,-36.94889780783972,100 174.91186330421718,-36.948881602189864,100 174.91174810258073,-36.94886172682208,100 174.9116822069269,-36.948850193054255,100 174.91150119620772,-36.94881878224618,100 174.9114435945013,-36.94880880565718,100 174.91148350566823,-36.948660305774254,100 174.91148639678138,-36.948650310559216,100 174.911521707545,-36.94851818583469,100 174.91153859348202,-36.94845654191346,100 174.91156450873422,-36.94835961411185,100 174.9115904078799,-36.94826276317473,100 174.9116073981072,-36.94820111756343,100 174.91164260407135,-36.94806899358539,100 174.91164980011857,-36.948042537813414,100 174.9116927064076,-36.9478840571822,100 174.9116947988739,-36.94787522309179,100 174.91173519450413,-36.94772547511097,100 174.91174699455513,-36.94768145255873,100 174.91177799681304,-36.94756698079792,100 174.91179920573003,-36.94748768265217,100 174.91187949152882,-36.947418567901295,100 174.91190080740031,-36.94733937617223,100 174.91191049459763,-36.947304095190766,100 174.91194320614372,-36.94718259267484,100 174.91194360686268,-36.94718078900806,100 174.91176790264888,-36.947150369254565,100 174.91157210344926,-36.947116354810795,100 174.91161710194316,-36.94694904100561,100 174.9116999016125,-36.94664078982308,100 174.91174670391084,-36.94646735676128,100 174.9119357055401,-36.94650020505942,100 174.91194289922032,-36.946501378981466,100 174.91211820352981,-36.94653180583871,100 174.91212250574702,-36.94651587077523,100 174.91215560054528,-36.9463925648086,100 174.91218080493775,-36.946300046706085,100 174.91212179775218,-36.946289879447484,100 174.9121645985592,-36.946131384103644,100 174.91217400825334,-36.94609610756736,100 174.9122071017388,-36.94597280340566,100 174.91222620059605,-36.94590233775701,100 174.9122500058698,-36.94581432168591,100 174.912278392695,-36.94570856792527,100 174.91229280388882,-36.945655734402344,100 174.9123353069177,-36.94549716717577,100 174.91231564978315,-36.94549378303089,100 174.91227369360834,-36.94548653362441,100 174.91232159437462,-36.94530905467954,100 174.91233600471332,-36.94525623558425,100 174.9123154967311,-36.945255871015185,100 174.91236300796308,-36.945087567359174,100 174.91241809645672,-36.94489092699118,100 174.9124757036882,-36.94468652989913,100 174.91248430009273,-36.94465125291627,100 174.91261930168747,-36.944434442629216,100 174.91276369348927,-36.94420250472104,100 174.91287310515347,-36.9440263833142,100 174.9129101989944,-36.943966890385546,100 174.91315610401986,-36.94389902230664,100 174.91342820105922,-36.943823783383884,100 174.9135683025907,-36.943785091599366,100 174.91361040209185,-36.94378499707367,100 174.9138401060579,-36.94378472204325,100 174.91391640255335,-36.94378464035265,100 174.91391570453646,-36.943742249444014,100 174.91391499927084,-36.943334095944365,100 174.91391459425023,-36.943208006394826,100 174.91384729249637,-36.943154003233275,100 174.91354779620775,-36.943154275641184,100 174.91303223156163,-36.943116512037044,100 174.91297390776845,-36.943112248558705,100 174.9128118933961,-36.94309182419282,100 174.9127576064803,-36.943095960679145,100 174.91271260258094,-36.943120623656995,100 174.91284900238313,-36.94272128681852,100 174.91286479839457,-36.942664773382226,100 174.91289289386145,-36.94256486373808,100 174.9129001000951,-36.94251366041979,100 174.91300089138326,-36.942527516408894,100 174.91309600460693,-36.942540576017045,100 174.9132374051881,-36.94255992255693,100 174.91325110042354,-36.94249619909001,100 174.91327060621668,-36.94240539312592,100 174.91328099774032,-36.94235490637112,100 174.91331090245095,-36.942214496808695,100 174.91331950347302,-36.94217435621197,100 174.91336850063232,-36.94199984608763,100 174.91337060335385,-36.941992018563404,100 174.9134217996909,-36.941809416153504,100 174.91342819276767,-36.941785917788096,100 174.91346859688173,-36.941642363736534,100 174.91348800691455,-36.94157198658803,100 174.91351499693357,-36.941475333022595,100 174.91353229643767,-36.9414137749612,100 174.91356179413026,-36.94130829588777,100 174.91357660334418,-36.9412555468126,100 174.91360859183206,-36.94114124159979,100 174.91363669321785,-36.94104162640906,100 174.91365540550916,-36.940974205060435,100 174.91369639960485,-36.94082760489771,100 174.913705106429,-36.94079700294199,100 174.9137530038885,-36.94062599664208,100 174.913756196728,-36.94061376665981,100 174.91380055210854,-36.94045544570501,100 174.9136576122009,-36.94042966760187,100 174.91370947505447,-36.940244326935755,100 174.91374340748655,-36.94025047942669,100 174.91391232541903,-36.94028124742275,100 174.91397399738997,-36.9400607938674,100 174.91398479396068,-36.9400627865674,100 174.9140340970556,-36.93988692285509,100 174.91408339996335,-36.93971106002479,100 174.91413280589788,-36.93953519460987,100 174.91400680021292,-36.939512523802044,100 174.91405819536536,-36.939327842164204,100 174.91387209617648,-36.93929426521958,100 174.91389190493268,-36.93922397259726,100 174.91420399244512,-36.93928022233375,100 174.9142518950726,-36.93910878130391,100 174.9142554917504,-36.939095554254926,100 174.91429870626365,-36.93894174363156,100 174.91430479601505,-36.93891978323634,100 174.914345205986,-36.938774695638905,100 174.91435380370987,-36.938743925043575,100 174.91439199764187,-36.93860756540637,100 174.91440310523382,-36.93856806118961,100 174.9144546057717,-36.93838410593401,100 174.91446470728204,-36.9383489099784,100 174.9144657993424,-36.93834458500216,100 174.91452620678697,-36.93812921869782,100 174.91442659801558,-36.93811097440058,100 174.9143257025441,-36.93809250560865,100 174.91410430220398,-36.938051902812774,100 174.91411660329499,-36.938007995398536,100 174.91440710736683,-36.938061357827955,100 174.91446650793438,-36.93785022141161,100 174.91451509591477,-36.93785913243552,100 174.91456580655426,-36.93767796319386,100 174.9145688774993,-36.93766697355496,100 174.9145688932073,-36.93766692823609,100 174.9146161971113,-36.93749769679646,100 174.91448840240977,-36.93747465602195,100 174.91454419584124,-36.93729779511006,100 174.9146663020818,-36.937319666628376,100 174.9146809701791,-36.937317192127516,100 174.9147286068576,-36.93730914581399,100 174.91476919295013,-36.93716487541087,100 174.91478000593784,-36.937125996910055,100 174.91483079531176,-36.93694581682064,100 174.91480165360568,-36.93694054094586,100 174.9146785083383,-36.93691826990848,100 174.9145085955074,-36.93692781658047,100 174.91462600122975,-36.936588874301,100 174.91467560586875,-36.93663162213767,100 174.9149107081181,-36.93667500069685,100 174.91496800129056,-36.93646907333575,100 174.91489380120174,-36.93644450968654,100 174.91494819809947,-36.93624650199742,100 174.91497550385665,-36.936251376624746,100 174.91502159764187,-36.936084149215496,100 174.9150672939597,-36.93591692909896,100 174.9148964969576,-36.935886077551096,100 174.91472500647018,-36.93585510174226,100 174.91476199420953,-36.93570516511866,100 174.91487509916783,-36.93530933623761,100 174.91538809186522,-36.933512846558195,100 174.9154385064353,-36.93307527555447,100 174.9167266070124,-36.93330071797942,100 174.91829540446173,-36.93424328441194,100 174.91870149390476,-36.93469940184821,100 174.91934989430334,-36.93481398155263,100 174.9195741959942,-36.93491612965811,100 174.919947102843,-36.934945557719516,100 174.92018000628406,-36.93496382837198,100 174.9202736067258,-36.93497120962003,100 174.92041299651743,-36.934999643882755,100 174.92054149995752,-36.93503214413132,100 174.92076470127444,-36.935076775278986,100 174.92096409544175,-36.93511665641665,100 174.9211686039172,-36.935109984680864,100 174.92129210457068,-36.935105945703256,100 174.92149300145542,-36.935032944005314,100 174.92165709456583,-36.93510414708758,100 174.9217607959579,-36.935046362948285,100 174.9218677080646,-36.935021602147685,100 174.92191700647118,-36.9348538498693,100 174.92204519874386,-36.93480614588241,100 174.9221711971125,-36.934829999884435,100 174.92241199725802,-36.934875538153385,100 174.92243689397037,-36.934789405076565,100 174.92318860374706,-36.93492386830815,100 174.9237454934745,-36.934958605208074,100 174.92413280435073,-36.93509298314218,100 174.92499859713735,-36.935247953769064,100 174.92504260133887,-36.935255610781724,100 174.92513110117858,-36.93527117816938,100 174.9261935079967,-36.93545774696959,100 174.92666000135168,-36.93554009268711,100 174.92711979946364,-36.93562110132911,100 174.92741860480902,-36.935673757283475,100 174.92821880410776,-36.93581477393787,100 174.9285453979987,-36.93541239481422,100 174.92901700155448,-36.93483099682846,100 174.92936150154836,-36.934830004041956,100 174.93092819099564,-36.934495192304375,100 174.9309779089142,-36.934353896629894,100 174.93053690415923,-36.934095966783175,100 174.93050339524774,-36.933902819296364,100 174.9304649000586,-36.93367953015061,100 174.93041630678658,-36.93339828240721,100 174.93039289684162,-36.93326309342412,100 174.93034610560204,-36.932991926320945,100 174.9304678033824,-36.93295170063547,100 174.9307198008486,-36.93286835371511,100 174.93119679426934,-36.9327103174119,100 174.9315289959849,-36.932600431178834,100 174.93160210538,-36.932576218777456,100 174.93172339245965,-36.93251061581897,100 174.93175800828357,-36.93159090428088,100 174.93179329598647,-36.930654904030106,100 174.93194480553814,-36.92960739356626,100 174.93172199579945,-36.92958659675225,100 174.93097500697897,-36.92951693337395,100 174.93099370565585,-36.92938724982401,100 174.93104340408757,-36.929042636834716,100 174.93109339654586,-36.92869803435287,100 174.93126980623126,-36.92843136702253,100 174.93130299790042,-36.92838158587866,100 174.93160539536188,-36.9279247428082,100 174.93228680779643,-36.92809106884935,100 174.93248769517115,-36.927387715039785,100 174.93349789306643,-36.92739438205921,100 174.93386199252194,-36.92740100071767,100</coordinates></LinearRing></outerBoundaryIs>
    </Polygon>
  </Placemark>

  <Placemark>
    <name>East Tāmaki Heights</name>
    <Point>
      <altitudeMode>relativeToGround</altitudeMode>
      <coordinates>174.92577699157164,-36.94285550230902,100</coordinates>
    </Point>
  </Placemark>

</Document>
</kml>