<?xml version="1.0" encoding="UTF-8"?>
<kml xmlns="http://www.opengis.net/kml/2.2">
<Document>
  <name>East Tāmaki Heights (Polygon: Official_Shp) Section 1</name>
  <Placemark>
    <name>East Tāmaki Heights (Polygon: Official_Shp) Section 1</name>
    <Style>
      <LineStyle><color>ffff0000</color><width>2</width></LineStyle>
      <PolyStyle><color>66ff0000</color></PolyStyle>
    </Style>
    <Polygon>
      <tessellate>1</tessellate>
      <outerBoundaryIs>
        <LinearRing>
          <coordinates>174.91275693518563,-36.94299177886583,100 174.912849,-36.942721,100 174.912865,-36.942665,100 174.912893,-36.942565,100 174.9129,-36.942514,100 174.913001,-36.942528,100 174.913096,-36.942541,100 174.913237,-36.94256,100 174.913251,-36.942496,100 174.913271,-36.942405,100 174.913281,-36.942355,100 174.913311,-36.942214,100 174.91332,-36.942174,100 174.913369,-36.942,100 174.913371,-36.941992,100 174.913422,-36.941809,100 174.913428,-36.941786,100 174.913469,-36.941642,100 174.913488,-36.941572,100 174.913515,-36.941475,100 174.913532,-36.941414,100 174.913562,-36.941308,100 174.913577,-36.941256,100 174.913609,-36.941141,100 174.913637,-36.941042,100 174.913655,-36.940974,100 174.913696,-36.940828,100 174.913705,-36.940797,100 174.913753,-36.940626,100 174.913756,-36.940614,100 174.913801,-36.940455,100 174.913658,-36.94043,100 174.913709,-36.940244,100 174.913743,-36.94025,100 174.913912,-36.940281,100 174.913974,-36.940061,100 174.913985,-36.940063,100 174.914034,-36.939887,100 174.914083,-36.939711,100 174.914133,-36.939535,100 174.914007,-36.939513,100 174.914058,-36.939328,100 174.913872,-36.939294,100 174.913892,-36.939224,100 174.914204,-36.93928,100 174.914252,-36.939109,100 174.914255,-36.939096,100 174.914299,-36.938942,100 174.914305,-36.93892,100 174.914345,-36.938775,100 174.914354,-36.938744,100 174.914392,-36.938608,100 174.914403,-36.938568,100 174.914455,-36.938384,100 174.914465,-36.938349,100 174.914466,-36.938345,100 174.914526,-36.938129,100 174.914427,-36.938111,100 174.914326,-36.938093,100 174.914104,-36.938052,100 174.914117,-36.938008,100 174.914407,-36.938061,100 174.914467,-36.93785,100 174.914515,-36.937859,100 174.914566,-36.937678,100 174.914569,-36.937667,100 174.914616,-36.937498,100 174.914488,-36.937475,100 174.914544,-36.937298,100 174.914666,-36.93732,100 174.914681,-36.937317,100 174.914729,-36.937309,100 174.914769,-36.937165,100 174.91478,-36.937126,100 174.914831,-36.936946,100 174.914802,-36.936941,100 174.914679,-36.936918,100 174.914509,-36.936928,100 174.914626,-36.936589,100 174.914676,-36.936632,100 174.914911,-36.936675,100 174.914968,-36.936469,100 174.914894,-36.936445,100 174.914948,-36.936247,100 174.914976,-36.936251,100 174.915022,-36.936084,100 174.915067,-36.935917,100 174.914896,-36.935886,100 174.914725,-36.935855,100 174.914762,-36.935705,100 174.914875,-36.935309,100 174.915388,-36.933513,100 174.915439,-36.933075,100 174.916727,-36.933301,100 174.918295,-36.934243,100 174.918701,-36.934699,100 174.91935,-36.934814,100 174.919574,-36.934916,100 174.919947,-36.934946,100 174.92018,-36.934964,100 174.920274,-36.934971,100 174.920413,-36.935,100 174.920541,-36.935032,100 174.920765,-36.935077,100 174.920964,-36.935117,100 174.921169,-36.93511,100 174.921292,-36.935106,100 174.921493,-36.935033,100 174.921657,-36.935104,100 174.921761,-36.935046,100 174.921868,-36.935022,100 174.921917,-36.934854,100 174.922045,-36.934806,100 174.922171,-36.93483,100 174.922412,-36.934876,100 174.922437,-36.934789,100 174.923189,-36.934924,100 174.923745,-36.934959,100 174.924133,-36.935093,100 174.924999,-36.935248,100 174.925043,-36.935256,100 174.925131,-36.935271,100 174.926194,-36.935458,100 174.92666,-36.93554,100 174.92712,-36.935621,100 174.927419,-36.935674,100 174.928219,-36.935815,100 174.928545,-36.935412,100 174.929017,-36.934831,100 174.929362,-36.93483,100 174.930928,-36.934495,100 174.930978,-36.934354,100 174.930537,-36.934096,100 174.930503,-36.933903,100 174.930465,-36.93368,100 174.930416,-36.933398,100 174.930393,-36.933263,100 174.930346,-36.932992,100 174.930468,-36.932952,100 174.93072,-36.932868,100 174.931197,-36.93271,100 174.931529,-36.9326,100 174.931602,-36.932576,100 174.931723,-36.932511,100 174.931758,-36.931591,100 174.931793,-36.930655,100 174.931945,-36.929607,100 174.931722,-36.929587,100 174.930975,-36.929517,100 174.930994,-36.929387,100 174.931043,-36.929043,100 174.931093,-36.928698,100 174.93127,-36.928431,100 174.931303,-36.928382,100 174.931605,-36.927925,100 174.932287,-36.928091,100 174.932488,-36.927388,100 174.933498,-36.927394,100 174.933862,-36.927401,100 174.933853,-36.927428,100 174.933852,-36.927484,100 174.933848,-36.927517,100 174.933849,-36.927607,100 174.933845,-36.92762,100 174.933845,-36.927641,100 174.933832,-36.927688,100 174.933822,-36.927702,100 174.933773,-36.927859,100 174.933775,-36.927891,100 174.933792,-36.927949,100 174.9338,-36.927999,100 174.933812,-36.92802,100 174.933812,-36.928027,100 174.933802,-36.928043,100 174.933802,-36.92808,100 174.933801,-36.928101,100 174.933755,-36.928215,100 174.933719,-36.928282,100 174.93369,-36.928432,100 174.933679,-36.928467,100 174.933656,-36.928574,100 174.933652,-36.928582,100 174.933641,-36.928616,100 174.93357,-36.928705,100 174.93356,-36.928835,100 174.933491,-36.929045,100 174.93349,-36.929145,100 174.933414,-36.929309,100 174.933413,-36.929323,100 174.933365,-36.929429,100 174.933294,-36.929658,100 174.933166,-36.929856,100 174.933166,-36.929894,100 174.933166,-36.929913,100 174.933157,-36.929942,100 174.933058,-36.930121,100 174.933077,-36.930154,100 174.933071,-36.93016,100 174.933043,-36.93018,100 174.933017,-36.930218,100 174.93301,-36.930238,100 174.932994,-36.930263,100 174.933002,-36.930302,100 174.932991,-36.930333,100 174.932979,-36.930347,100 174.932967,-36.930393,100 174.93296,-36.930432,100 174.932965,-36.930457,100 174.932964,-36.930464,100 174.932965,-36.930479,100 174.932935,-36.930593,100 174.932931,-36.930677,100 174.932938,-36.930702,100 174.932937,-36.930716,100 174.93294,-36.930732,100 174.932931,-36.930802,100 174.932925,-36.930802,100 174.932924,-36.930809,100 174.932924,-36.930816,100 174.932924,-36.930822,100 174.932923,-36.930827,100 174.932924,-36.930833,100 174.932924,-36.930843,100 174.932924,-36.930851,100 174.932925,-36.930857,100 174.932925,-36.930866,100 174.932925,-36.930877,100 174.932924,-36.930886,100 174.932925,-36.930895,100 174.932925,-36.930905,100 174.932925,-36.930914,100 174.932925,-36.93092,100 174.932925,-36.930926,100 174.932923,-36.930934,100 174.932923,-36.93094,100 174.932923,-36.930946,100 174.932923,-36.930952,100 174.932916,-36.930969,100 174.932909,-36.930987,100 174.932901,-36.931001,100 174.932892,-36.931017,100 174.932884,-36.931027,100 174.932881,-36.93105,100 174.932879,-36.931072,100 174.932875,-36.931097,100 174.932872,-36.931119,100 174.932869,-36.931133,100 174.932868,-36.931144,100 174.932867,-36.931159,100 174.932865,-36.931173,100 174.932864,-36.931191,100 174.932865,-36.931205,100 174.932865,-36.931224,100 174.932864,-36.931244,100 174.932864,-36.931258,100 174.932863,-36.93127,100 174.932861,-36.93128,100 174.932859,-36.931294,100 174.932857,-36.93131,100 174.932857,-36.931327,100 174.932858,-36.931342,100 174.932863,-36.931355,100 174.932871,-36.931367,100 174.932879,-36.931379,100 174.932888,-36.931389,100 174.932892,-36.931399,100 174.932899,-36.931407,100 174.932912,-36.931422,100 174.932923,-36.931436,100 174.932936,-36.931452,100 174.932947,-36.931465,100 174.932957,-36.931477,100 174.932966,-36.931487,100 174.932974,-36.931493,100 174.93299,-36.931508,100 174.933004,-36.931519,100 174.933019,-36.931531,100 174.933042,-36.931546,100 174.933057,-36.931559,100 174.933076,-36.931574,100 174.933095,-36.931587,100 174.933112,-36.931601,100 174.933132,-36.931615,100 174.933151,-36.931628,100 174.933166,-36.93164,100 174.933178,-36.931649,100 174.933189,-36.931657,100 174.933201,-36.931664,100 174.933211,-36.931675,100 174.933224,-36.931685,100 174.933231,-36.931695,100 174.933241,-36.931703,100 174.933251,-36.931714,100 174.933266,-36.931731,100 174.933278,-36.931746,100 174.93329,-36.931764,100 174.9333,-36.931779,100 174.93331,-36.931796,100 174.933318,-36.93181,100 174.933325,-36.931826,100 174.933329,-36.931837,100 174.933331,-36.931848,100 174.933335,-36.931861,100 174.933339,-36.931877,100 174.933343,-36.931894,100 174.933344,-36.931908,100 174.933346,-36.931921,100 174.933347,-36.931934,100 174.933348,-36.931939,100 174.933349,-36.931943,100 174.93335,-36.931948,100 174.933352,-36.931952,100 174.933354,-36.931958,100 174.933355,-36.931962,100 174.933356,-36.931966,100 174.933358,-36.931971,100 174.933358,-36.931975,100 174.93336,-36.931979,100 174.933361,-36.931983,100 174.933363,-36.931988,100 174.933363,-36.931992,100 174.933365,-36.931997,100 174.933366,-36.932001,100 174.933349,-36.932009,100 174.933349,-36.932011,100 174.933349,-36.932013,100 174.933336,-36.932014,100 174.933309,-36.932134,100 174.93331,-36.932191,100 174.933307,-36.932345,100 174.933303,-36.932458,100 174.933304,-36.932461,100 174.933302,-36.932499,100 174.933295,-36.932536,100 174.933299,-36.933012,100 174.93333,-36.93307,100 174.933332,-36.933083,100 174.933339,-36.933092,100 174.933341,-36.933106,100 174.933349,-36.933124,100 174.933358,-36.933173,100 174.933363,-36.933181,100 174.933413,-36.933417,100 174.933409,-36.933502,100 174.933464,-36.933635,100 174.933473,-36.933639,100 174.933492,-36.933673,100 174.933502,-36.933682,100 174.933556,-36.933772,100 174.933561,-36.933787,100 174.933578,-36.93387,100 174.933597,-36.933926,100 174.933611,-36.933954,100 174.933725,-36.934125,100 174.933854,-36.934312,100 174.933929,-36.934381,100 174.933976,-36.93445,100 174.934,-36.934505,100 174.93401,-36.934514,100 174.934013,-36.934522,100 174.93402,-36.934531,100 174.934042,-36.934548,100 174.934073,-36.934563,100 174.934113,-36.93457,100 174.934123,-36.934577,100 174.934148,-36.934643,100 174.934167,-36.934671,100 174.934179,-36.934682,100 174.934189,-36.934686,100 174.93422,-36.934721,100 174.934304,-36.934777,100 174.934333,-36.934811,100 174.934346,-36.93483,100 174.934376,-36.934924,100 174.934393,-36.934939,100 174.934417,-36.93495,100 174.934426,-36.934965,100 174.93446,-36.935,100 174.93447,-36.935019,100 174.934487,-36.93504,100 174.934512,-36.93509,100 174.934558,-36.935152,100 174.934602,-36.935259,100 174.934612,-36.935271,100 174.934658,-36.935304,100 174.934672,-36.935325,100 174.934785,-36.935426,100 174.934797,-36.935433,100 174.934809,-36.935446,100 174.934814,-36.935449,100 174.935008,-36.935565,100 174.935019,-36.935565,100 174.935111,-36.9356,100 174.93512,-36.935602,100 174.935204,-36.93564,100 174.935215,-36.935642,100 174.93527,-36.935661,100 174.935363,-36.935682,100 174.935461,-36.935722,100 174.935474,-36.935726,100 174.935565,-36.935758,100 174.935622,-36.935764,100 174.93564,-36.935768,100 174.935745,-36.935775,100 174.935761,-36.935779,100 174.935807,-36.935785,100 174.93587,-36.935806,100 174.935882,-36.935819,100 174.935893,-36.935825,100 174.935904,-36.935834,100 174.935962,-36.935908,100 174.935968,-36.935921,100 174.935993,-36.935951,100 174.936008,-36.93598,100 174.936088,-36.936049,100 174.936119,-36.9361,100 174.936132,-36.936115,100 174.936148,-36.936145,100 174.936157,-36.936156,100 174.936168,-36.936163,100 174.936192,-36.936216,100 174.936191,-36.936224,100 174.936205,-36.936246,100 174.93621,-36.936295,100 174.936236,-36.936372,100 174.936244,-36.936418,100 174.93625,-36.936426,100 174.93625,-36.936433,100 174.936257,-36.93644,100 174.936261,-36.936466,100 174.936258,-36.936479,100 174.936244,-36.936491,100 174.936211,-36.936531,100 174.936206,-36.936548,100 174.936223,-36.936667,100 174.936232,-36.93669,100 174.936239,-36.936755,100 174.93625,-36.936778,100 174.936269,-36.936856,100 174.936272,-36.936918,100 174.936308,-36.937,100 174.936322,-36.937015,100 174.936386,-36.937065,100 174.936533,-36.937171,100 174.93654,-36.93718,100 174.936559,-36.937236,100 174.9366,-36.937359,100 174.936607,-36.937367,100 174.93665,-36.93744,100 174.936666,-36.937487,100 174.936718,-36.937586,100 174.936765,-36.937772,100 174.936774,-36.937783,100 174.936792,-36.937854,100 174.936795,-36.937865,100 174.936841,-36.937977,100 174.936844,-36.938028,100 174.936834,-36.938196,100 174.936832,-36.938218,100 174.936841,-36.938252,100 174.936837,-36.938303,100 174.936828,-36.938323,100 174.936826,-36.938343,100 174.936819,-36.938363,100 174.936826,-36.93844,100 174.93682,-36.938486,100 174.936809,-36.938507,100 174.9368,-36.938543,100 174.936789,-36.938597,100 174.936785,-36.93861,100 174.936792,-36.938666,100 174.936777,-36.938731,100 174.93679,-36.938816,100 174.936788,-36.938856,100 174.936781,-36.93887,100 174.936757,-36.939172,100 174.936744,-36.939218,100 174.936742,-36.939243,100 174.936721,-36.939393,100 174.93672,-36.939444,100 174.936707,-36.939536,100 174.936705,-36.939565,100 174.93669,-36.939641,100 174.936689,-36.939649,100 174.937442,-36.939872,100 174.937726,-36.939957,100 174.937113,-36.940516,100 174.937054,-36.94057,100 174.936876,-36.940668,100 174.936268,-36.941002,100 174.93624,-36.941017,100 174.936237,-36.941019,100 174.936204,-36.941234,100 174.936133,-36.941262,100 174.93613,-36.941268,100 174.936126,-36.941274,100 174.936123,-36.94128,100 174.936119,-36.941286,100 174.936116,-36.941292,100 174.936113,-36.941298,100 174.936109,-36.941305,100 174.936106,-36.941311,100 174.936103,-36.941317,100 174.936101,-36.941323,100 174.936099,-36.941329,100 174.936097,-36.941335,100 174.936095,-36.941341,100 174.936093,-36.941347,100 174.936092,-36.941353,100 174.93609,-36.941358,100 174.936089,-36.941364,100 174.936088,-36.94137,100 174.936087,-36.941376,100 174.936086,-36.941382,100 174.936085,-36.941388,100 174.936084,-36.941393,100 174.936083,-36.941398,100 174.936083,-36.941403,100 174.936082,-36.941408,100 174.936082,-36.941414,100 174.936081,-36.94142,100 174.936081,-36.941426,100 174.936081,-36.941433,100 174.936081,-36.941441,100 174.936081,-36.941451,100 174.936081,-36.941461,100 174.936081,-36.941471,100 174.936081,-36.941483,100 174.936082,-36.941495,100 174.936082,-36.941507,100 174.936082,-36.941519,100 174.936083,-36.941531,100 174.936083,-36.941543,100 174.936084,-36.941554,100 174.936084,-36.941566,100 174.936085,-36.941577,100 174.936085,-36.941588,100 174.936086,-36.9416,100 174.936086,-36.941611,100 174.936087,-36.941622,100 174.936088,-36.941634,100 174.936088,-36.941645,100 174.936089,-36.941656,100 174.93609,-36.941667,100 174.936092,-36.941678,100 174.936093,-36.941689,100 174.936095,-36.9417,100 174.936097,-36.941711,100 174.936098,-36.941721,100 174.9361,-36.941732,100 174.936102,-36.941743,100 174.936104,-36.941753,100 174.936105,-36.941764,100 174.936107,-36.941775,100 174.936108,-36.941785,100 174.936109,-36.941797,100 174.936109,-36.941809,100 174.936109,-36.941821,100 174.93611,-36.941832,100 174.93611,-36.941844,100 174.936111,-36.941854,100 174.936112,-36.941864,100 174.936114,-36.941872,100 174.936116,-36.941879,100 174.93612,-36.941884,100 174.936124,-36.941887,100 174.936129,-36.941888,100 174.936134,-36.941888,100 174.93614,-36.941888,100 174.936146,-36.941888,100 174.936151,-36.941888,100 174.936156,-36.941889,100 174.93616,-36.941892,100 174.936164,-36.941897,100 174.936167,-36.941904,100 174.936169,-36.941913,100 174.936171,-36.941924,100 174.936173,-36.941935,100 174.936174,-36.941947,100 174.936175,-36.941959,100 174.936175,-36.941971,100 174.936175,-36.941983,100 174.936175,-36.941994,100 174.936174,-36.942005,100 174.936172,-36.942014,100 174.936169,-36.942023,100 174.936166,-36.942031,100 174.936162,-36.942039,100 174.936158,-36.942048,100 174.936154,-36.942055,100 174.936149,-36.942063,100 174.936145,-36.942071,100 174.936141,-36.942079,100 174.936137,-36.942087,100 174.936128,-36.942097,100 174.936118,-36.942106,100 174.936109,-36.942116,100 174.936099,-36.942126,100 174.93609,-36.942135,100 174.93608,-36.942145,100 174.936071,-36.942154,100 174.936062,-36.942163,100 174.936054,-36.942171,100 174.936046,-36.942179,100 174.936038,-36.942186,100 174.93603,-36.942192,100 174.936023,-36.942198,100 174.936016,-36.942203,100 174.936009,-36.942208,100 174.936002,-36.942213,100 174.935996,-36.942218,100 174.93599,-36.942224,100 174.935984,-36.94223,100 174.935979,-36.942238,100 174.935974,-36.942246,100 174.93597,-36.942255,100 174.935966,-36.942265,100 174.935963,-36.942275,100 174.93596,-36.942286,100 174.935957,-36.942297,100 174.935953,-36.942308,100 174.935949,-36.942319,100 174.935944,-36.94233,100 174.935938,-36.94234,100 174.935931,-36.94235,100 174.935922,-36.94236,100 174.935912,-36.942371,100 174.935901,-36.942381,100 174.93589,-36.942391,100 174.935879,-36.942401,100 174.935869,-36.942411,100 174.93586,-36.942421,100 174.935852,-36.942431,100 174.935846,-36.942441,100 174.935842,-36.942451,100 174.93584,-36.94246,100 174.935839,-36.942469,100 174.935839,-36.942479,100 174.93584,-36.942488,100 174.935841,-36.942497,100 174.935842,-36.942507,100 174.935844,-36.942517,100 174.935845,-36.942527,100 174.935845,-36.942538,100 174.935845,-36.942549,100 174.935846,-36.94256,100 174.935846,-36.942572,100 174.935847,-36.942585,100 174.935847,-36.942597,100 174.935848,-36.942609,100 174.935848,-36.942622,100 174.935848,-36.942634,100 174.935848,-36.942646,100 174.935848,-36.942658,100 174.935847,-36.94267,100 174.935846,-36.942682,100 174.935844,-36.942694,100 174.935843,-36.942707,100 174.935841,-36.942719,100 174.935839,-36.94273,100 174.935838,-36.942742,100 174.935836,-36.942752,100 174.935835,-36.942762,100 174.935834,-36.942771,100 174.935833,-36.942779,100 174.935832,-36.942785,100 174.93583,-36.942791,100 174.935829,-36.942797,100 174.935829,-36.942802,100 174.935828,-36.942806,100 174.935827,-36.942811,100 174.935827,-36.942815,100 174.935828,-36.942819,100 174.935828,-36.942823,100 174.93583,-36.942828,100 174.935831,-36.942832,100 174.935833,-36.942835,100 174.935835,-36.942839,100 174.935838,-36.942843,100 174.93584,-36.942846,100 174.935844,-36.94285,100 174.935847,-36.942853,100 174.935851,-36.942856,100 174.935855,-36.94286,100 174.93586,-36.942863,100 174.935867,-36.942866,100 174.935874,-36.942869,100 174.935882,-36.942873,100 174.93589,-36.942876,100 174.935897,-36.942879,100 174.935904,-36.942882,100 174.93591,-36.942885,100 174.935915,-36.942888,100 174.935918,-36.94289,100 174.935919,-36.942892,100 174.935919,-36.942895,100 174.935918,-36.942897,100 174.935916,-36.942898,100 174.935914,-36.9429,100 174.935911,-36.942902,100 174.935907,-36.942903,100 174.935903,-36.942905,100 174.935899,-36.942907,100 174.935895,-36.942909,100 174.935891,-36.94291,100 174.935887,-36.942912,100 174.935881,-36.942914,100 174.935875,-36.942915,100 174.93587,-36.942917,100 174.935864,-36.942919,100 174.935858,-36.942921,100 174.935853,-36.942923,100 174.935848,-36.942925,100 174.935844,-36.942928,100 174.935841,-36.94293,100 174.935839,-36.942933,100 174.935837,-36.942935,100 174.935836,-36.942937,100 174.935836,-36.94294,100 174.935834,-36.942943,100 174.935833,-36.942947,100 174.93583,-36.942953,100 174.935827,-36.942959,100 174.935822,-36.942967,100 174.935815,-36.942977,100 174.935807,-36.942989,100 174.935798,-36.943002,100 174.935788,-36.943016,100 174.935778,-36.943031,100 174.935767,-36.943046,100 174.935757,-36.943062,100 174.935746,-36.943078,100 174.935735,-36.943093,100 174.935725,-36.943107,100 174.935721,-36.943128,100 174.935725,-36.943136,100 174.93573,-36.943144,100 174.935734,-36.943151,100 174.935739,-36.943158,100 174.935743,-36.943165,100 174.935748,-36.943173,100 174.935752,-36.943181,100 174.935756,-36.943191,100 174.93576,-36.943203,100 174.935764,-36.943216,100 174.935768,-36.943231,100 174.935771,-36.943248,100 174.93577186126583,-36.943252091012795,100 174.9246729,-36.9421273,100 174.9230583,-36.9420416,100 174.922157,-36.9417757,100 174.9209661,-36.9415442,100 174.9200005,-36.9413684,100 174.9178172,-36.9409997,100 174.9177797,-36.9413041,100 174.9177564,-36.9416312,100 174.9173916,-36.9421628,100 174.916898,-36.942643,100 174.9159968,-36.9429689,100 174.9151171,-36.9431061,100 174.91275693518563,-36.94299177886583,100</coordinates>
        </LinearRing>
      </outerBoundaryIs>
    </Polygon>
  </Placemark>
</Document>
</kml>