<?xml version="1.0" encoding="UTF-8"?>
<kml xmlns="http://www.opengis.net/kml/2.2">
<Document>
  <name>East Tāmaki Heights (Polygon: Official_Shp) Section 2</name>
  <Placemark>
    <name>East Tāmaki Heights (Polygon: Official_Shp) Section 2</name>
    <Style>
      <LineStyle><color>ffff0000</color><width>2</width></LineStyle>
      <PolyStyle><color>66ff0000</color></PolyStyle>
    </Style>
    <Polygon>
      <tessellate>1</tessellate>
      <outerBoundaryIs>
        <LinearRing>
          <coordinates>174.93577186126583,-36.943252091012795,100 174.935775,-36.943267,100 174.935778,-36.943287,100 174.935782,-36.943307,100 174.935785,-36.943329,100 174.935788,-36.94335,100 174.935791,-36.943373,100 174.935794,-36.943395,100 174.935796,-36.943416,100 174.935798,-36.943438,100 174.9358,-36.943461,100 174.935802,-36.943484,100 174.935804,-36.943507,100 174.935806,-36.94353,100 174.935807,-36.943554,100 174.935809,-36.943578,100 174.935809,-36.943602,100 174.935809,-36.943625,100 174.935809,-36.943649,100 174.935808,-36.943673,100 174.935807,-36.943697,100 174.935806,-36.943721,100 174.935804,-36.943745,100 174.935802,-36.94377,100 174.935799,-36.943794,100 174.935796,-36.943818,100 174.935792,-36.943842,100 174.935788,-36.943865,100 174.935783,-36.943888,100 174.935776,-36.94391,100 174.935769,-36.943934,100 174.93576,-36.943958,100 174.93575,-36.943982,100 174.935741,-36.944005,100 174.935731,-36.944027,100 174.935722,-36.944047,100 174.935714,-36.944066,100 174.935707,-36.944082,100 174.935703,-36.944095,100 174.9357,-36.944105,100 174.935698,-36.944112,100 174.935698,-36.944117,100 174.935698,-36.94412,100 174.935699,-36.944121,100 174.935701,-36.944121,100 174.935703,-36.944121,100 174.935705,-36.94412,100 174.935707,-36.944121,100 174.935708,-36.944122,100 174.93571,-36.944124,100 174.935712,-36.944125,100 174.935714,-36.944126,100 174.935716,-36.944126,100 174.935719,-36.944127,100 174.935721,-36.944128,100 174.935723,-36.944129,100 174.935725,-36.94413,100 174.935726,-36.944132,100 174.935727,-36.944134,100 174.935727,-36.944138,100 174.935728,-36.944142,100 174.935727,-36.944146,100 174.935727,-36.944151,100 174.935726,-36.944156,100 174.935725,-36.944162,100 174.935724,-36.944167,100 174.935723,-36.944172,100 174.935721,-36.944177,100 174.93572,-36.944181,100 174.935718,-36.944185,100 174.935717,-36.944189,100 174.935715,-36.944193,100 174.935712,-36.944197,100 174.93571,-36.9442,100 174.935708,-36.944204,100 174.935706,-36.944207,100 174.935703,-36.94421,100 174.935701,-36.944214,100 174.935699,-36.944217,100 174.935697,-36.94422,100 174.935695,-36.944223,100 174.935693,-36.944226,100 174.935692,-36.944228,100 174.93569,-36.944231,100 174.935688,-36.944234,100 174.935686,-36.944236,100 174.935684,-36.94424,100 174.935681,-36.944243,100 174.935678,-36.944248,100 174.935674,-36.944252,100 174.935671,-36.944256,100 174.935667,-36.94426,100 174.935663,-36.944265,100 174.935659,-36.94427,100 174.935654,-36.944275,100 174.935649,-36.944281,100 174.935643,-36.944289,100 174.935637,-36.944298,100 174.935629,-36.944308,100 174.935621,-36.944321,100 174.935612,-36.944335,100 174.935602,-36.94435,100 174.935591,-36.944367,100 174.935579,-36.944384,100 174.935568,-36.944402,100 174.935557,-36.944421,100 174.935547,-36.944439,100 174.935537,-36.944457,100 174.935529,-36.944474,100 174.935521,-36.944491,100 174.935514,-36.944509,100 174.935507,-36.944527,100 174.935501,-36.944544,100 174.935495,-36.944562,100 174.93549,-36.94458,100 174.935485,-36.944597,100 174.935481,-36.944614,100 174.935477,-36.94463,100 174.935474,-36.944644,100 174.935471,-36.944658,100 174.935469,-36.944672,100 174.935467,-36.944685,100 174.935466,-36.944697,100 174.935465,-36.944709,100 174.935465,-36.94472,100 174.935466,-36.944731,100 174.935467,-36.944741,100 174.935468,-36.944751,100 174.935471,-36.944761,100 174.935474,-36.94477,100 174.935478,-36.944778,100 174.935483,-36.944786,100 174.935489,-36.944793,100 174.935495,-36.9448,100 174.935501,-36.944807,100 174.935508,-36.944813,100 174.935514,-36.94482,100 174.93552,-36.944827,100 174.935525,-36.944834,100 174.935531,-36.944841,100 174.935536,-36.944848,100 174.935541,-36.944856,100 174.935546,-36.944863,100 174.935552,-36.94487,100 174.935556,-36.944877,100 174.935561,-36.944884,100 174.935566,-36.944892,100 174.93557,-36.944899,100 174.935574,-36.944907,100 174.935577,-36.944915,100 174.93558,-36.944924,100 174.935584,-36.944933,100 174.935587,-36.944943,100 174.935589,-36.944952,100 174.935591,-36.944961,100 174.935593,-36.94497,100 174.935595,-36.944978,100 174.935595,-36.944985,100 174.935596,-36.944991,100 174.935595,-36.944996,100 174.935593,-36.945,100 174.935591,-36.945003,100 174.935588,-36.945005,100 174.935585,-36.945007,100 174.935582,-36.945009,100 174.935578,-36.945011,100 174.935575,-36.945013,100 174.935573,-36.945015,100 174.935571,-36.945019,100 174.935569,-36.945023,100 174.935568,-36.945027,100 174.935566,-36.945033,100 174.935564,-36.945038,100 174.935563,-36.945044,100 174.935562,-36.945049,100 174.935562,-36.945054,100 174.935562,-36.945059,100 174.935563,-36.945064,100 174.935564,-36.945067,100 174.935567,-36.94507,100 174.935571,-36.945073,100 174.935576,-36.945075,100 174.935581,-36.945077,100 174.935587,-36.945078,100 174.935593,-36.945079,100 174.935598,-36.945081,100 174.935603,-36.945082,100 174.935608,-36.945084,100 174.935611,-36.945086,100 174.935614,-36.945088,100 174.935615,-36.945091,100 174.935617,-36.945094,100 174.935618,-36.945097,100 174.935619,-36.945099,100 174.935619,-36.945102,100 174.935619,-36.945105,100 174.935619,-36.945108,100 174.935618,-36.945111,100 174.935618,-36.945113,100 174.935617,-36.945116,100 174.935616,-36.945118,100 174.935615,-36.94512,100 174.935613,-36.945123,100 174.935611,-36.945125,100 174.935609,-36.945127,100 174.935607,-36.945129,100 174.935605,-36.945131,100 174.935603,-36.945133,100 174.9356,-36.945135,100 174.935598,-36.945136,100 174.935595,-36.945138,100 174.935591,-36.945139,100 174.935588,-36.94514,100 174.935584,-36.945141,100 174.935581,-36.945142,100 174.935578,-36.945144,100 174.935576,-36.945145,100 174.935574,-36.945146,100 174.935572,-36.945148,100 174.935572,-36.94515,100 174.935572,-36.945153,100 174.935573,-36.945155,100 174.935574,-36.945158,100 174.935576,-36.945161,100 174.935577,-36.945163,100 174.935579,-36.945166,100 174.935581,-36.945168,100 174.935583,-36.94517,100 174.935585,-36.945172,100 174.935587,-36.945173,100 174.93559,-36.945174,100 174.935592,-36.945174,100 174.935595,-36.945174,100 174.935597,-36.945173,100 174.9356,-36.945173,100 174.935603,-36.945174,100 174.935605,-36.945175,100 174.935607,-36.945177,100 174.93561,-36.94518,100 174.935612,-36.945184,100 174.935614,-36.94519,100 174.935616,-36.945197,100 174.935618,-36.945204,100 174.935619,-36.945211,100 174.935621,-36.945219,100 174.935623,-36.945227,100 174.935624,-36.945235,100 174.935625,-36.945242,100 174.935626,-36.945249,100 174.935626,-36.945256,100 174.935626,-36.945262,100 174.935625,-36.945267,100 174.935625,-36.945273,100 174.935624,-36.945278,100 174.935623,-36.945284,100 174.935622,-36.94529,100 174.935622,-36.945296,100 174.935621,-36.945302,100 174.935621,-36.945309,100 174.935622,-36.945317,100 174.935623,-36.945324,100 174.935624,-36.945332,100 174.935625,-36.945341,100 174.935626,-36.945349,100 174.935627,-36.945358,100 174.935629,-36.945367,100 174.93563,-36.945375,100 174.935631,-36.945384,100 174.935633,-36.945392,100 174.935533,-36.945568,100 174.935436,-36.945606,100 174.935426,-36.945672,100 174.935433,-36.945685,100 174.935442,-36.945722,100 174.935472,-36.945771,100 174.935493,-36.945822,100 174.935495,-36.945844,100 174.935555,-36.945966,100 174.935559,-36.945999,100 174.935549,-36.946211,100 174.935556,-36.94628,100 174.935542,-36.946374,100 174.935551,-36.946428,100 174.935549,-36.946496,100 174.935495,-36.946657,100 174.935493,-36.946721,100 174.935502,-36.946777,100 174.935505,-36.946856,100 174.935471,-36.947165,100 174.935465,-36.947183,100 174.935312,-36.94745,100 174.935292,-36.947492,100 174.935237,-36.947583,100 174.935221,-36.947596,100 174.935183,-36.947673,100 174.935151,-36.94779,100 174.935072,-36.947907,100 174.935058,-36.94792,100 174.935003,-36.947949,100 174.934924,-36.948028,100 174.934853,-36.948057,100 174.934814,-36.948076,100 174.934778,-36.948138,100 174.93476,-36.948209,100 174.934748,-36.948235,100 174.934742,-36.948257,100 174.93473,-36.948275,100 174.934719,-36.948302,100 174.934728,-36.948337,100 174.934774,-36.948419,100 174.934788,-36.948571,100 174.934781,-36.948629,100 174.934743,-36.948688,100 174.934613,-36.948752,100 174.934501,-36.948836,100 174.934412,-36.948968,100 174.934376,-36.949098,100 174.934376,-36.949114,100 174.934375,-36.949118,100 174.93465,-36.949211,100 174.937447,-36.95015,100 174.937391,-36.950328,100 174.937156,-36.95086,100 174.936963,-36.951671,100 174.936717,-36.952493,100 174.936069,-36.954577,100 174.934837,-36.954334,100 174.932311,-36.953831,100 174.930093,-36.953384,100 174.929756,-36.953316,100 174.929528,-36.95327,100 174.927061,-36.952772,100 174.926336,-36.952626,100 174.925929,-36.952544,100 174.925459,-36.952449,100 174.923679,-36.952089,100 174.923815,-36.951617,100 174.923837,-36.95154,100 174.923891,-36.951353,100 174.924191,-36.950286,100 174.924227,-36.950157,100 174.924278,-36.949971,100 174.924631,-36.948718,100 174.923589,-36.948732,100 174.922267,-36.948492,100 174.921863,-36.948552,100 174.92167,-36.94866,100 174.921595,-36.948647,100 174.921121,-36.948566,100 174.920598,-36.948476,100 174.920193,-36.948406,100 174.919533,-36.948293,100 174.918987,-36.948198,100 174.918723,-36.948154,100 174.918367,-36.948093,100 174.918042,-36.948038,100 174.917534,-36.947949,100 174.916881,-36.947835,100 174.916206,-36.947718,100 174.916156,-36.947907,100 174.916105,-36.948101,100 174.916057,-36.948281,100 174.916009,-36.948462,100 174.916009,-36.948463,100 174.915959,-36.948651,100 174.91589,-36.948912,100 174.91588,-36.948946,100 174.91581,-36.949212,100 174.915733,-36.9495,100 174.915657,-36.949788,100 174.913741,-36.949457,100 174.913374,-36.949395,100 174.913244,-36.949372,100 174.913311,-36.949126,100 174.913176,-36.949104,100 174.913132,-36.949098,100 174.913019,-36.949082,100 174.912965,-36.949073,100 174.912951,-36.94907,100 174.912769,-36.949039,100 174.912747,-36.949035,100 174.912588,-36.949007,100 174.912549,-36.949001,100 174.912407,-36.948976,100 174.912352,-36.948966,100 174.912226,-36.948945,100 174.912154,-36.948932,100 174.912044,-36.948913,100 174.911957,-36.948898,100 174.911863,-36.948882,100 174.911748,-36.948862,100 174.911682,-36.94885,100 174.911501,-36.948819,100 174.911444,-36.948809,100 174.911484,-36.94866,100 174.911486,-36.94865,100 174.911522,-36.948518,100 174.911539,-36.948457,100 174.911565,-36.94836,100 174.91159,-36.948263,100 174.911607,-36.948201,100 174.911643,-36.948069,100 174.91165,-36.948043,100 174.911693,-36.947884,100 174.911695,-36.947875,100 174.911735,-36.947725,100 174.911747,-36.947681,100 174.911778,-36.947567,100 174.911799,-36.947488,100 174.911879,-36.947419,100 174.911901,-36.947339,100 174.91191,-36.947304,100 174.911943,-36.947183,100 174.911944,-36.947181,100 174.911768,-36.94715,100 174.911572,-36.947116,100 174.911617,-36.946949,100 174.9117,-36.946641,100 174.911747,-36.946467,100 174.911936,-36.9465,100 174.911943,-36.946501,100 174.912118,-36.946532,100 174.912123,-36.946516,100 174.912156,-36.946393,100 174.912181,-36.9463,100 174.912122,-36.94629,100 174.912165,-36.946131,100 174.912174,-36.946096,100 174.912207,-36.945973,100 174.912226,-36.945902,100 174.91225,-36.945814,100 174.912278,-36.945709,100 174.912293,-36.945656,100 174.912335,-36.945497,100 174.912316,-36.945494,100 174.912274,-36.945487,100 174.912322,-36.945309,100 174.912336,-36.945256,100 174.912315,-36.945256,100 174.912363,-36.945088,100 174.912418,-36.944891,100 174.912476,-36.944687,100 174.912484,-36.944651,100 174.912619,-36.944434,100 174.912764,-36.944203,100 174.912873,-36.944026,100 174.91291,-36.943967,100 174.913156,-36.943899,100 174.913428,-36.943824,100 174.913568,-36.943785,100 174.91361,-36.943785,100 174.91384,-36.943785,100 174.913916,-36.943785,100 174.913916,-36.943742,100 174.913915,-36.943334,100 174.913915,-36.943208,100 174.913847,-36.943154,100 174.913548,-36.943154,100 174.913032,-36.943117,100 174.912974,-36.943112,100 174.912812,-36.943092,100 174.912758,-36.943096,100 174.912713,-36.943121,100 174.91275693518563,-36.94299177886583,100 174.9151171,-36.9431061,100 174.9159968,-36.9429689,100 174.916898,-36.942643,100 174.9173916,-36.9421628,100 174.9177564,-36.9416312,100 174.9177797,-36.9413041,100 174.9178172,-36.9409997,100 174.9200005,-36.9413684,100 174.9209661,-36.9415442,100 174.922157,-36.9417757,100 174.9230583,-36.9420416,100 174.9246729,-36.9421273,100 174.93577186126583,-36.943252091012795,100</coordinates>
        </LinearRing>
      </outerBoundaryIs>
    </Polygon>
  </Placemark>
</Document>
</kml>