<?xml version="1.0" encoding="UTF-8"?>
<kml xmlns="http://www.opengis.net/kml/2.2">
<Document>
  <name>Pakuranga (Polygon: Official_Shp) Section 4</name>
  <Placemark>
    <name>Pakuranga (Polygon: Official_Shp) Section 4</name>
    <Style>
      <LineStyle><color>ffff0000</color><width>2</width></LineStyle>
      <PolyStyle><color>66ff0000</color></PolyStyle>
    </Style>
    <Polygon>
      <tessellate>1</tessellate>
      <outerBoundaryIs>
        <LinearRing>
          <coordinates>174.88318760849714,-36.914853398700046,100 174.8831889,-36.914876,100 174.8831079,-36.914915,100 174.8830269,-36.915205,100 174.8832079,-36.915238,100 174.8834459,-36.91528,100 174.8834019,-36.915436,100 174.8833589,-36.915592,100 174.8833189,-36.915738,100 174.8833159,-36.915747,100 174.8832829,-36.915867,100 174.8832729,-36.915903,100 174.8832619,-36.915941,100 174.8832289,-36.916059,100 174.8831979,-36.916171,100 174.8831859,-36.916214,100 174.8831429,-36.91637,100 174.8831329,-36.916404,100 174.8830999,-36.916526,100 174.8830969,-36.916534,100 174.8830639,-36.916656,100 174.8830559,-36.916682,100 174.8828469,-36.916644,100 174.8827559,-36.916972,100 174.8826139,-36.916946,100 174.8825759,-36.91708,100 174.8824949,-36.917121,100 174.8824599,-36.917247,100 174.8828319,-36.917314,100 174.8827829,-36.917489,100 174.8829679,-36.917522,100 174.8831509,-36.917556,100 174.8833349,-36.917589,100 174.8835179,-36.917622,100 174.8837019,-36.917655,100 174.8838799,-36.917687,100 174.8838849,-36.917688,100 174.8839199,-36.917695,100 174.8840689,-36.917722,100 174.8842519,-36.917755,100 174.8842229,-36.91806,100 174.8842029,-36.918256,100 174.8841999,-36.918295,100 174.8844369,-36.918208,100 174.8845139,-36.91818,100 174.8848039,-36.918461,100 174.8846429,-36.918574,100 174.8845299,-36.918654,100 174.8844899,-36.918682,100 174.8843039,-36.918648,100 174.8842139,-36.918632,100 174.8840799,-36.918608,100 174.8840599,-36.918604,100 174.8838639,-36.918569,100 174.8837079,-36.91854,100 174.8835689,-36.918515,100 174.8834539,-36.918494,100 174.8832339,-36.918455,100 174.8831789,-36.918445,100 174.8831349,-36.9186,100 174.8829929,-36.919098,100 174.8830169,-36.919103,100 174.8830909,-36.919117,100 174.8829899,-36.91947,100 174.8827259,-36.91942,100 174.8826479,-36.919405,100 174.8822759,-36.919334,100 174.8822649,-36.91936,100 174.8821449,-36.91962,100 174.8821219,-36.919613,100 174.8819749,-36.91994,100 174.8819289,-36.920102,100 174.8818079,-36.920163,100 174.8818189,-36.920204,100 174.8818899,-36.920465,100 174.8816249,-36.920564,100 174.8816119,-36.920601,100 174.8815159,-36.920733,100 174.8814879,-36.920753,100 174.8813589,-36.920848,100 174.8812939,-36.920894,100 174.8810959,-36.921039,100 174.8809709,-36.92113,100 174.8809049,-36.921178,100 174.8807439,-36.921295,100 174.8807039,-36.921339,100 174.8806639,-36.921383,100 174.8805569,-36.921499,100 174.8804199,-36.921648,100 174.8803109,-36.921766,100 174.8803469,-36.921788,100 174.8804009,-36.92182,100 174.8804359,-36.921985,100 174.8805159,-36.922083,100 174.8802649,-36.92229,100 174.8801229,-36.922544,100 174.8800269,-36.922715,100 174.8800229,-36.922769,100 174.8800129,-36.922885,100 174.8800069,-36.922967,100 174.8800039,-36.923003,100 174.8799559,-36.922996,100 174.8798859,-36.922994,100 174.8798459,-36.923017,100 174.8798539,-36.923052,100 174.8798689,-36.923095,100 174.8798909,-36.923127,100 174.8799109,-36.923164,100 174.8799339,-36.923214,100 174.8799639,-36.923271,100 174.8799879,-36.923315,100 174.8800099,-36.923356,100 174.8800019,-36.92339,100 174.8799559,-36.923431,100 174.8798969,-36.923463,100 174.8798539,-36.923484,100 174.8797989,-36.923508,100 174.8797639,-36.92352,100 174.8797689,-36.924064,100 174.8797929,-36.924056,100 174.8798159,-36.924047,100 174.8798359,-36.924048,100 174.8798669,-36.92404,100 174.8798889,-36.924038,100 174.8799179,-36.924034,100 174.8799359,-36.92403,100 174.8799569,-36.924022,100 174.8799769,-36.924016,100 174.8800039,-36.924012,100 174.8800199,-36.924007,100 174.8800409,-36.924002,100 174.8800649,-36.923999,100 174.8800789,-36.923994,100 174.8800919,-36.923988,100 174.8801079,-36.923985,100 174.8801189,-36.923981,100 174.8801489,-36.923974,100 174.8801789,-36.923976,100 174.8802139,-36.923969,100 174.8802389,-36.923967,100 174.8802699,-36.923961,100 174.8803039,-36.923956,100 174.8803359,-36.923957,100 174.8803609,-36.923961,100 174.8803959,-36.923966,100 174.8804359,-36.923979,100 174.8804399,-36.923997,100 174.8804429,-36.92401,100 174.8804459,-36.92402,100 174.8804459,-36.92403,100 174.8804459,-36.924038,100 174.8804439,-36.924054,100 174.8804479,-36.92406,100 174.8804269,-36.924083,100 174.8804259,-36.924086,100 174.8804359,-36.924098,100 174.8804399,-36.924114,100 174.8804169,-36.92414,100 174.8804119,-36.924148,100 174.8803989,-36.92418,100 174.8803749,-36.924196,100 174.8803719,-36.924224,100 174.8803509,-36.92424,100 174.8803479,-36.924247,100 174.8803289,-36.924265,100 174.8803039,-36.924292,100 174.8802849,-36.924309,100 174.8802659,-36.924319,100 174.8802429,-36.924326,100 174.8802359,-36.924329,100 174.8802249,-36.924333,100 174.8802119,-36.924339,100 174.8801889,-36.924356,100 174.8801779,-36.924371,100 174.8801649,-36.924381,100 174.8801589,-36.924389,100 174.8801369,-36.924409,100 174.8801279,-36.924422,100 174.8801219,-36.924431,100 174.8801039,-36.924456,100 174.8800949,-36.924466,100 174.8800839,-36.924493,100 174.8800719,-36.924504,100 174.8800589,-36.924521,100 174.8800469,-36.924529,100 174.8800399,-36.924544,100 174.8800119,-36.924571,100 174.8799969,-36.924584,100 174.8799809,-36.924602,100 174.8799729,-36.924611,100 174.8799439,-36.924638,100 174.8799299,-36.924653,100 174.8799119,-36.924669,100 174.8798999,-36.92468,100 174.8798619,-36.924707,100 174.8798409,-36.92473,100 174.8798359,-36.924741,100 174.8798189,-36.92476,100 174.8798149,-36.924774,100 174.8798099,-36.924782,100 174.8797959,-36.924799,100 174.8797879,-36.924807,100 174.8797819,-36.924815,100 174.8797659,-36.924829,100 174.8797539,-36.92484,100 174.8797459,-36.924854,100 174.8797269,-36.924871,100 174.8797099,-36.924886,100 174.8796889,-36.924897,100 174.8796809,-36.924905,100 174.8796519,-36.924925,100 174.8796329,-36.924939,100 174.8796249,-36.924949,100 174.8796249,-36.924958,100 174.8796189,-36.924968,100 174.8796269,-36.924974,100 174.8796279,-36.924982,100 174.8796309,-36.925022,100 174.8796389,-36.925042,100 174.8796409,-36.925056,100 174.8796399,-36.925073,100 174.8796439,-36.925092,100 174.8796649,-36.925107,100 174.8796829,-36.925112,100 174.8797049,-36.925121,100 174.8797229,-36.925129,100 174.8797449,-36.925137,100 174.8797579,-36.925147,100 174.8797819,-36.925165,100 174.8798029,-36.925185,100 174.8798249,-36.925204,100 174.8798239,-36.925222,100 174.8798389,-36.925236,100 174.8798519,-36.925267,100 174.8798559,-36.92528,100 174.8798639,-36.92532,100 174.8798709,-36.925343,100 174.8798719,-36.925356,100 174.8798649,-36.925379,100 174.8798669,-36.925401,100 174.8798729,-36.925422,100 174.8798719,-36.925442,100 174.8798709,-36.925467,100 174.8798729,-36.925483,100 174.8798629,-36.925504,100 174.8798649,-36.925523,100 174.8798609,-36.925562,100 174.8798599,-36.925579,100 174.8798639,-36.9256,100 174.8798649,-36.92562,100 174.8798679,-36.925647,100 174.8798719,-36.925667,100 174.8798669,-36.925674,100 174.8798659,-36.925686,100 174.8798689,-36.925703,100 174.8798669,-36.925717,100 174.8798629,-36.925733,100 174.8798569,-36.925754,100 174.8798589,-36.925774,100 174.8798569,-36.925803,100 174.8798569,-36.925825,100 174.8798599,-36.925844,100 174.8798689,-36.925863,100 174.8798669,-36.925879,100 174.8798769,-36.9259,100 174.8798749,-36.925902,100 174.8798729,-36.925917,100 174.8798669,-36.92594,100 174.8798619,-36.92595,100 174.8798599,-36.925966,100 174.8798489,-36.925984,100 174.8798349,-36.926004,100 174.8798209,-36.926019,100 174.8798099,-36.926043,100 174.8797909,-36.926064,100 174.8797769,-36.926075,100 174.8797659,-36.926086,100 174.8797409,-36.926105,100 174.8797149,-36.926114,100 174.8797039,-36.926118,100 174.8796769,-36.926127,100 174.8796579,-36.926132,100 174.8796269,-36.926143,100 174.8795909,-36.926156,100 174.8795739,-36.92616,100 174.8795489,-36.926162,100 174.8795329,-36.926167,100 174.8794699,-36.92619,100 174.8794379,-36.926201,100 174.8794069,-36.926206,100 174.8793979,-36.926214,100 174.8793869,-36.92622,100 174.8793799,-36.926222,100 174.8793309,-36.926248,100 174.8793009,-36.926265,100 174.8792869,-36.926278,100 174.8792669,-36.926285,100 174.8792389,-36.926303,100 174.8792109,-36.926317,100 174.8791859,-36.92633,100 174.8791609,-36.926337,100 174.8791379,-36.926343,100 174.8791089,-36.926362,100 174.8790899,-36.926376,100 174.8790679,-36.926393,100 174.8790379,-36.926414,100 174.8790129,-36.926428,100 174.8789859,-36.926442,100 174.8789429,-36.926467,100 174.8789059,-36.92649,100 174.8788529,-36.926504,100 174.8788299,-36.926524,100 174.8787909,-36.926543,100 174.8787729,-36.926556,100 174.8787169,-36.926575,100 174.8786869,-36.926589,100 174.8786599,-36.926607,100 174.8786459,-36.926613,100 174.8786199,-36.926631,100 174.8785929,-36.926652,100 174.8785679,-36.926667,100 174.8785439,-36.926684,100 174.8785069,-36.926703,100 174.8784779,-36.926712,100 174.8784439,-36.926705,100 174.8784149,-36.926698,100 174.8783859,-36.92669,100 174.8783519,-36.926683,100 174.8783319,-36.926657,100 174.8783189,-36.926639,100 174.8783069,-36.926625,100 174.8782909,-36.926611,100 174.8782569,-36.926583,100 174.8782379,-36.92656,100 174.8782069,-36.926523,100 174.8781989,-36.926513,100 174.8781879,-36.926497,100 174.8781709,-36.926478,100 174.8781429,-36.926452,100 174.8781289,-36.926433,100 174.8781059,-36.926403,100 174.8781009,-36.926389,100 174.8780839,-36.926368,100 174.8780559,-36.926346,100 174.8780429,-36.926328,100 174.8780279,-36.926312,100 174.8780079,-36.926294,100 174.8779999,-36.926281,100 174.8779749,-36.926265,100 174.8779729,-36.926263,100 174.8779569,-36.926252,100 174.8779369,-36.92624,100 174.8779069,-36.926222,100 174.8778799,-36.926214,100 174.8778379,-36.926198,100 174.8778239,-36.92619,100 174.8778159,-36.926184,100 174.8778039,-36.92618,100 174.8777899,-36.926174,100 174.8777819,-36.926164,100 174.8777759,-36.926149,100 174.8777549,-36.926123,100 174.8777389,-36.926111,100 174.8777219,-36.92609,100 174.8777069,-36.926074,100 174.8776949,-36.926058,100 174.8776619,-36.926023,100 174.8776369,-36.925997,100 174.8776169,-36.925983,100 174.8776009,-36.925973,100 174.8775739,-36.925958,100 174.8775539,-36.925942,100 174.8775309,-36.925934,100 174.8774969,-36.925913,100 174.8774759,-36.925897,100 174.8774459,-36.925883,100 174.8774249,-36.92587,100 174.8774109,-36.925849,100 174.8773889,-36.925834,100 174.8773559,-36.925821,100 174.8773299,-36.9258,100 174.8772989,-36.925783,100 174.8772649,-36.925767,100 174.8772449,-36.925756,100 174.8772039,-36.925728,100 174.8771769,-36.925709,100 174.8771599,-36.925689,100 174.8771269,-36.92568,100 174.8770939,-36.925668,100 174.8770489,-36.925668,100 174.8770099,-36.925669,100 174.8769719,-36.92566,100 174.8769319,-36.925661,100 174.8768819,-36.925653,100 174.8768749,-36.925652,100 174.8768519,-36.925645,100 174.8768269,-36.925642,100 174.8768039,-36.92565,100 174.8767729,-36.925646,100 174.8767429,-36.925648,100 174.8767139,-36.92565,100 174.8766889,-36.925647,100 174.8766579,-36.925651,100 174.8766309,-36.925654,100 174.8765949,-36.925651,100 174.8765529,-36.925657,100 174.8765349,-36.925658,100 174.8765009,-36.925662,100 174.8764789,-36.925669,100 174.8764529,-36.92567,100 174.8764319,-36.925669,100 174.8763949,-36.925676,100 174.8763769,-36.925684,100 174.8763459,-36.925686,100 174.8763219,-36.925686,100 174.8762849,-36.925698,100 174.8762699,-36.925707,100 174.8762419,-36.925723,100 174.8761999,-36.925737,100 174.8761709,-36.925746,100 174.8761359,-36.925749,100 174.8761209,-36.925747,100 174.8760969,-36.925761,100 174.8760699,-36.925767,100 174.8760469,-36.925782,100 174.8760349,-36.925789,100 174.8760109,-36.925796,100 174.8759859,-36.92581,100 174.8759689,-36.925814,100 174.8759609,-36.92582,100 174.8759359,-36.925838,100 174.8759069,-36.925849,100 174.8758819,-36.925851,100 174.8758499,-36.925876,100 174.8758239,-36.925895,100 174.8758009,-36.925908,100 174.8757879,-36.925915,100 174.8757729,-36.925928,100 174.8757469,-36.92594,100 174.8757239,-36.925951,100 174.8757019,-36.925966,100 174.8756779,-36.925982,100 174.8756389,-36.926003,100 174.8756159,-36.92602,100 174.8755759,-36.926037,100 174.8755509,-36.926046,100 174.8755379,-36.926045,100 174.8755139,-36.926054,100 174.8754779,-36.926059,100 174.8754509,-36.926069,100 174.8754159,-36.926082,100 174.8753979,-36.926091,100 174.8753709,-36.926107,100 174.8753399,-36.926111,100 174.8753119,-36.926106,100 174.8752869,-36.926098,100 174.8752729,-36.926094,100 174.8752419,-36.926091,100 174.8752169,-36.926087,100 174.8751929,-36.92609,100 174.8751549,-36.926073,100 174.8751049,-36.926061,100 174.8750689,-36.926059,100 174.8750249,-36.926053,100 174.8749909,-36.926041,100 174.8749639,-36.926029,100 174.8749269,-36.926032,100 174.8748959,-36.926021,100 174.8748569,-36.926005,100 174.8748149,-36.925992,100 174.8747869,-36.925986,100 174.8747619,-36.925973,100 174.8747319,-36.925961,100 174.8747149,-36.925955,100 174.8746949,-36.925942,100 174.8746899,-36.925946,100 174.8746759,-36.925942,100 174.8746609,-36.925927,100 174.8746309,-36.925917,100 174.8746249,-36.925915,100 174.8746009,-36.925901,100 174.8745769,-36.925885,100 174.8745519,-36.925871,100 174.8745349,-36.925858,100 174.8745169,-36.925848,100 174.8744949,-36.925832,100 174.8744879,-36.925817,100 174.8744689,-36.92581,100 174.8744669,-36.925809,100 174.8744389,-36.925793,100 174.8744219,-36.925789,100 174.8744099,-36.925786,100 174.8743899,-36.925782,100 174.8743759,-36.925779,100 174.8743629,-36.925776,100 174.8743469,-36.925767,100 174.8743179,-36.925762,100 174.8742939,-36.925731,100 174.8742829,-36.925727,100 174.8742629,-36.925715,100 174.8742349,-36.925704,100 174.8742129,-36.925687,100 174.8741969,-36.925667,100 174.8741739,-36.925632,100 174.8741589,-36.925614,100 174.8741409,-36.925592,100 174.8741279,-36.925577,100 174.8741149,-36.92556,100 174.8741129,-36.925539,100 174.8740879,-36.925537,100 174.8740789,-36.925522,100 174.8740669,-36.92551,100 174.8740499,-36.925484,100 174.8740299,-36.925465,100 174.8740139,-36.925443,100 174.8739999,-36.925428,100 174.8739839,-36.925413,100 174.8739699,-36.925384,100 174.8739619,-36.925363,100 174.8739509,-36.92534,100 174.8739489,-36.925329,100 174.8739409,-36.925314,100 174.8739349,-36.925299,100 174.8739189,-36.925287,100 174.8739119,-36.925271,100 174.8738999,-36.925256,100 174.8738739,-36.925235,100 174.8738659,-36.9252,100 174.8738619,-36.925185,100 174.8738529,-36.925165,100 174.8738369,-36.925148,100 174.8738369,-36.925128,100 174.8738349,-36.925107,100 174.8738349,-36.925095,100 174.8738349,-36.925076,100 174.8738389,-36.925055,100 174.8738419,-36.925034,100 174.8738319,-36.925003,100 174.8738189,-36.924982,100 174.8738149,-36.924962,100 174.8737899,-36.924945,100 174.8737719,-36.924934,100 174.8737459,-36.924936,100 174.8737209,-36.924936,100 174.8736939,-36.924936,100 174.8736749,-36.924918,100 174.8736589,-36.924912,100 174.8736279,-36.924899,100 174.8735999,-36.924881,100 174.8735729,-36.924868,100 174.8735489,-36.924865,100 174.8735209,-36.924858,100 174.8735009,-36.924851,100 174.8734789,-36.924844,100 174.8734589,-36.924837,100 174.8734439,-36.924827,100 174.8734209,-36.92482,100 174.8733939,-36.924815,100 174.8733679,-36.924808,100 174.8733369,-36.924798,100 174.8733069,-36.924784,100 174.8732789,-36.924774,100 174.8732579,-36.924752,100 174.8732389,-36.924738,100 174.8732229,-36.924728,100 174.8731999,-36.924722,100 174.8731769,-36.924717,100 174.8731559,-36.924714,100 174.8731269,-36.924703,100 174.8730999,-36.924694,100 174.8730699,-36.924685,100 174.8730439,-36.924683,100 174.8730449,-36.924682,100 174.8730309,-36.924675,100 174.8730209,-36.924665,100 174.8730129,-36.924655,100 174.8730049,-36.924637,100 174.8730039,-36.924615,100 174.8730179,-36.924603,100 174.8730299,-36.924591,100 174.8730309,-36.924588,100 174.8730379,-36.924581,100 174.8730429,-36.924568,100 174.8730409,-36.924558,100 174.8730379,-36.924548,100 174.8730309,-36.924529,100 174.8730119,-36.924525,100 174.8729839,-36.924544,100 174.8729679,-36.924546,100 174.8729539,-36.924547,100 174.8729429,-36.924537,100 174.8729399,-36.924526,100 174.8729329,-36.924505,100 174.8729329,-36.924506,100 174.8729319,-36.924501,100 174.8729239,-36.924491,100 174.8729209,-36.92448,100 174.8729179,-36.924471,100 174.8729079,-36.924453,100 174.8728999,-36.924445,100 174.8728929,-36.924431,100 174.8728819,-36.924413,100 174.8728609,-36.924407,100 174.8728449,-36.924413,100 174.8728419,-36.924415,100 174.8728239,-36.924426,100 174.8728209,-36.924441,100 174.8728129,-36.924467,100 174.8728069,-36.92448,100 174.8727879,-36.924513,100 174.8727619,-36.924533,100 174.8727439,-36.924547,100 174.8727239,-36.924556,100 174.8726999,-36.924554,100 174.8726889,-36.924554,100 174.8726749,-36.92455,100 174.8726659,-36.924551,100 174.8726459,-36.924555,100 174.8726319,-36.924559,100 174.8726139,-36.924568,100 174.8726079,-36.924579,100 174.8726069,-36.924594,100 174.8726029,-36.924609,100 174.8726049,-36.924634,100 174.8726009,-36.924653,100 174.8725889,-36.924674,100 174.8725749,-36.924689,100 174.8725629,-36.924704,100 174.8725519,-36.924716,100 174.8725419,-36.924723,100 174.8725259,-36.924741,100 174.8725159,-36.924751,100 174.8725149,-36.924769,100 174.8725139,-36.924788,100 174.8725129,-36.924804,100 174.8725039,-36.924821,100 174.8724929,-36.924833,100 174.8724879,-36.924847,100 174.8724819,-36.924874,100 174.8724799,-36.924915,100 174.8724709,-36.924942,100 174.8724639,-36.924963,100 174.8724519,-36.92498,100 174.8724439,-36.92502,100 174.8724459,-36.925045,100 174.8724469,-36.925069,100 174.8724419,-36.925086,100 174.8724479,-36.925102,100 174.8724539,-36.925115,100 174.8724539,-36.925128,100 174.8724589,-36.925146,100 174.8724599,-36.925164,100 174.8724649,-36.925186,100 174.8724699,-36.925203,100 174.8724749,-36.925229,100 174.8724789,-36.925251,100 174.8724819,-36.925271,100 174.8724859,-36.925294,100 174.8724809,-36.92532,100 174.8724829,-36.925337,100 174.8724799,-36.925364,100 174.8724729,-36.925381,100 174.8724609,-36.9254,100 174.8724329,-36.925411,100 174.8724079,-36.925411,100 174.8723929,-36.925409,100 174.8723709,-36.925404,100 174.8723599,-36.925402,100 174.8723399,-36.925385,100 174.8722839,-36.925359,100 174.8722509,-36.925347,100 174.8722109,-36.92534,100 174.8721879,-36.925314,100 174.8721489,-36.925295,100 174.8721129,-36.925278,100 174.8720899,-36.925265,100 174.8720649,-36.925247,100 174.8720499,-36.925228,100 174.8720219,-36.925204,100 174.8719999,-36.925193,100 174.8719759,-36.925183,100 174.8719569,-36.925166,100 174.8719319,-36.92515,100 174.8719059,-36.925133,100 174.8718629,-36.925115,100 174.8718279,-36.925102,100 174.8717869,-36.925098,100 174.8717489,-36.925096,100 174.8717179,-36.925091,100 174.8716849,-36.925075,100 174.8716369,-36.92506,100 174.8716029,-36.925053,100 174.8715689,-36.925046,100 174.8715159,-36.925035,100 174.8714719,-36.925032,100 174.8714339,-36.925035,100 174.8714049,-36.925047,100 174.8713699,-36.925062,100 174.8713429,-36.925073,100 174.8713229,-36.925069,100 174.8713219,-36.925061,100 174.8713319,-36.925049,100 174.8713479,-36.925024,100 174.8713559,-36.92501,100 174.8713529,-36.924999,100 174.8713419,-36.924975,100 174.8713209,-36.924956,100 174.8713129,-36.924929,100 174.8712989,-36.924916,100 174.8712829,-36.924893,100 174.8712629,-36.924872,100 174.8712419,-36.924853,100 174.8712149,-36.924839,100 174.8712009,-36.924824,100 174.8711829,-36.924803,100 174.8711699,-36.924788,100 174.8711529,-36.924775,100 174.8711109,-36.924758,100 174.8710809,-36.924755,100 174.8710509,-36.924744,100 174.8710269,-36.924735,100 174.8710109,-36.92473,100 174.8709939,-36.924726,100 174.8709879,-36.924706,100 174.8709939,-36.924695,100 174.8710049,-36.924686,100 174.8710209,-36.924671,100 174.8710229,-36.924648,100 174.8710169,-36.924636,100 174.8710039,-36.924613,100 174.8709949,-36.924596,100 174.8709739,-36.924547,100 174.8709599,-36.924517,100 174.8709459,-36.924477,100 174.8709279,-36.92444,100 174.8709119,-36.924404,100 174.8708919,-36.924365,100 174.8708809,-36.92433,100 174.8708659,-36.924303,100 174.8708569,-36.924282,100 174.8708549,-36.924254,100 174.8708509,-36.924236,100 174.8708389,-36.924216,100 174.8708269,-36.924194,100 174.8708029,-36.924163,100 174.8707919,-36.92414,100 174.8707779,-36.924118,100 174.8707669,-36.924096,100 174.8707569,-36.924083,100 174.8707409,-36.924057,100 174.8707249,-36.92404,100 174.8707119,-36.924018,100 174.8707039,-36.923995,100 174.8707059,-36.923977,100 174.8707249,-36.923947,100 174.8707669,-36.92393,100 174.8708259,-36.923909,100 174.8708839,-36.923887,100 174.8709349,-36.923856,100 174.8710059,-36.923809,100 174.8710849,-36.923758,100 174.8711519,-36.923706,100 174.8712109,-36.92365,100 174.8712669,-36.923586,100 174.8713179,-36.923527,100 174.8713689,-36.923471,100 174.8713899,-36.923453,100 174.8714199,-36.923452,100 174.8714659,-36.923457,100 174.8714899,-36.923465,100 174.8715139,-36.923486,100 174.8715209,-36.923454,100 174.8715189,-36.923426,100 174.8715269,-36.923357,100 174.8715369,-36.92332,100 174.8715469,-36.923293,100 174.8715509,-36.923264,100 174.8715849,-36.923194,100 174.8716039,-36.923137,100 174.8716289,-36.923085,100 174.8716539,-36.923024,100 174.8716799,-36.922955,100 174.8716959,-36.922915,100 174.8717059,-36.922875,100 174.8717309,-36.922832,100 174.8717479,-36.922808,100 174.8717629,-36.922801,100 174.8717949,-36.922797,100 174.8718399,-36.922775,100 174.8718689,-36.922752,100 174.8718899,-36.922722,100 174.8718879,-36.9227,100 174.8718719,-36.922676,100 174.8718449,-36.922646,100 174.8718319,-36.922609,100 174.8718399,-36.922558,100 174.8718709,-36.922501,100 174.8718989,-36.922456,100 174.8719429,-36.922403,100 174.8719799,-36.922361,100 174.8720469,-36.922296,100 174.8720739,-36.922253,100 174.8720979,-36.922205,100 174.8721299,-36.922147,100 174.8721779,-36.92209,100 174.8722179,-36.922036,100 174.8722519,-36.921989,100 174.8722899,-36.921952,100 174.8723309,-36.921906,100 174.8723709,-36.921877,100 174.8724119,-36.921826,100 174.8724509,-36.921779,100 174.8724869,-36.921736,100 174.8725339,-36.921686,100 174.8725899,-36.921627,100 174.8726359,-36.92158,100 174.8726689,-36.921541,100 174.8726969,-36.92151,100 174.8727439,-36.921501,100 174.8728079,-36.921491,100 174.8728629,-36.921472,100 174.8728909,-36.921451,100 174.8729249,-36.921437,100 174.8729559,-36.921431,100 174.8730019,-36.921442,100 174.8730539,-36.921467,100 174.8730799,-36.921493,100 174.8731049,-36.921533,100 174.8731429,-36.921565,100 174.8731589,-36.921587,100 174.8731739,-36.921643,100 174.8731869,-36.921692,100 174.8732179,-36.921724,100 174.8732509,-36.92176,100 174.8732819,-36.92179,100 174.8733189,-36.921834,100 174.8733459,-36.921872,100 174.8733829,-36.921912,100 174.8734349,-36.92195,100 174.8734709,-36.921982,100 174.8735079,-36.922011,100 174.8735599,-36.922046,100 174.8735999,-36.922073,100 174.8736339,-36.922103,100 174.8736589,-36.922126,100 174.8736909,-36.922151,100 174.8737029,-36.92219,100 174.8737079,-36.922157,100 174.8737109,-36.922129,100 174.8737109,-36.922092,100 174.8737219,-36.922057,100 174.8737439,-36.922,100 174.8737649,-36.921944,100 174.8738049,-36.921889,100 174.8738729,-36.921835,100 174.8739449,-36.921799,100 174.8739949,-36.921761,100 174.8740479,-36.921723,100 174.8740719,-36.92166,100 174.8740769,-36.921573,100 174.8740629,-36.921484,100 174.8740679,-36.921399,100 174.8740759,-36.92132,100 174.8740929,-36.921257,100 174.8741199,-36.921209,100 174.8741919,-36.921169,100 174.8742659,-36.921134,100 174.8742809,-36.921125,100 174.8743379,-36.921094,100 174.8743969,-36.921057,100 174.8744619,-36.921016,100 174.8745269,-36.920983,100 174.8746129,-36.920954,100 174.8746669,-36.920932,100 174.8747299,-36.920942,100 174.8748199,-36.92096,100 174.8749229,-36.920972,100 174.8749669,-36.920983,100 174.8750019,-36.920991,100 174.8750829,-36.921014,100 174.8751639,-36.921021,100 174.8752309,-36.921015,100 174.8752719,-36.92099,100 174.8752739,-36.920943,100 174.8752589,-36.920869,100 174.8752469,-36.920785,100 174.8752189,-36.920672,100 174.8752039,-36.920598,100 174.8751889,-36.920527,100 174.8751679,-36.920448,100 174.8751319,-36.920386,100 174.8751019,-36.92034,100 174.8750729,-36.920276,100 174.8750829,-36.920215,100 174.8751139,-36.92016,100 174.8751459,-36.920121,100 174.8751939,-36.920084,100 174.8752219,-36.920069,100 174.8752909,-36.920042,100 174.8753399,-36.920034,100 174.8754029,-36.920037,100 174.8754519,-36.920037,100 174.8755159,-36.92004,100 174.8755709,-36.920036,100 174.8756219,-36.92003,100 174.8756529,-36.920024,100 174.8756179,-36.920011,100 174.8755519,-36.919998,100 174.8754819,-36.919996,100 174.8754089,-36.919993,100 174.8753589,-36.920005,100 174.8752989,-36.920015,100 174.8752369,-36.920023,100 174.8751799,-36.920028,100 174.8751169,-36.920032,100 174.8750619,-36.92002,100 174.8750129,-36.919995,100 174.8749639,-36.919988,100 174.8749349,-36.919996,100 174.8748909,-36.920037,100 174.8748419,-36.920084,100 174.8747899,-36.920123,100 174.8746969,-36.920165,100 174.8746339,-36.920181,100 174.8745689,-36.920173,100 174.8745089,-36.92014,100 174.8744629,-36.920094,100 174.8744189,-36.920047,100 174.8743809,-36.919992,100 174.8743489,-36.919892,100 174.8743469,-36.919818,100 174.8743449,-36.919734,100 174.8743869,-36.919689,100 174.8744129,-36.919666,100 174.8744479,-36.919643,100 174.8744989,-36.919607,100 174.8745089,-36.91959,100 174.8745169,-36.919565,100 174.8745229,-36.919553,100 174.8745309,-36.919535,100 174.8745229,-36.919509,100 174.8744939,-36.919451,100 174.8744859,-36.919434,100 174.8744779,-36.919406,100 174.8744789,-36.919398,100 174.8744679,-36.91938,100 174.8744679,-36.919353,100 174.8744579,-36.919374,100 174.8744589,-36.91939,100 174.8744589,-36.919406,100 174.8744699,-36.919424,100 174.8744759,-36.919444,100 174.8744779,-36.919466,100 174.8744869,-36.919483,100 174.8744929,-36.919519,100 174.8744889,-36.919559,100 174.8744569,-36.919598,100 174.8744099,-36.919638,100 174.8743669,-36.919677,100 174.8743239,-36.919722,100 174.8743069,-36.919784,100 174.8742869,-36.919847,100 174.8742629,-36.919909,100 174.8742469,-36.919972,100 174.8742179,-36.920042,100 174.8742029,-36.920118,100 174.8741819,-36.920165,100 174.8741609,-36.920227,100 174.8741119,-36.920282,100 174.8740669,-36.920332,100 174.8740319,-36.920356,100 174.8739829,-36.920347,100 174.8739259,-36.920333,100 174.8738539,-36.920301,100 174.8737819,-36.920272,100 174.8737089,-36.920253,100 174.8736589,-36.920221,100 174.8736069,-36.920194,100 174.8734929,-36.920153,100 174.8734409,-36.920104,100 174.8733999,-36.920043,100 174.8733709,-36.919972,100 174.8733439,-36.919889,100 174.8733209,-36.919798,100 174.8733109,-36.919726,100 174.8733019,-36.919652,100 174.8732899,-36.919579,100 174.8732889,-36.919523,100 174.8732959,-36.919464,100 174.8732939,-36.919434,100 174.8732989,-36.919398,100 174.8733089,-36.919364,100 174.8733199,-36.919327,100 174.8733329,-36.919284,100 174.8733469,-36.919241,100 174.8733599,-36.919188,100 174.8733759,-36.919134,100 174.8733859,-36.919094,100 174.8733949,-36.919067,100 174.8734069,-36.919034,100 174.8734129,-36.919002,100 174.8734179,-36.918958,100 174.8734199,-36.918902,100 174.8734159,-36.918861,100 174.8734149,-36.918815,100 174.8734179,-36.918748,100 174.8734179,-36.918677,100 174.8734169,-36.918625,100 174.8734149,-36.918597,100 174.8734139,-36.918562,100 174.8734099,-36.918513,100 174.8734089,-36.918477,100 174.8734129,-36.918439,100 174.8734129,-36.918399,100 174.8734169,-36.918351,100 174.8734139,-36.918311,100 174.8734049,-36.918271,100 174.8733969,-36.918233,100 174.8733789,-36.918203,100 174.8733609,-36.918177,100 174.8733449,-36.918153,100 174.8733199,-36.918119,100 174.8732909,-36.918089,100 174.8732429,-36.918051,100 174.8732099,-36.918025,100 174.8731829,-36.918003,100 174.8731619,-36.917987,100 174.8731219,-36.917954,100 174.8731089,-36.917948,100 174.8731069,-36.917953,100 174.8731079,-36.917961,100 174.8731219,-36.917986,100 174.8731339,-36.917997,100 174.8731509,-36.918014,100 174.8731719,-36.918034,100 174.8732109,-36.918063,100 174.8732359,-36.918089,100 174.8732679,-36.918122,100 174.8732909,-36.918156,100 174.8733189,-36.918189,100 174.8733369,-36.918215,100 174.8733619,-36.918264,100 174.8733699,-36.918295,100 174.8733749,-36.91832,100 174.8733789,-36.918353,100 174.8733709,-36.918387,100 174.8733679,-36.918433,100 174.8733599,-36.918474,100 174.8733499,-36.918505,100 174.8733379,-36.91853,100 174.8733259,-36.918559,100 174.8733179,-36.918589,100 174.8733159,-36.91863,100 174.8733149,-36.91866,100 174.8733159,-36.918708,100 174.8733099,-36.91875,100 174.8733039,-36.918785,100 174.8733029,-36.918813,100 174.8732989,-36.918857,100 174.8732849,-36.918902,100 174.8732689,-36.918935,100 174.8732569,-36.918962,100 174.8732519,-36.918998,100 174.8732429,-36.919024,100 174.8732329,-36.919054,100 174.8732219,-36.919096,100 174.8732039,-36.919129,100 174.8731709,-36.919164,100 174.8731549,-36.919184,100 174.8731279,-36.919211,100 174.8731199,-36.919221,100 174.8731019,-36.919239,100 174.8730869,-36.919256,100 174.8730619,-36.919288,100 174.8730479,-36.919309,100 174.8730169,-36.919344,100 174.8729779,-36.919378,100 174.8729489,-36.919403,100 174.8729209,-36.919426,100 174.8728789,-36.919458,100 174.8728499,-36.919499,100 174.8728359,-36.91955,100 174.8728329,-36.919581,100 174.8728129,-36.919614,100 174.8727719,-36.919655,100 174.8727359,-36.919678,100 174.8726889,-36.919708,100 174.8726369,-36.919749,100 174.8726049,-36.919766,100 174.8725649,-36.919772,100 174.8725149,-36.919747,100 174.8724719,-36.919724,100 174.8723039,-36.91964,100 174.8722919,-36.919636,100 174.8722729,-36.919629,100 174.8722609,-36.919624,100 174.8722439,-36.919616,100 174.8722249,-36.919608,100 174.8722169,-36.919606,100 174.8721979,-36.9196,100 174.8721789,-36.919593,100 174.8721749,-36.91959,100 174.8721619,-36.919578,100 174.8721519,-36.919566,100 174.8721479,-36.919558,100 174.8721419,-36.919544,100 174.8721369,-36.91953,100 174.8721359,-36.919528,100 174.8721269,-36.919515,100 174.8721199,-36.919501,100 174.8721169,-36.919488,100 174.8721179,-36.919473,100 174.8721209,-36.919458,100 174.8721239,-36.919443,100 174.8721219,-36.9194,100 174.8721279,-36.919387,100 174.8721289,-36.919364,100 174.8721289,-36.919348,100 174.8721269,-36.919321,100 174.8721179,-36.919307,100 174.8721099,-36.91929,100 174.8720939,-36.919273,100 174.8720799,-36.919262,100 174.8720619,-36.919242,100 174.8720419,-36.919228,100 174.8720239,-36.919216,100 174.8720049,-36.919201,100 174.8719849,-36.91919,100 174.8719689,-36.919176,100 174.8719399,-36.919162,100 174.8719189,-36.919152,100 174.8718909,-36.919147,100 174.8718589,-36.919145,100 174.8718379,-36.919142,100 174.8718119,-36.919146,100 174.8717889,-36.91916,100 174.8717669,-36.919173,100 174.8717389,-36.919187,100 174.8717039,-36.919206,100 174.8716719,-36.919223,100 174.8716369,-36.919239,100 174.8716079,-36.919248,100 174.8715809,-36.919252,100 174.8715479,-36.91926,100 174.8715139,-36.919265,100 174.8714719,-36.919268,100 174.8714399,-36.919271,100 174.8714179,-36.919266,100 174.8713879,-36.919267,100 174.8713529,-36.919271,100 174.8713189,-36.919276,100 174.8712799,-36.919283,100 174.8712409,-36.91929,100 174.8712029,-36.919285,100 174.8711669,-36.91929,100 174.8711319,-36.919298,100 174.8711059,-36.919306,100 174.8710789,-36.919302,100 174.8710389,-36.919299,100 174.8710109,-36.919298,100 174.8709789,-36.919307,100 174.8709389,-36.91931,100 174.8709059,-36.919311,100 174.8708719,-36.919315,100 174.8708359,-36.919325,100 174.8707989,-36.919334,100 174.8707599,-36.919346,100 174.8707199,-36.919349,100 174.8706869,-36.919352,100 174.8706629,-36.919348,100 174.8706139,-36.919345,100 174.8705539,-36.91934,100 174.8704899,-36.919335,100 174.8704149,-36.919329,100 174.8703649,-36.919329,100 174.8703269,-36.919329,100 174.8702869,-36.919333,100 174.8702649,-36.919335,100 174.8702309,-36.919338,100 174.8702029,-36.919336,100 174.8701759,-36.919335,100 174.8701539,-36.91933,100 174.8701349,-36.919324,100 174.8701059,-36.919318,100 174.8700799,-36.919312,100 174.8700509,-36.919307,100 174.8700089,-36.919305,100 174.8699759,-36.919305,100 174.8699419,-36.919308,100 174.8699109,-36.919313,100 174.8698769,-36.919324,100 174.8698469,-36.919345,100 174.8698229,-36.919364,100 174.8698049,-36.919393,100 174.8697909,-36.919417,100 174.8697379,-36.919511,100 174.8697209,-36.919553,100 174.8697069,-36.919583,100 174.8696869,-36.919615,100 174.8696529,-36.919648,100 174.8696139,-36.919677,100 174.8695589,-36.919701,100 174.8695129,-36.919711,100 174.8694449,-36.919719,100 174.8693889,-36.919724,100 174.8693389,-36.919734,100 174.8692709,-36.919743,100 174.8692159,-36.919749,100 174.8691599,-36.919768,100 174.8691059,-36.919794,100 174.8690499,-36.91981,100 174.8689989,-36.919823,100 174.8689079,-36.91984,100 174.8688489,-36.919853,100 174.8687929,-36.919874,100 174.8687389,-36.919896,100 174.8686809,-36.919916,100 174.8686289,-36.919922,100 174.8685509,-36.919922,100 174.8684909,-36.919908,100 174.8684629,-36.919914,100 174.8684429,-36.919918,100 174.8683949,-36.919942,100 174.8683419,-36.91997,100 174.8682959,-36.920003,100 174.8682539,-36.920045,100 174.8682399,-36.920085,100 174.8682279,-36.920136,100 174.8682279,-36.920159,100 174.8682019,-36.9202,100 174.8681619,-36.920247,100 174.8681159,-36.920301,100 174.8680369,-36.920371,100 174.8679709,-36.920429,100 174.8679119,-36.920474,100 174.8678639,-36.920519,100 174.8678039,-36.920568,100 174.8677449,-36.920608,100 174.8676919,-36.920645,100 174.8676209,-36.920674,100 174.8675669,-36.920679,100 174.8675199,-36.920687,100 174.8674809,-36.920723,100 174.8674469,-36.920767,100 174.8674269,-36.920812,100 174.8674059,-36.920864,100 174.8673869,-36.92089,100 174.8673609,-36.920925,100 174.8673119,-36.920979,100 174.8672709,-36.921022,100 174.8672289,-36.921057,100 174.8671949,-36.921081,100 174.8671359,-36.921096,100 174.8670879,-36.921098,100 174.8670179,-36.92111,100 174.8669419,-36.921137,100 174.8668799,-36.921169,100 174.8668329,-36.921195,100 174.8667789,-36.921223,100 174.8667169,-36.921254,100 174.8666539,-36.921292,100 174.8666179,-36.921314,100 174.8665439,-36.921359,100 174.8664719,-36.921395,100 174.8664289,-36.921413,100 174.8664149,-36.921415,100 174.8663959,-36.921419,100 174.8663769,-36.921422,100 174.8663579,-36.921425,100 174.8663389,-36.921427,100 174.8663199,-36.921429,100 174.8663009,-36.921431,100 174.8662809,-36.921432,100 174.8662619,-36.921433,100 174.8662429,-36.921434,100 174.8662229,-36.921435,100 174.8662049,-36.921436,100 174.8661859,-36.921436,100 174.8661659,-36.921437,100 174.8661469,-36.921437,100 174.8661269,-36.921437,100 174.8661079,-36.921437,100 174.8660889,-36.921437,100 174.8660689,-36.921438,100 174.8660619,-36.921438,100 174.8660419,-36.921438,100 174.8660229,-36.921438,100 174.8660029,-36.921438,100 174.8659839,-36.921438,100 174.8659649,-36.921438,100 174.8659449,-36.921438,100 174.8659259,-36.921438,100 174.8659059,-36.921438,100 174.8659039,-36.921438,100 174.8658589,-36.921435,100 174.8658579,-36.921435,100 174.8658189,-36.921417,100 174.8658159,-36.921415,100 174.8657949,-36.92139,100 174.8657619,-36.921364,100 174.8657599,-36.921362,100 174.8657359,-36.921332,100 174.8657179,-36.921298,100 174.8657149,-36.921293,100 174.8656999,-36.921258,100 174.8656939,-36.921248,100 174.8656709,-36.921218,100 174.8656439,-36.921188,100 174.8656419,-36.921186,100 174.8656189,-36.921155,100 174.8655969,-36.921123,100 174.8655859,-36.921107,100 174.8655649,-36.921075,100 174.8655519,-36.921058,100 174.8655229,-36.921031,100 174.8655139,-36.921022,100 174.8654859,-36.920993,100 174.8654679,-36.920979,100 174.8654289,-36.920961,100 174.8653999,-36.920953,100 174.8653559,-36.920942,100 174.8653499,-36.92094,100 174.8653109,-36.920922,100 174.8652969,-36.920915,100 174.8652619,-36.920892,100 174.8652539,-36.920885,100 174.8652269,-36.920856,100 174.8652269,-36.920855,100 174.8651989,-36.920831,100 174.8651689,-36.920808,100 174.8651479,-36.920782,100 174.8651329,-36.920753,100 174.8651309,-36.920717,100 174.8651309,-36.920716,100 174.8651359,-36.92068,100 174.8651389,-36.920669,100 174.8651579,-36.920636,100 174.8651619,-36.920629,100 174.8651799,-36.920595,100 174.8651829,-36.920584,100 174.8651859,-36.920561,100 174.8651919,-36.920532,100 174.8652099,-36.9205,100 174.8652189,-36.92048,100 174.8652189,-36.920468,100 174.8652059,-36.920459,100 174.8651779,-36.920467,100 174.8651509,-36.920486,100 174.8651159,-36.92051,100 174.8651139,-36.920512,100 174.8650829,-36.920539,100 174.8650809,-36.920541,100 174.8650569,-36.92057,100 174.8650389,-36.920596,100 174.8650259,-36.920625,100 174.8650179,-36.92066,100 174.8650159,-36.920667,100 174.8650039,-36.920702,100 174.8650019,-36.920711,100 174.8649939,-36.920741,100 174.8649999,-36.920777,100 174.8649999,-36.920778,100 174.8650059,-36.920792,100 174.8650029,-36.920828,100 174.8650029,-36.92083,100 174.8650059,-36.920866,100 174.8650099,-36.920889,100 174.8650169,-36.920925,100 174.8650189,-36.920934,100 174.8650219,-36.920971,100 174.8650229,-36.920978,100 174.8650269,-36.921012,100 174.8650319,-36.921042,100 174.8650369,-36.921078,100 174.8650379,-36.921084,100 174.8650439,-36.92112,100 174.8650449,-36.921123,100 174.8650509,-36.921159,100 174.8650509,-36.921161,100 174.8650629,-36.92119,100 174.8650669,-36.921226,100 174.8650669,-36.92123,100 174.8650629,-36.92126,100 174.8650469,-36.921294,100 174.8650449,-36.921298,100 174.8650369,-36.92131,100 174.8650119,-36.92134,100 174.8649869,-36.921371,100 174.8649859,-36.921373,100 174.8649589,-36.921401,100 174.8649529,-36.921407,100 174.8649309,-36.921435,100 174.8649119,-36.921454,100 174.8648769,-36.921458,100 174.8648319,-36.921451,100 174.8648279,-36.921451,100 174.8647839,-36.921453,100 174.8647549,-36.921457,100 174.8647099,-36.921461,100 174.8646939,-36.921462,100 174.8646499,-36.921467,100 174.8646289,-36.921468,100 174.8645839,-36.921471,100 174.8645489,-36.921474,100 174.8645019,-36.921477,100 174.8644939,-36.92148,100 174.8644719,-36.921511,100 174.8644669,-36.921545,100 174.8644729,-36.921581,100 174.8644759,-36.921585,100 174.8645139,-36.921602,100 174.8645389,-36.921607,100 174.8645789,-36.921624,100 174.8646089,-36.921637,100 174.8646479,-36.921654,100 174.8646559,-36.921657,100 174.8646979,-36.921671,100 174.8647229,-36.921681,100 174.8647609,-36.921699,100 174.8647659,-36.921702,100 174.8647889,-36.921718,100 174.8648259,-36.921722,100 174.8648459,-36.921734,100 174.8648809,-36.921746,100 174.8649219,-36.921761,100 174.8649339,-36.921768,100 174.8649639,-36.921793,100 174.8649839,-36.921815,100 174.8649909,-36.921846,100 174.8649979,-36.921866,100 174.8650009,-36.921869,100 174.8650269,-36.921894,100 174.8650299,-36.921897,100 174.8650419,-36.921921,100 174.8650529,-36.921956,100 174.8650539,-36.921963,100 174.8650529,-36.921996,100 174.8650359,-36.922013,100 174.8650349,-36.922018,100 174.8650329,-36.922024,100 174.8650319,-36.922033,100 174.8650299,-36.922039,100 174.8650289,-36.922043,100 174.8650209,-36.922066,100 174.8650099,-36.922098,100 174.8649819,-36.92211,100 174.8649409,-36.922111,100 174.8649349,-36.922112,100 174.8649319,-36.922112,100 174.8649269,-36.922112,100 174.8649219,-36.922112,100 174.8649169,-36.922112,100 174.8649119,-36.922113,100 174.8649089,-36.922112,100 174.8649079,-36.922112,100 174.8648639,-36.922115,100 174.8648219,-36.922117,100 174.8647769,-36.922117,100 174.8647319,-36.922118,100 174.8647239,-36.922119,100 174.8646799,-36.922127,100 174.8646629,-36.922132,100 174.8646309,-36.92215,100 174.8646179,-36.922176,100 174.8646149,-36.922204,100 174.8646069,-36.92223,100 174.8645769,-36.922257,100 174.8645759,-36.922257,100 174.8645399,-36.922279,100 174.8645369,-36.92228,100 174.8645079,-36.922292,100 174.8644749,-36.922298,100 174.8644339,-36.922303,100 174.8643899,-36.9223,100 174.8643709,-36.922296,100 174.8643279,-36.922284,100 174.8643139,-36.922279,100 174.8642739,-36.922263,100 174.8642609,-36.922257,100 174.8642259,-36.922242,100 174.8641849,-36.922228,100 174.8641809,-36.922226,100 174.8641459,-36.922204,100 174.8641399,-36.9222,100 174.8641029,-36.92218,100 174.8641019,-36.922179,100 174.8640739,-36.92217,100 174.8640309,-36.92216,100 174.8640269,-36.922159,100 174.8639839,-36.922148,100 174.8639719,-36.922144,100 174.8639299,-36.922132,100 174.8639199,-36.922129,100 174.8638779,-36.922117,100 174.8638689,-36.922115,100 174.8638259,-36.922108,100 174.8637829,-36.922099,100 174.8637639,-36.922094,100 174.8637209,-36.922084,100 174.8637019,-36.92208,100 174.8636589,-36.922071,100 174.8636379,-36.922067,100 174.8635949,-36.922058,100 174.8635549,-36.92205,100 174.8635169,-36.922035,100 174.8634789,-36.922016,100 174.8634779,-36.922015,100 174.8634429,-36.921993,100 174.8634419,-36.921992,100 174.8634079,-36.921974,100 174.8633699,-36.921955,100 174.8633549,-36.921947,100 174.8633159,-36.921929,100 174.8633089,-36.921926,100 174.8632699,-36.921909,100 174.8632349,-36.921894,100 174.8631959,-36.921877,100 174.8631759,-36.921869,100 174.8631339,-36.921856,100 174.8631209,-36.921851,100 174.8630839,-36.921831,100 174.8630819,-36.92183,100 174.8630529,-36.921806,100 174.8630379,-36.921785,100 174.8630189,-36.921763,100 174.8630019,-36.921737,100 174.8629859,-36.921704,100 174.8629669,-36.921672,100 174.8629579,-36.921662,100 174.8629529,-36.921658,100 174.8629459,-36.921653,100 174.8629359,-36.921645,100 174.8629259,-36.921636,100 174.8629159,-36.921627,100 174.8629109,-36.921623,100 174.8629009,-36.921614,100 174.8628879,-36.921604,100 174.8628519,-36.921583,100 174.8628499,-36.921582,100 174.8628159,-36.921559,100 174.8628139,-36.921558,100 174.8627789,-36.921534,100 174.8627679,-36.921527,100 174.8627359,-36.921501,100 174.8627049,-36.921475,100 174.8627049,-36.921474,100 174.8626759,-36.921447,100 174.8626629,-36.921436,100 174.8626309,-36.921411,100 174.8626169,-36.921399,100 174.8625909,-36.921369,100 174.8625709,-36.921343,100 174.8625459,-36.921313,100 174.8625349,-36.921302,100 174.8625029,-36.921276,100 174.8624969,-36.921272,100 174.8624619,-36.921249,100 174.8624479,-36.92124,100 174.8624159,-36.921218,100 174.8624059,-36.921202,100 174.8623839,-36.921188,100 174.8623539,-36.921173,100 174.8623319,-36.921151,100 174.8623109,-36.921128,100 174.8622829,-36.921105,100 174.8622469,-36.921085,100 174.8622069,-36.921071,100 174.8621699,-36.921052,100 174.8621339,-36.921033,100 174.8621069,-36.921022,100 174.8620759,-36.920999,100 174.8620439,-36.920973,100 174.8620199,-36.920942,100 174.8620189,-36.920939,100 174.8619979,-36.920912,100 174.8619779,-36.920886,100 174.8619569,-36.920859,100 174.8619399,-36.920825,100 174.8619319,-36.920808,100 174.8619199,-36.920774,100 174.8619169,-36.920769,100 174.8618919,-36.92074,100 174.8618699,-36.920717,100 174.8618489,-36.920689,100 174.8618249,-36.920659,100 174.8618239,-36.920659,100 174.8618069,-36.920625,100 174.8618069,-36.920624,100 174.8617969,-36.920588,100 174.8617949,-36.920571,100 174.8618009,-36.920535,100 174.8618109,-36.9205,100 174.8618129,-36.920491,100 174.8618149,-36.920472,100 174.8618139,-36.920439,100 174.8618109,-36.920403,100 174.8618109,-36.920396,100 174.8618079,-36.92036,100 174.8618079,-36.920345,100 174.8618109,-36.920309,100 174.8618139,-36.920292,100 174.8618189,-36.920256,100 174.8618189,-36.920244,100 174.8618179,-36.920208,100 174.8618149,-36.9202,100 174.8617989,-36.920174,100 174.8617789,-36.920156,100 174.8617569,-36.920151,100 174.8617339,-36.920138,100 174.8617149,-36.920122,100 174.8617089,-36.920098,100 174.8617189,-36.920073,100 174.8617489,-36.920046,100 174.8617519,-36.920044,100 174.8617759,-36.920018,100 174.8618009,-36.919988,100 174.8618089,-36.919976,100 174.8618279,-36.919943,100 174.8618289,-36.919941,100 174.8618399,-36.919908,100 174.8618389,-36.919886,100 174.8618489,-36.919857,100 174.8618589,-36.919821,100 174.8618779,-36.919793,100 174.8619019,-36.91979,100 174.8619459,-36.919796,100 174.8619469,-36.919797,100 174.8619849,-36.919805,100 174.8620229,-36.919809,100 174.8620579,-36.919812,100 174.8620859,-36.919814,100 174.8621169,-36.919816,100 174.8621599,-36.919817,100 174.8622049,-36.919817,100 174.8622059,-36.919817,100 174.8622459,-36.919816,100 174.8622579,-36.919817,100 174.8622649,-36.919817,100 174.8622739,-36.919817,100 174.8622829,-36.919818,100 174.8622929,-36.919817,100 174.8623009,-36.919817,100 174.8623079,-36.919817,100 174.8623149,-36.919816,100 174.8623229,-36.919813,100 174.8623249,-36.919811,100 174.8623469,-36.919783,100 174.8623509,-36.919776,100 174.8623699,-36.919743,100 174.8623759,-36.919734,100 174.8623979,-36.919707,100 174.8624179,-36.919674,100 174.8624219,-36.919669,100 174.8624489,-36.91964,100 174.8624579,-36.919633,100 174.8624929,-36.919609,100 174.8625059,-36.919601,100 174.8625429,-36.91958,100 174.8625449,-36.919579,100 174.8625829,-36.919559,100 174.8625909,-36.919554,100 174.8626219,-36.919527,100 174.8626289,-36.919521,100 174.8626619,-36.919496,100 174.8626699,-36.91949,100 174.8627019,-36.919465,100 174.8627039,-36.919463,100 174.8627359,-36.919438,100 174.8627469,-36.919428,100 174.8627739,-36.919398,100 174.8627849,-36.919388,100 174.8628189,-36.919363,100 174.8628259,-36.919358,100 174.8628589,-36.919333,100 174.8628639,-36.91933,100 174.8628959,-36.919304,100 174.8629019,-36.919299,100 174.8629359,-36.919275,100 174.8629489,-36.919265,100 174.8629789,-36.919238,100 174.8629799,-36.919236,100 174.8630119,-36.91921,100 174.8630169,-36.919206,100 174.8630489,-36.919181,100 174.8630809,-36.919155,100 174.8631119,-36.919128,100 174.8631349,-36.919109,100 174.8631689,-36.919085,100 174.8631969,-36.919067,100 174.8632319,-36.919044,100 174.8632659,-36.919021,100 174.8632729,-36.919016,100 174.8633059,-36.918991,100 174.8633329,-36.918971,100 174.8633669,-36.918948,100 174.8633799,-36.918939,100 174.8634059,-36.918919,100 174.8634379,-36.918893,100 174.8634439,-36.918889,100 174.8634789,-36.918866,100 174.8634799,-36.918865,100 174.8635049,-36.918849,100 174.8635039,-36.918846,100 174.8635029,-36.918839,100 174.8635029,-36.918832,100 174.8635019,-36.918826,100 174.8635049,-36.918818,100 174.8635129,-36.918795,100 174.8635379,-36.918776,100 174.8635729,-36.918764,100 174.8635939,-36.918734,100 174.8635929,-36.918697,100 174.8635889,-36.918689,100 174.8635699,-36.918662,100 174.8635409,-36.918633,100 174.8635239,-36.918623,100 174.8634819,-36.918611,100 174.8634769,-36.918609,100 174.8634429,-36.918586,100 174.8634349,-36.918581,100 174.8634009,-36.918566,100 174.8633679,-36.918552,100 174.8633429,-36.91853,100 174.8633159,-36.918515,100 174.8632929,-36.918502,100 174.8632499,-36.918493,100 174.8632259,-36.91849,100 174.8631819,-36.918483,100 174.8631719,-36.918481,100 174.8631269,-36.918475,100 174.8630889,-36.918472,100 174.8630449,-36.918475,100 174.8630149,-36.918479,100 174.8629699,-36.918483,100 174.8629529,-36.918486,100 174.8629229,-36.918497,100 174.8628769,-36.918496,100 174.8628749,-36.918495,100 174.8628639,-36.918485,100 174.8628449,-36.918463,100 174.8628279,-36.918439,100 174.8628169,-36.918404,100 174.8628159,-36.9184,100 174.8628109,-36.918364,100 174.8628109,-36.918362,100 174.8628109,-36.918329,100 174.8628139,-36.918293,100 174.8628169,-36.918284,100 174.8628349,-36.918251,100 174.8628449,-36.918235,100 174.8628629,-36.918201,100 174.8628709,-36.918184,100 174.8628859,-36.91815,100 174.8628959,-36.918131,100 174.8629179,-36.9181,100 174.8629349,-36.918075,100 174.8629499,-36.918045,100 174.8629549,-36.918018,100 174.8629569,-36.918001,100 174.8629559,-36.917995,100 174.8629569,-36.917986,100 174.8629579,-36.917977,100 174.8629589,-36.917969,100 174.8629609,-36.917965,100 174.8629619,-36.917951,100 174.8629709,-36.917919,100 174.8629769,-36.917883,100 174.8629759,-36.917881,100 174.8629569,-36.917857,100 174.8629299,-36.917832,100 174.8629149,-36.917822,100 174.8629049,-36.917805,100 174.8628859,-36.917785,100 174.8628619,-36.917762,100 174.8628539,-36.917756,100 174.8628399,-36.917722,100 174.8628379,-36.917716,100 174.8628209,-36.917686,100 174.8627969,-36.917655,100 174.8627869,-36.917645,100 174.8627569,-36.917618,100 174.8627549,-36.917616,100 174.8627269,-36.917588,100 174.8627069,-36.91757,100 174.8626719,-36.917548,100 174.8626609,-36.917541,100 174.8626319,-36.917514,100 174.8626229,-36.917504,100 174.8626049,-36.917486,100 174.8625939,-36.917453,100 174.8625949,-36.917415,100 174.8625949,-36.917412,100 174.8625939,-36.917376,100 174.8625959,-36.91734,100 174.8625959,-36.917339,100 174.8625979,-36.917303,100 174.8625979,-36.9173,100 174.8626009,-36.917264,100 174.8626019,-36.917253,100 174.8626099,-36.917218,100 174.8626109,-36.917215,100 174.8626239,-36.917181,100 174.8626269,-36.917177,100 174.8626589,-36.917153,100 174.8626829,-36.917122,100 174.8626839,-36.91712,100 174.8627039,-36.917088,100 174.8627129,-36.917074,100 174.8627329,-36.917043,100 174.8627449,-36.917025,100 174.8627689,-36.916994,100 174.8627849,-36.916973,100 174.8628059,-36.916941,100 174.8628229,-36.916916,100 174.8628459,-36.916885,100 174.8628659,-36.916855,100 174.8628839,-36.916822,100 174.8628929,-36.916798,100 174.8629009,-36.916763,100 174.8629059,-36.916751,100 174.8629339,-36.916723,100 174.8629369,-36.91672,100 174.8629609,-36.91669,100 174.8629639,-36.916686,100 174.8629879,-36.916655,100 174.8629929,-36.916651,100 174.8630299,-36.916632,100 174.8630439,-36.916627,100 174.8630839,-36.916611,100 174.8630949,-36.916606,100 174.8631289,-36.916584,100 174.8631399,-36.916577,100 174.8631739,-36.916552,100 174.8631879,-36.916546,100 174.8632319,-36.916539,100 174.8632329,-36.916539,100 174.8632749,-36.916534,100 174.8633199,-36.91654,100 174.8633239,-36.91654,100 174.8633279,-36.91654,100 174.8633559,-36.916531,100 174.8633909,-36.916509,100 174.8634209,-36.916496,100 174.8634649,-36.9165,100 174.8634849,-36.916506,100 174.8635269,-36.916517,100 174.8635379,-36.91652,100 174.8635809,-36.91653,100 174.8635879,-36.916532,100 174.8636299,-36.916544,100 174.8636359,-36.916545,100 174.8636789,-36.916555,100 174.8636919,-36.916559,100 174.8637319,-36.916575,100 174.8637419,-36.916581,100 174.8637749,-36.916601,100 174.8638049,-36.916628,100 174.8638059,-36.916629,100 174.8638339,-36.916657,100 174.8638459,-36.91667,100 174.8638749,-36.916697,100 174.8638999,-36.916719,100 174.8639279,-36.916748,100 174.8639479,-36.916769,100 174.8639729,-36.916799,100 174.8639779,-36.916805,100 174.8639989,-36.916837,100 174.8640039,-36.916842,100 174.8640299,-36.916872,100 174.8640469,-36.916887,100 174.8640769,-36.916914,100 174.8640789,-36.916915,100 174.8641109,-36.916941,100 174.8641259,-36.916952,100 174.8641609,-36.916975,100 174.8641799,-36.916986,100 174.8642169,-36.917007,100 174.8642339,-36.917015,100 174.8642729,-36.917035,100 174.8642839,-36.917037,100 174.8642869,-36.917037,100 174.8643209,-36.917034,100 174.8643509,-36.917031,100 174.8643959,-36.917034,100 174.8644059,-36.917034,100 174.8644449,-36.917035,100 174.8644889,-36.917039,100 174.8645269,-36.917041,100 174.8645599,-36.917047,100 174.8645849,-36.917045,100 174.8645909,-36.91704,100 174.8645689,-36.917035,100 174.8645419,-36.917031,100 174.8645109,-36.917031,100 174.8644729,-36.917024,100 174.8644289,-36.917017,100 174.8644159,-36.917015,100 174.8643719,-36.917007,100 174.8643629,-36.917004,100 174.8643249,-36.916985,100 174.8643169,-36.91698,100 174.8642809,-36.916959,100 174.8642579,-36.91694,100 174.8642349,-36.91691,100 174.8642329,-36.916907,100 174.8642109,-36.916878,100 174.8641929,-36.916845,100 174.8641809,-36.916823,100 174.8641619,-36.91679,100 174.8641499,-36.916774,100 174.8641199,-36.916748,100 174.8641119,-36.916741,100 174.8640909,-36.916709,100 174.8640909,-36.916707,100 174.8640789,-36.916674,100 174.8640739,-36.916654,100 174.8640659,-36.916619,100 174.8640649,-36.916593,100 174.8640739,-36.916558,100 174.8640849,-36.916526,100 174.8640879,-36.91649,100 174.8640899,-36.91648,100 174.8641079,-36.916448,100 174.8641159,-36.916436,100 174.8641369,-36.916404,100 174.8641479,-36.91639,100 174.8641739,-36.91636,100 174.8641829,-36.916351,100 174.8641989,-36.916336,100 174.8642179,-36.916303,100 174.8642269,-36.916288,100 174.8642559,-36.916262,100 174.8642889,-36.916237,100 174.8642989,-36.916228,100 174.8643249,-36.916199,100 174.8643349,-36.916189,100 174.8643599,-36.916169,100 174.8643809,-36.916138,100 174.8643889,-36.91612,100 174.8644099,-36.916088,100 174.8644329,-36.916058,100 174.8644339,-36.916057,100 174.8644589,-36.916028,100 174.8644789,-36.916006,100 174.8645019,-36.915975,100 174.8645129,-36.915959,100 174.8645359,-36.915928,100 174.8645579,-36.915897,100 174.8645739,-36.915873,100 174.8645939,-36.915841,100 174.8646089,-36.915819,100 174.8646309,-36.915787,100 174.8646409,-36.915772,100 174.8646549,-36.915738,100 174.8646619,-36.915721,100 174.8646789,-36.915687,100 174.8646979,-36.915655,100 174.8647159,-36.915627,100 174.8647389,-36.915599,100 174.8647729,-36.915576,100 174.8647809,-36.91557,100 174.8648039,-36.915549,100 174.8648099,-36.915534,100 174.8648379,-36.915521,100 174.8648689,-36.915495,100 174.8648759,-36.915488,100 174.8649039,-36.91546,100 174.8649109,-36.915454,100 174.8649489,-36.915435,100 174.8649739,-36.915425,100 174.8650129,-36.915406,100 174.8650319,-36.915398,100 174.8650739,-36.915385,100 174.8650879,-36.915383,100 174.8651329,-36.915386,100 174.8651339,-36.915386,100 174.8651349,-36.915386,100 174.8651539,-36.915385,100 174.8651959,-36.915377,100 174.8652239,-36.91538,100 174.8652649,-36.915394,100 174.8652659,-36.915394,100 174.8652989,-36.915418,100 174.8653099,-36.915428,100 174.8653429,-36.915452,100 174.8653589,-36.915464,100 174.8653909,-36.915489,100 174.8654059,-36.915502,100 174.8654359,-36.91553,100 174.8654389,-36.915533,100 174.8654689,-36.915561,100 174.8654759,-36.915566,100 174.8655119,-36.915586,100 174.8655569,-36.915591,100 174.8655679,-36.91559,100 174.8656099,-36.915577,100 174.8656149,-36.915576,100 174.8656459,-36.915569,100 174.8656849,-36.915586,100 174.8656929,-36.915593,100 174.8657159,-36.915616,100 174.8657349,-36.915649,100 174.8657449,-36.915676,100 174.8657559,-36.915711,100 174.8657569,-36.915713,100 174.8657749,-36.915746,100 174.8658019,-36.915775,100 174.8658149,-36.915784,100 174.8658529,-36.915802,100 174.8658619,-36.915806,100 174.8658999,-36.915824,100 174.8659059,-36.915826,100 174.8659499,-36.915834,100 174.8659539,-36.915834,100 174.8659989,-36.915835,100 174.8660059,-36.915834,100 174.8660509,-36.915833,100 174.8660539,-36.915833,100 174.8660989,-36.915837,100 174.8661269,-36.91584,100 174.8661709,-36.915846,100 174.8661949,-36.91585,100 174.8662379,-36.91586,100 174.8662459,-36.915862,100 174.8662629,-36.915867,100 174.8662819,-36.915869,100 174.8662939,-36.915869,100 174.8663119,-36.915868,100 174.8663179,-36.915867,100 174.8663359,-36.915864,100 174.8663409,-36.915864,100 174.8663599,-36.915865,100 174.8663629,-36.915865,100 174.8663659,-36.915866,100 174.8663849,-36.915865,100 174.8663869,-36.915865,100 174.8663899,-36.915865,100 174.8664089,-36.915865,100 174.8664129,-36.915865,100 174.8664249,-36.915865,100 174.8664669,-36.915863,100 174.8665089,-36.915862,100 174.8665599,-36.915863,100 174.8665759,-36.915864,100 174.8666119,-36.915867,100 174.8666409,-36.915877,100 174.8666829,-36.915883,100 174.8667079,-36.915893,100 174.8667409,-36.91591,100 174.8667829,-36.915935,100 174.8668079,-36.915949,100 174.8668319,-36.915964,100 174.8668489,-36.915979,100 174.8668719,-36.916004,100 174.8668959,-36.91603,100 174.8669149,-36.916064,100 174.8669249,-36.916087,100 174.8669299,-36.916116,100 174.8669439,-36.91616,100 174.8669339,-36.916212,100 174.8669379,-36.91622,100 174.8669639,-36.916207,100 174.8669939,-36.916179,100 174.8670039,-36.91617,100 174.8670119,-36.91616,100 174.8670259,-36.916149,100 174.8670409,-36.916134,100 174.8670639,-36.916122,100 174.8670899,-36.916109,100 174.8671199,-36.9161,100 174.8671709,-36.916082,100 174.8672129,-36.916076,100 174.8672639,-36.916072,100 174.8673179,-36.916069,100 174.8673709,-36.916072,100 174.8674189,-36.916078,100 174.8674679,-36.916085,100 174.8675179,-36.916097,100 174.8675389,-36.916111,100 174.8675469,-36.916112,100 174.8675739,-36.916117,100 174.8676079,-36.916123,100 174.8676129,-36.916125,100 174.8676329,-36.916132,100 174.8676619,-36.916148,100 174.8677039,-36.916164,100 174.8677409,-36.916174,100 174.8677799,-36.916184,100 174.8678149,-36.916195,100 174.8678529,-36.916208,100 174.8678959,-36.916214,100 174.8679229,-36.916224,100 174.8679699,-36.91624,100 174.8680209,-36.916256,100 174.8680779,-36.916271,100 174.8681169,-36.916287,100 174.8681249,-36.91629,100 174.8681729,-36.9163,100 174.8682249,-36.916315,100 174.8682719,-36.916327,100 174.8683239,-36.91634,100 174.8683579,-36.916346,100 174.8683919,-36.916352,100 174.8684199,-36.916358,100 174.8684389,-36.916353,100 174.8684569,-36.916348,100 174.8684749,-36.916344,100 174.8684939,-36.916342,100 174.8684969,-36.916342,100 174.8685159,-36.916344,100 174.8685339,-36.916347,100 174.8685449,-36.916349,100 174.8685639,-36.91635,100 174.8685829,-36.91635,100 174.8686019,-36.916348,100 174.8686089,-36.916346,100 174.8686269,-36.916341,100 174.8686369,-36.916338,100 174.8686259,-36.916337,100 174.8686069,-36.916334,100 174.8685889,-36.916329,100 174.8685789,-36.916326,100 174.8685609,-36.916319,100 174.8685459,-36.91631,100 174.8685379,-36.916304,100 174.8685269,-36.916291,100 174.8685169,-36.916277,100 174.8685069,-36.916264,100 174.8684959,-36.916252,100 174.8684819,-36.916245,100 174.8684639,-36.91624,100 174.8684459,-36.916235,100 174.8684269,-36.916232,100 174.8684069,-36.916228,100 174.8683779,-36.916225,100 174.8683479,-36.916221,100 174.8683219,-36.916211,100 174.8682949,-36.916209,100 174.8682649,-36.91621,100 174.8682409,-36.916211,100 174.8682159,-36.916214,100 174.8681899,-36.916219,100 174.8681569,-36.916223,100 174.8681169,-36.916227,100 174.8680869,-36.916228,100 174.870993,-36.9151138,100 174.8732246,-36.9132609,100 174.8763145,-36.9136384,100 174.88318760849714,-36.914853398700046,100</coordinates>
        </LinearRing>
      </outerBoundaryIs>
    </Polygon>
  </Placemark>
</Document>
</kml>