<?xml version="1.0" encoding="UTF-8"?>
<kml xmlns="http://www.opengis.net/kml/2.2">
<Document>
  <name>Pakuranga (Polygon: Official_Shp) Section 1</name>
  <Placemark>
    <name>Pakuranga (Polygon: Official_Shp) Section 1</name>
    <Style>
      <LineStyle><color>ffff0000</color><width>2</width></LineStyle>
      <PolyStyle><color>66ff0000</color></PolyStyle>
    </Style>
    <Polygon>
      <tessellate>1</tessellate>
      <outerBoundaryIs>
        <LinearRing>
          <coordinates>174.8672629,-36.915941,100 174.8672549,-36.915923,100 174.8672379,-36.915908,100 174.8672139,-36.915887,100 174.8671879,-36.915874,100 174.8671709,-36.915857,100 174.8671559,-36.91584,100 174.8671379,-36.915829,100 174.8671169,-36.915821,100 174.8670929,-36.915816,100 174.8670699,-36.915811,100 174.8670699,-36.915796,100 174.8670819,-36.915779,100 174.8670959,-36.915769,100 174.8671199,-36.915755,100 174.8671369,-36.915749,100 174.8671559,-36.915739,100 174.8671719,-36.915729,100 174.8671729,-36.915714,100 174.8671589,-36.915702,100 174.8671439,-36.915689,100 174.8671219,-36.915678,100 174.8670969,-36.915669,100 174.8670739,-36.915658,100 174.8670609,-36.915645,100 174.8670389,-36.91563,100 174.8670159,-36.91562,100 174.8669839,-36.915612,100 174.8669239,-36.915605,100 174.8668859,-36.915587,100 174.8668579,-36.915569,100 174.8668289,-36.915543,100 174.8667999,-36.915523,100 174.8667709,-36.915507,100 174.8667539,-36.915503,100 174.8667299,-36.9155,100 174.8667109,-36.9155,100 174.8667049,-36.915499,100 174.8666879,-36.915507,100 174.8666719,-36.915515,100 174.8666549,-36.915523,100 174.8666389,-36.91553,100 174.8666259,-36.915535,100 174.8666079,-36.91554,100 174.8665899,-36.915545,100 174.8665779,-36.915547,100 174.8665599,-36.915552,100 174.8665419,-36.915556,100 174.8665249,-36.915559,100 174.8665059,-36.915562,100 174.8664869,-36.915564,100 174.8664679,-36.915565,100 174.8664589,-36.915565,100 174.8664399,-36.915564,100 174.8664389,-36.915564,100 174.8664089,-36.915555,100 174.8663829,-36.915545,100 174.8663549,-36.915523,100 174.8663369,-36.915523,100 174.8663129,-36.915507,100 174.8663089,-36.915505,100 174.8662959,-36.915503,100 174.8662839,-36.915507,100 174.8662649,-36.915509,100 174.8662639,-36.915509,100 174.8662449,-36.91551,100 174.8662259,-36.91551,100 174.8662199,-36.915511,100 174.8662009,-36.915513,100 174.8661999,-36.915514,100 174.8661699,-36.915531,100 174.8661399,-36.91555,100 174.8661059,-36.915573,100 174.8660699,-36.915583,100 174.8660309,-36.915588,100 174.8660079,-36.915587,100 174.8659729,-36.915574,100 174.8659609,-36.915567,100 174.8659269,-36.915543,100 174.8659209,-36.91554,100 174.8658819,-36.915521,100 174.8658689,-36.915515,100 174.8658289,-36.915497,100 174.8658189,-36.915494,100 174.8657769,-36.915481,100 174.8657659,-36.915477,100 174.8657249,-36.915461,100 174.8657109,-36.915454,100 174.8656749,-36.915431,100 174.8656509,-36.915418,100 174.8656139,-36.915397,100 174.8655959,-36.915385,100 174.8655589,-36.915364,100 174.8655239,-36.915354,100 174.8655229,-36.915353,100 174.8654849,-36.915332,100 174.8654729,-36.915325,100 174.8654379,-36.915301,100 174.8654279,-36.915292,100 174.8654009,-36.915263,100 174.8653959,-36.915259,100 174.8653649,-36.915232,100 174.8653419,-36.915223,100 174.8652999,-36.915208,100 174.8652679,-36.91519,100 174.8652479,-36.915178,100 174.8652409,-36.915174,100 174.8652089,-36.91516,100 174.8651879,-36.915152,100 174.8651469,-36.915137,100 174.8651219,-36.915125,100 174.8650839,-36.915108,100 174.8650599,-36.915101,100 174.8650169,-36.91509,100 174.8650069,-36.915087,100 174.8649669,-36.915071,100 174.8649279,-36.915054,100 174.8649079,-36.915043,100 174.8648709,-36.915023,100 174.8648349,-36.915007,100 174.8647959,-36.914991,100 174.8647949,-36.91499,100 174.8647539,-36.914977,100 174.8647119,-36.914965,100 174.8646989,-36.91496,100 174.8646589,-36.914946,100 174.8646449,-36.914943,100 174.8646009,-36.914937,100 174.8645829,-36.914931,100 174.8645409,-36.914922,100 174.8645399,-36.914922,100 174.8644959,-36.914928,100 174.8644949,-36.914928,100 174.8644519,-36.914936,100 174.8644109,-36.914946,100 174.8644019,-36.91495,100 174.8643659,-36.914972,100 174.8643599,-36.914975,100 174.8643229,-36.914994,100 174.8642889,-36.915004,100 174.8642819,-36.915005,100 174.8642379,-36.915011,100 174.8641989,-36.91501,100 174.8641629,-36.915001,100 174.8641529,-36.914993,100 174.8641359,-36.914901,100 174.8641329,-36.914906,100 174.8641299,-36.914915,100 174.8641079,-36.914946,100 174.8641059,-36.914953,100 174.8640879,-36.914978,100 174.8640589,-36.915029,100 174.8640489,-36.915064,100 174.8640129,-36.915163,100 174.8639539,-36.915234,100 174.8638749,-36.915285,100 174.8638559,-36.915294,100 174.8637979,-36.915337,100 174.8637509,-36.915368,100 174.8637419,-36.915372,100 174.8637389,-36.915371,100 174.8636429,-36.915423,100 174.8635759,-36.915451,100 174.8634629,-36.915524,100 174.8634479,-36.915537,100 174.8632939,-36.915633,100 174.8631919,-36.915654,100 174.8630749,-36.915644,100 174.8630689,-36.915642,100 174.8630639,-36.915641,100 174.8630109,-36.915632,100 174.8629899,-36.915631,100 174.8629729,-36.915627,100 174.8629659,-36.915627,100 174.8628939,-36.915613,100 174.8628909,-36.91561,100 174.8628339,-36.915596,100 174.8628189,-36.915595,100 174.8628029,-36.915592,100 174.8627829,-36.915584,100 174.8627669,-36.915585,100 174.8627419,-36.915586,100 174.8627019,-36.915585,100 174.8626599,-36.915586,100 174.8626179,-36.915585,100 174.8625779,-36.91559,100 174.8625759,-36.91559,100 174.8625339,-36.9156,100 174.8625329,-36.9156,100 174.8624899,-36.915611,100 174.8624889,-36.915611,100 174.8624459,-36.91562,100 174.8624019,-36.915617,100 174.8623999,-36.915617,100 174.8623559,-36.915616,100 174.8623179,-36.915611,100 174.8623169,-36.91561,100 174.8622729,-36.915608,100 174.8622599,-36.915608,100 174.8622159,-36.915613,100 174.8622089,-36.915613,100 174.8621649,-36.915616,100 174.8621639,-36.915616,100 174.8621209,-36.915625,100 174.8620799,-36.915629,100 174.8620509,-36.915631,100 174.8620069,-36.915637,100 174.8619939,-36.915641,100 174.8619529,-36.915654,100 174.8619319,-36.915659,100 174.8618889,-36.915668,100 174.8618869,-36.915668,100 174.8618449,-36.915679,100 174.8618079,-36.91568,100 174.8618059,-36.91568,100 174.8617609,-36.915678,100 174.8617239,-36.915688,100 174.8616889,-36.915693,100 174.8616539,-36.915696,100 174.8616129,-36.915702,100 174.8615849,-36.915706,100 174.8615429,-36.915719,100 174.8615159,-36.915733,100 174.8615119,-36.915735,100 174.8614759,-36.915756,100 174.8614409,-36.915776,100 174.8614069,-36.915789,100 174.8613769,-36.915774,100 174.8613709,-36.915763,100 174.8613499,-36.915738,100 174.8613259,-36.915716,100 174.8612939,-36.9157,100 174.8612839,-36.915698,100 174.8612849,-36.915726,100 174.8612829,-36.915729,100 174.8612849,-36.915811,100 174.8612839,-36.915812,100 174.8612859,-36.915814,100 174.8613039,-36.915834,100 174.8613179,-36.915861,100 174.8613339,-36.91589,100 174.8613499,-36.915919,100 174.8613709,-36.915951,100 174.8613739,-36.915956,100 174.8613929,-36.915989,100 174.8613939,-36.91599,100 174.8614079,-36.916024,100 174.8614089,-36.916028,100 174.8614139,-36.916064,100 174.8614139,-36.916073,100 174.8614159,-36.916109,100 174.8614149,-36.91611,100 174.8614119,-36.916138,100 174.8613969,-36.916171,100 174.8613939,-36.916176,100 174.8613739,-36.916204,100 174.8613579,-36.916233,100 174.8613379,-36.916265,100 174.8613339,-36.916269,100 174.8613059,-36.916297,100 174.8613049,-36.916297,100 174.8612789,-36.916321,100 174.8612499,-36.916343,100 174.8612219,-36.916359,100 174.8611789,-36.916367,100 174.8611769,-36.916368,100 174.8611499,-36.916376,100 174.8611069,-36.916387,100 174.8611019,-36.916389,100 174.8610699,-36.916397,100 174.8610349,-36.916419,100 174.8610339,-36.91642,100 174.8610019,-36.91644,100 174.8609989,-36.916464,100 174.8610139,-36.916491,100 174.8610309,-36.916522,100 174.8610389,-36.916544,100 174.8610319,-36.91658,100 174.8610309,-36.916583,100 174.8610259,-36.916618,100 174.8610249,-36.916624,100 174.8610159,-36.916659,100 174.8610149,-36.916663,100 174.8610009,-36.916696,100 174.8609799,-36.916722,100 174.8609519,-36.91675,100 174.8609499,-36.916752,100 174.8609209,-36.916779,100 174.8609199,-36.91678,100 174.8608929,-36.916805,100 174.8608659,-36.916824,100 174.8608269,-36.916842,100 174.8608259,-36.916842,100 174.8607859,-36.916857,100 174.8607449,-36.916871,100 174.8607389,-36.916873,100 174.8607089,-36.916885,100 174.8606779,-36.916894,100 174.8606389,-36.916909,100 174.8606069,-36.916918,100 174.8605699,-36.916933,100 174.8605509,-36.916939,100 174.8605529,-36.91694,100 174.8605539,-36.916956,100 174.8605539,-36.916966,100 174.8605479,-36.916985,100 174.8605499,-36.917015,100 174.8605539,-36.917029,100 174.8605569,-36.917039,100 174.8605549,-36.917051,100 174.8605539,-36.917133,100 174.8605519,-36.917148,100 174.8605489,-36.917184,100 174.8605439,-36.917211,100 174.8605439,-36.917218,100 174.8605339,-36.917259,100 174.8605339,-36.917265,100 174.8605199,-36.917317,100 174.8604829,-36.917387,100 174.8604739,-36.917448,100 174.8604639,-36.917473,100 174.8604599,-36.917515,100 174.8604569,-36.917524,100 174.8604139,-36.917584,100 174.8603759,-36.917615,100 174.8603679,-36.91762,100 174.8603379,-36.917628,100 174.8602909,-36.917647,100 174.8601949,-36.917677,100 174.8601639,-36.91769,100 174.8601119,-36.917708,100 174.8600759,-36.917714,100 174.8600659,-36.917716,100 174.8600429,-36.917719,100 174.8599379,-36.917715,100 174.8599069,-36.917715,100 174.8598839,-36.917714,100 174.8598559,-36.917707,100 174.8598299,-36.917705,100 174.8598159,-36.917706,100 174.8598089,-36.917705,100 174.8597939,-36.917703,100 174.8597719,-36.917694,100 174.8597439,-36.917689,100 174.8596729,-36.917667,100 174.8596389,-36.917658,100 174.8595869,-36.917637,100 174.8595679,-36.917625,100 174.8595589,-36.917613,100 174.8595519,-36.917618,100 174.8594999,-36.917569,100 174.8594909,-36.917557,100 174.8594849,-36.91754,100 174.8594799,-36.917505,100 174.8594769,-36.917491,100 174.8594759,-36.917486,100 174.8594739,-36.917481,100 174.8594729,-36.917395,100 174.8594659,-36.917359,100 174.8594719,-36.917274,100 174.8594779,-36.917265,100 174.8594869,-36.917251,100 174.8594919,-36.917237,100 174.8595159,-36.917191,100 174.8595189,-36.917183,100 174.8595249,-36.917172,100 174.8595269,-36.917164,100 174.8595489,-36.917125,100 174.8595529,-36.917115,100 174.8595599,-36.917101,100 174.8595629,-36.917086,100 174.8595729,-36.917067,100 174.8595829,-36.917006,100 174.8595819,-36.916998,100 174.8595839,-36.916986,100 174.8595849,-36.916983,100 174.8595769,-36.916928,100 174.8595729,-36.916915,100 174.8595719,-36.9169,100 174.8595489,-36.91685,100 174.8595439,-36.916838,100 174.8595289,-36.916817,100 174.8595229,-36.916807,100 174.8595219,-36.916802,100 174.8595209,-36.916793,100 174.8595169,-36.916772,100 174.8595129,-36.916766,100 174.8595029,-36.916746,100 174.8595009,-36.916734,100 174.8594889,-36.916711,100 174.8594869,-36.916704,100 174.8594859,-36.916688,100 174.8594789,-36.916652,100 174.8594599,-36.916607,100 174.8594579,-36.9166,100 174.8594559,-36.916596,100 174.8594539,-36.916592,100 174.8594469,-36.916579,100 174.8594469,-36.916574,100 174.8594429,-36.916568,100 174.8594379,-36.916562,100 174.8594329,-36.916553,100 174.8593979,-36.91651,100 174.8593669,-36.916487,100 174.8593309,-36.91647,100 174.8593069,-36.916454,100 174.8592669,-36.916434,100 174.8592299,-36.916423,100 174.8592239,-36.916421,100 174.8592169,-36.916419,100 174.8592059,-36.916415,100 174.8591959,-36.916414,100 174.8591819,-36.916408,100 174.8591629,-36.916405,100 174.8591439,-36.916399,100 174.8591259,-36.916389,100 174.8591089,-36.916387,100 174.8591019,-36.916384,100 174.8590879,-36.916386,100 174.8590819,-36.916385,100 174.8590369,-36.91637,100 174.8590289,-36.916365,100 174.8590179,-36.916361,100 174.8590139,-36.916358,100 174.8589939,-36.916354,100 174.8589789,-36.91635,100 174.8589709,-36.916345,100 174.8589569,-36.916342,100 174.8589519,-36.916339,100 174.8589319,-36.916325,100 174.8589129,-36.916314,100 174.8588759,-36.916309,100 174.8588569,-36.916309,100 174.8588409,-36.91631,100 174.8588199,-36.916307,100 174.8588119,-36.916304,100 174.8587999,-36.916299,100 174.8587849,-36.916297,100 174.8586979,-36.916293,100 174.8586919,-36.916292,100 174.8586879,-36.916291,100 174.8586589,-36.916287,100 174.8586469,-36.916283,100 174.8586349,-36.916281,100 174.8586099,-36.916272,100 174.8585929,-36.916268,100 174.8585789,-36.916265,100 174.8585729,-36.916264,100 174.8585309,-36.916234,100 174.8585189,-36.916222,100 174.8585029,-36.916212,100 174.8584989,-36.91621,100 174.8584789,-36.916189,100 174.8584759,-36.916181,100 174.8584739,-36.916153,100 174.8584759,-36.916138,100 174.8585229,-36.916048,100 174.8585559,-36.915966,100 174.8585679,-36.915941,100 174.8585769,-36.915918,100 174.8585809,-36.91591,100 174.8585989,-36.915869,100 174.8586019,-36.915864,100 174.8586339,-36.915742,100 174.8586419,-36.915718,100 174.8586449,-36.915695,100 174.8586629,-36.91564,100 174.8586679,-36.91561,100 174.8587389,-36.91531,100 174.8587389,-36.915305,100 174.8587519,-36.915259,100 174.8587519,-36.915253,100 174.8587559,-36.915237,100 174.8587559,-36.915233,100 174.8587659,-36.915207,100 174.8587669,-36.915201,100 174.8587689,-36.915191,100 174.8587779,-36.915149,100 174.8587799,-36.915119,100 174.8587819,-36.91511,100 174.8587819,-36.915105,100 174.8587909,-36.915076,100 174.8587949,-36.915043,100 174.8587959,-36.915039,100 174.8587949,-36.91502,100 174.8587859,-36.914975,100 174.8587859,-36.914972,100 174.8587749,-36.914953,100 174.8587769,-36.914941,100 174.8587739,-36.914887,100 174.8587759,-36.91487,100 174.8587829,-36.914855,100 174.8587849,-36.914839,100 174.8587879,-36.914834,100 174.8587959,-36.914793,100 174.8588079,-36.91477,100 174.8588099,-36.914765,100 174.8588139,-36.914755,100 174.8588259,-36.914742,100 174.8588349,-36.914735,100 174.8588579,-36.914716,100 174.8589129,-36.914685,100 174.8589359,-36.914677,100 174.8589679,-36.914662,100 174.8590039,-36.914649,100 174.8590329,-36.914643,100 174.8590879,-36.914623,100 174.8590969,-36.914621,100 174.8591309,-36.914612,100 174.8591489,-36.914609,100 174.8591869,-36.914599,100 174.8593389,-36.914568,100 174.8593419,-36.914567,100 174.8593979,-36.914551,100 174.8594219,-36.914537,100 174.8595079,-36.914516,100 174.8595139,-36.914516,100 174.8595369,-36.91451,100 174.8595899,-36.914491,100 174.8596139,-36.914485,100 174.8596659,-36.914463,100 174.8596679,-36.914461,100 174.8596799,-36.914458,100 174.8596999,-36.91445,100 174.8597419,-36.914434,100 174.8597479,-36.914431,100 174.8597909,-36.914417,100 174.8597969,-36.914415,100 174.8598359,-36.914396,100 174.8598749,-36.914375,100 174.8598839,-36.914368,100 174.8599079,-36.914336,100 174.8599109,-36.914327,100 174.8599159,-36.914289,100 174.8599169,-36.914286,100 174.8599269,-36.91425,100 174.8599329,-36.914234,100 174.8599439,-36.914203,100 174.8599799,-36.914179,100 174.8600129,-36.914153,100 174.8600469,-36.914127,100 174.8600549,-36.914119,100 174.8600829,-36.914089,100 174.8600949,-36.914073,100 174.8601149,-36.914039,100 174.8601229,-36.914025,100 174.8601419,-36.913991,100 174.8601539,-36.913973,100 174.8601799,-36.913943,100 174.8601989,-36.913909,100 174.8602119,-36.91388,100 174.8602289,-36.913845,100 174.8602429,-36.913816,100 174.8602589,-36.913781,100 174.8602739,-36.913745,100 174.8602739,-36.913743,100 174.8602879,-36.913707,100 174.8603009,-36.913676,100 174.8603159,-36.91364,100 174.8603239,-36.913621,100 174.8603299,-36.913583,100 174.8603329,-36.91355,100 174.8603399,-36.913513,100 174.8603459,-36.913482,100 174.8603509,-36.913444,100 174.8603519,-36.913439,100 174.8603619,-36.913402,100 174.8603639,-36.913393,100 174.8603689,-36.913356,100 174.8603699,-36.913347,100 174.8603789,-36.91331,100 174.8603809,-36.913297,100 174.8603739,-36.91326,100 174.8603639,-36.913223,100 174.8603629,-36.913215,100 174.8603669,-36.913178,100 174.8603749,-36.913141,100 174.8603759,-36.913134,100 174.8603849,-36.913097,100 174.8603909,-36.91306,100 174.8603919,-36.913031,100 174.8603869,-36.912993,100 174.8603769,-36.912958,100 174.8603689,-36.912926,100 174.8565609,-36.911221,100 174.8565549,-36.911185,100 174.8565529,-36.911177,100 174.8565399,-36.911143,100 174.8565359,-36.911132,100 174.8565299,-36.91111,100 174.8565299,-36.911106,100 174.8564769,-36.911089,100 174.8564789,-36.911082,100 174.8564799,-36.911075,100 174.8564819,-36.911068,100 174.8564839,-36.911061,100 174.8564849,-36.911054,100 174.8564869,-36.911047,100 174.8564879,-36.91104,100 174.8564899,-36.911033,100 174.8564909,-36.911026,100 174.8564919,-36.911019,100 174.8564929,-36.911012,100 174.8564939,-36.911005,100 174.8564949,-36.910998,100 174.8564959,-36.910991,100 174.8564969,-36.910984,100 174.8564969,-36.910977,100 174.8564979,-36.91097,100 174.8564979,-36.910963,100 174.8564979,-36.910956,100 174.8564989,-36.91095,100 174.8564989,-36.910943,100 174.8564989,-36.910937,100 174.8564989,-36.910931,100 174.8564989,-36.910924,100 174.8564979,-36.910918,100 174.8564979,-36.910912,100 174.8564979,-36.910906,100 174.8564969,-36.9109,100 174.8564969,-36.910894,100 174.8564969,-36.910888,100 174.8564999,-36.910881,100 174.8565039,-36.910874,100 174.8565079,-36.910867,100 174.8565109,-36.91086,100 174.8565149,-36.910853,100 174.8565179,-36.910846,100 174.8565219,-36.910839,100 174.8565249,-36.910832,100 174.8565279,-36.910826,100 174.8565299,-36.910819,100 174.8565319,-36.910813,100 174.8565339,-36.910807,100 174.8565349,-36.910801,100 174.8565359,-36.910795,100 174.8565369,-36.91079,100 174.8565379,-36.910784,100 174.8565389,-36.910779,100 174.8565399,-36.910774,100 174.8565419,-36.910769,100 174.8565439,-36.910764,100 174.8565459,-36.91076,100 174.8565489,-36.910756,100 174.8565519,-36.910752,100 174.8565549,-36.910749,100 174.8565589,-36.910746,100 174.8565619,-36.910743,100 174.8565649,-36.91074,100 174.8565689,-36.910736,100 174.8565719,-36.910733,100 174.8565759,-36.91073,100 174.8565779,-36.910728,100 174.8565929,-36.910694,100 174.8565929,-36.910693,100 174.8566009,-36.910658,100 174.8566019,-36.910622,100 174.8566019,-36.910604,100 174.8602799,-36.912191,100 174.8602599,-36.912159,100 174.8602399,-36.912127,100 174.8602339,-36.912119,100 174.8602079,-36.91209,100 174.8601969,-36.912077,100 174.8601709,-36.912048,100 174.8601589,-36.912033,100 174.8601419,-36.912,100 174.8601299,-36.911975,100 174.8601089,-36.911943,100 174.8600999,-36.911931,100 174.8600809,-36.911898,100 174.8600639,-36.911868,100 174.8600429,-36.911836,100 174.8600219,-36.911809,100 174.8599959,-36.91178,100 174.8599689,-36.911751,100 174.8599659,-36.911747,100 174.8599429,-36.911716,100 174.8599289,-36.911697,100 174.8599069,-36.911665,100 174.8598859,-36.911634,100 174.8598849,-36.911633,100 174.8598649,-36.9116,100 174.8598459,-36.911568,100 174.8598449,-36.911567,100 174.8598269,-36.911535,100 174.8598259,-36.911533,100 174.8598039,-36.911502,100 174.8597809,-36.911471,100 174.8597559,-36.911436,100 174.8597419,-36.911413,100 174.8597179,-36.911382,100 174.8596949,-36.911351,100 174.8596929,-36.911349,100 174.8596759,-36.911315,100 174.8596639,-36.911296,100 174.8596409,-36.911265,100 174.8596389,-36.911262,100 174.8596119,-36.911233,100 174.8595979,-36.911219,100 174.8595669,-36.911193,100 174.8595569,-36.911183,100 174.8595309,-36.911153,100 174.8595179,-36.911136,100 174.8594969,-36.911104,100 174.8594759,-36.911072,100 174.8594749,-36.91107,100 174.8594509,-36.91104,100 174.8594359,-36.911024,100 174.8594049,-36.910997,100 174.8593959,-36.910989,100 174.8593679,-36.91096,100 174.8593609,-36.910951,100 174.8593569,-36.910943,100 174.8593419,-36.910919,100 174.8593339,-36.91091,100 174.8592959,-36.910891,100 174.8592849,-36.910885,100 174.8592649,-36.910854,100 174.8592509,-36.910826,100 174.8592239,-36.910798,100 174.8592039,-36.910781,100 174.8591729,-36.910755,100 174.8591519,-36.910736,100 174.8591249,-36.910707,100 174.8591149,-36.910693,100 174.8590939,-36.910662,100 174.8590759,-36.910629,100 174.8590569,-36.910597,100 174.8590359,-36.910568,100 174.8590079,-36.910541,100 174.8590059,-36.910539,100 174.8589949,-36.910529,100 174.8589689,-36.910499,100 174.8589589,-36.910485,100 174.8589409,-36.910452,100 174.8589299,-36.910429,100 174.8589139,-36.910396,100 174.8589069,-36.910381,100 174.8588929,-36.910347,100 174.8588879,-36.910338,100 174.8588649,-36.910307,100 174.8588379,-36.910278,100 174.8588359,-36.910275,100 174.8588089,-36.910247,100 174.8587919,-36.91023,100 174.8587639,-36.910202,100 174.8587439,-36.910183,100 174.8587169,-36.910154,100 174.8586959,-36.910128,100 174.8586709,-36.910099,100 174.8586549,-36.910075,100 174.8586379,-36.910042,100 174.8586359,-36.910035,100 174.8586309,-36.910018,100 174.8586249,-36.909983,100 174.8586249,-36.909956,100 174.8586359,-36.909921,100 174.8586449,-36.909887,100 174.8586459,-36.909881,100 174.8586399,-36.909846,100 174.8586369,-36.909835,100 174.8586239,-36.909801,100 174.8586229,-36.909788,100 174.8586279,-36.909769,100 174.8586119,-36.909736,100 174.8586089,-36.909728,100 174.8586059,-36.909706,100 174.8584749,-36.909779,100 174.8582969,-36.909588,100 174.8583669,-36.909527,100 174.8583669,-36.909498,100 174.8583579,-36.909464,100 174.8583519,-36.909447,100 174.8583369,-36.909414,100 174.8583349,-36.909407,100 174.8583339,-36.909383,100 174.8583509,-36.909352,100 174.8583629,-36.909318,100 174.8583649,-36.909312,100 174.8583879,-36.909283,100 174.8583899,-36.909281,100 174.8584159,-36.909253,100 174.8584339,-36.909236,100 174.8584619,-36.909209,100 174.8584719,-36.909201,100 174.8585009,-36.909176,100 174.8585229,-36.909146,100 174.8585289,-36.909134,100 174.8585459,-36.909103,100 174.8585679,-36.909078,100 174.8585789,-36.909059,100 174.8585819,-36.90905,100 174.8586019,-36.909017,100 174.8586039,-36.909013,100 174.8586049,-36.909014,100 174.8586319,-36.908989,100 174.8586379,-36.908979,100 174.8586689,-36.908952,100 174.8586879,-36.908938,100 174.8587059,-36.908929,100 174.8587229,-36.908918,100 174.8588759,-36.908771,100 174.8588809,-36.908764,100 174.8588859,-36.908758,100 174.8588869,-36.908757,100 174.8588909,-36.908751,100 174.8588949,-36.908745,100 174.8588969,-36.908741,100 174.8589009,-36.908735,100 174.8589039,-36.90873,100 174.8589079,-36.908723,100 174.8589119,-36.908717,100 174.8589159,-36.90871,100 174.8589199,-36.908704,100 174.8589229,-36.908698,100 174.8589269,-36.908691,100 174.8589309,-36.908685,100 174.8589349,-36.908678,100 174.8589389,-36.908672,100 174.8589409,-36.908669,100 174.8589449,-36.908663,100 174.8589479,-36.908656,100 174.8589519,-36.90865,100 174.8589529,-36.908648,100 174.8589619,-36.908644,100 174.8589229,-36.90859,100 174.8588809,-36.908542,100 174.8589819,-36.908493,100 174.8590409,-36.908561,100 174.8591219,-36.90865,100 174.8592469,-36.908591,100 174.8592109,-36.908529,100 174.8592559,-36.90851,100 174.8593269,-36.908621,100 174.8593339,-36.908619,100 174.8593429,-36.908617,100 174.8593519,-36.908615,100 174.8593599,-36.908612,100 174.8593689,-36.90861,100 174.8593779,-36.908608,100 174.8593859,-36.908605,100 174.8593939,-36.908603,100 174.8594029,-36.9086,100 174.8594109,-36.908597,100 174.8594179,-36.908593,100 174.8594259,-36.90859,100 174.8594329,-36.908586,100 174.8594399,-36.908582,100 174.8594469,-36.908577,100 174.8594539,-36.908572,100 174.8594609,-36.908568,100 174.8594669,-36.908562,100 174.8594729,-36.908557,100 174.8594789,-36.908552,100 174.8594849,-36.908546,100 174.8594909,-36.90854,100 174.8594959,-36.908535,100 174.8595019,-36.908529,100 174.8595069,-36.908523,100 174.8595119,-36.908517,100 174.8595149,-36.908514,100 174.8595199,-36.908508,100 174.8595249,-36.908502,100 174.8595299,-36.908496,100 174.8595349,-36.90849,100 174.8595399,-36.908484,100 174.8595439,-36.908477,100 174.8595479,-36.908471,100 174.8595519,-36.908464,100 174.8595559,-36.908459,100 174.8595589,-36.908453,100 174.8595629,-36.908446,100 174.8595659,-36.90844,100 174.8595689,-36.908433,100 174.8595729,-36.908426,100 174.8595759,-36.908419,100 174.8595779,-36.908413,100 174.8595809,-36.908406,100 174.8595839,-36.908399,100 174.8595869,-36.908392,100 174.8595889,-36.908385,100 174.8595919,-36.908378,100 174.8595949,-36.908371,100 174.8595969,-36.908364,100 174.8596429,-36.908395,100 174.8596579,-36.908405,100 174.8596689,-36.908393,100 174.8596789,-36.908381,100 174.8596889,-36.908368,100 174.8596989,-36.908355,100 174.8597009,-36.908352,100 174.8597089,-36.908339,100 174.8597169,-36.908325,100 174.8597249,-36.908312,100 174.8597319,-36.908298,100 174.8597379,-36.908288,100 174.8597459,-36.908275,100 174.8597549,-36.908262,100 174.8597639,-36.908249,100 174.8597729,-36.908235,100 174.8597749,-36.908233,100 174.8597839,-36.90822,100 174.8597929,-36.908207,100 174.8598019,-36.908194,100 174.8598109,-36.908181,100 174.8598139,-36.908175,100 174.8598219,-36.908162,100 174.8598299,-36.908148,100 174.8598389,-36.908135,100 174.8598469,-36.908122,100 174.8598539,-36.908113,100 174.8598649,-36.908102,100 174.8598769,-36.90809,100 174.8598879,-36.908078,100 174.8598969,-36.908065,100 174.8599049,-36.908052,100 174.8599139,-36.908039,100 174.8599229,-36.908025,100 174.8599319,-36.908013,100 174.8599329,-36.908012,100 174.8599439,-36.908,100 174.8599519,-36.907993,100 174.8599549,-36.907989,100 174.8599719,-36.907968,100 174.8599879,-36.907948,100 174.8600089,-36.907916,100 174.8600199,-36.907899,100 174.8600439,-36.907868,100 174.8600649,-36.907841,100 174.8600859,-36.907808,100 174.8600939,-36.907798,100 174.8600959,-36.907796,100 174.8601239,-36.907771,100 174.8601359,-36.907761,100 174.8601649,-36.907733,100 174.8601929,-36.907704,100 174.8601959,-36.907702,100 174.8602269,-36.907675,100 174.8602469,-36.907656,100 174.8602699,-36.907628,100 174.8602739,-36.907592,100 174.8602739,-36.907588,100 174.8602899,-36.907554,100 174.8603079,-36.907525,100 174.8603209,-36.90749,100 174.8603349,-36.90746,100 174.8603559,-36.907428,100 174.8603759,-36.907406,100 174.8604059,-36.907379,100 174.8604369,-36.907358,100 174.8604739,-36.907337,100 174.8605139,-36.90732,100 174.8605149,-36.907319,100 174.8605579,-36.907308,100 174.8605989,-36.907299,100 174.8606319,-36.90729,100 174.8606049,-36.907141,100 174.8606059,-36.907139,100 174.8606179,-36.90712,100 174.8606329,-36.90713,100 174.8606429,-36.907149,100 174.8606809,-36.907162,100 174.8607249,-36.907155,100 174.8607349,-36.907151,100 174.8607719,-36.907131,100 174.8607769,-36.907126,100 174.8607939,-36.907096,100 174.8608039,-36.90706,100 174.8608069,-36.90705,100 174.8608239,-36.907022,100 174.8608409,-36.907009,100 174.8608339,-36.90698,100 174.8608209,-36.906961,100 174.8608149,-36.906948,100 174.8608439,-36.90693,100 174.8608859,-36.906921,100 174.8609239,-36.906902,100 174.8609349,-36.906896,100 174.8609729,-36.906875,100 174.8609889,-36.906871,100 174.8610019,-36.906872,100 174.8610319,-36.906898,100 174.8610349,-36.906904,100 174.8610579,-36.906935,100 174.8610679,-36.906952,100 174.8610869,-36.906983,100 174.8611169,-36.90701,100 174.8611279,-36.907015,100 174.8611669,-36.907026,100 174.8612119,-36.907025,100 174.8612229,-36.907024,100 174.8612679,-36.90702,100 174.8613119,-36.907018,100 174.8613329,-36.907017,100 174.8613789,-36.907013,100 174.8613989,-36.907016,100 174.8614339,-36.907037,100 174.8614419,-36.907043,100 174.8614749,-36.907067,100 174.8614889,-36.907077,100 174.8615239,-36.907099,100 174.8615549,-36.90712,100 174.8615839,-36.907148,100 174.8615949,-36.90716,100 174.8616209,-36.907189,100 174.8616349,-36.907206,100 174.8616579,-36.907237,100 174.8616739,-36.907263,100 174.8616919,-36.907294,100 174.8616999,-36.90733,100 174.8617009,-36.907345,100 174.8616999,-36.907381,100 174.8616989,-36.907405,100 174.8616999,-36.907441,100 174.8617029,-36.907477,100 174.8617029,-36.907483,100 174.8617069,-36.907519,100 174.8617079,-36.907547,100 174.8617039,-36.907583,100 174.8617029,-36.90761,100 174.8617049,-36.907646,100 174.8617089,-36.90767,100 174.8617189,-36.907706,100 174.8617219,-36.907716,100 174.8617359,-36.907751,100 174.8617449,-36.907773,100 174.8617559,-36.907808,100 174.8617609,-36.907832,100 174.8617639,-36.907868,100 174.8617649,-36.907891,100 174.8617639,-36.907927,100 174.8617619,-36.90795,100 174.8617589,-36.907986,100 174.8617549,-36.908017,100 174.8617519,-36.908053,100 174.8617469,-36.908083,100 174.8617369,-36.908119,100 174.8617249,-36.908151,100 174.8617119,-36.908185,100 174.8617009,-36.908214,100 174.8616879,-36.908248,100 174.8616819,-36.908258,100 174.8616709,-36.908271,100 174.8616669,-36.908275,100 174.8616649,-36.908278,100 174.8616709,-36.908311,100 174.8616889,-36.908337,100 174.8617029,-36.908371,100 174.8617159,-36.908397,100 174.8617369,-36.908429,100 174.8617569,-36.908457,100 174.8617789,-36.908488,100 174.8617919,-36.908509,100 174.8618069,-36.908542,100 174.8618169,-36.908563,100 174.8618349,-36.908596,100 174.8618439,-36.908612,100 174.8618599,-36.908646,100 174.8618679,-36.908663,100 174.8618829,-36.908697,100 174.8618869,-36.908717,100 174.8618829,-36.908752,100 174.8618819,-36.908758,100 174.8618749,-36.908793,100 174.8618669,-36.908826,100 174.8618579,-36.90886,100 174.8618479,-36.908895,100 174.8618449,-36.908909,100 174.8618389,-36.908945,100 174.8618359,-36.908969,100 174.8618289,-36.909005,100 174.8618309,-36.90904,100 174.8618309,-36.90905,100 174.8618279,-36.909085,100 174.8618259,-36.909113,100 174.8618249,-36.909149,100 174.8618269,-36.909185,100 174.8618269,-36.909187,100 174.8618279,-36.909222,100 174.8618309,-36.909248,100 174.8618369,-36.909283,100 174.8618449,-36.90931,100 174.8618559,-36.909345,100 174.8618579,-36.909353,100 174.8618599,-36.909389,100 174.8618609,-36.909403,100 174.8618709,-36.909438,100 174.8618759,-36.909457,100 174.8618779,-36.909492,100 174.8618799,-36.909514,100 174.8618909,-36.909543,100 174.8618999,-36.909578,100 174.8619019,-36.90959,100 174.8618999,-36.909626,100 174.8618959,-36.90965,100 174.8618889,-36.909686,100 174.8618839,-36.909705,100 174.8618749,-36.90974,100 174.8618749,-36.909741,100 174.8618579,-36.909774,100 174.8618579,-36.909775,100 174.8618509,-36.909805,100 174.8618549,-36.909841,100 174.8618569,-36.90985,100 174.8618609,-36.909886,100 174.8618609,-36.909902,100 174.8618589,-36.909933,100 174.8618549,-36.909969,100 174.8618529,-36.909987,100 174.8618499,-36.910023,100 174.8618479,-36.910029,100 174.8618299,-36.910061,100 174.8618219,-36.910075,100 174.8618109,-36.91011,100 174.8618109,-36.910125,100 174.8618189,-36.91016,100 174.8618169,-36.910177,100 174.8618289,-36.910209,100 174.8618359,-36.910244,100 174.8618369,-36.910249,100 174.8618429,-36.910285,100 174.8618419,-36.910294,100 174.8618269,-36.910328,100 174.8618209,-36.910336,100 174.8617959,-36.910366,100 174.8617869,-36.910376,100 174.8617599,-36.910404,100 174.8617599,-36.910405,100 174.8617439,-36.910424,100 174.8617359,-36.910439,100 174.8617359,-36.910453,100 174.8617589,-36.910459,100 174.8617969,-36.910478,100 174.8618059,-36.910482,100 174.8618489,-36.910491,100 174.8618649,-36.910495,100 174.8619039,-36.910512,100 174.8619339,-36.910529,100 174.8619719,-36.910549,100 174.8619769,-36.910553,100 174.8620129,-36.910574,100 174.8620179,-36.910578,100 174.8620469,-36.910606,100 174.8620509,-36.910612,100 174.8620689,-36.910645,100 174.8620739,-36.910659,100 174.8620819,-36.910695,100 174.8620839,-36.910699,100 174.8620999,-36.910732,100 174.8621139,-36.910752,100 174.8621589,-36.910754,100 174.8621609,-36.910753,100 174.8622049,-36.910748,100 174.8622329,-36.910745,100 174.8622789,-36.910744,100 174.8622879,-36.910744,100 174.8623329,-36.910749,100 174.8623439,-36.91075,100 174.8623829,-36.910748,100 174.8624249,-36.910757,100 174.8624559,-36.910772,100 174.8624839,-36.910777,100 174.8625089,-36.910761,100 174.8625269,-36.910731,100 174.8625429,-36.910697,100 174.8625469,-36.910686,100 174.8625509,-36.910651,100 174.8625589,-36.910615,100 174.8625599,-36.910606,100 174.8625629,-36.91057,100 174.8625629,-36.910559,100 174.8625569,-36.910523,100 174.8625509,-36.910504,100 174.8625399,-36.910468,100 174.8625289,-36.910446,100 174.8625079,-36.910414,100 174.8624939,-36.910394,100 174.8624789,-36.91036,100 174.8624719,-36.910341,100 174.8624559,-36.910307,100 174.8624549,-36.910302,100 174.8624529,-36.910266,100 174.8624529,-36.910262,100 174.8624439,-36.910226,100 174.8624419,-36.910211,100 174.8624459,-36.910175,100 174.8624469,-36.910166,100 174.8624449,-36.910129,100 174.8624449,-36.910119,100 174.8624509,-36.910083,100 174.8624559,-36.910061,100 174.8624649,-36.910026,100 174.8624689,-36.910011,100 174.8624789,-36.909976,100 174.8624809,-36.909971,100 174.8624989,-36.909938,100 174.8625009,-36.909936,100 174.8625229,-36.909904,100 174.8625229,-36.909903,100 174.8625409,-36.909869,100 174.8625459,-36.90986,100 174.8625709,-36.909829,100 174.8625939,-36.909811,100 174.8626339,-36.909795,100 174.8626649,-36.909783,100 174.8626999,-36.909761,100 174.8627229,-36.909748,100 174.8627619,-36.909729,100 174.8627869,-36.909722,100 174.8628319,-36.909719,100 174.8628459,-36.909721,100 174.8628789,-36.909729,100 174.8629109,-36.909754,100 174.8629349,-36.909785,100 174.8629359,-36.909786,100 174.8629519,-36.909806,100 174.8629919,-36.909809,100 174.8630109,-36.909842,100 174.8630389,-36.909868,100 174.8630559,-36.909901,100 174.8630619,-36.909924,100 174.8630729,-36.909959,100 174.8630769,-36.909973,100 174.8630829,-36.910009,100 174.8630869,-36.910028,100 174.8630949,-36.910063,100 174.8630979,-36.910073,100 174.8631109,-36.910102,100 174.8630969,-36.910121,100 174.8630889,-36.910157,100 174.8630879,-36.910166,100 174.8630849,-36.910202,100 174.8630819,-36.91021,100 174.8630629,-36.910238,100 174.8630469,-36.910272,100 174.8630469,-36.910273,100 174.8630319,-36.910307,100 174.8630309,-36.910312,100 174.8630239,-36.910348,100 174.8630209,-36.910362,100 174.8630059,-36.910396,100 174.8630039,-36.910401,100 174.8629949,-36.910437,100 174.8629939,-36.910445,100 174.8629939,-36.910481,100 174.8629939,-36.91049,100 174.8629939,-36.910526,100 174.8629949,-36.910553,100 174.8629959,-36.910578,100 174.8630239,-36.910606,100 174.8630249,-36.910607,100 174.8630519,-36.910637,100 174.8630529,-36.910638,100 174.8630679,-36.910656,100 174.8630699,-36.910661,100 174.8630789,-36.91069,100 174.8630799,-36.910694,100 174.8630909,-36.910726,100 174.8631009,-36.91076,100 174.8631059,-36.910775,100 174.8631169,-36.910804,100 174.8631329,-36.910834,100 174.8631549,-36.910842,100 174.8631929,-36.910825,100 174.8631989,-36.910821,100 174.8632379,-36.910804,100 174.8632559,-36.910796,100 174.8632949,-36.910779,100 174.8632969,-36.910778,100 174.8633339,-36.910758,100 174.8633369,-36.910756,100 174.8633739,-36.910738,100 174.8634089,-36.910721,100 174.8634449,-36.910714,100 174.8634899,-36.910715,100 174.8635179,-36.910719,100 174.8635599,-36.910731,100 174.8635719,-36.910734,100 174.8636139,-36.910744,100 174.8636149,-36.910744,100 174.8636579,-36.910754,100 174.8636739,-36.910757,100 174.8637179,-36.910755,100 174.8637349,-36.910753,100 174.8637789,-36.91075,100 174.8637999,-36.910748,100 174.8638389,-36.910744,100 174.8638829,-36.910736,100 174.8638859,-36.910735,100 174.8639299,-36.91073,100 174.8639439,-36.910729,100 174.8639869,-36.910719,100 174.8640159,-36.910714,100 174.8640599,-36.910714,100 174.8640919,-36.910715,100 174.8641359,-36.910715,100 174.8641539,-36.910716,100 174.8641979,-36.910721,100 174.8642059,-36.910723,100 174.8642489,-36.910733,100 174.8642609,-36.910737,100 174.8643019,-36.910749,100 174.8643029,-36.910749,100 174.8643329,-36.910761,100 174.8643379,-36.910781,100 174.8643489,-36.910786,100 174.8643779,-36.910781,100 174.8644159,-36.910763,100 174.8644249,-36.910758,100 174.8644659,-36.910743,100 174.8644749,-36.910739,100 174.8645099,-36.910717,100 174.8645189,-36.910711,100 174.8645579,-36.910694,100 174.8645659,-36.910691,100 174.8646029,-36.910674,100 174.8646469,-36.910673,100 174.8646629,-36.910674,100 174.8647059,-36.910664,100 174.8647219,-36.910662,100 174.8647549,-36.910661,100 174.8647859,-36.910653,100 174.8648249,-36.910635,100 174.8648569,-36.91061,100 174.8648619,-36.910606,100 174.8648909,-36.910579,100 174.8648939,-36.910573,100 174.8648999,-36.910544,100 174.8649179,-36.910511,100 174.8649269,-36.91049,100 174.8649269,-36.910455,100 174.8649269,-36.910451,100 174.8649389,-36.910417,100 174.8649389,-36.910415,100 174.8649109,-36.910395,100 174.8648749,-36.910375,100 174.8648699,-36.910373,100 174.8648309,-36.910356,100 174.8648239,-36.910353,100 174.8647889,-36.910341,100 174.8647579,-36.910331,100 174.8647219,-36.910318,100 174.8646859,-36.910295,100 174.8646749,-36.910287,100 174.8646359,-36.910267,100 174.8646239,-36.910262,100 174.8645829,-36.910246,100 174.8645819,-36.910245,100 174.8645429,-36.910225,100 174.8645359,-36.910221,100 174.8644989,-36.910198,100 174.8644839,-36.910189,100 174.8644449,-36.910169,100 174.8644299,-36.91016,100 174.8643949,-36.910136,100 174.8643919,-36.910134,100 174.8643479,-36.910122,100 174.8643469,-36.910122,100 174.8643069,-36.910114,100 174.8642609,-36.910108,100 174.8642409,-36.910105,100 174.8642009,-36.910093,100 174.8641559,-36.910086,100 174.8641209,-36.910062,100 174.8641139,-36.910057,100 174.8640779,-36.910034,100 174.8640769,-36.910033,100 174.8640579,-36.909999,100 174.8640569,-36.90999,100 174.8640589,-36.909953,100 174.8640599,-36.909949,100 174.8640729,-36.909914,100 174.8640779,-36.909897,100 174.8640769,-36.90986,100 174.8640769,-36.909838,100 174.8640869,-36.909802,100 174.8640939,-36.909784,100 174.8641039,-36.909748,100 174.8641119,-36.909725,100 174.8641309,-36.909692,100 174.8641479,-36.909668,100 174.8641729,-36.909637,100 174.8641939,-36.909616,100 174.8642239,-36.909592,100 174.8642329,-36.909556,100 174.8642339,-36.909547,100 174.8642349,-36.90951,100 174.8642329,-36.9095,100 174.8642139,-36.909467,100 174.8642069,-36.909455,100 174.8641919,-36.90942,100 174.8641889,-36.909413,100 174.8641759,-36.909377,100 174.8641729,-36.90937,100 174.8641619,-36.909334,100 174.8641609,-36.909327,100 174.8641649,-36.90929,100 174.8641659,-36.909286,100 174.8641879,-36.909253,100 174.8641979,-36.909241,100 174.8642219,-36.90921,100 174.8642449,-36.909178,100 174.8642479,-36.909173,100 174.8642689,-36.90914,100 174.8642799,-36.909115,100 174.8642839,-36.909078,100 174.8642839,-36.909068,100 174.8642909,-36.909031,100 174.8642909,-36.909027,100 174.8642969,-36.90899,100 174.8642979,-36.908968,100 174.8642959,-36.90893,100 174.8642929,-36.908921,100 174.8642759,-36.908891,100 174.8642599,-36.90886,100 174.8642589,-36.908859,100 174.8642369,-36.908833,100 174.8642169,-36.908819,100 174.8641879,-36.908824,100 174.8641639,-36.908835,100 174.8641219,-36.908841,100 174.8640879,-36.908842,100 174.8640589,-36.908858,100 174.8640179,-36.908874,100 174.8639869,-36.908891,100 174.8639679,-36.9089,100 174.8639529,-36.908913,100 174.8639239,-36.908928,100 174.8638929,-36.908945,100 174.8638559,-36.908966,100 174.8638539,-36.908967,100 174.8638259,-36.908987,100 174.8637869,-36.909006,100 174.8637789,-36.90901,100 174.8637439,-36.909034,100 174.8637089,-36.909057,100 174.8636929,-36.909067,100 174.8636579,-36.909091,100 174.8636569,-36.909091,100 174.8636199,-36.909113,100 174.8636179,-36.909114,100 174.8635799,-36.909133,100 174.8635379,-36.909148,100 174.8635229,-36.90915,100 174.8634829,-36.909151,100 174.8634379,-36.909143,100 174.8634249,-36.909139,100 174.8633929,-36.909127,100 174.8633579,-36.909104,100 174.8633329,-36.909079,100 174.8632979,-36.909055,100 174.8632859,-36.909048,100 174.8632509,-36.909024,100 174.8632379,-36.909014,100 174.8632059,-36.908988,100 174.8631789,-36.908963,100 174.8631519,-36.908934,100 174.8631379,-36.908917,100 174.8631139,-36.908886,100 174.8630929,-36.908861,100 174.8630629,-36.908833,100 174.8630459,-36.908815,100 174.8630219,-36.908784,100 174.8630089,-36.908767,100 174.8629799,-36.908739,100 174.8629649,-36.908724,100 174.8629369,-36.908695,100 174.8629229,-36.90868,100 174.8628979,-36.908649,100 174.8628929,-36.908642,100 174.8628709,-36.908613,100 174.8628469,-36.908582,100 174.8628319,-36.908564,100 174.8628069,-36.908534,100 174.8627959,-36.908519,100 174.8627749,-36.908487,100 174.8627649,-36.908465,100 174.8627549,-36.908429,100 174.8627519,-36.908401,100 174.8627479,-36.908364,100 174.8627459,-36.908345,100 174.8627409,-36.908309,100 174.8627379,-36.908275,100 174.8627399,-36.908238,100 174.8627419,-36.908218,100 174.8627399,-36.908181,100 174.8627369,-36.908151,100 174.8627319,-36.908114,100 174.8627259,-36.908078,100 174.8627259,-36.908077,100 174.8627239,-36.90804,100 174.8627219,-36.908004,100 174.8627219,-36.908001,100 174.8627199,-36.907964,100 174.8627189,-36.907938,100 174.8627149,-36.907901,100 174.8627149,-36.9079,100 174.8626909,-36.907869,100 174.8626829,-36.907834,100 174.8626809,-36.907814,100 174.8626679,-36.907779,100 174.8626629,-36.907762,100 174.8626579,-36.907726,100 174.8626559,-36.907721,100 174.8626499,-36.90771,100 174.8626309,-36.907737,100 174.8626099,-36.90777,100 174.8626089,-36.907771,100 174.8625829,-36.907801,100 174.8625799,-36.907804,100 174.8625569,-36.907836,100 174.8625559,-36.907836,100 174.8625339,-36.907868,100 174.8625269,-36.907879,100 174.8625109,-36.907913,100 174.8625089,-36.907918,100 174.8624999,-36.907954,100 174.8624949,-36.907971,100 174.8624789,-36.908006,100 174.8624659,-36.908033,100 174.8624529,-36.908068,100 174.8624479,-36.90808,100 174.8624349,-36.908115,100 174.8624329,-36.908123,100 174.8624199,-36.908158,100 174.8624179,-36.908162,100 174.8624089,-36.908182,100 174.8624029,-36.908197,100 174.8624029,-36.908199,100 174.8624049,-36.908235,100 174.8624049,-36.908236,100 174.8624059,-36.908272,100 174.8624059,-36.908278,100 174.8623989,-36.908314,100 174.8623939,-36.908339,100 174.8623979,-36.908375,100 174.8623989,-36.90839,100 174.8623979,-36.908426,100 174.8623979,-36.90844,100 174.8624009,-36.908473,100 174.8623989,-36.908508,100 174.8623919,-36.908535,100 174.8623699,-36.908559,100 174.8623449,-36.908564,100 174.8623139,-36.908544,100 174.8623009,-36.90851,100 174.8623009,-36.908504,100 174.8623049,-36.908468,100 174.8623069,-36.90846,100 174.8623179,-36.908425,100 174.8623219,-36.908411,100 174.8623309,-36.908375,100 174.8623319,-36.908361,100 174.8623189,-36.908327,100 174.8623109,-36.908314,100 174.8622939,-36.908281,100 174.8622739,-36.908249,100 174.8622739,-36.908248,100 174.8622649,-36.908212,100 174.8622649,-36.908208,100 174.8622709,-36.908172,100 174.8622739,-36.908165,100 174.8622919,-36.908136,100 174.8623109,-36.908113,100 174.8623419,-36.908086,100 174.8623469,-36.908081,100 174.8623679,-36.908058,100 174.8623899,-36.908029,100 174.8624169,-36.908,100 174.8624179,-36.907999,100 174.8624339,-36.907969,100 174.8624459,-36.907936,100 174.8624529,-36.9079,100 174.8624539,-36.907873,100 174.8624519,-36.907837,100 174.8624499,-36.907822,100 174.8624459,-36.907786,100 174.8624419,-36.907772,100 174.8624379,-36.907764,100 174.8624239,-36.907739,100 174.8624229,-36.907738,100 174.8624039,-36.907705,100 174.8623939,-36.907684,100 174.8623839,-36.907649,100 174.8623829,-36.907644,100 174.8623789,-36.907608,100 174.8623799,-36.907595,100 174.8623959,-36.907561,100 174.8623959,-36.90756,100 174.8624099,-36.907526,100 174.8624219,-36.907501,100 174.8624439,-36.90747,100 174.8624479,-36.907466,100 174.8624759,-36.907438,100 174.8624849,-36.907431,100 174.8625159,-36.907405,100 174.8625299,-36.907392,100 174.8625559,-36.907363,100 174.8625909,-36.90734,100 174.8625919,-36.90734,100 174.8626239,-36.907316,100 174.8626249,-36.907315,100 174.8626549,-36.907298,100 174.8626669,-36.907294,100 174.8626949,-36.907283,100 174.8626989,-36.907281,100 174.8627369,-36.907263,100 174.8627479,-36.907258,100 174.8627889,-36.907244,100 174.8627959,-36.907243,100 174.8628399,-36.907236,100 174.8628609,-36.907234,100 174.8629049,-36.907231,100 174.8629079,-36.907231,100 174.8629529,-36.907231,100 174.8629689,-36.90723,100 174.8630119,-36.907221,100 174.8630189,-36.907219,100 174.8630589,-36.907205,100 174.8630679,-36.907201,100 174.8631059,-36.907182,100 174.8631109,-36.907179,100 174.8631389,-36.907151,100 174.8631439,-36.907146,100 174.8631729,-36.907119,100 174.8631779,-36.907114,100 174.8631999,-36.907095,100 174.8632139,-36.907084,100 174.8632369,-36.907089,100 174.8632589,-36.907111,100 174.8632919,-36.907134,100 174.8633089,-36.907145,100 174.8633439,-36.907167,100 174.8633559,-36.907173,100 174.8633989,-36.907184,100 174.8634119,-36.907186,100 174.8634539,-36.907196,100 174.8634569,-36.907197,100 174.8634989,-36.90721,100 174.8635219,-36.907215,100 174.8635659,-36.907221,100 174.8635699,-36.907221,100 174.8636109,-36.907234,100 174.8636479,-36.907236,100 174.8636879,-36.907252,100 174.8637039,-36.90726,100 174.8637439,-36.907274,100 174.8637869,-36.907281,100 174.8637939,-36.907281,100 174.8638389,-36.907278,100 174.8638459,-36.907276,100 174.8638599,-36.907273,100 174.8638769,-36.907266,100 174.8638939,-36.907259,100 174.8639119,-36.907252,100 174.8639309,-36.907245,100 174.8639489,-36.907238,100 174.8639659,-36.907231,100 174.8639839,-36.907222,100 174.8639879,-36.90722,100 174.8640049,-36.907211,100 174.8640209,-36.907202,100 174.8640369,-36.907191,100 174.8640519,-36.907181,100 174.8640539,-36.90718,100 174.8640619,-36.907173,100 174.8640779,-36.907164,100 174.8640949,-36.907155,100 174.8641129,-36.907148,100 174.8641319,-36.907141,100 174.8641499,-36.907134,100 174.8641629,-36.90713,100 174.8641659,-36.907123,100 174.8641749,-36.907119,100 174.8641879,-36.907116,100 174.8642059,-36.907109,100 174.8642239,-36.907101,100 174.8642399,-36.907091,100 174.8642559,-36.90708,100 174.8642699,-36.907069,100 174.8642759,-36.907063,100 174.8642849,-36.907055,100 174.8642999,-36.907045,100 174.8643169,-36.907036,100 174.8643229,-36.907033,100 174.8643309,-36.907029,100 174.8643499,-36.907029,100 174.8643699,-36.907029,100 174.8643899,-36.907029,100 174.8644099,-36.907027,100 174.8644299,-36.907025,100 174.8644499,-36.907023,100 174.8644699,-36.907021,100 174.8644899,-36.907018,100 174.8645089,-36.907015,100 174.8645289,-36.907012,100 174.8645489,-36.907009,100 174.8645689,-36.907006,100 174.8645769,-36.907005,100 174.8645969,-36.907003,100 174.8646169,-36.907001,100 174.8646369,-36.906999,100 174.8646569,-36.906997,100 174.8646759,-36.906996,100 174.8646969,-36.906994,100 174.8647169,-36.906994,100 174.8647369,-36.906993,100 174.8647569,-36.906994,100 174.8647669,-36.906995,100 174.8647869,-36.906997,100 174.8648069,-36.906999,100 174.8648239,-36.907002,100 174.8648689,-36.907008,100 174.8648789,-36.907009,100 174.8648839,-36.90701,100 174.8649029,-36.907017,100 174.8649289,-36.90703,100 174.8649649,-36.907045,100 174.8649929,-36.90706,100 174.8650179,-36.907067,100 174.8650609,-36.907078,100 174.8650669,-36.907079,100 174.8651089,-36.907092,100 174.8651509,-36.907107,100 174.8651599,-36.907112,100 174.8651809,-36.907129,100 174.8652049,-36.907136,100 174.8652329,-36.907148,100 174.8652649,-36.907166,100 174.8653039,-36.907185,100 174.8653069,-36.907186,100 174.8653449,-36.907206,100 174.8653529,-36.907209,100 174.8653919,-36.907219,100 174.8654189,-36.907233,100 174.8654229,-36.907235,100 174.8654619,-36.907246,100 174.8654809,-36.907262,100 174.8655129,-36.907272,100 174.8655479,-36.907282,100 174.8655909,-36.907293,100 174.8655909,-36.907294,100 174.8656259,-36.907303,100 174.8656709,-36.907307,100 174.8656819,-36.907307,100 174.8657079,-36.907307,100 174.8657529,-36.907311,100 174.8657599,-36.907311,100 174.8658049,-36.907312,100 174.8658489,-36.907307,100 174.8658789,-36.907322,100 174.8659209,-36.907334,100 174.8659279,-36.907335,100 174.8659709,-36.907347,100 174.8659939,-36.907356,100 174.8660229,-36.907373,100 174.8660579,-36.90739,100 174.8660919,-36.907413,100 174.8661089,-36.907425,100 174.8661399,-36.907443,100 174.8661589,-36.907454,100 174.8661609,-36.907454,100 174.8661859,-36.907445,100 174.8662279,-36.907431,100 174.8662319,-36.90743,100 174.8662719,-36.907418,100 174.8663169,-36.907411,100 174.8663299,-36.907413,100 174.8663659,-36.907428,100 174.8663989,-36.907452,100 174.8664029,-36.907454,100 174.8664279,-36.90747,100 174.8664339,-36.907488,100 174.8664149,-36.907502,100 174.8663979,-36.907521,100 174.8663959,-36.907537,100 174.8663979,-36.907552,100 174.8664229,-36.907569,100 174.8664219,-36.907597,100 174.8664639,-36.907621,100 174.8664669,-36.907623,100 174.8665049,-36.907646,100 174.8665529,-36.907671,100 174.8666049,-36.907698,100 174.8666709,-36.907724,100 174.8667349,-36.907748,100 174.8667639,-36.907759,100 174.8667999,-36.907785,100 174.8668279,-36.9078,100 174.8668569,-36.907812,100 174.8668869,-36.907829,100 174.8669289,-36.907846,100 174.8669779,-36.907878,100 174.8670269,-36.90791,100 174.8671089,-36.907947,100 174.8671499,-36.907972,100 174.8672289,-36.908025,100 174.8672859,-36.908055,100 174.8673449,-36.908085,100 174.8673819,-36.908108,100 174.8674429,-36.908142,100 174.8674839,-36.908159,100 174.8675139,-36.908174,100 174.8675439,-36.908182,100 174.8675749,-36.908183,100 174.8676179,-36.90819,100 174.8676469,-36.9082,100 174.8676799,-36.908207,100 174.8676939,-36.90821,100 174.8677249,-36.908224,100 174.8677509,-36.908234,100 174.8677649,-36.908233,100 174.8677959,-36.908249,100 174.8678159,-36.908256,100 174.8678579,-36.90827,100 174.8678949,-36.908288,100 174.8679209,-36.908304,100 174.8679679,-36.908325,100 174.8680439,-36.908363,100 174.8680749,-36.908374,100 174.8681199,-36.908396,100 174.8681589,-36.908409,100 174.8681889,-36.908421,100 174.8682499,-36.90843,100 174.8683109,-36.908445,100 174.8683689,-36.908461,100 174.8684389,-36.908479,100 174.8684909,-36.908501,100 174.8685269,-36.908507,100 174.8685589,-36.908521,100 174.8686019,-36.908523,100 174.8686599,-36.908536,100 174.8687299,-36.908555,100 174.8688029,-36.90857,100 174.8688809,-36.908582,100 174.8689219,-36.908585,100 174.8689549,-36.908589,100 174.8690109,-36.908605,100 174.8690639,-36.908606,100 174.8691199,-36.908596,100 174.8691659,-36.908575,100 174.8692079,-36.908568,100 174.8692629,-36.908555,100 174.8692959,-36.908548,100 174.8693449,-36.908535,100 174.8693929,-36.908525,100 174.8694219,-36.908524,100 174.8694709,-36.908521,100 174.8695149,-36.908521,100 174.8695299,-36.908527,100 174.8695429,-36.908536,100 174.8695419,-36.908552,100 174.8695229,-36.908566,100 174.8694879,-36.908578,100 174.8694379,-36.908605,100 174.8693889,-36.908624,100 174.8693259,-36.908641,100 174.8692589,-36.908661,100 174.8691809,-36.908684,100 174.8691419,-36.908699,100 174.8690919,-36.908715,100 174.8690219,-36.908734,100 174.8689659,-36.908748,100 174.8689309,-36.908756,100 174.8688949,-36.908772,100 174.8688529,-36.908784,100 174.8688189,-36.908792,100 174.8688009,-36.908803,100 174.8687949,-36.908829,100 174.8687949,-36.908861,100 174.8687899,-36.908893,100 174.8687839,-36.908927,100 174.8687739,-36.908956,100 174.8687599,-36.908984,100 174.8687339,-36.909006,100 174.8687159,-36.909018,100 174.8686829,-36.909029,100 174.8686539,-36.909041,100 174.8686369,-36.909054,100 174.8686199,-36.909074,100 174.8686049,-36.909096,100 174.8685969,-36.909115,100 174.8686139,-36.909143,100 174.8686679,-36.90916,100 174.8687009,-36.909171,100 174.8687409,-36.909184,100 174.8687709,-36.909201,100 174.8687899,-36.909226,100 174.8688129,-36.909251,100 174.8688279,-36.909275,100 174.8688449,-36.909292,100 174.8688729,-36.90932,100 174.8688899,-36.909342,100 174.8688979,-36.909367,100 174.8688999,-36.90939,100 174.8689069,-36.909412,100 174.8689089,-36.909435,100 174.8689129,-36.909465,100 174.8689109,-36.909497,100 174.8689159,-36.909524,100 174.8689049,-36.909567,100 174.8688909,-36.909603,100 174.8688649,-36.909658,100 174.8688489,-36.9097,100 174.8688269,-36.909743,100 174.8688059,-36.909775,100 174.8687779,-36.909816,100 174.8687629,-36.909847,100 174.8687479,-36.909867,100 174.8687309,-36.909884,100 174.8686989,-36.909905,100 174.8686699,-36.909921,100 174.8686279,-36.909944,100 174.8685929,-36.90996,100 174.8685409,-36.910003,100 174.8684879,-36.910023,100 174.8684289,-36.910064,100 174.8683809,-36.910094,100 174.8683539,-36.91012,100 174.8683349,-36.910144,100 174.8683149,-36.910174,100 174.8682859,-36.910222,100 174.8683299,-36.910228,100 174.8683729,-36.910208,100 174.8684249,-36.910184,100 174.8684669,-36.910158,100 174.8684899,-36.910144,100 174.8685109,-36.910125,100 174.8685439,-36.91012,100 174.8685459,-36.91012,100 174.8685619,-36.910116,100 174.8685939,-36.910101,100 174.8686389,-36.910088,100 174.8686699,-36.910072,100 174.8686829,-36.910058,100 174.8687139,-36.910049,100 174.8687389,-36.910044,100 174.8687809,-36.910019,100 174.8687849,-36.910019,100 174.8688259,-36.910014,100 174.8688719,-36.910015,100 174.8689139,-36.910014,100 174.8689529,-36.910012,100 174.8690049,-36.91001,100 174.8690439,-36.910012,100 174.8690849,-36.910006,100 174.8691379,-36.910012,100 174.8691669,-36.910015,100 174.8692029,-36.910023,100 174.8692339,-36.910029,100 174.8692699,-36.910036,100 174.8693099,-36.910042,100 174.8693379,-36.910055,100 174.8693639,-36.910091,100 174.8693839,-36.910115,100 174.8694079,-36.91014,100 174.8694329,-36.910178,100 174.8694509,-36.910221,100 174.8694759,-36.910253,100 174.8694899,-36.910273,100 174.8695189,-36.910304,100 174.8695429,-36.910337,100 174.8695649,-36.910365,100 174.8695969,-36.910391,100 174.8696149,-36.910426,100 174.8696549,-36.910462,100 174.8696909,-36.91053,100 174.8697299,-36.910584,100 174.8697319,-36.910593,100 174.8697439,-36.910647,100 174.8697809,-36.910697,100 174.8698289,-36.910706,100 174.8698759,-36.91067,100 174.8699029,-36.910614,100 174.8699259,-36.910549,100 174.8699449,-36.910514,100 174.8699529,-36.910499,100 174.8699829,-36.910471,100 174.8700189,-36.910438,100 174.8700559,-36.910422,100 174.8700979,-36.910407,100 174.8701419,-36.910402,100 174.8701849,-36.910398,100 174.8702299,-36.910398,100 174.8702799,-36.9104,100 174.8703149,-36.910405,100 174.8703479,-36.910402,100 174.8704099,-36.910406,100 174.8704449,-36.910406,100 174.8704839,-36.910404,100 174.8705209,-36.910398,100 174.8705619,-36.910394,100 174.8705939,-36.910387,100 174.8706129,-36.910379,100 174.8706209,-36.910357,100 174.8706099,-36.910342,100 174.8705499,-36.910325,100 174.8704669,-36.910302,100 174.8704249,-36.910289,100 174.8703549,-36.910272,100 174.8702899,-36.910262,100 174.8702439,-36.910246,100 174.8701889,-36.910225,100 174.8701289,-36.910205,100 174.8700859,-36.91018,100 174.8700409,-36.910143,100 174.8700079,-36.910103,100 174.8699689,-36.910059,100 174.8699379,-36.910017,100 174.8699229,-36.909985,100 174.8698969,-36.909935,100 174.8698809,-36.909893,100 174.8698739,-36.909833,100 174.8698779,-36.909793,100 174.8698969,-36.909757,100 174.8699259,-36.90971,100 174.8699479,-36.909671,100 174.8699819,-36.909627,100 174.8700189,-36.909595,100 174.8700479,-36.909564,100 174.8700619,-36.909532,100 174.8700539,-36.909501,100 174.8700279,-36.909466,100 174.8699939,-36.909426,100 174.8699779,-36.909394,100 174.8699749,-36.909355,100 174.8699839,-36.909325,100 174.8699959,-36.90929,100 174.8700069,-36.909253,100 174.8700089,-36.909218,100 174.8700019,-36.909187,100 174.8699869,-36.909169,100 174.8699469,-36.909157,100 174.8699039,-36.909149,100 174.8698509,-36.909138,100 174.8698009,-36.909124,100 174.8697439,-36.909101,100 174.8696939,-36.909075,100 174.8696599,-36.909052,100 174.8696379,-36.909028,100 174.8696209,-36.908977,100 174.8696149,-36.908936,100 174.8696099,-36.908903,100 174.8696059,-36.90887,100 174.8696039,-36.908819,100 174.8696129,-36.908762,100 174.8696179,-36.908745,100 174.8696189,-36.90874,100 174.8696349,-36.90872,100 174.8696649,-36.908674,100 174.8696919,-36.908638,100 174.8697079,-36.908599,100 174.8697259,-36.908547,100 174.8697359,-36.908493,100 174.8697309,-36.908451,100 174.8697199,-36.908417,100 174.8696959,-36.908383,100 174.8696779,-36.908343,100 174.8696729,-36.908299,100 174.8696619,-36.90825,100 174.8696549,-36.908205,100 174.8696509,-36.908159,100 174.8696489,-36.908127,100 174.8696479,-36.908093,100 174.8696399,-36.90807,100 174.8696219,-36.908041,100 174.8695959,-36.908009,100 174.8695869,-36.907991,100 174.8695919,-36.90798,100 174.8696109,-36.907967,100 174.8696279,-36.907963,100 174.8696589,-36.907962,100 174.8696959,-36.907958,100 174.8697299,-36.907953,100 174.8698209,-36.907939,100 174.8698709,-36.907927,100 174.8699449,-36.907906,100 174.8699969,-36.907896,100 174.8700369,-36.907883,100 174.8700759,-36.90786,100 174.8701189,-36.907836,100 174.8701629,-36.907806,100 174.8702219,-36.907772,100 174.8702679,-36.907756,100 174.8703359,-36.907733,100 174.8703819,-36.907718,100 174.8704469,-36.907697,100 174.8704899,-36.907682,100 174.8705379,-36.90766,100 174.8705819,-36.90764,100 174.8706199,-36.907625,100 174.8706679,-36.907604,100 174.8707039,-36.907587,100 174.8707379,-36.907575,100 174.8707839,-36.907561,100 174.8708339,-36.907533,100 174.8708649,-36.907509,100 174.8709009,-36.90748,100 174.8709199,-36.907455,100 174.8709469,-36.907422,100 174.8709699,-36.907393,100 174.8709919,-36.907356,100 174.8710009,-36.907332,100 174.8710239,-36.907304,100 174.8710479,-36.907274,100 174.8710679,-36.907244,100 174.8710989,-36.907198,100 174.8711289,-36.90716,100 174.8711569,-36.90712,100 174.8711789,-36.90709,100 174.8712009,-36.907068,100 174.8712289,-36.907033,100 174.8712589,-36.906989,100 174.8712849,-36.906949,100 174.8713159,-36.906907,100 174.8713349,-36.906874,100 174.8713529,-36.906848,100 174.8713859,-36.906809,100 174.8713919,-36.906804,100 174.8714229,-36.906775,100 174.8714519,-36.906754,100 174.8714919,-36.906726,100 174.8715249,-36.906705,100 174.8715619,-36.906683,100 174.8716029,-36.906663,100 174.8716489,-36.906638,100 174.8717029,-36.906614,100 174.8717379,-36.906594,100 174.8717549,-36.90658,100 174.8717719,-36.906573,100 174.8718019,-36.906559,100 174.8718159,-36.906551,100 174.8718659,-36.906529,100 174.8719089,-36.906508,100 174.8719369,-36.906494,100 174.8719739,-36.906467,100 174.8720099,-36.906447,100 174.8720399,-36.906427,100 174.8720749,-36.906401,100 174.8721379,-36.906342,100 174.8721779,-36.906304,100 174.8722179,-36.906282,100 174.8722519,-36.90625,100 174.8722839,-36.906218,100 174.8723169,-36.906177,100 174.8723529,-36.906148,100 174.8723899,-36.90612,100 174.8724279,-36.906087,100 174.8724669,-36.906062,100 174.8725019,-36.906039,100 174.8725379,-36.906015,100 174.8725799,-36.905991,100 174.8726199,-36.90597,100 174.8726579,-36.905948,100 174.8727039,-36.905926,100 174.8727529,-36.905884,100 174.8728219,-36.905853,100 174.8729409,-36.905813,100 174.8730729,-36.90577,100 174.8732229,-36.905726,100 174.8734109,-36.905672,100 174.8736239,-36.905611,100 174.8738209,-36.905537,100 174.8739399,-36.905497,100 174.8741419,-36.905452,100 174.8743029,-36.905428,100 174.8744339,-36.905417,100 174.8745559,-36.905415,100 174.8746309,-36.905416,100 174.8746989,-36.905432,100 174.8747959,-36.905435,100 174.8748919,-36.905441,100 174.8750069,-36.905442,100 174.8750609,-36.905437,100 174.8751789,-36.905451,100 174.8753209,-36.905455,100 174.8754439,-36.905455,100 174.8756299,-36.905443,100 174.8757909,-36.905392,100 174.8759309,-36.905329,100 174.8759749,-36.905306,100 174.8759949,-36.905264,100 174.8760069,-36.905227,100 174.8760149,-36.905199,100 174.8760099,-36.90517,100 174.8760179,-36.905139,100 174.8760249,-36.905115,100 174.8760209,-36.90509,100 174.8760229,-36.905083,100 174.8760519,-36.905089,100 174.8762489,-36.905128,100 174.8766939,-36.905216,100 174.8772389,-36.905324,100 174.8775639,-36.905388,100 174.8778299,-36.905441,100 174.8781939,-36.905513,100 174.8784629,-36.905567,100 174.8788289,-36.905639,100 174.8791879,-36.90571,100 174.8795429,-36.90578,100 174.8799079,-36.905853,100 174.8802529,-36.905921,100 174.8805929,-36.905988,100 174.8807309,-36.906016,100 174.8806609,-36.906257,100 174.8805909,-36.906495,100 174.8810699,-36.906571,100 174.8811139,-36.906578,100 174.8814669,-36.906634,100 174.8818029,-36.906687,100 174.8817409,-36.907002,100 174.8821229,-36.907059,100 174.8821029,-36.907149,100 174.8824469,-36.907217,100 174.8824529,-36.907192,100 174.8825529,-36.906805,100 174.8826899,-36.906828,100 174.8828729,-36.90686,100 174.8827969,-36.907188,100 174.8827769,-36.907273,100 174.8827959,-36.907277,100 174.8829119,-36.9073,100 174.8832499,-36.907367,100 174.8835599,-36.907429,100 174.8835779,-36.907433,100 174.8835609,-36.90749,100 174.8837799,-36.907533,100 174.8837539,-36.907608,100 174.8842729,-36.907578,100 174.8842819,-36.907659,100 174.8844709,-36.907577,100 174.8846849,-36.907896,100 174.8847669,-36.907861,100 174.8848909,-36.90773,100 174.8849119,-36.907657,100 174.8851559,-36.907628,100 174.8852559,-36.907689,100 174.8850189,-36.908099,100 174.8851719,-36.908216,100 174.8852679,-36.908194,100 174.8855219,-36.908135,100 174.8855609,-36.908277,100 174.8856169,-36.908483,100 174.8856339,-36.908546,100 174.8856279,-36.908567,100 174.8855409,-36.908882,100 174.8854639,-36.908868,100 174.8852759,-36.908835,100 174.8852639,-36.908877,100 174.8852229,-36.909028,100 174.8847819,-36.908949,100 174.8847519,-36.909056,100 174.8848029,-36.909122,100 174.8847569,-36.909288,100 174.8849939,-36.90933,100 174.8849309,-36.909555,100 174.8850789,-36.909582,100 174.8850379,-36.909729,100 174.8849969,-36.909875,100 174.8849559,-36.910022,100 174.8849149,-36.910169,100 174.8848739,-36.910316,100 174.8848329,-36.910463,100 174.8847919,-36.91061,100 174.8847509,-36.910756,100 174.8847099,-36.910903,100 174.8846689,-36.91105,100 174.8846619,-36.911077,100 174.8846249,-36.91121,100 174.8846209,-36.911222,100 174.8846589,-36.91123,100 174.8846229,-36.91136,100 174.8846089,-36.911407,100 174.8845859,-36.911491,100 174.8847019,-36.911512,100 174.8846739,-36.911609,100 174.8846559,-36.911673,100 174.8845459,-36.911653,100 174.8844739,-36.91164,100 174.8844309,-36.911793,100 174.8843879,-36.911946,100 174.8843439,-36.9121,100 174.8843009,-36.912253,100 174.8844039,-36.912272,100 174.8843689,-36.912396,100 174.8843659,-36.91241,100 174.8843519,-36.912457,100 174.8842669,-36.912441,100 174.8842339,-36.912555,100 174.8842249,-36.912588,100 174.8841959,-36.912693,100 174.8841839,-36.912736,100 174.8841419,-36.912883,100 174.8837019,-36.912803,100 174.8836749,-36.912899,100 174.8836729,-36.912906,100 174.8836729,-36.912912,100 174.8836739,-36.912919,100 174.8836749,-36.912926,100 174.8836779,-36.912932,100 174.8836819,-36.912938,100 174.8836859,-36.912943,100 174.8836909,-36.912949,100 174.8836969,-36.912953,100 174.8837039,-36.912957,100 174.8837109,-36.91296,100 174.8837179,-36.912963,100 174.8837259,-36.912965,100 174.8836859,-36.91311,100 174.8836769,-36.913109,100 174.8836689,-36.913108,100 174.8836609,-36.913109,100 174.8836529,-36.91311,100 174.8836449,-36.913112,100 174.8836379,-36.913115,100 174.8836309,-36.913119,100 174.8836239,-36.913123,100 174.8836179,-36.913128,100 174.8836129,-36.913133,100 174.8836089,-36.913139,100 174.8836059,-36.913145,100 174.8836039,-36.913151,100 174.8835299,-36.913414,100 174.8837369,-36.913452,100 174.8839419,-36.913489,100 174.8839339,-36.913622,100 174.8839269,-36.913646,100 174.8838869,-36.913789,100 174.8838859,-36.913793,100 174.8838439,-36.91394,100 174.8838429,-36.913959,100 174.8838279,-36.914134,100 174.8838199,-36.914234,100 174.8838149,-36.914287,100 174.8838069,-36.914386,100 174.8832649,-36.914356,100 174.8831769,-36.914666,100 174.88318760849714,-36.914853398700046,100 174.8763145,-36.9136384,100 174.8732246,-36.9132609,100 174.870993,-36.9151138,100 174.8680869,-36.916228,100 174.86794282174444,-36.9161778174037,100 174.8679369,-36.916164,100 174.8679249,-36.916143,100 174.8679209,-36.916116,100 174.8679139,-36.916091,100 174.8679069,-36.916062,100 174.8678999,-36.91604,100 174.8678919,-36.916012,100 174.8678719,-36.915989,100 174.8678419,-36.915983,100 174.8678089,-36.915978,100 174.8677909,-36.915975,100 174.8677789,-36.915973,100 174.8677299,-36.915972,100 174.8676919,-36.915975,100 174.8676429,-36.915978,100 174.8675929,-36.915979,100 174.8675449,-36.915973,100 174.8674979,-36.915969,100 174.8674549,-36.915965,100 174.8674079,-36.915963,100 174.8673659,-36.915964,100 174.86732366233338,-36.915962163579714,100 174.8672629,-36.915941,100</coordinates>
        </LinearRing>
      </outerBoundaryIs>
    </Polygon>
  </Placemark>
</Document>
</kml>